{
  "type": "FeatureCollection",
  "bbox": [
    106.331917,
    21.062427,
    106.415782,
    21.134246
  ],
  "features": [
    {
      "type": "Feature",
      "id": "10549",
      "bbox": [
        106.331917,
        21.062427,
        106.415782,
        21.134246
      ],
      "geometry": {
        "type": "MultiPolygon",
        "coordinates": [
          [
            [
              [
                106.406811,
                21.111438
              ],
              [
                106.406814,
                21.111436
              ],
              [
                106.406756,
                21.109816
              ],
              [
                106.406712,
                21.109221
              ],
              [
                106.406697,
                21.108703
              ],
              [
                106.406655,
                21.108651
              ],
              [
                106.406579,
                21.108604
              ],
              [
                106.406537,
                21.108542
              ],
              [
                106.406489,
                21.108327
              ],
              [
                106.406438,
                21.108266
              ],
              [
                106.406279,
                21.108214
              ],
              [
                106.405565,
                21.108082
              ],
              [
                106.405096,
                21.108024
              ],
              [
                106.405014,
                21.107991
              ],
              [
                106.404963,
                21.107958
              ],
              [
                106.40557,
                21.103321
              ],
              [
                106.409965,
                21.104814
              ],
              [
                106.414914,
                21.10028
              ],
              [
                106.415391,
                21.096834
              ],
              [
                106.415461,
                21.093362
              ],
              [
                106.412863,
                21.090057
              ],
              [
                106.410391,
                21.09017
              ],
              [
                106.412988,
                21.088811
              ],
              [
                106.413258,
                21.088625
              ],
              [
                106.413659,
                21.088131
              ],
              [
                106.413821,
                21.087957
              ],
              [
                106.414087,
                21.087703
              ],
              [
                106.414309,
                21.087518
              ],
              [
                106.41445,
                21.087427
              ],
              [
                106.414608,
                21.087281
              ],
              [
                106.414736,
                21.087128
              ],
              [
                106.415782,
                21.085618
              ],
              [
                106.415777,
                21.08561
              ],
              [
                106.415492,
                21.085192
              ],
              [
                106.415022,
                21.084503
              ],
              [
                106.414989,
                21.084461
              ],
              [
                106.414666,
                21.084065
              ],
              [
                106.414375,
                21.083756
              ],
              [
                106.413608,
                21.082941
              ],
              [
                106.412549,
                21.081787
              ],
              [
                106.412436,
                21.081679
              ],
              [
                106.412334,
                21.081569
              ],
              [
                106.411409,
                21.080566
              ],
              [
                106.410747,
                21.079847
              ],
              [
                106.410301,
                21.079366
              ],
              [
                106.409783,
                21.078805
              ],
              [
                106.409673,
                21.078703
              ],
              [
                106.409573,
                21.078637
              ],
              [
                106.409549,
                21.078622
              ],
              [
                106.409286,
                21.078469
              ],
              [
                106.408958,
                21.078289
              ],
              [
                106.408634,
                21.078128
              ],
              [
                106.408248,
                21.077906
              ],
              [
                106.407925,
                21.077737
              ],
              [
                106.407615,
                21.077561
              ],
              [
                106.407222,
                21.077355
              ],
              [
                106.406847,
                21.077152
              ],
              [
                106.40684,
                21.077148
              ],
              [
                106.40632,
                21.076867
              ],
              [
                106.406218,
                21.076812
              ],
              [
                106.405994,
                21.07669
              ],
              [
                106.405784,
                21.076566
              ],
              [
                106.405761,
                21.076553
              ],
              [
                106.405704,
                21.07652
              ],
              [
                106.40501,
                21.076142
              ],
              [
                106.404456,
                21.075835
              ],
              [
                106.404181,
                21.075682
              ],
              [
                106.404016,
                21.075591
              ],
              [
                106.403591,
                21.075367
              ],
              [
                106.403149,
                21.07512
              ],
              [
                106.40272,
                21.074889
              ],
              [
                106.402376,
                21.074704
              ],
              [
                106.400961,
                21.073921
              ],
              [
                106.400348,
                21.073587
              ],
              [
                106.400197,
                21.073395
              ],
              [
                106.400183,
                21.073372
              ],
              [
                106.400154,
                21.073323
              ],
              [
                106.400136,
                21.073273
              ],
              [
                106.400106,
                21.073102
              ],
              [
                106.400074,
                21.072867
              ],
              [
                106.400049,
                21.072806
              ],
              [
                106.400024,
                21.07278
              ],
              [
                106.399984,
                21.072752
              ],
              [
                106.399949,
                21.072745
              ],
              [
                106.399923,
                21.072743
              ],
              [
                106.399918,
                21.072666
              ],
              [
                106.39986,
                21.072669
              ],
              [
                106.399779,
                21.072664
              ],
              [
                106.399751,
                21.072656
              ],
              [
                106.399726,
                21.072639
              ],
              [
                106.39971,
                21.072619
              ],
              [
                106.399652,
                21.072495
              ],
              [
                106.39965,
                21.072488
              ],
              [
                106.399637,
                21.072382
              ],
              [
                106.399643,
                21.072306
              ],
              [
                106.399654,
                21.072196
              ],
              [
                106.399537,
                21.071902
              ],
              [
                106.399355,
                21.071555
              ],
              [
                106.39932,
                21.071467
              ],
              [
                106.397941,
                21.068
              ],
              [
                106.397901,
                21.067898
              ],
              [
                106.397703,
                21.067983
              ],
              [
                106.39747,
                21.067203
              ],
              [
                106.397299,
                21.066875
              ],
              [
                106.397091,
                21.066701
              ],
              [
                106.396904,
                21.066358
              ],
              [
                106.396614,
                21.065755
              ],
              [
                106.396533,
                21.065494
              ],
              [
                106.396469,
                21.065147
              ],
              [
                106.396461,
                21.06425
              ],
              [
                106.395626,
                21.064168
              ],
              [
                106.395624,
                21.06416
              ],
              [
                106.395412,
                21.06408
              ],
              [
                106.394859,
                21.063769
              ],
              [
                106.394652,
                21.06407
              ],
              [
                106.394431,
                21.06435
              ],
              [
                106.39427,
                21.064523
              ],
              [
                106.39416,
                21.064607
              ],
              [
                106.394004,
                21.064639
              ],
              [
                106.393872,
                21.064638
              ],
              [
                106.393689,
                21.064618
              ],
              [
                106.39305,
                21.064454
              ],
              [
                106.392879,
                21.064426
              ],
              [
                106.392631,
                21.064417
              ],
              [
                106.392528,
                21.064437
              ],
              [
                106.39236,
                21.064492
              ],
              [
                106.392202,
                21.064569
              ],
              [
                106.392007,
                21.06477
              ],
              [
                106.391961,
                21.064816
              ],
              [
                106.391893,
                21.064944
              ],
              [
                106.391818,
                21.065182
              ],
              [
                106.391696,
                21.065648
              ],
              [
                106.391575,
                21.065983
              ],
              [
                106.391412,
                21.066349
              ],
              [
                106.39125,
                21.066623
              ],
              [
                106.391226,
                21.06666
              ],
              [
                106.390803,
                21.0672
              ],
              [
                106.390457,
                21.067637
              ],
              [
                106.390363,
                21.067724
              ],
              [
                106.390322,
                21.06775
              ],
              [
                106.390248,
                21.067782
              ],
              [
                106.390135,
                21.067804
              ],
              [
                106.3899,
                21.067818
              ],
              [
                106.389703,
                21.06781
              ],
              [
                106.389459,
                21.067794
              ],
              [
                106.389428,
                21.067704
              ],
              [
                106.389235,
                21.067151
              ],
              [
                106.389111,
                21.066872
              ],
              [
                106.389056,
                21.066761
              ],
              [
                106.388989,
                21.066625
              ],
              [
                106.388926,
                21.066499
              ],
              [
                106.38887,
                21.06641
              ],
              [
                106.388764,
                21.066462
              ],
              [
                106.387728,
                21.066975
              ],
              [
                106.386716,
                21.067436
              ],
              [
                106.386586,
                21.067476
              ],
              [
                106.386518,
                21.067467
              ],
              [
                106.386506,
                21.06746
              ],
              [
                106.386439,
                21.067423
              ],
              [
                106.386291,
                21.067349
              ],
              [
                106.38615,
                21.067306
              ],
              [
                106.385975,
                21.067264
              ],
              [
                106.38581,
                21.067226
              ],
              [
                106.385704,
                21.067211
              ],
              [
                106.385609,
                21.067206
              ],
              [
                106.385575,
                21.067204
              ],
              [
                106.385461,
                21.067163
              ],
              [
                106.38536,
                21.067133
              ],
              [
                106.385252,
                21.0671
              ],
              [
                106.385135,
                21.067062
              ],
              [
                106.384961,
                21.067001
              ],
              [
                106.38485,
                21.06696
              ],
              [
                106.384733,
                21.066919
              ],
              [
                106.384617,
                21.066886
              ],
              [
                106.384503,
                21.066848
              ],
              [
                106.384377,
                21.066801
              ],
              [
                106.384142,
                21.066721
              ],
              [
                106.383989,
                21.066661
              ],
              [
                106.383848,
                21.06662
              ],
              [
                106.383736,
                21.066584
              ],
              [
                106.383603,
                21.066532
              ],
              [
                106.383477,
                21.066485
              ],
              [
                106.383345,
                21.066435
              ],
              [
                106.383198,
                21.066391
              ],
              [
                106.383102,
                21.06637
              ],
              [
                106.382987,
                21.066343
              ],
              [
                106.382964,
                21.066389
              ],
              [
                106.382898,
                21.066529
              ],
              [
                106.382868,
                21.066592
              ],
              [
                106.382801,
                21.0666
              ],
              [
                106.382639,
                21.066629
              ],
              [
                106.382399,
                21.066727
              ],
              [
                106.382071,
                21.066916
              ],
              [
                106.381875,
                21.067021
              ],
              [
                106.38173,
                21.067083
              ],
              [
                106.381512,
                21.067148
              ],
              [
                106.381399,
                21.067164
              ],
              [
                106.381248,
                21.067183
              ],
              [
                106.381128,
                21.06719
              ],
              [
                106.380959,
                21.067213
              ],
              [
                106.380817,
                21.067263
              ],
              [
                106.380665,
                21.067319
              ],
              [
                106.380505,
                21.067394
              ],
              [
                106.380353,
                21.06748
              ],
              [
                106.380175,
                21.067585
              ],
              [
                106.38002,
                21.067678
              ],
              [
                106.379997,
                21.067691
              ],
              [
                106.379213,
                21.068119
              ],
              [
                106.378887,
                21.068265
              ],
              [
                106.378689,
                21.068295
              ],
              [
                106.37856,
                21.068294
              ],
              [
                106.378441,
                21.068274
              ],
              [
                106.378383,
                21.068256
              ],
              [
                106.378314,
                21.068205
              ],
              [
                106.378283,
                21.068153
              ],
              [
                106.378242,
                21.06806
              ],
              [
                106.378237,
                21.067917
              ],
              [
                106.378255,
                21.067737
              ],
              [
                106.37831,
                21.067543
              ],
              [
                106.378539,
                21.067153
              ],
              [
                106.378719,
                21.066787
              ],
              [
                106.37879,
                21.066533
              ],
              [
                106.378794,
                21.066347
              ],
              [
                106.37876,
                21.066175
              ],
              [
                106.378737,
                21.066125
              ],
              [
                106.37869,
                21.066049
              ],
              [
                106.378621,
                21.065989
              ],
              [
                106.378546,
                21.065973
              ],
              [
                106.378393,
                21.065981
              ],
              [
                106.378248,
                21.066025
              ],
              [
                106.378164,
                21.06608
              ],
              [
                106.378083,
                21.066143
              ],
              [
                106.37788,
                21.066354
              ],
              [
                106.377859,
                21.066381
              ],
              [
                106.377769,
                21.066489
              ],
              [
                106.377676,
                21.066593
              ],
              [
                106.377563,
                21.066695
              ],
              [
                106.377497,
                21.06675
              ],
              [
                106.37732,
                21.066847
              ],
              [
                106.377224,
                21.066872
              ],
              [
                106.377056,
                21.066892
              ],
              [
                106.376875,
                21.066878
              ],
              [
                106.376874,
                21.066878
              ],
              [
                106.376559,
                21.066845
              ],
              [
                106.376379,
                21.066832
              ],
              [
                106.376217,
                21.066829
              ],
              [
                106.376114,
                21.066836
              ],
              [
                106.375897,
                21.066865
              ],
              [
                106.375693,
                21.066912
              ],
              [
                106.375536,
                21.06696
              ],
              [
                106.375352,
                21.067026
              ],
              [
                106.375221,
                21.067085
              ],
              [
                106.375113,
                21.067142
              ],
              [
                106.375029,
                21.067201
              ],
              [
                106.374905,
                21.067298
              ],
              [
                106.374652,
                21.067505
              ],
              [
                106.374455,
                21.067671
              ],
              [
                106.374255,
                21.067844
              ],
              [
                106.37404,
                21.06804
              ],
              [
                106.37396,
                21.067926
              ],
              [
                106.373928,
                21.067867
              ],
              [
                106.373795,
                21.0677
              ],
              [
                106.373748,
                21.067547
              ],
              [
                106.373746,
                21.067377
              ],
              [
                106.373755,
                21.067317
              ],
              [
                106.373758,
                21.067317
              ],
              [
                106.373757,
                21.067295
              ],
              [
                106.37296,
                21.067559
              ],
              [
                106.372907,
                21.066812
              ],
              [
                106.372864,
                21.066662
              ],
              [
                106.37273,
                21.066644
              ],
              [
                106.372618,
                21.066631
              ],
              [
                106.372439,
                21.066609
              ],
              [
                106.371564,
                21.066504
              ],
              [
                106.371472,
                21.066493
              ],
              [
                106.370558,
                21.066383
              ],
              [
                106.370353,
                21.066345
              ],
              [
                106.37028,
                21.066082
              ],
              [
                106.370275,
                21.066065
              ],
              [
                106.370211,
                21.065831
              ],
              [
                106.370022,
                21.065152
              ],
              [
                106.369832,
                21.064454
              ],
              [
                106.369815,
                21.06439
              ],
              [
                106.369522,
                21.063345
              ],
              [
                106.369518,
                21.063337
              ],
              [
                106.36924,
                21.062427
              ],
              [
                106.368097,
                21.063013
              ],
              [
                106.367764,
                21.062838
              ],
              [
                106.367325,
                21.062733
              ],
              [
                106.366771,
                21.06272
              ],
              [
                106.365477,
                21.062587
              ],
              [
                106.365422,
                21.062578
              ],
              [
                106.365212,
                21.063083
              ],
              [
                106.36458,
                21.064038
              ],
              [
                106.363869,
                21.064949
              ],
              [
                106.36311,
                21.065868
              ],
              [
                106.362887,
                21.066162
              ],
              [
                106.362357,
                21.066726
              ],
              [
                106.361572,
                21.067474
              ],
              [
                106.361331,
                21.067781
              ],
              [
                106.359296,
                21.069974
              ],
              [
                106.358792,
                21.070533
              ],
              [
                106.35839,
                21.071148
              ],
              [
                106.358092,
                21.071915
              ],
              [
                106.357713,
                21.072874
              ],
              [
                106.357231,
                21.073605
              ],
              [
                106.356669,
                21.074366
              ],
              [
                106.356479,
                21.074562
              ],
              [
                106.355547,
                21.075394
              ],
              [
                106.354512,
                21.076197
              ],
              [
                106.352298,
                21.077623
              ],
              [
                106.351712,
                21.077959
              ],
              [
                106.350181,
                21.078864
              ],
              [
                106.348484,
                21.080021
              ],
              [
                106.347118,
                21.081067
              ],
              [
                106.346776,
                21.081345
              ],
              [
                106.345377,
                21.082459
              ],
              [
                106.342518,
                21.084468
              ],
              [
                106.341139,
                21.085244
              ],
              [
                106.340276,
                21.08564
              ],
              [
                106.339699,
                21.085905
              ],
              [
                106.338601,
                21.086201
              ],
              [
                106.337563,
                21.086324
              ],
              [
                106.335445,
                21.086455
              ],
              [
                106.333179,
                21.086384
              ],
              [
                106.332827,
                21.086338
              ],
              [
                106.332354,
                21.086282
              ],
              [
                106.332274,
                21.086675
              ],
              [
                106.332059,
                21.087604
              ],
              [
                106.331983,
                21.087911
              ],
              [
                106.331925,
                21.088063
              ],
              [
                106.331921,
                21.088192
              ],
              [
                106.331917,
                21.088414
              ],
              [
                106.331933,
                21.088624
              ],
              [
                106.331985,
                21.089077
              ],
              [
                106.332034,
                21.089487
              ],
              [
                106.332064,
                21.089698
              ],
              [
                106.332137,
                21.09013
              ],
              [
                106.332245,
                21.090928
              ],
              [
                106.332303,
                21.091208
              ],
              [
                106.33238,
                21.091562
              ],
              [
                106.332516,
                21.092085
              ],
              [
                106.332585,
                21.092424
              ],
              [
                106.332591,
                21.092614
              ],
              [
                106.33257,
                21.092787
              ],
              [
                106.332544,
                21.092968
              ],
              [
                106.33254,
                21.093063
              ],
              [
                106.332546,
                21.093163
              ],
              [
                106.33257,
                21.093275
              ],
              [
                106.332668,
                21.093494
              ],
              [
                106.332748,
                21.093636
              ],
              [
                106.332823,
                21.093843
              ],
              [
                106.332885,
                21.094106
              ],
              [
                106.332951,
                21.094375
              ],
              [
                106.333084,
                21.095017
              ],
              [
                106.333252,
                21.095834
              ],
              [
                106.333597,
                21.097478
              ],
              [
                106.333833,
                21.098707
              ],
              [
                106.334041,
                21.099597
              ],
              [
                106.334073,
                21.099748
              ],
              [
                106.334328,
                21.100996
              ],
              [
                106.33453,
                21.102031
              ],
              [
                106.334636,
                21.102488
              ],
              [
                106.334808,
                21.103225
              ],
              [
                106.334975,
                21.103919
              ],
              [
                106.33517,
                21.104461
              ],
              [
                106.335189,
                21.104524
              ],
              [
                106.335438,
                21.105324
              ],
              [
                106.335574,
                21.106019
              ],
              [
                106.335617,
                21.106218
              ],
              [
                106.33593,
                21.107667
              ],
              [
                106.336219,
                21.10917
              ],
              [
                106.336336,
                21.109255
              ],
              [
                106.336396,
                21.109563
              ],
              [
                106.336417,
                21.109673
              ],
              [
                106.336499,
                21.110343
              ],
              [
                106.33678,
                21.111757
              ],
              [
                106.336801,
                21.111756
              ],
              [
                106.336825,
                21.111754
              ],
              [
                106.336988,
                21.111737
              ],
              [
                106.337251,
                21.111688
              ],
              [
                106.337699,
                21.111603
              ],
              [
                106.338037,
                21.111538
              ],
              [
                106.338399,
                21.111482
              ],
              [
                106.338662,
                21.111419
              ],
              [
                106.338826,
                21.111353
              ],
              [
                106.338948,
                21.111262
              ],
              [
                106.339072,
                21.111075
              ],
              [
                106.339128,
                21.110973
              ],
              [
                106.339149,
                21.110933
              ],
              [
                106.339166,
                21.110902
              ],
              [
                106.339222,
                21.110765
              ],
              [
                106.33927,
                21.110582
              ],
              [
                106.339314,
                21.110392
              ],
              [
                106.339375,
                21.109929
              ],
              [
                106.339395,
                21.109837
              ],
              [
                106.339473,
                21.109837
              ],
              [
                106.339538,
                21.109843
              ],
              [
                106.339576,
                21.10985
              ],
              [
                106.339599,
                21.109861
              ],
              [
                106.339998,
                21.110885
              ],
              [
                106.340026,
                21.110965
              ],
              [
                106.340191,
                21.111376
              ],
              [
                106.340205,
                21.111415
              ],
              [
                106.340322,
                21.111751
              ],
              [
                106.340479,
                21.112119
              ],
              [
                106.340629,
                21.112504
              ],
              [
                106.340664,
                21.112551
              ],
              [
                106.340808,
                21.112687
              ],
              [
                106.340848,
                21.112718
              ],
              [
                106.340975,
                21.112816
              ],
              [
                106.341049,
                21.112888
              ],
              [
                106.341189,
                21.113028
              ],
              [
                106.341272,
                21.113104
              ],
              [
                106.341278,
                21.113181
              ],
              [
                106.341253,
                21.113256
              ],
              [
                106.341397,
                21.113316
              ],
              [
                106.341493,
                21.113353
              ],
              [
                106.341519,
                21.113383
              ],
              [
                106.341516,
                21.113496
              ],
              [
                106.341452,
                21.113717
              ],
              [
                106.341454,
                21.11393
              ],
              [
                106.341616,
                21.114115
              ],
              [
                106.341807,
                21.114208
              ],
              [
                106.341919,
                21.114263
              ],
              [
                106.342094,
                21.114349
              ],
              [
                106.342201,
                21.11437
              ],
              [
                106.34233,
                21.114326
              ],
              [
                106.342559,
                21.114281
              ],
              [
                106.342561,
                21.114281
              ],
              [
                106.342863,
                21.114186
              ],
              [
                106.342869,
                21.114202
              ],
              [
                106.342974,
                21.114459
              ],
              [
                106.34309,
                21.114722
              ],
              [
                106.343183,
                21.114932
              ],
              [
                106.343364,
                21.115338
              ],
              [
                106.343414,
                21.115449
              ],
              [
                106.34359,
                21.115884
              ],
              [
                106.343619,
                21.115911
              ],
              [
                106.343636,
                21.115917
              ],
              [
                106.344191,
                21.117036
              ],
              [
                106.344304,
                21.117032
              ],
              [
                106.344743,
                21.117058
              ],
              [
                106.344913,
                21.117019
              ],
              [
                106.34511,
                21.116911
              ],
              [
                106.345289,
                21.116666
              ],
              [
                106.345514,
                21.116645
              ],
              [
                106.346336,
                21.116702
              ],
              [
                106.347924,
                21.116649
              ],
              [
                106.348093,
                21.116755
              ],
              [
                106.348144,
                21.116772
              ],
              [
                106.348361,
                21.116863
              ],
              [
                106.348446,
                21.116893
              ],
              [
                106.348497,
                21.116906
              ],
              [
                106.348638,
                21.116931
              ],
              [
                106.348676,
                21.116936
              ],
              [
                106.348733,
                21.116953
              ],
              [
                106.348859,
                21.116956
              ],
              [
                106.349044,
                21.116957
              ],
              [
                106.349155,
                21.116958
              ],
              [
                106.34931,
                21.116935
              ],
              [
                106.34924,
                21.117126
              ],
              [
                106.349127,
                21.117369
              ],
              [
                106.348994,
                21.117464
              ],
              [
                106.348876,
                21.117562
              ],
              [
                106.348774,
                21.117708
              ],
              [
                106.348739,
                21.117941
              ],
              [
                106.348804,
                21.118199
              ],
              [
                106.349052,
                21.118231
              ],
              [
                106.349237,
                21.11822
              ],
              [
                106.349585,
                21.118221
              ],
              [
                106.349934,
                21.118434
              ],
              [
                106.349984,
                21.118688
              ],
              [
                106.350283,
                21.118705
              ],
              [
                106.350388,
                21.118546
              ],
              [
                106.350528,
                21.118154
              ],
              [
                106.351324,
                21.118164
              ],
              [
                106.351263,
                21.11847
              ],
              [
                106.351208,
                21.118745
              ],
              [
                106.351191,
                21.119038
              ],
              [
                106.35119,
                21.119087
              ],
              [
                106.351133,
                21.119618
              ],
              [
                106.351134,
                21.119749
              ],
              [
                106.351117,
                21.119911
              ],
              [
                106.351061,
                21.120114
              ],
              [
                106.350992,
                21.12027
              ],
              [
                106.350867,
                21.120492
              ],
              [
                106.350836,
                21.120564
              ],
              [
                106.35083,
                21.120636
              ],
              [
                106.350876,
                21.120761
              ],
              [
                106.351026,
                21.121154
              ],
              [
                106.351143,
                21.12144
              ],
              [
                106.35119,
                21.121637
              ],
              [
                106.351268,
                21.121917
              ],
              [
                106.351289,
                21.122049
              ],
              [
                106.351291,
                21.122264
              ],
              [
                106.351289,
                21.12227
              ],
              [
                106.351293,
                21.122642
              ],
              [
                106.351296,
                21.122947
              ],
              [
                106.351272,
                21.123186
              ],
              [
                106.351237,
                21.123545
              ],
              [
                106.351225,
                21.123572
              ],
              [
                106.351225,
                21.123575
              ],
              [
                106.351169,
                21.123683
              ],
              [
                106.351074,
                21.123749
              ],
              [
                106.350821,
                21.123856
              ],
              [
                106.350756,
                21.123883
              ],
              [
                106.350417,
                21.124007
              ],
              [
                106.350412,
                21.124011
              ],
              [
                106.350279,
                21.124148
              ],
              [
                106.350171,
                21.124265
              ],
              [
                106.349999,
                21.124583
              ],
              [
                106.349946,
                21.124739
              ],
              [
                106.349884,
                21.124844
              ],
              [
                106.349748,
                21.125021
              ],
              [
                106.349312,
                21.125532
              ],
              [
                106.349292,
                21.125568
              ],
              [
                106.34927,
                21.125644
              ],
              [
                106.349271,
                21.125648
              ],
              [
                106.349391,
                21.125862
              ],
              [
                106.34975,
                21.126128
              ],
              [
                106.350006,
                21.126276
              ],
              [
                106.350268,
                21.126375
              ],
              [
                106.350466,
                21.126481
              ],
              [
                106.350556,
                21.126582
              ],
              [
                106.350621,
                21.126665
              ],
              [
                106.350635,
                21.126868
              ],
              [
                106.350642,
                21.127018
              ],
              [
                106.350618,
                21.127143
              ],
              [
                106.350612,
                21.127404
              ],
              [
                106.350649,
                21.127581
              ],
              [
                106.350814,
                21.127859
              ],
              [
                106.350857,
                21.128117
              ],
              [
                106.350859,
                21.128356
              ],
              [
                106.350679,
                21.128739
              ],
              [
                106.35055,
                21.129037
              ],
              [
                106.35051,
                21.129156
              ],
              [
                106.350507,
                21.129606
              ],
              [
                106.350523,
                21.129917
              ],
              [
                106.350563,
                21.130173
              ],
              [
                106.350499,
                21.130765
              ],
              [
                106.350501,
                21.131034
              ],
              [
                106.350541,
                21.131171
              ],
              [
                106.350618,
                21.131332
              ],
              [
                106.350715,
                21.131451
              ],
              [
                106.350844,
                21.131659
              ],
              [
                106.350877,
                21.13176
              ],
              [
                106.350926,
                21.132288
              ],
              [
                106.351294,
                21.132414
              ],
              [
                106.351731,
                21.132624
              ],
              [
                106.35226,
                21.133023
              ],
              [
                106.352582,
                21.133358
              ],
              [
                106.352972,
                21.133666
              ],
              [
                106.353249,
                21.133768
              ],
              [
                106.35384,
                21.133844
              ],
              [
                106.354204,
                21.134011
              ],
              [
                106.354533,
                21.134073
              ],
              [
                106.354702,
                21.134079
              ],
              [
                106.355298,
                21.134095
              ],
              [
                106.355703,
                21.134114
              ],
              [
                106.356235,
                21.134192
              ],
              [
                106.356545,
                21.134232
              ],
              [
                106.357019,
                21.134246
              ],
              [
                106.357729,
                21.13418
              ],
              [
                106.358102,
                21.134199
              ],
              [
                106.358569,
                21.133686
              ],
              [
                106.359161,
                21.132212
              ],
              [
                106.359866,
                21.130963
              ],
              [
                106.360658,
                21.130064
              ],
              [
                106.361034,
                21.129401
              ],
              [
                106.360719,
                21.128959
              ],
              [
                106.360389,
                21.128488
              ],
              [
                106.360195,
                21.127926
              ],
              [
                106.360103,
                21.127257
              ],
              [
                106.360173,
                21.12669
              ],
              [
                106.360114,
                21.126466
              ],
              [
                106.36006,
                21.126297
              ],
              [
                106.360027,
                21.126025
              ],
              [
                106.359978,
                21.12566
              ],
              [
                106.359837,
                21.125277
              ],
              [
                106.359625,
                21.124858
              ],
              [
                106.359303,
                21.124219
              ],
              [
                106.359105,
                21.12401
              ],
              [
                106.359102,
                21.124007
              ],
              [
                106.358611,
                21.12339
              ],
              [
                106.358735,
                21.123083
              ],
              [
                106.358784,
                21.122987
              ],
              [
                106.358817,
                21.122863
              ],
              [
                106.358807,
                21.122739
              ],
              [
                106.358794,
                21.122541
              ],
              [
                106.358782,
                21.122164
              ],
              [
                106.358803,
                21.121966
              ],
              [
                106.358824,
                21.121805
              ],
              [
                106.358879,
                21.121617
              ],
              [
                106.358975,
                21.121334
              ],
              [
                106.359063,
                21.121185
              ],
              [
                106.35915,
                21.121089
              ],
              [
                106.359298,
                21.12103
              ],
              [
                106.359486,
                21.12096
              ],
              [
                106.359606,
                21.120904
              ],
              [
                106.359665,
                21.120866
              ],
              [
                106.359693,
                21.1208
              ],
              [
                106.359705,
                21.120639
              ],
              [
                106.359714,
                21.120422
              ],
              [
                106.359708,
                21.120341
              ],
              [
                106.359582,
                21.120139
              ],
              [
                106.35948,
                21.120023
              ],
              [
                106.359409,
                21.119966
              ],
              [
                106.359308,
                21.119932
              ],
              [
                106.359212,
                21.119909
              ],
              [
                106.35904,
                21.119908
              ],
              [
                106.358931,
                21.119901
              ],
              [
                106.358818,
                21.119868
              ],
              [
                106.358764,
                21.119839
              ],
              [
                106.35873,
                21.119792
              ],
              [
                106.358684,
                21.119705
              ],
              [
                106.358607,
                21.119592
              ],
              [
                106.358514,
                21.119511
              ],
              [
                106.358448,
                21.119454
              ],
              [
                106.358361,
                21.119409
              ],
              [
                106.358332,
                21.119398
              ],
              [
                106.358319,
                21.11931
              ],
              [
                106.358314,
                21.119189
              ],
              [
                106.358348,
                21.119046
              ],
              [
                106.358391,
                21.118935
              ],
              [
                106.358511,
                21.118681
              ],
              [
                106.358644,
                21.1185
              ],
              [
                106.358795,
                21.118281
              ],
              [
                106.358921,
                21.118098
              ],
              [
                106.359037,
                21.117966
              ],
              [
                106.359224,
                21.117814
              ],
              [
                106.359381,
                21.117712
              ],
              [
                106.359583,
                21.117617
              ],
              [
                106.359906,
                21.117464
              ],
              [
                106.360176,
                21.117354
              ],
              [
                106.360412,
                21.11728
              ],
              [
                106.360561,
                21.117254
              ],
              [
                106.360912,
                21.117223
              ],
              [
                106.36129,
                21.11718
              ],
              [
                106.361573,
                21.117156
              ],
              [
                106.361932,
                21.117164
              ],
              [
                106.362215,
                21.11718
              ],
              [
                106.362509,
                21.117221
              ],
              [
                106.362831,
                21.117261
              ],
              [
                106.363248,
                21.117319
              ],
              [
                106.363546,
                21.117323
              ],
              [
                106.363836,
                21.117321
              ],
              [
                106.364046,
                21.117284
              ],
              [
                106.36434,
                21.117249
              ],
              [
                106.364672,
                21.117239
              ],
              [
                106.365055,
                21.117261
              ],
              [
                106.36541,
                21.117273
              ],
              [
                106.365865,
                21.117312
              ],
              [
                106.366186,
                21.117349
              ],
              [
                106.366454,
                21.117368
              ],
              [
                106.366683,
                21.117352
              ],
              [
                106.366878,
                21.117325
              ],
              [
                106.367029,
                21.117291
              ],
              [
                106.367303,
                21.117282
              ],
              [
                106.367481,
                21.117293
              ],
              [
                106.367871,
                21.117403
              ],
              [
                106.368421,
                21.117644
              ],
              [
                106.36883,
                21.117856
              ],
              [
                106.368952,
                21.11792
              ],
              [
                106.369073,
                21.117937
              ],
              [
                106.369168,
                21.117925
              ],
              [
                106.369263,
                21.117852
              ],
              [
                106.369389,
                21.117684
              ],
              [
                106.369516,
                21.117623
              ],
              [
                106.3697,
                21.117586
              ],
              [
                106.369974,
                21.117589
              ],
              [
                106.370203,
                21.117612
              ],
              [
                106.370496,
                21.117591
              ],
              [
                106.370725,
                21.117536
              ],
              [
                106.370998,
                21.117432
              ],
              [
                106.371309,
                21.11731
              ],
              [
                106.371639,
                21.117212
              ],
              [
                106.371919,
                21.117161
              ],
              [
                106.372268,
                21.117142
              ],
              [
                106.372659,
                21.11805
              ],
              [
                106.372983,
                21.118744
              ],
              [
                106.373235,
                21.119168
              ],
              [
                106.373301,
                21.119275
              ],
              [
                106.374208,
                21.119224
              ],
              [
                106.375159,
                21.119026
              ],
              [
                106.375607,
                21.118995
              ],
              [
                106.375944,
                21.119014
              ],
              [
                106.376059,
                21.11902
              ],
              [
                106.37628,
                21.119224
              ],
              [
                106.37653,
                21.119728
              ],
              [
                106.376875,
                21.119647
              ],
              [
                106.376875,
                21.119647
              ],
              [
                106.377036,
                21.119569
              ],
              [
                106.377165,
                21.119484
              ],
              [
                106.377273,
                21.119369
              ],
              [
                106.377379,
                21.119217
              ],
              [
                106.377419,
                21.11915
              ],
              [
                106.377437,
                21.119066
              ],
              [
                106.377442,
                21.119034
              ],
              [
                106.377449,
                21.119026
              ],
              [
                106.377506,
                21.118999
              ],
              [
                106.377673,
                21.118977
              ],
              [
                106.377734,
                21.118965
              ],
              [
                106.377763,
                21.118904
              ],
              [
                106.377792,
                21.118855
              ],
              [
                106.377832,
                21.118848
              ],
              [
                106.378916,
                21.119017
              ],
              [
                106.379151,
                21.119014
              ],
              [
                106.379228,
                21.11901
              ],
              [
                106.379278,
                21.119007
              ],
              [
                106.379781,
                21.118977
              ],
              [
                106.380081,
                21.119002
              ],
              [
                106.380527,
                21.119076
              ],
              [
                106.381041,
                21.119143
              ],
              [
                106.38129,
                21.119207
              ],
              [
                106.381459,
                21.119316
              ],
              [
                106.381703,
                21.119523
              ],
              [
                106.38195,
                21.11965
              ],
              [
                106.382023,
                21.119664
              ],
              [
                106.382122,
                21.119675
              ],
              [
                106.382224,
                21.119656
              ],
              [
                106.382379,
                21.119545
              ],
              [
                106.382499,
                21.119448
              ],
              [
                106.382638,
                21.119348
              ],
              [
                106.382796,
                21.119278
              ],
              [
                106.382887,
                21.119294
              ],
              [
                106.382927,
                21.119296
              ],
              [
                106.382962,
                21.119309
              ],
              [
                106.382987,
                21.11933
              ],
              [
                106.382996,
                21.119346
              ],
              [
                106.383051,
                21.119475
              ],
              [
                106.383285,
                21.119415
              ],
              [
                106.383295,
                21.11939
              ],
              [
                106.383321,
                21.119368
              ],
              [
                106.38337,
                21.119356
              ],
              [
                106.383457,
                21.119354
              ],
              [
                106.383535,
                21.119335
              ],
              [
                106.383568,
                21.119313
              ],
              [
                106.383605,
                21.119282
              ],
              [
                106.383644,
                21.119251
              ],
              [
                106.383713,
                21.119232
              ],
              [
                106.383754,
                21.11924
              ],
              [
                106.383792,
                21.119262
              ],
              [
                106.383841,
                21.11934
              ],
              [
                106.383864,
                21.119409
              ],
              [
                106.383903,
                21.119466
              ],
              [
                106.383953,
                21.119505
              ],
              [
                106.384196,
                21.119658
              ],
              [
                106.384333,
                21.119817
              ],
              [
                106.384458,
                21.120097
              ],
              [
                106.384515,
                21.120139
              ],
              [
                106.384662,
                21.120123
              ],
              [
                106.384797,
                21.120118
              ],
              [
                106.384845,
                21.120118
              ],
              [
                106.384932,
                21.120118
              ],
              [
                106.38497,
                21.120127
              ],
              [
                106.385014,
                21.120157
              ],
              [
                106.385052,
                21.120207
              ],
              [
                106.385114,
                21.120335
              ],
              [
                106.38518,
                21.120551
              ],
              [
                106.385687,
                21.119881
              ],
              [
                106.385831,
                21.11983
              ],
              [
                106.385871,
                21.119809
              ],
              [
                106.386033,
                21.119744
              ],
              [
                106.386165,
                21.119674
              ],
              [
                106.386263,
                21.119593
              ],
              [
                106.386365,
                21.119512
              ],
              [
                106.386414,
                21.11946
              ],
              [
                106.386517,
                21.119335
              ],
              [
                106.386572,
                21.11923
              ],
              [
                106.386647,
                21.118791
              ],
              [
                106.386647,
                21.118791
              ],
              [
                106.386613,
                21.118516
              ],
              [
                106.386867,
                21.118452
              ],
              [
                106.387059,
                21.118379
              ],
              [
                106.387241,
                21.118175
              ],
              [
                106.387392,
                21.118001
              ],
              [
                106.387455,
                21.117929
              ],
              [
                106.387556,
                21.117841
              ],
              [
                106.387705,
                21.117781
              ],
              [
                106.387786,
                21.11763
              ],
              [
                106.38786,
                21.11739
              ],
              [
                106.387844,
                21.117323
              ],
              [
                106.387809,
                21.117289
              ],
              [
                106.387777,
                21.117269
              ],
              [
                106.387747,
                21.117257
              ],
              [
                106.387721,
                21.117239
              ],
              [
                106.387708,
                21.117211
              ],
              [
                106.387667,
                21.116841
              ],
              [
                106.387711,
                21.116802
              ],
              [
                106.387757,
                21.116724
              ],
              [
                106.387787,
                21.116653
              ],
              [
                106.387814,
                21.116615
              ],
              [
                106.387977,
                21.116549
              ],
              [
                106.388247,
                21.116412
              ],
              [
                106.388355,
                21.116374
              ],
              [
                106.38844,
                21.11636
              ],
              [
                106.388476,
                21.116361
              ],
              [
                106.388502,
                21.116368
              ],
              [
                106.388515,
                21.116379
              ],
              [
                106.388528,
                21.116405
              ],
              [
                106.388532,
                21.116428
              ],
              [
                106.388646,
                21.116409
              ],
              [
                106.388738,
                21.116396
              ],
              [
                106.388838,
                21.116357
              ],
              [
                106.388951,
                21.116256
              ],
              [
                106.389051,
                21.116141
              ],
              [
                106.389206,
                21.116092
              ],
              [
                106.389261,
                21.116067
              ],
              [
                106.389412,
                21.115984
              ],
              [
                106.389695,
                21.115838
              ],
              [
                106.389734,
                21.115812
              ],
              [
                106.389797,
                21.115755
              ],
              [
                106.389896,
                21.115675
              ],
              [
                106.389969,
                21.11563
              ],
              [
                106.390047,
                21.115596
              ],
              [
                106.390145,
                21.115569
              ],
              [
                106.390362,
                21.115518
              ],
              [
                106.390752,
                21.115455
              ],
              [
                106.391214,
                21.115375
              ],
              [
                106.391401,
                21.114973
              ],
              [
                106.391696,
                21.114604
              ],
              [
                106.391771,
                21.114481
              ],
              [
                106.391784,
                21.114467
              ],
              [
                106.392319,
                21.114722
              ],
              [
                106.392906,
                21.115002
              ],
              [
                106.392924,
                21.11501
              ],
              [
                106.393589,
                21.115327
              ],
              [
                106.39519,
                21.116112
              ],
              [
                106.395192,
                21.116087
              ],
              [
                106.395202,
                21.116023
              ],
              [
                106.400441,
                21.119328
              ],
              [
                106.401385,
                21.116601
              ],
              [
                106.401393,
                21.116575
              ],
              [
                106.401423,
                21.116481
              ],
              [
                106.401438,
                21.116428
              ],
              [
                106.401611,
                21.115783
              ],
              [
                106.401642,
                21.115666
              ],
              [
                106.40186,
                21.114919
              ],
              [
                106.401874,
                21.114872
              ],
              [
                106.401882,
                21.114845
              ],
              [
                106.401978,
                21.114403
              ],
              [
                106.401983,
                21.114379
              ],
              [
                106.402003,
                21.114276
              ],
              [
                106.40203,
                21.114133
              ],
              [
                106.402038,
                21.114043
              ],
              [
                106.402037,
                21.113999
              ],
              [
                106.40203,
                21.113934
              ],
              [
                106.402005,
                21.113803
              ],
              [
                106.401977,
                21.113698
              ],
              [
                106.401831,
                21.113152
              ],
              [
                106.401763,
                21.112897
              ],
              [
                106.401754,
                21.112863
              ],
              [
                106.401664,
                21.112521
              ],
              [
                106.40138,
                21.111448
              ],
              [
                106.401788,
                21.111438
              ],
              [
                106.401787,
                21.111434
              ],
              [
                106.402018,
                21.111479
              ],
              [
                106.402724,
                21.111448
              ],
              [
                106.403102,
                21.111394
              ],
              [
                106.403282,
                21.111432
              ],
              [
                106.403424,
                21.111489
              ],
              [
                106.403724,
                21.111708
              ],
              [
                106.403934,
                21.111721
              ],
              [
                106.404193,
                21.111679
              ],
              [
                106.404319,
                21.111657
              ],
              [
                106.404392,
                21.111663
              ],
              [
                106.404557,
                21.111741
              ],
              [
                106.404612,
                21.111708
              ],
              [
                106.404688,
                21.111687
              ],
              [
                106.404962,
                21.111669
              ],
              [
                106.405156,
                21.111656
              ],
              [
                106.405474,
                21.111635
              ],
              [
                106.406036,
                21.111601
              ],
              [
                106.406417,
                21.111571
              ],
              [
                106.406497,
                21.111548
              ],
              [
                106.406643,
                21.111496
              ],
              [
                106.406785,
                21.111443
              ],
              [
                106.406811,
                21.111438
              ],
              [
                106.406811,
                21.111438
              ]
            ]
          ]
        ]
      },
      "properties": {
        "code": "10549",
        "name": "Chu Văn An",
        "nameEn": "Chu Van An",
        "fullName": "Phường Chu Văn An",
        "fullNameEn": "Chu Van An Ward",
        "codeName": "chu_van_an",
        "postalCode": "03526",
        "postalCodePrefix": "",
        "gisServerId": "diaphanhanhchinhcapxa_2025.877",
        "areaKm2": 40.86
      }
    }
  ]
}