{
  "type": "FeatureCollection",
  "bbox": [
    106.295363,
    21.05748,
    106.351324,
    21.13594
  ],
  "features": [
    {
      "type": "Feature",
      "id": "10546",
      "bbox": [
        106.295363,
        21.05748,
        106.351324,
        21.13594
      ],
      "geometry": {
        "type": "MultiPolygon",
        "coordinates": [
          [
            [
              [
                106.350926,
                21.132288
              ],
              [
                106.350877,
                21.13176
              ],
              [
                106.350844,
                21.131659
              ],
              [
                106.350715,
                21.131451
              ],
              [
                106.350618,
                21.131332
              ],
              [
                106.350541,
                21.131171
              ],
              [
                106.350501,
                21.131034
              ],
              [
                106.350499,
                21.130765
              ],
              [
                106.350563,
                21.130173
              ],
              [
                106.350523,
                21.129917
              ],
              [
                106.350507,
                21.129606
              ],
              [
                106.35051,
                21.129156
              ],
              [
                106.35055,
                21.129037
              ],
              [
                106.350679,
                21.128739
              ],
              [
                106.350859,
                21.128356
              ],
              [
                106.350857,
                21.128117
              ],
              [
                106.350814,
                21.127859
              ],
              [
                106.350649,
                21.127581
              ],
              [
                106.350612,
                21.127404
              ],
              [
                106.350618,
                21.127143
              ],
              [
                106.350642,
                21.127018
              ],
              [
                106.350635,
                21.126868
              ],
              [
                106.350621,
                21.126665
              ],
              [
                106.350556,
                21.126582
              ],
              [
                106.350466,
                21.126481
              ],
              [
                106.350268,
                21.126375
              ],
              [
                106.350006,
                21.126276
              ],
              [
                106.34975,
                21.126128
              ],
              [
                106.349391,
                21.125862
              ],
              [
                106.349271,
                21.125648
              ],
              [
                106.34927,
                21.125644
              ],
              [
                106.349292,
                21.125568
              ],
              [
                106.349312,
                21.125532
              ],
              [
                106.349748,
                21.125021
              ],
              [
                106.349884,
                21.124844
              ],
              [
                106.349946,
                21.124739
              ],
              [
                106.349999,
                21.124583
              ],
              [
                106.350171,
                21.124265
              ],
              [
                106.350279,
                21.124148
              ],
              [
                106.350412,
                21.124011
              ],
              [
                106.350417,
                21.124007
              ],
              [
                106.350756,
                21.123883
              ],
              [
                106.350821,
                21.123856
              ],
              [
                106.351074,
                21.123749
              ],
              [
                106.351169,
                21.123683
              ],
              [
                106.351225,
                21.123575
              ],
              [
                106.351225,
                21.123572
              ],
              [
                106.351237,
                21.123545
              ],
              [
                106.351272,
                21.123186
              ],
              [
                106.351296,
                21.122947
              ],
              [
                106.351293,
                21.122642
              ],
              [
                106.351289,
                21.12227
              ],
              [
                106.351291,
                21.122264
              ],
              [
                106.351289,
                21.122049
              ],
              [
                106.351268,
                21.121917
              ],
              [
                106.35119,
                21.121637
              ],
              [
                106.351143,
                21.12144
              ],
              [
                106.351026,
                21.121154
              ],
              [
                106.350876,
                21.120761
              ],
              [
                106.35083,
                21.120636
              ],
              [
                106.350836,
                21.120564
              ],
              [
                106.350867,
                21.120492
              ],
              [
                106.350992,
                21.12027
              ],
              [
                106.351061,
                21.120114
              ],
              [
                106.351117,
                21.119911
              ],
              [
                106.351134,
                21.119749
              ],
              [
                106.351133,
                21.119618
              ],
              [
                106.35119,
                21.119087
              ],
              [
                106.351191,
                21.119038
              ],
              [
                106.351208,
                21.118745
              ],
              [
                106.351263,
                21.11847
              ],
              [
                106.351324,
                21.118164
              ],
              [
                106.350528,
                21.118154
              ],
              [
                106.350388,
                21.118546
              ],
              [
                106.350283,
                21.118705
              ],
              [
                106.349984,
                21.118688
              ],
              [
                106.349934,
                21.118434
              ],
              [
                106.349585,
                21.118221
              ],
              [
                106.349237,
                21.11822
              ],
              [
                106.349052,
                21.118231
              ],
              [
                106.348804,
                21.118199
              ],
              [
                106.348739,
                21.117941
              ],
              [
                106.348774,
                21.117708
              ],
              [
                106.348876,
                21.117562
              ],
              [
                106.348994,
                21.117464
              ],
              [
                106.349127,
                21.117369
              ],
              [
                106.34924,
                21.117126
              ],
              [
                106.34931,
                21.116935
              ],
              [
                106.349155,
                21.116958
              ],
              [
                106.349044,
                21.116957
              ],
              [
                106.348859,
                21.116956
              ],
              [
                106.348733,
                21.116953
              ],
              [
                106.348676,
                21.116936
              ],
              [
                106.348638,
                21.116931
              ],
              [
                106.348497,
                21.116906
              ],
              [
                106.348446,
                21.116893
              ],
              [
                106.348361,
                21.116863
              ],
              [
                106.348144,
                21.116772
              ],
              [
                106.348093,
                21.116755
              ],
              [
                106.347924,
                21.116649
              ],
              [
                106.346336,
                21.116702
              ],
              [
                106.345514,
                21.116645
              ],
              [
                106.345289,
                21.116666
              ],
              [
                106.34511,
                21.116911
              ],
              [
                106.344913,
                21.117019
              ],
              [
                106.344743,
                21.117058
              ],
              [
                106.344304,
                21.117032
              ],
              [
                106.344191,
                21.117036
              ],
              [
                106.343636,
                21.115917
              ],
              [
                106.343619,
                21.115911
              ],
              [
                106.34359,
                21.115884
              ],
              [
                106.343414,
                21.115449
              ],
              [
                106.343364,
                21.115338
              ],
              [
                106.343183,
                21.114932
              ],
              [
                106.34309,
                21.114722
              ],
              [
                106.342974,
                21.114459
              ],
              [
                106.342869,
                21.114202
              ],
              [
                106.342863,
                21.114186
              ],
              [
                106.342561,
                21.114281
              ],
              [
                106.342559,
                21.114281
              ],
              [
                106.34233,
                21.114326
              ],
              [
                106.342201,
                21.11437
              ],
              [
                106.342094,
                21.114349
              ],
              [
                106.341919,
                21.114263
              ],
              [
                106.341807,
                21.114208
              ],
              [
                106.341616,
                21.114115
              ],
              [
                106.341454,
                21.11393
              ],
              [
                106.341452,
                21.113717
              ],
              [
                106.341516,
                21.113496
              ],
              [
                106.341519,
                21.113383
              ],
              [
                106.341493,
                21.113353
              ],
              [
                106.341397,
                21.113316
              ],
              [
                106.341253,
                21.113256
              ],
              [
                106.341278,
                21.113181
              ],
              [
                106.341272,
                21.113104
              ],
              [
                106.341189,
                21.113028
              ],
              [
                106.341049,
                21.112888
              ],
              [
                106.340975,
                21.112816
              ],
              [
                106.340848,
                21.112718
              ],
              [
                106.340808,
                21.112687
              ],
              [
                106.340664,
                21.112551
              ],
              [
                106.340629,
                21.112504
              ],
              [
                106.340479,
                21.112119
              ],
              [
                106.340322,
                21.111751
              ],
              [
                106.340205,
                21.111415
              ],
              [
                106.340191,
                21.111376
              ],
              [
                106.340026,
                21.110965
              ],
              [
                106.339998,
                21.110885
              ],
              [
                106.339599,
                21.109861
              ],
              [
                106.339576,
                21.10985
              ],
              [
                106.339538,
                21.109843
              ],
              [
                106.339473,
                21.109837
              ],
              [
                106.339395,
                21.109837
              ],
              [
                106.339375,
                21.109929
              ],
              [
                106.339314,
                21.110392
              ],
              [
                106.33927,
                21.110582
              ],
              [
                106.339222,
                21.110765
              ],
              [
                106.339166,
                21.110902
              ],
              [
                106.339149,
                21.110933
              ],
              [
                106.339128,
                21.110973
              ],
              [
                106.339072,
                21.111075
              ],
              [
                106.338948,
                21.111262
              ],
              [
                106.338826,
                21.111353
              ],
              [
                106.338662,
                21.111419
              ],
              [
                106.338399,
                21.111482
              ],
              [
                106.338037,
                21.111538
              ],
              [
                106.337699,
                21.111603
              ],
              [
                106.337251,
                21.111688
              ],
              [
                106.336988,
                21.111737
              ],
              [
                106.336825,
                21.111754
              ],
              [
                106.336801,
                21.111756
              ],
              [
                106.33678,
                21.111757
              ],
              [
                106.336499,
                21.110343
              ],
              [
                106.336417,
                21.109673
              ],
              [
                106.336396,
                21.109563
              ],
              [
                106.336336,
                21.109255
              ],
              [
                106.336219,
                21.10917
              ],
              [
                106.33593,
                21.107667
              ],
              [
                106.335617,
                21.106218
              ],
              [
                106.335574,
                21.106019
              ],
              [
                106.335438,
                21.105324
              ],
              [
                106.335189,
                21.104524
              ],
              [
                106.33517,
                21.104461
              ],
              [
                106.334975,
                21.103919
              ],
              [
                106.334808,
                21.103225
              ],
              [
                106.334636,
                21.102488
              ],
              [
                106.33453,
                21.102031
              ],
              [
                106.334328,
                21.100996
              ],
              [
                106.334073,
                21.099748
              ],
              [
                106.334041,
                21.099597
              ],
              [
                106.333833,
                21.098707
              ],
              [
                106.333597,
                21.097478
              ],
              [
                106.333252,
                21.095834
              ],
              [
                106.333084,
                21.095017
              ],
              [
                106.332951,
                21.094375
              ],
              [
                106.332885,
                21.094106
              ],
              [
                106.332823,
                21.093843
              ],
              [
                106.332748,
                21.093636
              ],
              [
                106.332668,
                21.093494
              ],
              [
                106.33257,
                21.093275
              ],
              [
                106.332546,
                21.093163
              ],
              [
                106.33254,
                21.093063
              ],
              [
                106.332544,
                21.092968
              ],
              [
                106.33257,
                21.092787
              ],
              [
                106.332591,
                21.092614
              ],
              [
                106.332585,
                21.092424
              ],
              [
                106.332516,
                21.092085
              ],
              [
                106.33238,
                21.091562
              ],
              [
                106.332303,
                21.091208
              ],
              [
                106.332245,
                21.090928
              ],
              [
                106.332137,
                21.09013
              ],
              [
                106.332064,
                21.089698
              ],
              [
                106.332034,
                21.089487
              ],
              [
                106.331985,
                21.089077
              ],
              [
                106.331933,
                21.088624
              ],
              [
                106.331917,
                21.088414
              ],
              [
                106.331921,
                21.088192
              ],
              [
                106.331925,
                21.088063
              ],
              [
                106.331983,
                21.087911
              ],
              [
                106.332059,
                21.087604
              ],
              [
                106.332274,
                21.086675
              ],
              [
                106.332354,
                21.086282
              ],
              [
                106.332263,
                21.086271
              ],
              [
                106.331462,
                21.086162
              ],
              [
                106.330906,
                21.086048
              ],
              [
                106.329729,
                21.085854
              ],
              [
                106.328827,
                21.085721
              ],
              [
                106.328641,
                21.085687
              ],
              [
                106.325749,
                21.084982
              ],
              [
                106.325336,
                21.084842
              ],
              [
                106.324599,
                21.084518
              ],
              [
                106.324246,
                21.084277
              ],
              [
                106.323953,
                21.083978
              ],
              [
                106.323705,
                21.083621
              ],
              [
                106.323585,
                21.083392
              ],
              [
                106.323503,
                21.083236
              ],
              [
                106.323346,
                21.082778
              ],
              [
                106.323234,
                21.08222
              ],
              [
                106.323242,
                21.081345
              ],
              [
                106.323351,
                21.080517
              ],
              [
                106.323504,
                21.079999
              ],
              [
                106.3236,
                21.079693
              ],
              [
                106.323916,
                21.078892
              ],
              [
                106.324249,
                21.077795
              ],
              [
                106.324381,
                21.077091
              ],
              [
                106.324481,
                21.076344
              ],
              [
                106.324477,
                21.075857
              ],
              [
                106.324403,
                21.074971
              ],
              [
                106.324376,
                21.074796
              ],
              [
                106.324152,
                21.073694
              ],
              [
                106.323788,
                21.072627
              ],
              [
                106.323682,
                21.072335
              ],
              [
                106.32306,
                21.071193
              ],
              [
                106.322332,
                21.070051
              ],
              [
                106.320487,
                21.06743
              ],
              [
                106.319484,
                21.065857
              ],
              [
                106.318568,
                21.064215
              ],
              [
                106.318052,
                21.062842
              ],
              [
                106.317753,
                21.061888
              ],
              [
                106.317687,
                21.061396
              ],
              [
                106.317538,
                21.060078
              ],
              [
                106.317407,
                21.059089
              ],
              [
                106.317224,
                21.058358
              ],
              [
                106.3171,
                21.058087
              ],
              [
                106.317066,
                21.058013
              ],
              [
                106.316871,
                21.057833
              ],
              [
                106.316578,
                21.057689
              ],
              [
                106.316489,
                21.057664
              ],
              [
                106.316131,
                21.057565
              ],
              [
                106.315551,
                21.05748
              ],
              [
                106.31474,
                21.057576
              ],
              [
                106.312278,
                21.058269
              ],
              [
                106.309688,
                21.05914
              ],
              [
                106.30942,
                21.059829
              ],
              [
                106.309417,
                21.059835
              ],
              [
                106.308466,
                21.061362
              ],
              [
                106.307143,
                21.063635
              ],
              [
                106.305549,
                21.066428
              ],
              [
                106.304446,
                21.06878
              ],
              [
                106.304196,
                21.069302
              ],
              [
                106.303254,
                21.071779
              ],
              [
                106.302818,
                21.073172
              ],
              [
                106.302553,
                21.074403
              ],
              [
                106.302433,
                21.076408
              ],
              [
                106.302471,
                21.080546
              ],
              [
                106.302485,
                21.081637
              ],
              [
                106.30249,
                21.083187
              ],
              [
                106.302177,
                21.087309
              ],
              [
                106.302123,
                21.087501
              ],
              [
                106.302037,
                21.087778
              ],
              [
                106.301518,
                21.089438
              ],
              [
                106.301227,
                21.090128
              ],
              [
                106.3005,
                21.092275
              ],
              [
                106.299829,
                21.093961
              ],
              [
                106.29933,
                21.095311
              ],
              [
                106.29873,
                21.096931
              ],
              [
                106.29722,
                21.101318
              ],
              [
                106.296697,
                21.102805
              ],
              [
                106.29646,
                21.103408
              ],
              [
                106.295763,
                21.105344
              ],
              [
                106.29562,
                21.106086
              ],
              [
                106.295532,
                21.106573
              ],
              [
                106.295368,
                21.107471
              ],
              [
                106.295368,
                21.107471
              ],
              [
                106.295363,
                21.107495
              ],
              [
                106.295383,
                21.108706
              ],
              [
                106.295402,
                21.109372
              ],
              [
                106.295683,
                21.112278
              ],
              [
                106.296078,
                21.114085
              ],
              [
                106.296434,
                21.115375
              ],
              [
                106.296824,
                21.116698
              ],
              [
                106.297599,
                21.118599
              ],
              [
                106.298546,
                21.120531
              ],
              [
                106.299387,
                21.122179
              ],
              [
                106.300333,
                21.122933
              ],
              [
                106.301586,
                21.124008
              ],
              [
                106.301588,
                21.124009
              ],
              [
                106.302128,
                21.124463
              ],
              [
                106.303746,
                21.12579
              ],
              [
                106.305479,
                21.126885
              ],
              [
                106.307888,
                21.127883
              ],
              [
                106.310838,
                21.12932
              ],
              [
                106.312039,
                21.129893
              ],
              [
                106.313886,
                21.131421
              ],
              [
                106.315552,
                21.13323
              ],
              [
                106.317491,
                21.13594
              ],
              [
                106.318423,
                21.135253
              ],
              [
                106.319089,
                21.134762
              ],
              [
                106.319243,
                21.134649
              ],
              [
                106.319428,
                21.134513
              ],
              [
                106.31951,
                21.134452
              ],
              [
                106.319674,
                21.134636
              ],
              [
                106.319863,
                21.13475
              ],
              [
                106.320147,
                21.134923
              ],
              [
                106.320233,
                21.134975
              ],
              [
                106.320305,
                21.134994
              ],
              [
                106.320579,
                21.13507
              ],
              [
                106.320631,
                21.135084
              ],
              [
                106.320799,
                21.135166
              ],
              [
                106.320881,
                21.135287
              ],
              [
                106.320882,
                21.135387
              ],
              [
                106.321009,
                21.135376
              ],
              [
                106.321092,
                21.135358
              ],
              [
                106.321167,
                21.135311
              ],
              [
                106.321244,
                21.135261
              ],
              [
                106.321346,
                21.135234
              ],
              [
                106.321478,
                21.135181
              ],
              [
                106.321656,
                21.135071
              ],
              [
                106.321831,
                21.134983
              ],
              [
                106.321977,
                21.134938
              ],
              [
                106.322158,
                21.134895
              ],
              [
                106.322364,
                21.134855
              ],
              [
                106.322502,
                21.134844
              ],
              [
                106.322586,
                21.13482
              ],
              [
                106.322805,
                21.13474
              ],
              [
                106.32311,
                21.134606
              ],
              [
                106.323181,
                21.134581
              ],
              [
                106.323284,
                21.134522
              ],
              [
                106.323469,
                21.134437
              ],
              [
                106.323572,
                21.134398
              ],
              [
                106.323613,
                21.134394
              ],
              [
                106.323664,
                21.134428
              ],
              [
                106.323726,
                21.134471
              ],
              [
                106.323756,
                21.134473
              ],
              [
                106.323797,
                21.134463
              ],
              [
                106.323846,
                21.134428
              ],
              [
                106.323973,
                21.134297
              ],
              [
                106.324076,
                21.134149
              ],
              [
                106.324214,
                21.133917
              ],
              [
                106.32428,
                21.133794
              ],
              [
                106.324341,
                21.133688
              ],
              [
                106.324393,
                21.13364
              ],
              [
                106.324442,
                21.133598
              ],
              [
                106.324432,
                21.133574
              ],
              [
                106.324428,
                21.133477
              ],
              [
                106.324461,
                21.133387
              ],
              [
                106.324605,
                21.133196
              ],
              [
                106.325007,
                21.13291
              ],
              [
                106.325145,
                21.132815
              ],
              [
                106.325188,
                21.132772
              ],
              [
                106.325237,
                21.132738
              ],
              [
                106.325238,
                21.132738
              ],
              [
                106.32528,
                21.132745
              ],
              [
                106.325318,
                21.132806
              ],
              [
                106.325365,
                21.132884
              ],
              [
                106.325411,
                21.13292
              ],
              [
                106.32547,
                21.132916
              ],
              [
                106.32553,
                21.132912
              ],
              [
                106.325613,
                21.132843
              ],
              [
                106.325635,
                21.132753
              ],
              [
                106.325611,
                21.132642
              ],
              [
                106.325583,
                21.13251
              ],
              [
                106.325594,
                21.132424
              ],
              [
                106.325635,
                21.132348
              ],
              [
                106.325704,
                21.132276
              ],
              [
                106.325756,
                21.132193
              ],
              [
                106.325767,
                21.13211
              ],
              [
                106.325759,
                21.132024
              ],
              [
                106.325724,
                21.131989
              ],
              [
                106.325636,
                21.131971
              ],
              [
                106.325506,
                21.131998
              ],
              [
                106.325369,
                21.132056
              ],
              [
                106.325281,
                21.132082
              ],
              [
                106.32528,
                21.132082
              ],
              [
                106.325201,
                21.13209
              ],
              [
                106.325036,
                21.132115
              ],
              [
                106.324977,
                21.132132
              ],
              [
                106.324848,
                21.132215
              ],
              [
                106.324616,
                21.132357
              ],
              [
                106.324235,
                21.132425
              ],
              [
                106.324218,
                21.132425
              ],
              [
                106.324203,
                21.132428
              ],
              [
                106.324194,
                21.132425
              ],
              [
                106.324101,
                21.132426
              ],
              [
                106.324047,
                21.132405
              ],
              [
                106.323835,
                21.132188
              ],
              [
                106.323713,
                21.132043
              ],
              [
                106.3237,
                21.132027
              ],
              [
                106.323564,
                21.131935
              ],
              [
                106.323523,
                21.131907
              ],
              [
                106.323488,
                21.131835
              ],
              [
                106.323552,
                21.131713
              ],
              [
                106.323596,
                21.131671
              ],
              [
                106.323605,
                21.131662
              ],
              [
                106.323876,
                21.131581
              ],
              [
                106.323948,
                21.131534
              ],
              [
                106.323971,
                21.131498
              ],
              [
                106.32395,
                21.131384
              ],
              [
                106.323846,
                21.131262
              ],
              [
                106.323706,
                21.131185
              ],
              [
                106.323566,
                21.131107
              ],
              [
                106.323335,
                21.130983
              ],
              [
                106.323322,
                21.130977
              ],
              [
                106.323209,
                21.130927
              ],
              [
                106.323128,
                21.130892
              ],
              [
                106.32299,
                21.130919
              ],
              [
                106.322352,
                21.130509
              ],
              [
                106.321915,
                21.130146
              ],
              [
                106.321897,
                21.130139
              ],
              [
                106.321884,
                21.130134
              ],
              [
                106.321835,
                21.130114
              ],
              [
                106.321653,
                21.130015
              ],
              [
                106.321458,
                21.129902
              ],
              [
                106.321261,
                21.129758
              ],
              [
                106.321145,
                21.129646
              ],
              [
                106.320973,
                21.129466
              ],
              [
                106.320873,
                21.129373
              ],
              [
                106.320853,
                21.12936
              ],
              [
                106.320911,
                21.129126
              ],
              [
                106.321121,
                21.128683
              ],
              [
                106.321296,
                21.128732
              ],
              [
                106.321546,
                21.128835
              ],
              [
                106.321793,
                21.128925
              ],
              [
                106.322073,
                21.128993
              ],
              [
                106.32268,
                21.129004
              ],
              [
                106.323989,
                21.128996
              ],
              [
                106.325666,
                21.128887
              ],
              [
                106.325763,
                21.128887
              ],
              [
                106.325797,
                21.12888
              ],
              [
                106.326011,
                21.128824
              ],
              [
                106.32613,
                21.128777
              ],
              [
                106.326174,
                21.128758
              ],
              [
                106.326521,
                21.128694
              ],
              [
                106.326834,
                21.128681
              ],
              [
                106.327189,
                21.128693
              ],
              [
                106.327786,
                21.128749
              ],
              [
                106.327954,
                21.128773
              ],
              [
                106.328296,
                21.128921
              ],
              [
                106.328535,
                21.129028
              ],
              [
                106.329139,
                21.129129
              ],
              [
                106.329552,
                21.129175
              ],
              [
                106.330035,
                21.129337
              ],
              [
                106.330227,
                21.129443
              ],
              [
                106.3303,
                21.129517
              ],
              [
                106.330405,
                21.129653
              ],
              [
                106.330468,
                21.129801
              ],
              [
                106.330535,
                21.129915
              ],
              [
                106.330673,
                21.129995
              ],
              [
                106.331345,
                21.130209
              ],
              [
                106.33164,
                21.130303
              ],
              [
                106.332026,
                21.130375
              ],
              [
                106.332298,
                21.130388
              ],
              [
                106.332539,
                21.130407
              ],
              [
                106.332832,
                21.130365
              ],
              [
                106.333,
                21.130275
              ],
              [
                106.333099,
                21.130249
              ],
              [
                106.333305,
                21.130269
              ],
              [
                106.333834,
                21.130408
              ],
              [
                106.334283,
                21.130574
              ],
              [
                106.334435,
                21.130973
              ],
              [
                106.334583,
                21.131259
              ],
              [
                106.334726,
                21.131394
              ],
              [
                106.335112,
                21.131452
              ],
              [
                106.33583,
                21.131432
              ],
              [
                106.336304,
                21.131414
              ],
              [
                106.336846,
                21.131323
              ],
              [
                106.337342,
                21.131151
              ],
              [
                106.33806,
                21.131174
              ],
              [
                106.33858,
                21.131198
              ],
              [
                106.338815,
                21.131192
              ],
              [
                106.339341,
                21.130924
              ],
              [
                106.339803,
                21.130606
              ],
              [
                106.340291,
                21.130382
              ],
              [
                106.340816,
                21.130145
              ],
              [
                106.34148,
                21.129779
              ],
              [
                106.341702,
                21.129784
              ],
              [
                106.341958,
                21.129858
              ],
              [
                106.342347,
                21.13017
              ],
              [
                106.342763,
                21.130468
              ],
              [
                106.343097,
                21.130691
              ],
              [
                106.343279,
                21.130774
              ],
              [
                106.343597,
                21.130883
              ],
              [
                106.343839,
                21.131066
              ],
              [
                106.34391,
                21.131151
              ],
              [
                106.344349,
                21.13143
              ],
              [
                106.344714,
                21.131578
              ],
              [
                106.345243,
                21.131821
              ],
              [
                106.345665,
                21.131947
              ],
              [
                106.346723,
                21.132182
              ],
              [
                106.347506,
                21.132399
              ],
              [
                106.347743,
                21.132419
              ],
              [
                106.348393,
                21.132399
              ],
              [
                106.349477,
                21.132283
              ],
              [
                106.350363,
                21.132247
              ],
              [
                106.350926,
                21.132288
              ],
              [
                106.350926,
                21.132288
              ]
            ]
          ]
        ]
      },
      "properties": {
        "code": "10546",
        "name": "Chí Linh",
        "nameEn": "Chi Linh",
        "fullName": "Phường Chí Linh",
        "fullNameEn": "Chi Linh Ward",
        "codeName": "chi_linh",
        "postalCode": "03527",
        "postalCodePrefix": "",
        "gisServerId": "diaphanhanhchinhcapxa_2025.876",
        "areaKm2": 26.79
      }
    }
  ]
}