{
  "type": "FeatureCollection",
  "bbox": [
    106.235391,
    20.933188,
    106.31054,
    20.962477
  ],
  "features": [
    {
      "type": "Feature",
      "id": "10543",
      "bbox": [
        106.235391,
        20.933188,
        106.31054,
        20.962477
      ],
      "geometry": {
        "type": "MultiPolygon",
        "coordinates": [
          [
            [
              [
                106.250969,
                20.962357
              ],
              [
                106.251873,
                20.962166
              ],
              [
                106.251903,
                20.962175
              ],
              [
                106.251933,
                20.962182
              ],
              [
                106.251974,
                20.962181
              ],
              [
                106.252368,
                20.962135
              ],
              [
                106.252438,
                20.962113
              ],
              [
                106.254092,
                20.96193
              ],
              [
                106.254164,
                20.961669
              ],
              [
                106.254298,
                20.961269
              ],
              [
                106.25443,
                20.960862
              ],
              [
                106.254554,
                20.960451
              ],
              [
                106.254685,
                20.960059
              ],
              [
                106.254792,
                20.95965
              ],
              [
                106.254878,
                20.959304
              ],
              [
                106.255568,
                20.959242
              ],
              [
                106.255624,
                20.959237
              ],
              [
                106.25589,
                20.959219
              ],
              [
                106.256126,
                20.959204
              ],
              [
                106.2566,
                20.959183
              ],
              [
                106.257083,
                20.959155
              ],
              [
                106.257565,
                20.959123
              ],
              [
                106.25813,
                20.95908
              ],
              [
                106.258667,
                20.959055
              ],
              [
                106.258868,
                20.959046
              ],
              [
                106.258904,
                20.959045
              ],
              [
                106.258944,
                20.959074
              ],
              [
                106.258948,
                20.959036
              ],
              [
                106.258959,
                20.95891
              ],
              [
                106.258977,
                20.95871
              ],
              [
                106.259031,
                20.958437
              ],
              [
                106.259041,
                20.958424
              ],
              [
                106.259065,
                20.958391
              ],
              [
                106.259066,
                20.958389
              ],
              [
                106.259142,
                20.958384
              ],
              [
                106.259188,
                20.95836
              ],
              [
                106.259555,
                20.958433
              ],
              [
                106.259683,
                20.95849
              ],
              [
                106.259693,
                20.958495
              ],
              [
                106.260018,
                20.958576
              ],
              [
                106.260243,
                20.958633
              ],
              [
                106.260341,
                20.958657
              ],
              [
                106.260646,
                20.958712
              ],
              [
                106.260779,
                20.958764
              ],
              [
                106.260902,
                20.958825
              ],
              [
                106.261396,
                20.95902
              ],
              [
                106.261487,
                20.958907
              ],
              [
                106.26157,
                20.95881
              ],
              [
                106.261616,
                20.958777
              ],
              [
                106.261835,
                20.958545
              ],
              [
                106.2621,
                20.958264
              ],
              [
                106.262096,
                20.958243
              ],
              [
                106.262305,
                20.958055
              ],
              [
                106.262381,
                20.958022
              ],
              [
                106.262596,
                20.95807
              ],
              [
                106.262646,
                20.958087
              ],
              [
                106.263016,
                20.95751
              ],
              [
                106.263166,
                20.957275
              ],
              [
                106.263204,
                20.957217
              ],
              [
                106.264045,
                20.956018
              ],
              [
                106.26418,
                20.95584
              ],
              [
                106.265265,
                20.954465
              ],
              [
                106.266058,
                20.953548
              ],
              [
                106.266179,
                20.953415
              ],
              [
                106.266715,
                20.953036
              ],
              [
                106.266876,
                20.953169
              ],
              [
                106.266889,
                20.953181
              ],
              [
                106.26691,
                20.953198
              ],
              [
                106.267079,
                20.953335
              ],
              [
                106.267674,
                20.953856
              ],
              [
                106.268051,
                20.954213
              ],
              [
                106.268495,
                20.953867
              ],
              [
                106.269186,
                20.953426
              ],
              [
                106.26939,
                20.95336
              ],
              [
                106.269731,
                20.953385
              ],
              [
                106.270007,
                20.953084
              ],
              [
                106.270171,
                20.95295
              ],
              [
                106.270202,
                20.952963
              ],
              [
                106.270244,
                20.952963
              ],
              [
                106.270267,
                20.952952
              ],
              [
                106.270301,
                20.952905
              ],
              [
                106.270325,
                20.95287
              ],
              [
                106.27034,
                20.952869
              ],
              [
                106.270532,
                20.952966
              ],
              [
                106.271174,
                20.953283
              ],
              [
                106.271694,
                20.953573
              ],
              [
                106.272203,
                20.952934
              ],
              [
                106.272336,
                20.952799
              ],
              [
                106.272399,
                20.952787
              ],
              [
                106.272501,
                20.952798
              ],
              [
                106.27264,
                20.952871
              ],
              [
                106.272958,
                20.952599
              ],
              [
                106.273335,
                20.952279
              ],
              [
                106.273335,
                20.952278
              ],
              [
                106.273827,
                20.952727
              ],
              [
                106.2745,
                20.952039
              ],
              [
                106.274867,
                20.951672
              ],
              [
                106.275402,
                20.951136
              ],
              [
                106.275489,
                20.951061
              ],
              [
                106.275578,
                20.950985
              ],
              [
                106.276038,
                20.951874
              ],
              [
                106.276239,
                20.951796
              ],
              [
                106.276257,
                20.951785
              ],
              [
                106.276478,
                20.951609
              ],
              [
                106.276589,
                20.951554
              ],
              [
                106.276633,
                20.95156
              ],
              [
                106.276726,
                20.951622
              ],
              [
                106.27699,
                20.951872
              ],
              [
                106.277296,
                20.952163
              ],
              [
                106.277366,
                20.952227
              ],
              [
                106.27746,
                20.952283
              ],
              [
                106.277533,
                20.952297
              ],
              [
                106.277622,
                20.952288
              ],
              [
                106.277755,
                20.952245
              ],
              [
                106.277873,
                20.952238
              ],
              [
                106.277917,
                20.952232
              ],
              [
                106.277957,
                20.952206
              ],
              [
                106.278083,
                20.952122
              ],
              [
                106.278084,
                20.952122
              ],
              [
                106.278084,
                20.952122
              ],
              [
                106.27825,
                20.952005
              ],
              [
                106.278251,
                20.952004
              ],
              [
                106.278251,
                20.952004
              ],
              [
                106.27841,
                20.951925
              ],
              [
                106.278411,
                20.951924
              ],
              [
                106.278411,
                20.951925
              ],
              [
                106.278703,
                20.9518
              ],
              [
                106.278703,
                20.9518
              ],
              [
                106.278704,
                20.951799
              ],
              [
                106.278705,
                20.951799
              ],
              [
                106.278706,
                20.951799
              ],
              [
                106.279287,
                20.951663
              ],
              [
                106.279807,
                20.951587
              ],
              [
                106.27981,
                20.951587
              ],
              [
                106.27981,
                20.951587
              ],
              [
                106.279812,
                20.951587
              ],
              [
                106.279812,
                20.951588
              ],
              [
                106.279813,
                20.951588
              ],
              [
                106.279814,
                20.951589
              ],
              [
                106.279814,
                20.951589
              ],
              [
                106.279816,
                20.951591
              ],
              [
                106.279816,
                20.951591
              ],
              [
                106.279817,
                20.951592
              ],
              [
                106.279817,
                20.951593
              ],
              [
                106.279817,
                20.951593
              ],
              [
                106.279817,
                20.951594
              ],
              [
                106.279818,
                20.951594
              ],
              [
                106.279815,
                20.951659
              ],
              [
                106.279792,
                20.95203
              ],
              [
                106.279766,
                20.952413
              ],
              [
                106.279766,
                20.952414
              ],
              [
                106.279766,
                20.952415
              ],
              [
                106.279766,
                20.952416
              ],
              [
                106.279767,
                20.952417
              ],
              [
                106.279767,
                20.952417
              ],
              [
                106.279767,
                20.952418
              ],
              [
                106.279767,
                20.952418
              ],
              [
                106.279769,
                20.95242
              ],
              [
                106.279769,
                20.95242
              ],
              [
                106.27977,
                20.952421
              ],
              [
                106.27977,
                20.952421
              ],
              [
                106.279771,
                20.952421
              ],
              [
                106.279772,
                20.952422
              ],
              [
                106.280443,
                20.95256
              ],
              [
                106.280913,
                20.952707
              ],
              [
                106.281151,
                20.952855
              ],
              [
                106.281257,
                20.952934
              ],
              [
                106.28147,
                20.95313
              ],
              [
                106.281542,
                20.95324
              ],
              [
                106.28161,
                20.953531
              ],
              [
                106.281704,
                20.95375
              ],
              [
                106.281993,
                20.954197
              ],
              [
                106.282002,
                20.954216
              ],
              [
                106.28205,
                20.954314
              ],
              [
                106.282125,
                20.954257
              ],
              [
                106.282188,
                20.954214
              ],
              [
                106.282188,
                20.954214
              ],
              [
                106.282189,
                20.954214
              ],
              [
                106.282817,
                20.953986
              ],
              [
                106.282819,
                20.953986
              ],
              [
                106.282819,
                20.953985
              ],
              [
                106.282823,
                20.953985
              ],
              [
                106.283084,
                20.954915
              ],
              [
                106.283187,
                20.955283
              ],
              [
                106.283187,
                20.955284
              ],
              [
                106.283186,
                20.955285
              ],
              [
                106.283177,
                20.955539
              ],
              [
                106.283123,
                20.955582
              ],
              [
                106.283076,
                20.955642
              ],
              [
                106.282915,
                20.955819
              ],
              [
                106.282725,
                20.955925
              ],
              [
                106.282627,
                20.955992
              ],
              [
                106.282521,
                20.956076
              ],
              [
                106.28252,
                20.956077
              ],
              [
                106.282518,
                20.956077
              ],
              [
                106.282518,
                20.956077
              ],
              [
                106.282517,
                20.956077
              ],
              [
                106.282517,
                20.956078
              ],
              [
                106.282516,
                20.956078
              ],
              [
                106.282144,
                20.956386
              ],
              [
                106.281675,
                20.956771
              ],
              [
                106.281466,
                20.956861
              ],
              [
                106.2812,
                20.956975
              ],
              [
                106.279154,
                20.95755
              ],
              [
                106.279153,
                20.957551
              ],
              [
                106.279153,
                20.957551
              ],
              [
                106.279152,
                20.957551
              ],
              [
                106.279152,
                20.957551
              ],
              [
                106.279151,
                20.957552
              ],
              [
                106.279151,
                20.957552
              ],
              [
                106.279149,
                20.957554
              ],
              [
                106.279149,
                20.957554
              ],
              [
                106.279148,
                20.957555
              ],
              [
                106.279148,
                20.957555
              ],
              [
                106.279147,
                20.957556
              ],
              [
                106.279147,
                20.957558
              ],
              [
                106.279146,
                20.957559
              ],
              [
                106.279146,
                20.957561
              ],
              [
                106.279147,
                20.957561
              ],
              [
                106.279147,
                20.957563
              ],
              [
                106.279147,
                20.957563
              ],
              [
                106.279147,
                20.957564
              ],
              [
                106.279148,
                20.957564
              ],
              [
                106.27933,
                20.957857
              ],
              [
                106.27933,
                20.957857
              ],
              [
                106.279332,
                20.957859
              ],
              [
                106.279332,
                20.957859
              ],
              [
                106.279333,
                20.95786
              ],
              [
                106.279334,
                20.95786
              ],
              [
                106.279334,
                20.957861
              ],
              [
                106.279336,
                20.957861
              ],
              [
                106.279336,
                20.957861
              ],
              [
                106.279391,
                20.957859
              ],
              [
                106.280011,
                20.957827
              ],
              [
                106.280515,
                20.957896
              ],
              [
                106.280844,
                20.957972
              ],
              [
                106.281049,
                20.958035
              ],
              [
                106.281273,
                20.958186
              ],
              [
                106.281624,
                20.958636
              ],
              [
                106.281678,
                20.958781
              ],
              [
                106.281711,
                20.959227
              ],
              [
                106.28217,
                20.95939
              ],
              [
                106.282237,
                20.959414
              ],
              [
                106.282532,
                20.959518
              ],
              [
                106.282763,
                20.959595
              ],
              [
                106.282794,
                20.959606
              ],
              [
                106.282985,
                20.959668
              ],
              [
                106.283297,
                20.959809
              ],
              [
                106.283353,
                20.959837
              ],
              [
                106.284273,
                20.960294
              ],
              [
                106.285526,
                20.960917
              ],
              [
                106.286401,
                20.959748
              ],
              [
                106.28722,
                20.959039
              ],
              [
                106.288055,
                20.958474
              ],
              [
                106.289605,
                20.957659
              ],
              [
                106.29144,
                20.956955
              ],
              [
                106.293031,
                20.956529
              ],
              [
                106.29422,
                20.956405
              ],
              [
                106.296021,
                20.956291
              ],
              [
                106.297763,
                20.956421
              ],
              [
                106.299353,
                20.956682
              ],
              [
                106.301127,
                20.957041
              ],
              [
                106.302201,
                20.957217
              ],
              [
                106.302247,
                20.957218
              ],
              [
                106.303988,
                20.957367
              ],
              [
                106.30882,
                20.957782
              ],
              [
                106.30936,
                20.957795
              ],
              [
                106.309277,
                20.956709
              ],
              [
                106.309257,
                20.95652
              ],
              [
                106.309212,
                20.956105
              ],
              [
                106.309062,
                20.955604
              ],
              [
                106.309045,
                20.955441
              ],
              [
                106.309027,
                20.955252
              ],
              [
                106.30911,
                20.954676
              ],
              [
                106.309131,
                20.95453
              ],
              [
                106.30912,
                20.954271
              ],
              [
                106.309056,
                20.954206
              ],
              [
                106.308954,
                20.954174
              ],
              [
                106.30887,
                20.954196
              ],
              [
                106.308769,
                20.954184
              ],
              [
                106.308212,
                20.954116
              ],
              [
                106.308212,
                20.953458
              ],
              [
                106.308708,
                20.953268
              ],
              [
                106.308756,
                20.952308
              ],
              [
                106.308806,
                20.949093
              ],
              [
                106.307833,
                20.94859
              ],
              [
                106.307833,
                20.94859
              ],
              [
                106.31054,
                20.944351
              ],
              [
                106.309981,
                20.944161
              ],
              [
                106.309423,
                20.943972
              ],
              [
                106.309015,
                20.94381
              ],
              [
                106.308183,
                20.943492
              ],
              [
                106.308191,
                20.943316
              ],
              [
                106.308237,
                20.942415
              ],
              [
                106.308178,
                20.942038
              ],
              [
                106.308152,
                20.941869
              ],
              [
                106.308089,
                20.941465
              ],
              [
                106.307601,
                20.941521
              ],
              [
                106.307526,
                20.940976
              ],
              [
                106.30745,
                20.940432
              ],
              [
                106.307016,
                20.940638
              ],
              [
                106.306869,
                20.940043
              ],
              [
                106.304059,
                20.939971
              ],
              [
                106.303951,
                20.939874
              ],
              [
                106.303653,
                20.939881
              ],
              [
                106.303432,
                20.939901
              ],
              [
                106.303398,
                20.939876
              ],
              [
                106.303374,
                20.939798
              ],
              [
                106.303366,
                20.939715
              ],
              [
                106.30332,
                20.939694
              ],
              [
                106.303167,
                20.939706
              ],
              [
                106.303167,
                20.939706
              ],
              [
                106.303061,
                20.939734
              ],
              [
                106.302968,
                20.939601
              ],
              [
                106.302968,
                20.939601
              ],
              [
                106.301753,
                20.940034
              ],
              [
                106.301837,
                20.93825
              ],
              [
                106.301825,
                20.938097
              ],
              [
                106.301424,
                20.938085
              ],
              [
                106.300002,
                20.937983
              ],
              [
                106.299677,
                20.937926
              ],
              [
                106.299645,
                20.937497
              ],
              [
                106.298631,
                20.937463
              ],
              [
                106.297864,
                20.937437
              ],
              [
                106.297872,
                20.937341
              ],
              [
                106.297874,
                20.937244
              ],
              [
                106.297606,
                20.937227
              ],
              [
                106.297625,
                20.936785
              ],
              [
                106.297625,
                20.936785
              ],
              [
                106.297633,
                20.936604
              ],
              [
                106.297633,
                20.936604
              ],
              [
                106.297536,
                20.936596
              ],
              [
                106.296683,
                20.936508
              ],
              [
                106.29569,
                20.936407
              ],
              [
                106.29446,
                20.936286
              ],
              [
                106.293875,
                20.936229
              ],
              [
                106.292992,
                20.936144
              ],
              [
                106.292882,
                20.936133
              ],
              [
                106.292589,
                20.936105
              ],
              [
                106.292297,
                20.936077
              ],
              [
                106.290673,
                20.935916
              ],
              [
                106.290409,
                20.935878
              ],
              [
                106.290332,
                20.935868
              ],
              [
                106.290143,
                20.935838
              ],
              [
                106.289748,
                20.936597
              ],
              [
                106.288211,
                20.936089
              ],
              [
                106.286671,
                20.935751
              ],
              [
                106.282822,
                20.935099
              ],
              [
                106.277128,
                20.934516
              ],
              [
                106.27714,
                20.934401
              ],
              [
                106.274741,
                20.934149
              ],
              [
                106.272048,
                20.933872
              ],
              [
                106.269829,
                20.933648
              ],
              [
                106.268883,
                20.933574
              ],
              [
                106.268638,
                20.933554
              ],
              [
                106.268411,
                20.933534
              ],
              [
                106.268411,
                20.933534
              ],
              [
                106.268334,
                20.933527
              ],
              [
                106.266234,
                20.933336
              ],
              [
                106.264763,
                20.933198
              ],
              [
                106.263613,
                20.933188
              ],
              [
                106.262476,
                20.933285
              ],
              [
                106.235391,
                20.935511
              ],
              [
                106.235391,
                20.935515
              ],
              [
                106.23541,
                20.936407
              ],
              [
                106.23544,
                20.936494
              ],
              [
                106.235741,
                20.936494
              ],
              [
                106.235966,
                20.936467
              ],
              [
                106.23605,
                20.936426
              ],
              [
                106.236227,
                20.93645
              ],
              [
                106.236254,
                20.937673
              ],
              [
                106.236256,
                20.937745
              ],
              [
                106.236821,
                20.938265
              ],
              [
                106.237389,
                20.938798
              ],
              [
                106.237018,
                20.93909
              ],
              [
                106.237458,
                20.939539
              ],
              [
                106.237852,
                20.93996
              ],
              [
                106.237891,
                20.940028
              ],
              [
                106.237778,
                20.940116
              ],
              [
                106.237247,
                20.940695
              ],
              [
                106.237702,
                20.941161
              ],
              [
                106.237704,
                20.941243
              ],
              [
                106.237738,
                20.941243
              ],
              [
                106.237916,
                20.941271
              ],
              [
                106.238024,
                20.941312
              ],
              [
                106.23804,
                20.94135
              ],
              [
                106.238056,
                20.941388
              ],
              [
                106.238057,
                20.94139
              ],
              [
                106.238032,
                20.941503
              ],
              [
                106.23801,
                20.941545
              ],
              [
                106.237976,
                20.941605
              ],
              [
                106.237968,
                20.941651
              ],
              [
                106.237893,
                20.942086
              ],
              [
                106.237198,
                20.942037
              ],
              [
                106.237207,
                20.942381
              ],
              [
                106.237299,
                20.943584
              ],
              [
                106.237321,
                20.943968
              ],
              [
                106.237019,
                20.943977
              ],
              [
                106.237078,
                20.945118
              ],
              [
                106.237137,
                20.946259
              ],
              [
                106.23716,
                20.946714
              ],
              [
                106.237164,
                20.946784
              ],
              [
                106.237241,
                20.947377
              ],
              [
                106.239112,
                20.947862
              ],
              [
                106.239372,
                20.947872
              ],
              [
                106.239379,
                20.948442
              ],
              [
                106.239405,
                20.950637
              ],
              [
                106.239414,
                20.950711
              ],
              [
                106.239425,
                20.950794
              ],
              [
                106.239455,
                20.950956
              ],
              [
                106.23947,
                20.951037
              ],
              [
                106.240312,
                20.950884
              ],
              [
                106.240408,
                20.950892
              ],
              [
                106.240516,
                20.951005
              ],
              [
                106.240356,
                20.951334
              ],
              [
                106.240303,
                20.951488
              ],
              [
                106.239894,
                20.952759
              ],
              [
                106.239864,
                20.952895
              ],
              [
                106.239875,
                20.952897
              ],
              [
                106.239923,
                20.952902
              ],
              [
                106.240159,
                20.952875
              ],
              [
                106.240316,
                20.95287
              ],
              [
                106.240354,
                20.952869
              ],
              [
                106.241325,
                20.953421
              ],
              [
                106.242581,
                20.954175
              ],
              [
                106.242734,
                20.954257
              ],
              [
                106.241945,
                20.954706
              ],
              [
                106.242097,
                20.955033
              ],
              [
                106.242307,
                20.955503
              ],
              [
                106.242393,
                20.955705
              ],
              [
                106.242609,
                20.95619
              ],
              [
                106.242625,
                20.956235
              ],
              [
                106.242664,
                20.95641
              ],
              [
                106.242684,
                20.956504
              ],
              [
                106.24278,
                20.956668
              ],
              [
                106.242888,
                20.956888
              ],
              [
                106.24301,
                20.957178
              ],
              [
                106.243012,
                20.957183
              ],
              [
                106.243015,
                20.957182
              ],
              [
                106.243107,
                20.957141
              ],
              [
                106.244109,
                20.957896
              ],
              [
                106.244251,
                20.958001
              ],
              [
                106.245356,
                20.958822
              ],
              [
                106.246192,
                20.959428
              ],
              [
                106.24581,
                20.960313
              ],
              [
                106.245616,
                20.960437
              ],
              [
                106.24543,
                20.960598
              ],
              [
                106.245285,
                20.960886
              ],
              [
                106.245218,
                20.961064
              ],
              [
                106.245214,
                20.961145
              ],
              [
                106.245234,
                20.961242
              ],
              [
                106.245417,
                20.961245
              ],
              [
                106.245472,
                20.96112
              ],
              [
                106.245641,
                20.961128
              ],
              [
                106.245535,
                20.961651
              ],
              [
                106.246751,
                20.961325
              ],
              [
                106.247467,
                20.96085
              ],
              [
                106.248045,
                20.9614
              ],
              [
                106.248624,
                20.961951
              ],
              [
                106.24876,
                20.962057
              ],
              [
                106.248873,
                20.962116
              ],
              [
                106.248962,
                20.962141
              ],
              [
                106.249074,
                20.962158
              ],
              [
                106.249077,
                20.962422
              ],
              [
                106.249163,
                20.962445
              ],
              [
                106.249247,
                20.962454
              ],
              [
                106.24929,
                20.962477
              ],
              [
                106.249638,
                20.962462
              ],
              [
                106.249765,
                20.962442
              ],
              [
                106.25,
                20.962438
              ],
              [
                106.250969,
                20.962357
              ],
              [
                106.250969,
                20.962357
              ]
            ]
          ]
        ]
      },
      "properties": {
        "code": "10543",
        "name": "Việt Hoà",
        "nameEn": "Viet Hoa",
        "fullName": "Phường Việt Hoà",
        "fullNameEn": "Viet Hoa Ward",
        "codeName": "viet_hoa",
        "postalCode": "03125",
        "postalCodePrefix": "",
        "gisServerId": "diaphanhanhchinhcapxa_2025.854",
        "areaKm2": 17.02
      }
    }
  ]
}