{
  "type": "FeatureCollection",
  "bbox": [
    106.314081,
    21.036524,
    106.366164,
    21.086455
  ],
  "features": [
    {
      "type": "Feature",
      "id": "10615",
      "bbox": [
        106.314081,
        21.036524,
        106.366164,
        21.086455
      ],
      "geometry": {
        "type": "MultiPolygon",
        "coordinates": [
          [
            [
              [
                106.365422,
                21.062578
              ],
              [
                106.36552,
                21.062342
              ],
              [
                106.365899,
                21.060718
              ],
              [
                106.366029,
                21.060015
              ],
              [
                106.3661,
                21.059636
              ],
              [
                106.36614,
                21.059183
              ],
              [
                106.366164,
                21.057841
              ],
              [
                106.366128,
                21.05629
              ],
              [
                106.366013,
                21.055595
              ],
              [
                106.365884,
                21.054758
              ],
              [
                106.365623,
                21.053618
              ],
              [
                106.365613,
                21.053572
              ],
              [
                106.365592,
                21.053479
              ],
              [
                106.365498,
                21.053056
              ],
              [
                106.363897,
                21.053445
              ],
              [
                106.363922,
                21.053516
              ],
              [
                106.363977,
                21.053692
              ],
              [
                106.363999,
                21.053756
              ],
              [
                106.364069,
                21.053957
              ],
              [
                106.364095,
                21.054048
              ],
              [
                106.364129,
                21.054171
              ],
              [
                106.364151,
                21.054246
              ],
              [
                106.364248,
                21.054582
              ],
              [
                106.364281,
                21.054699
              ],
              [
                106.364312,
                21.054807
              ],
              [
                106.364372,
                21.054993
              ],
              [
                106.364415,
                21.055127
              ],
              [
                106.364426,
                21.055174
              ],
              [
                106.364471,
                21.055433
              ],
              [
                106.364485,
                21.055537
              ],
              [
                106.364489,
                21.055569
              ],
              [
                106.364494,
                21.055609
              ],
              [
                106.364504,
                21.05579
              ],
              [
                106.364514,
                21.055961
              ],
              [
                106.364512,
                21.056098
              ],
              [
                106.363507,
                21.055991
              ],
              [
                106.36346,
                21.055986
              ],
              [
                106.363209,
                21.055949
              ],
              [
                106.363039,
                21.055923
              ],
              [
                106.362408,
                21.055832
              ],
              [
                106.362354,
                21.055826
              ],
              [
                106.361738,
                21.055764
              ],
              [
                106.361524,
                21.055753
              ],
              [
                106.361465,
                21.05575
              ],
              [
                106.360672,
                21.055613
              ],
              [
                106.360164,
                21.055555
              ],
              [
                106.359762,
                21.055508
              ],
              [
                106.359399,
                21.055466
              ],
              [
                106.359055,
                21.055419
              ],
              [
                106.358983,
                21.055409
              ],
              [
                106.358939,
                21.055403
              ],
              [
                106.358868,
                21.055393
              ],
              [
                106.358845,
                21.055488
              ],
              [
                106.358841,
                21.055501
              ],
              [
                106.358838,
                21.055514
              ],
              [
                106.358793,
                21.055698
              ],
              [
                106.358745,
                21.055893
              ],
              [
                106.35872,
                21.055908
              ],
              [
                106.358695,
                21.055918
              ],
              [
                106.358651,
                21.055918
              ],
              [
                106.358491,
                21.05591
              ],
              [
                106.357763,
                21.05588
              ],
              [
                106.357314,
                21.055859
              ],
              [
                106.356802,
                21.055849
              ],
              [
                106.356448,
                21.05584
              ],
              [
                106.356092,
                21.055824
              ],
              [
                106.355993,
                21.055819
              ],
              [
                106.355869,
                21.056696
              ],
              [
                106.355631,
                21.056629
              ],
              [
                106.355247,
                21.05657
              ],
              [
                106.354799,
                21.056491
              ],
              [
                106.354543,
                21.056446
              ],
              [
                106.354409,
                21.056412
              ],
              [
                106.354325,
                21.056366
              ],
              [
                106.354232,
                21.056262
              ],
              [
                106.354112,
                21.056106
              ],
              [
                106.354012,
                21.056017
              ],
              [
                106.353899,
                21.05596
              ],
              [
                106.354272,
                21.055249
              ],
              [
                106.354315,
                21.055209
              ],
              [
                106.354372,
                21.055173
              ],
              [
                106.354425,
                21.055137
              ],
              [
                106.35446,
                21.055089
              ],
              [
                106.354133,
                21.05487
              ],
              [
                106.35382,
                21.054667
              ],
              [
                106.353621,
                21.054525
              ],
              [
                106.353576,
                21.054489
              ],
              [
                106.353574,
                21.054487
              ],
              [
                106.353498,
                21.054433
              ],
              [
                106.35349,
                21.054427
              ],
              [
                106.353459,
                21.054455
              ],
              [
                106.353297,
                21.05456
              ],
              [
                106.353094,
                21.054692
              ],
              [
                106.352807,
                21.054908
              ],
              [
                106.352645,
                21.055031
              ],
              [
                106.352528,
                21.055107
              ],
              [
                106.352496,
                21.055127
              ],
              [
                106.352357,
                21.055176
              ],
              [
                106.352249,
                21.05521
              ],
              [
                106.352173,
                21.055214
              ],
              [
                106.352087,
                21.055205
              ],
              [
                106.352016,
                21.055178
              ],
              [
                106.351951,
                21.055149
              ],
              [
                106.351852,
                21.055105
              ],
              [
                106.35179,
                21.055043
              ],
              [
                106.351794,
                21.055033
              ],
              [
                106.351817,
                21.054979
              ],
              [
                106.351869,
                21.054858
              ],
              [
                106.351931,
                21.054649
              ],
              [
                106.35194,
                21.054608
              ],
              [
                106.351979,
                21.054436
              ],
              [
                106.351977,
                21.054426
              ],
              [
                106.35196,
                21.054362
              ],
              [
                106.351926,
                21.05434
              ],
              [
                106.351861,
                21.054313
              ],
              [
                106.351697,
                21.054284
              ],
              [
                106.351467,
                21.054224
              ],
              [
                106.35134,
                21.054166
              ],
              [
                106.35109,
                21.05409
              ],
              [
                106.350837,
                21.054011
              ],
              [
                106.350652,
                21.053936
              ],
              [
                106.350592,
                21.053869
              ],
              [
                106.350563,
                21.053806
              ],
              [
                106.350558,
                21.053796
              ],
              [
                106.350567,
                21.053723
              ],
              [
                106.350627,
                21.053603
              ],
              [
                106.350627,
                21.053602
              ],
              [
                106.350657,
                21.053559
              ],
              [
                106.350601,
                21.05351
              ],
              [
                106.350518,
                21.053437
              ],
              [
                106.350451,
                21.05344
              ],
              [
                106.350414,
                21.053468
              ],
              [
                106.350371,
                21.053464
              ],
              [
                106.350285,
                21.053422
              ],
              [
                106.350198,
                21.053413
              ],
              [
                106.350175,
                21.053411
              ],
              [
                106.350145,
                21.053419
              ],
              [
                106.350062,
                21.053465
              ],
              [
                106.349967,
                21.053491
              ],
              [
                106.349878,
                21.053504
              ],
              [
                106.349817,
                21.053499
              ],
              [
                106.34974,
                21.053483
              ],
              [
                106.349686,
                21.053479
              ],
              [
                106.349628,
                21.053482
              ],
              [
                106.349568,
                21.053498
              ],
              [
                106.34935,
                21.05356
              ],
              [
                106.349263,
                21.053601
              ],
              [
                106.349217,
                21.05363
              ],
              [
                106.349214,
                21.053669
              ],
              [
                106.349217,
                21.053734
              ],
              [
                106.349002,
                21.053712
              ],
              [
                106.349003,
                21.053622
              ],
              [
                106.348999,
                21.053519
              ],
              [
                106.348963,
                21.053424
              ],
              [
                106.348867,
                21.053366
              ],
              [
                106.348813,
                21.053359
              ],
              [
                106.348791,
                21.053361
              ],
              [
                106.348684,
                21.053372
              ],
              [
                106.348593,
                21.053399
              ],
              [
                106.348555,
                21.053394
              ],
              [
                106.348544,
                21.053369
              ],
              [
                106.348562,
                21.053281
              ],
              [
                106.348575,
                21.053218
              ],
              [
                106.348598,
                21.053145
              ],
              [
                106.348605,
                21.05311
              ],
              [
                106.348578,
                21.053071
              ],
              [
                106.348524,
                21.053048
              ],
              [
                106.348375,
                21.053042
              ],
              [
                106.348321,
                21.053031
              ],
              [
                106.348302,
                21.052968
              ],
              [
                106.348112,
                21.052884
              ],
              [
                106.348024,
                21.052842
              ],
              [
                106.348006,
                21.052815
              ],
              [
                106.347999,
                21.052764
              ],
              [
                106.347987,
                21.052739
              ],
              [
                106.347832,
                21.052669
              ],
              [
                106.34777,
                21.052641
              ],
              [
                106.348023,
                21.052351
              ],
              [
                106.348679,
                21.0516
              ],
              [
                106.349029,
                21.051199
              ],
              [
                106.349386,
                21.050788
              ],
              [
                106.349512,
                21.050643
              ],
              [
                106.349249,
                21.050597
              ],
              [
                106.34919,
                21.050458
              ],
              [
                106.349168,
                21.050418
              ],
              [
                106.349148,
                21.050387
              ],
              [
                106.349107,
                21.050366
              ],
              [
                106.349023,
                21.050383
              ],
              [
                106.348864,
                21.050334
              ],
              [
                106.348727,
                21.050288
              ],
              [
                106.348597,
                21.050327
              ],
              [
                106.348574,
                21.050279
              ],
              [
                106.348533,
                21.050244
              ],
              [
                106.348455,
                21.050103
              ],
              [
                106.348379,
                21.049889
              ],
              [
                106.348362,
                21.04943
              ],
              [
                106.348278,
                21.048467
              ],
              [
                106.348238,
                21.047722
              ],
              [
                106.348226,
                21.047633
              ],
              [
                106.348174,
                21.046843
              ],
              [
                106.348176,
                21.046761
              ],
              [
                106.348172,
                21.046708
              ],
              [
                106.34814,
                21.046695
              ],
              [
                106.347,
                21.046244
              ],
              [
                106.346678,
                21.046159
              ],
              [
                106.346121,
                21.045976
              ],
              [
                106.345871,
                21.045893
              ],
              [
                106.345337,
                21.045713
              ],
              [
                106.345308,
                21.045453
              ],
              [
                106.345264,
                21.045159
              ],
              [
                106.34515,
                21.044492
              ],
              [
                106.345153,
                21.044488
              ],
              [
                106.342767,
                21.044742
              ],
              [
                106.342725,
                21.044743
              ],
              [
                106.342647,
                21.044493
              ],
              [
                106.34242,
                21.043709
              ],
              [
                106.342189,
                21.042819
              ],
              [
                106.34202,
                21.042283
              ],
              [
                106.341473,
                21.042299
              ],
              [
                106.341038,
                21.042312
              ],
              [
                106.3403,
                21.042339
              ],
              [
                106.339427,
                21.042348
              ],
              [
                106.339427,
                21.0424
              ],
              [
                106.338639,
                21.042343
              ],
              [
                106.338472,
                21.042337
              ],
              [
                106.337926,
                21.042315
              ],
              [
                106.337834,
                21.042317
              ],
              [
                106.337694,
                21.042319
              ],
              [
                106.33756,
                21.042317
              ],
              [
                106.336481,
                21.041927
              ],
              [
                106.336286,
                21.041835
              ],
              [
                106.335983,
                21.04169
              ],
              [
                106.335676,
                21.041577
              ],
              [
                106.335659,
                21.041551
              ],
              [
                106.335664,
                21.041508
              ],
              [
                106.335705,
                21.041144
              ],
              [
                106.335255,
                21.040841
              ],
              [
                106.334193,
                21.040424
              ],
              [
                106.334444,
                21.039607
              ],
              [
                106.334592,
                21.039632
              ],
              [
                106.334653,
                21.039643
              ],
              [
                106.3347,
                21.039641
              ],
              [
                106.334756,
                21.039548
              ],
              [
                106.335008,
                21.039065
              ],
              [
                106.335042,
                21.038984
              ],
              [
                106.335284,
                21.03847
              ],
              [
                106.3352,
                21.03845
              ],
              [
                106.333977,
                21.03817
              ],
              [
                106.33394,
                21.038162
              ],
              [
                106.333536,
                21.038075
              ],
              [
                106.333197,
                21.038003
              ],
              [
                106.332796,
                21.037917
              ],
              [
                106.332628,
                21.037881
              ],
              [
                106.332388,
                21.03783
              ],
              [
                106.332343,
                21.037825
              ],
              [
                106.332144,
                21.037797
              ],
              [
                106.33229,
                21.037269
              ],
              [
                106.33202,
                21.037127
              ],
              [
                106.331609,
                21.036912
              ],
              [
                106.331354,
                21.036799
              ],
              [
                106.331407,
                21.036658
              ],
              [
                106.331093,
                21.036524
              ],
              [
                106.33096,
                21.036875
              ],
              [
                106.331012,
                21.036905
              ],
              [
                106.330965,
                21.037137
              ],
              [
                106.331078,
                21.037184
              ],
              [
                106.33103,
                21.037302
              ],
              [
                106.330696,
                21.037209
              ],
              [
                106.330615,
                21.037501
              ],
              [
                106.330982,
                21.037599
              ],
              [
                106.330872,
                21.037911
              ],
              [
                106.330511,
                21.037775
              ],
              [
                106.330528,
                21.03773
              ],
              [
                106.330354,
                21.037697
              ],
              [
                106.33035,
                21.037525
              ],
              [
                106.330096,
                21.037496
              ],
              [
                106.330052,
                21.03749
              ],
              [
                106.330046,
                21.037516
              ],
              [
                106.330055,
                21.037638
              ],
              [
                106.330056,
                21.037649
              ],
              [
                106.330037,
                21.037758
              ],
              [
                106.330003,
                21.037827
              ],
              [
                106.3299,
                21.037876
              ],
              [
                106.329892,
                21.03788
              ],
              [
                106.329715,
                21.037878
              ],
              [
                106.329678,
                21.03788
              ],
              [
                106.329651,
                21.037881
              ],
              [
                106.329632,
                21.038302
              ],
              [
                106.32938,
                21.038295
              ],
              [
                106.329365,
                21.038417
              ],
              [
                106.329372,
                21.03857
              ],
              [
                106.329352,
                21.038888
              ],
              [
                106.328667,
                21.038903
              ],
              [
                106.328402,
                21.038912
              ],
              [
                106.328336,
                21.03891
              ],
              [
                106.328257,
                21.038884
              ],
              [
                106.328216,
                21.038873
              ],
              [
                106.32787,
                21.038942
              ],
              [
                106.328136,
                21.039313
              ],
              [
                106.327921,
                21.039468
              ],
              [
                106.327931,
                21.039511
              ],
              [
                106.327776,
                21.039546
              ],
              [
                106.327451,
                21.039572
              ],
              [
                106.32736,
                21.039557
              ],
              [
                106.327345,
                21.039579
              ],
              [
                106.327342,
                21.03959
              ],
              [
                106.327334,
                21.039615
              ],
              [
                106.327339,
                21.039664
              ],
              [
                106.32744,
                21.03979
              ],
              [
                106.327459,
                21.039815
              ],
              [
                106.327488,
                21.039863
              ],
              [
                106.327482,
                21.039903
              ],
              [
                106.327463,
                21.039935
              ],
              [
                106.327405,
                21.039963
              ],
              [
                106.327371,
                21.039971
              ],
              [
                106.32716,
                21.040019
              ],
              [
                106.326857,
                21.040089
              ],
              [
                106.3268,
                21.040131
              ],
              [
                106.326404,
                21.040177
              ],
              [
                106.326361,
                21.04018
              ],
              [
                106.326282,
                21.040178
              ],
              [
                106.326132,
                21.04016
              ],
              [
                106.326091,
                21.040161
              ],
              [
                106.326063,
                21.040168
              ],
              [
                106.326038,
                21.040221
              ],
              [
                106.326016,
                21.040314
              ],
              [
                106.325955,
                21.040603
              ],
              [
                106.325839,
                21.040605
              ],
              [
                106.325741,
                21.040601
              ],
              [
                106.325601,
                21.040583
              ],
              [
                106.325514,
                21.040557
              ],
              [
                106.325427,
                21.04052
              ],
              [
                106.325263,
                21.040411
              ],
              [
                106.32521,
                21.040383
              ],
              [
                106.325177,
                21.040376
              ],
              [
                106.325113,
                21.040393
              ],
              [
                106.325017,
                21.040441
              ],
              [
                106.324897,
                21.040488
              ],
              [
                106.324671,
                21.040545
              ],
              [
                106.324613,
                21.040557
              ],
              [
                106.32442,
                21.040582
              ],
              [
                106.32412,
                21.040637
              ],
              [
                106.323849,
                21.040689
              ],
              [
                106.323653,
                21.040731
              ],
              [
                106.323481,
                21.040785
              ],
              [
                106.323391,
                21.040806
              ],
              [
                106.323282,
                21.040824
              ],
              [
                106.323171,
                21.040832
              ],
              [
                106.323018,
                21.040836
              ],
              [
                106.322896,
                21.040826
              ],
              [
                106.322623,
                21.040752
              ],
              [
                106.322463,
                21.040722
              ],
              [
                106.322445,
                21.040718
              ],
              [
                106.322396,
                21.040709
              ],
              [
                106.322375,
                21.040706
              ],
              [
                106.322317,
                21.040703
              ],
              [
                106.322283,
                21.0407
              ],
              [
                106.322219,
                21.040697
              ],
              [
                106.322134,
                21.040705
              ],
              [
                106.322035,
                21.040735
              ],
              [
                106.321924,
                21.041227
              ],
              [
                106.321734,
                21.041188
              ],
              [
                106.321484,
                21.041822
              ],
              [
                106.321738,
                21.041868
              ],
              [
                106.321723,
                21.042116
              ],
              [
                106.321514,
                21.042137
              ],
              [
                106.321225,
                21.042111
              ],
              [
                106.321192,
                21.0422
              ],
              [
                106.321116,
                21.042385
              ],
              [
                106.320811,
                21.043187
              ],
              [
                106.3205,
                21.04398
              ],
              [
                106.32036,
                21.044346
              ],
              [
                106.320143,
                21.044263
              ],
              [
                106.319774,
                21.044122
              ],
              [
                106.319513,
                21.044616
              ],
              [
                106.319595,
                21.044663
              ],
              [
                106.319672,
                21.0448
              ],
              [
                106.319413,
                21.044986
              ],
              [
                106.319207,
                21.045011
              ],
              [
                106.319179,
                21.045117
              ],
              [
                106.319118,
                21.045377
              ],
              [
                106.319051,
                21.045613
              ],
              [
                106.31889,
                21.046049
              ],
              [
                106.318891,
                21.046082
              ],
              [
                106.318814,
                21.046361
              ],
              [
                106.318813,
                21.046371
              ],
              [
                106.318808,
                21.046437
              ],
              [
                106.318493,
                21.046346
              ],
              [
                106.318442,
                21.046343
              ],
              [
                106.318399,
                21.046353
              ],
              [
                106.318374,
                21.046367
              ],
              [
                106.318371,
                21.046418
              ],
              [
                106.318376,
                21.046691
              ],
              [
                106.318053,
                21.046684
              ],
              [
                106.317916,
                21.047015
              ],
              [
                106.318327,
                21.047107
              ],
              [
                106.318145,
                21.047405
              ],
              [
                106.317961,
                21.047445
              ],
              [
                106.317961,
                21.047484
              ],
              [
                106.317963,
                21.047567
              ],
              [
                106.317963,
                21.047568
              ],
              [
                106.318505,
                21.047635
              ],
              [
                106.318317,
                21.048342
              ],
              [
                106.318103,
                21.049112
              ],
              [
                106.318036,
                21.049346
              ],
              [
                106.31793,
                21.049771
              ],
              [
                106.317891,
                21.049743
              ],
              [
                106.317852,
                21.049712
              ],
              [
                106.317777,
                21.049652
              ],
              [
                106.317706,
                21.04964
              ],
              [
                106.317702,
                21.04964
              ],
              [
                106.317665,
                21.049646
              ],
              [
                106.317627,
                21.049665
              ],
              [
                106.317619,
                21.04967
              ],
              [
                106.317595,
                21.049709
              ],
              [
                106.317563,
                21.049782
              ],
              [
                106.317521,
                21.049785
              ],
              [
                106.317455,
                21.049783
              ],
              [
                106.31733,
                21.04974
              ],
              [
                106.317307,
                21.049708
              ],
              [
                106.317302,
                21.049678
              ],
              [
                106.317351,
                21.049588
              ],
              [
                106.317307,
                21.049558
              ],
              [
                106.317251,
                21.049524
              ],
              [
                106.317235,
                21.049463
              ],
              [
                106.317221,
                21.049416
              ],
              [
                106.317174,
                21.049385
              ],
              [
                106.317104,
                21.049365
              ],
              [
                106.317087,
                21.049362
              ],
              [
                106.317015,
                21.049348
              ],
              [
                106.316834,
                21.04932
              ],
              [
                106.316786,
                21.049312
              ],
              [
                106.316737,
                21.049304
              ],
              [
                106.316752,
                21.049212
              ],
              [
                106.31676,
                21.049158
              ],
              [
                106.316742,
                21.049129
              ],
              [
                106.316617,
                21.049093
              ],
              [
                106.316377,
                21.049045
              ],
              [
                106.31635,
                21.049047
              ],
              [
                106.316324,
                21.049039
              ],
              [
                106.316306,
                21.049287
              ],
              [
                106.316296,
                21.049481
              ],
              [
                106.316284,
                21.049733
              ],
              [
                106.316275,
                21.049907
              ],
              [
                106.316211,
                21.049903
              ],
              [
                106.316098,
                21.049916
              ],
              [
                106.315818,
                21.049954
              ],
              [
                106.315663,
                21.049973
              ],
              [
                106.315463,
                21.049997
              ],
              [
                106.314896,
                21.050077
              ],
              [
                106.314851,
                21.050084
              ],
              [
                106.314692,
                21.050109
              ],
              [
                106.314425,
                21.050126
              ],
              [
                106.314371,
                21.050329
              ],
              [
                106.314363,
                21.050365
              ],
              [
                106.31435,
                21.050424
              ],
              [
                106.314273,
                21.050644
              ],
              [
                106.31425,
                21.050697
              ],
              [
                106.314081,
                21.051088
              ],
              [
                106.314238,
                21.051132
              ],
              [
                106.314396,
                21.051193
              ],
              [
                106.314684,
                21.050903
              ],
              [
                106.314767,
                21.050891
              ],
              [
                106.31489,
                21.05089
              ],
              [
                106.314964,
                21.050877
              ],
              [
                106.315018,
                21.050929
              ],
              [
                106.318065,
                21.054293
              ],
              [
                106.318068,
                21.054296
              ],
              [
                106.317867,
                21.054589
              ],
              [
                106.318466,
                21.05471
              ],
              [
                106.318586,
                21.054734
              ],
              [
                106.318873,
                21.054768
              ],
              [
                106.318873,
                21.054769
              ],
              [
                106.31841,
                21.055228
              ],
              [
                106.318409,
                21.055242
              ],
              [
                106.318553,
                21.055513
              ],
              [
                106.318419,
                21.05569
              ],
              [
                106.318303,
                21.055845
              ],
              [
                106.31858,
                21.056042
              ],
              [
                106.318375,
                21.05656
              ],
              [
                106.318315,
                21.056675
              ],
              [
                106.317494,
                21.057564
              ],
              [
                106.317384,
                21.057719
              ],
              [
                106.3171,
                21.058087
              ],
              [
                106.317224,
                21.058358
              ],
              [
                106.317407,
                21.059089
              ],
              [
                106.317538,
                21.060078
              ],
              [
                106.317687,
                21.061396
              ],
              [
                106.317753,
                21.061888
              ],
              [
                106.318052,
                21.062842
              ],
              [
                106.318568,
                21.064215
              ],
              [
                106.319484,
                21.065857
              ],
              [
                106.320487,
                21.06743
              ],
              [
                106.322332,
                21.070051
              ],
              [
                106.32306,
                21.071193
              ],
              [
                106.323682,
                21.072335
              ],
              [
                106.323788,
                21.072627
              ],
              [
                106.324152,
                21.073694
              ],
              [
                106.324376,
                21.074796
              ],
              [
                106.324403,
                21.074971
              ],
              [
                106.324477,
                21.075857
              ],
              [
                106.324481,
                21.076344
              ],
              [
                106.324381,
                21.077091
              ],
              [
                106.324249,
                21.077795
              ],
              [
                106.323916,
                21.078892
              ],
              [
                106.3236,
                21.079693
              ],
              [
                106.323504,
                21.079999
              ],
              [
                106.323351,
                21.080517
              ],
              [
                106.323242,
                21.081345
              ],
              [
                106.323234,
                21.08222
              ],
              [
                106.323346,
                21.082778
              ],
              [
                106.323503,
                21.083236
              ],
              [
                106.323585,
                21.083392
              ],
              [
                106.323705,
                21.083621
              ],
              [
                106.323953,
                21.083978
              ],
              [
                106.324246,
                21.084277
              ],
              [
                106.324599,
                21.084518
              ],
              [
                106.325336,
                21.084842
              ],
              [
                106.325749,
                21.084982
              ],
              [
                106.328641,
                21.085687
              ],
              [
                106.328827,
                21.085721
              ],
              [
                106.329729,
                21.085854
              ],
              [
                106.330906,
                21.086048
              ],
              [
                106.331462,
                21.086162
              ],
              [
                106.332263,
                21.086271
              ],
              [
                106.332354,
                21.086282
              ],
              [
                106.332827,
                21.086338
              ],
              [
                106.333179,
                21.086384
              ],
              [
                106.335445,
                21.086455
              ],
              [
                106.337563,
                21.086324
              ],
              [
                106.338601,
                21.086201
              ],
              [
                106.339699,
                21.085905
              ],
              [
                106.340276,
                21.08564
              ],
              [
                106.341139,
                21.085244
              ],
              [
                106.342518,
                21.084468
              ],
              [
                106.345377,
                21.082459
              ],
              [
                106.346776,
                21.081345
              ],
              [
                106.347118,
                21.081067
              ],
              [
                106.348484,
                21.080021
              ],
              [
                106.350181,
                21.078864
              ],
              [
                106.351712,
                21.077959
              ],
              [
                106.352298,
                21.077623
              ],
              [
                106.354512,
                21.076197
              ],
              [
                106.355547,
                21.075394
              ],
              [
                106.356479,
                21.074562
              ],
              [
                106.356669,
                21.074366
              ],
              [
                106.357231,
                21.073605
              ],
              [
                106.357713,
                21.072874
              ],
              [
                106.358092,
                21.071915
              ],
              [
                106.35839,
                21.071148
              ],
              [
                106.358792,
                21.070533
              ],
              [
                106.359296,
                21.069974
              ],
              [
                106.361331,
                21.067781
              ],
              [
                106.361572,
                21.067474
              ],
              [
                106.362357,
                21.066726
              ],
              [
                106.362887,
                21.066162
              ],
              [
                106.36311,
                21.065868
              ],
              [
                106.363869,
                21.064949
              ],
              [
                106.36458,
                21.064038
              ],
              [
                106.365212,
                21.063083
              ],
              [
                106.365422,
                21.062578
              ],
              [
                106.365422,
                21.062578
              ]
            ]
          ]
        ]
      },
      "properties": {
        "code": "10615",
        "name": "Hợp Tiến",
        "nameEn": "Hop Tien",
        "fullName": "Xã Hợp Tiến",
        "fullNameEn": "Hop Tien Commune",
        "codeName": "hop_tien",
        "postalCode": "03564",
        "postalCodePrefix": "",
        "gisServerId": "diaphanhanhchinhcapxa_2025.879",
        "areaKm2": 17.5
      }
    }
  ]
}