{
  "type": "FeatureCollection",
  "bbox": [
    106.336703,
    20.980169,
    106.411889,
    21.036317
  ],
  "features": [
    {
      "type": "Feature",
      "id": "10645",
      "bbox": [
        106.336703,
        20.980169,
        106.411889,
        21.036317
      ],
      "geometry": {
        "type": "MultiPolygon",
        "coordinates": [
          [
            [
              [
                106.38146,
                21.019687
              ],
              [
                106.382986,
                21.019582
              ],
              [
                106.384738,
                21.019799
              ],
              [
                106.387259,
                21.020611
              ],
              [
                106.391563,
                21.02252
              ],
              [
                106.393911,
                21.023194
              ],
              [
                106.396404,
                21.023752
              ],
              [
                106.397241,
                21.023883
              ],
              [
                106.398328,
                21.023975
              ],
              [
                106.400175,
                21.023799
              ],
              [
                106.409259,
                21.022161
              ],
              [
                106.409667,
                21.022087
              ],
              [
                106.410327,
                21.020777
              ],
              [
                106.41159,
                21.018626
              ],
              [
                106.411742,
                21.018148
              ],
              [
                106.411802,
                21.017845
              ],
              [
                106.411862,
                21.017584
              ],
              [
                106.411873,
                21.017374
              ],
              [
                106.411889,
                21.017131
              ],
              [
                106.411878,
                21.016921
              ],
              [
                106.411823,
                21.016711
              ],
              [
                106.411676,
                21.016385
              ],
              [
                106.411531,
                21.016101
              ],
              [
                106.411403,
                21.015824
              ],
              [
                106.411225,
                21.015406
              ],
              [
                106.411051,
                21.014996
              ],
              [
                106.410887,
                21.014603
              ],
              [
                106.410732,
                21.014276
              ],
              [
                106.410443,
                21.013573
              ],
              [
                106.410243,
                21.013163
              ],
              [
                106.41007,
                21.012795
              ],
              [
                106.409873,
                21.012318
              ],
              [
                106.409836,
                21.012193
              ],
              [
                106.409537,
                21.01172
              ],
              [
                106.409334,
                21.011351
              ],
              [
                106.409267,
                21.011156
              ],
              [
                106.405417,
                21.005166
              ],
              [
                106.404788,
                21.003235
              ],
              [
                106.405237,
                21.002228
              ],
              [
                106.410782,
                20.997118
              ],
              [
                106.410454,
                20.996834
              ],
              [
                106.4103,
                20.996528
              ],
              [
                106.410521,
                20.995594
              ],
              [
                106.410524,
                20.994942
              ],
              [
                106.410503,
                20.994784
              ],
              [
                106.410245,
                20.994418
              ],
              [
                106.409872,
                20.994099
              ],
              [
                106.40952,
                20.993913
              ],
              [
                106.409015,
                20.993682
              ],
              [
                106.408301,
                20.993466
              ],
              [
                106.407542,
                20.993279
              ],
              [
                106.407121,
                20.993176
              ],
              [
                106.406102,
                20.992989
              ],
              [
                106.406048,
                20.992979
              ],
              [
                106.405808,
                20.992936
              ],
              [
                106.404772,
                20.992779
              ],
              [
                106.403041,
                20.992629
              ],
              [
                106.402004,
                20.992544
              ],
              [
                106.399988,
                20.992358
              ],
              [
                106.398913,
                20.992255
              ],
              [
                106.398868,
                20.992249
              ],
              [
                106.397839,
                20.992116
              ],
              [
                106.396181,
                20.991993
              ],
              [
                106.395545,
                20.992006
              ],
              [
                106.395129,
                20.992014
              ],
              [
                106.394489,
                20.991979
              ],
              [
                106.393913,
                20.991956
              ],
              [
                106.393602,
                20.991935
              ],
              [
                106.392891,
                20.991861
              ],
              [
                106.392189,
                20.991761
              ],
              [
                106.391532,
                20.991579
              ],
              [
                106.390939,
                20.991347
              ],
              [
                106.390853,
                20.991294
              ],
              [
                106.390268,
                20.990998
              ],
              [
                106.389945,
                20.990787
              ],
              [
                106.389662,
                20.990589
              ],
              [
                106.389464,
                20.990411
              ],
              [
                106.389262,
                20.990181
              ],
              [
                106.389036,
                20.989826
              ],
              [
                106.38901,
                20.989766
              ],
              [
                106.388912,
                20.989536
              ],
              [
                106.388721,
                20.98903
              ],
              [
                106.388505,
                20.988423
              ],
              [
                106.388331,
                20.987887
              ],
              [
                106.388135,
                20.987298
              ],
              [
                106.388094,
                20.987171
              ],
              [
                106.387951,
                20.986723
              ],
              [
                106.387895,
                20.986439
              ],
              [
                106.387862,
                20.98628
              ],
              [
                106.38786,
                20.986173
              ],
              [
                106.387432,
                20.986
              ],
              [
                106.386935,
                20.9858
              ],
              [
                106.386898,
                20.985785
              ],
              [
                106.386519,
                20.985632
              ],
              [
                106.386134,
                20.985302
              ],
              [
                106.385673,
                20.984936
              ],
              [
                106.385622,
                20.984898
              ],
              [
                106.385458,
                20.984777
              ],
              [
                106.38527,
                20.984703
              ],
              [
                106.385033,
                20.984669
              ],
              [
                106.384792,
                20.98466
              ],
              [
                106.384465,
                20.984731
              ],
              [
                106.384092,
                20.984877
              ],
              [
                106.383624,
                20.98506
              ],
              [
                106.382548,
                20.985485
              ],
              [
                106.38198,
                20.985633
              ],
              [
                106.381649,
                20.985788
              ],
              [
                106.381567,
                20.985827
              ],
              [
                106.381562,
                20.985829
              ],
              [
                106.381487,
                20.985755
              ],
              [
                106.381414,
                20.985701
              ],
              [
                106.381401,
                20.985692
              ],
              [
                106.381208,
                20.985622
              ],
              [
                106.380827,
                20.98548
              ],
              [
                106.380578,
                20.98538
              ],
              [
                106.380427,
                20.98532
              ],
              [
                106.380127,
                20.985178
              ],
              [
                106.379847,
                20.985037
              ],
              [
                106.379645,
                20.984877
              ],
              [
                106.379243,
                20.984543
              ],
              [
                106.378976,
                20.984314
              ],
              [
                106.378705,
                20.984091
              ],
              [
                106.378401,
                20.983895
              ],
              [
                106.378247,
                20.983803
              ],
              [
                106.37815,
                20.983758
              ],
              [
                106.378055,
                20.98374
              ],
              [
                106.377957,
                20.983741
              ],
              [
                106.377901,
                20.983753
              ],
              [
                106.37778,
                20.983819
              ],
              [
                106.377504,
                20.984171
              ],
              [
                106.377381,
                20.984401
              ],
              [
                106.377091,
                20.984823
              ],
              [
                106.376873,
                20.985144
              ],
              [
                106.376327,
                20.985749
              ],
              [
                106.37596,
                20.986141
              ],
              [
                106.375794,
                20.986322
              ],
              [
                106.375724,
                20.986555
              ],
              [
                106.375583,
                20.987026
              ],
              [
                106.375527,
                20.987148
              ],
              [
                106.375406,
                20.987242
              ],
              [
                106.375253,
                20.987294
              ],
              [
                106.375036,
                20.987303
              ],
              [
                106.374872,
                20.9873
              ],
              [
                106.374812,
                20.987289
              ],
              [
                106.374761,
                20.98728
              ],
              [
                106.374711,
                20.987244
              ],
              [
                106.374702,
                20.987144
              ],
              [
                106.374687,
                20.98675
              ],
              [
                106.374685,
                20.986545
              ],
              [
                106.37465,
                20.986427
              ],
              [
                106.374546,
                20.986334
              ],
              [
                106.374469,
                20.986297
              ],
              [
                106.374131,
                20.986113
              ],
              [
                106.373809,
                20.985879
              ],
              [
                106.373531,
                20.985594
              ],
              [
                106.373384,
                20.985391
              ],
              [
                106.373322,
                20.985237
              ],
              [
                106.373282,
                20.985037
              ],
              [
                106.373303,
                20.984814
              ],
              [
                106.373366,
                20.984599
              ],
              [
                106.373455,
                20.984397
              ],
              [
                106.373774,
                20.984003
              ],
              [
                106.374166,
                20.983653
              ],
              [
                106.374371,
                20.98346
              ],
              [
                106.374559,
                20.983264
              ],
              [
                106.374632,
                20.983149
              ],
              [
                106.374713,
                20.983002
              ],
              [
                106.374772,
                20.982805
              ],
              [
                106.374791,
                20.982633
              ],
              [
                106.374764,
                20.982456
              ],
              [
                106.374696,
                20.982332
              ],
              [
                106.374563,
                20.982209
              ],
              [
                106.374168,
                20.981878
              ],
              [
                106.373553,
                20.981438
              ],
              [
                106.372979,
                20.981046
              ],
              [
                106.372707,
                20.980819
              ],
              [
                106.372481,
                20.980558
              ],
              [
                106.372208,
                20.980169
              ],
              [
                106.372044,
                20.98023
              ],
              [
                106.371963,
                20.980273
              ],
              [
                106.371879,
                20.980348
              ],
              [
                106.371733,
                20.980512
              ],
              [
                106.371506,
                20.980816
              ],
              [
                106.371474,
                20.980912
              ],
              [
                106.371465,
                20.981006
              ],
              [
                106.371474,
                20.981103
              ],
              [
                106.371517,
                20.981288
              ],
              [
                106.371632,
                20.981704
              ],
              [
                106.371684,
                20.981962
              ],
              [
                106.371697,
                20.982124
              ],
              [
                106.371695,
                20.982325
              ],
              [
                106.371683,
                20.982547
              ],
              [
                106.371654,
                20.982693
              ],
              [
                106.371594,
                20.982848
              ],
              [
                106.371512,
                20.982975
              ],
              [
                106.371407,
                20.983066
              ],
              [
                106.371273,
                20.983158
              ],
              [
                106.371189,
                20.983196
              ],
              [
                106.371129,
                20.983217
              ],
              [
                106.371013,
                20.983245
              ],
              [
                106.370865,
                20.983263
              ],
              [
                106.370622,
                20.983252
              ],
              [
                106.370239,
                20.983228
              ],
              [
                106.369865,
                20.983223
              ],
              [
                106.369659,
                20.98324
              ],
              [
                106.369411,
                20.9833
              ],
              [
                106.369277,
                20.98335
              ],
              [
                106.369099,
                20.983457
              ],
              [
                106.368982,
                20.983548
              ],
              [
                106.368908,
                20.983648
              ],
              [
                106.368835,
                20.983767
              ],
              [
                106.368798,
                20.983865
              ],
              [
                106.368776,
                20.98398
              ],
              [
                106.368778,
                20.98414
              ],
              [
                106.368793,
                20.984303
              ],
              [
                106.368848,
                20.984503
              ],
              [
                106.36891,
                20.984617
              ],
              [
                106.369015,
                20.984733
              ],
              [
                106.3692,
                20.98486
              ],
              [
                106.369394,
                20.984956
              ],
              [
                106.36969,
                20.985043
              ],
              [
                106.369761,
                20.985061
              ],
              [
                106.370206,
                20.985171
              ],
              [
                106.370308,
                20.985206
              ],
              [
                106.370384,
                20.98525
              ],
              [
                106.370454,
                20.985312
              ],
              [
                106.370505,
                20.985377
              ],
              [
                106.370508,
                20.985382
              ],
              [
                106.370514,
                20.98539
              ],
              [
                106.370551,
                20.985484
              ],
              [
                106.370606,
                20.985703
              ],
              [
                106.370668,
                20.986196
              ],
              [
                106.370686,
                20.986331
              ],
              [
                106.370691,
                20.986572
              ],
              [
                106.370682,
                20.986638
              ],
              [
                106.370648,
                20.986741
              ],
              [
                106.370559,
                20.986847
              ],
              [
                106.370481,
                20.986899
              ],
              [
                106.370389,
                20.986915
              ],
              [
                106.370332,
                20.986918
              ],
              [
                106.370301,
                20.986915
              ],
              [
                106.370242,
                20.986892
              ],
              [
                106.37015,
                20.986839
              ],
              [
                106.370052,
                20.986748
              ],
              [
                106.369938,
                20.986571
              ],
              [
                106.369762,
                20.986299
              ],
              [
                106.369668,
                20.986187
              ],
              [
                106.369522,
                20.986073
              ],
              [
                106.369272,
                20.985924
              ],
              [
                106.369121,
                20.98586
              ],
              [
                106.368888,
                20.985793
              ],
              [
                106.368605,
                20.985715
              ],
              [
                106.368264,
                20.985628
              ],
              [
                106.368168,
                20.985616
              ],
              [
                106.367873,
                20.98561
              ],
              [
                106.367692,
                20.985623
              ],
              [
                106.367491,
                20.985656
              ],
              [
                106.367285,
                20.98572
              ],
              [
                106.366973,
                20.985818
              ],
              [
                106.366768,
                20.985904
              ],
              [
                106.366653,
                20.985982
              ],
              [
                106.36659,
                20.986055
              ],
              [
                106.366411,
                20.986303
              ],
              [
                106.366307,
                20.986438
              ],
              [
                106.366201,
                20.986509
              ],
              [
                106.366051,
                20.986554
              ],
              [
                106.365901,
                20.986575
              ],
              [
                106.365691,
                20.986592
              ],
              [
                106.365448,
                20.986567
              ],
              [
                106.365246,
                20.986484
              ],
              [
                106.365007,
                20.986349
              ],
              [
                106.364649,
                20.986081
              ],
              [
                106.364493,
                20.985972
              ],
              [
                106.364257,
                20.985839
              ],
              [
                106.364056,
                20.985773
              ],
              [
                106.363879,
                20.985751
              ],
              [
                106.363763,
                20.985746
              ],
              [
                106.363663,
                20.985755
              ],
              [
                106.363556,
                20.985784
              ],
              [
                106.36343,
                20.985834
              ],
              [
                106.363281,
                20.985932
              ],
              [
                106.363106,
                20.986106
              ],
              [
                106.362981,
                20.986313
              ],
              [
                106.362856,
                20.986559
              ],
              [
                106.362788,
                20.986735
              ],
              [
                106.362741,
                20.986885
              ],
              [
                106.362701,
                20.987068
              ],
              [
                106.36265,
                20.987328
              ],
              [
                106.362598,
                20.987556
              ],
              [
                106.362532,
                20.987736
              ],
              [
                106.362457,
                20.987865
              ],
              [
                106.362405,
                20.987952
              ],
              [
                106.362343,
                20.98803
              ],
              [
                106.362152,
                20.988196
              ],
              [
                106.361892,
                20.988374
              ],
              [
                106.361658,
                20.98849
              ],
              [
                106.360897,
                20.988771
              ],
              [
                106.360618,
                20.988907
              ],
              [
                106.360511,
                20.988986
              ],
              [
                106.360426,
                20.989064
              ],
              [
                106.360347,
                20.98919
              ],
              [
                106.36032,
                20.989331
              ],
              [
                106.360318,
                20.98951
              ],
              [
                106.360362,
                20.989728
              ],
              [
                106.360443,
                20.989898
              ],
              [
                106.360582,
                20.990068
              ],
              [
                106.360873,
                20.990357
              ],
              [
                106.361015,
                20.990517
              ],
              [
                106.361147,
                20.990743
              ],
              [
                106.361203,
                20.990916
              ],
              [
                106.361094,
                20.990951
              ],
              [
                106.361055,
                20.990964
              ],
              [
                106.360958,
                20.991009
              ],
              [
                106.361002,
                20.991145
              ],
              [
                106.361012,
                20.991174
              ],
              [
                106.36083,
                20.991253
              ],
              [
                106.360225,
                20.991565
              ],
              [
                106.360104,
                20.991627
              ],
              [
                106.359999,
                20.991598
              ],
              [
                106.359889,
                20.991253
              ],
              [
                106.359954,
                20.991203
              ],
              [
                106.360052,
                20.99113
              ],
              [
                106.36007,
                20.991094
              ],
              [
                106.36007,
                20.991051
              ],
              [
                106.360041,
                20.990965
              ],
              [
                106.359943,
                20.990806
              ],
              [
                106.359782,
                20.990617
              ],
              [
                106.359698,
                20.990629
              ],
              [
                106.359178,
                20.990701
              ],
              [
                106.35872,
                20.990714
              ],
              [
                106.358303,
                20.990704
              ],
              [
                106.358247,
                20.990701
              ],
              [
                106.358133,
                20.990706
              ],
              [
                106.357932,
                20.990714
              ],
              [
                106.357691,
                20.990736
              ],
              [
                106.357578,
                20.990752
              ],
              [
                106.357293,
                20.991243
              ],
              [
                106.357036,
                20.991153
              ],
              [
                106.357013,
                20.991145
              ],
              [
                106.356912,
                20.991143
              ],
              [
                106.356807,
                20.991195
              ],
              [
                106.356655,
                20.991285
              ],
              [
                106.356469,
                20.991415
              ],
              [
                106.356377,
                20.991521
              ],
              [
                106.356314,
                20.991596
              ],
              [
                106.356303,
                20.991622
              ],
              [
                106.356289,
                20.991653
              ],
              [
                106.356288,
                20.991796
              ],
              [
                106.356296,
                20.992005
              ],
              [
                106.356278,
                20.992119
              ],
              [
                106.356246,
                20.992155
              ],
              [
                106.356212,
                20.992194
              ],
              [
                106.356073,
                20.992303
              ],
              [
                106.355924,
                20.992352
              ],
              [
                106.35547,
                20.992358
              ],
              [
                106.355458,
                20.992476
              ],
              [
                106.355453,
                20.992521
              ],
              [
                106.355446,
                20.992589
              ],
              [
                106.355405,
                20.992587
              ],
              [
                106.355121,
                20.99257
              ],
              [
                106.35512,
                20.99257
              ],
              [
                106.354906,
                20.992558
              ],
              [
                106.354677,
                20.992545
              ],
              [
                106.354395,
                20.992529
              ],
              [
                106.354219,
                20.99252
              ],
              [
                106.354089,
                20.992512
              ],
              [
                106.353906,
                20.992502
              ],
              [
                106.353526,
                20.992481
              ],
              [
                106.353409,
                20.992475
              ],
              [
                106.353409,
                20.992475
              ],
              [
                106.353291,
                20.992469
              ],
              [
                106.353058,
                20.992456
              ],
              [
                106.352691,
                20.992436
              ],
              [
                106.35225,
                20.992412
              ],
              [
                106.351822,
                20.992387
              ],
              [
                106.351407,
                20.992363
              ],
              [
                106.351028,
                20.992342
              ],
              [
                106.350633,
                20.99232
              ],
              [
                106.350199,
                20.992296
              ],
              [
                106.34982,
                20.992275
              ],
              [
                106.349497,
                20.992258
              ],
              [
                106.349132,
                20.992239
              ],
              [
                106.348711,
                20.992216
              ],
              [
                106.348364,
                20.992196
              ],
              [
                106.348134,
                20.992182
              ],
              [
                106.347919,
                20.992169
              ],
              [
                106.347655,
                20.992152
              ],
              [
                106.347376,
                20.992134
              ],
              [
                106.347113,
                20.992117
              ],
              [
                106.346747,
                20.992091
              ],
              [
                106.346657,
                20.992085
              ],
              [
                106.346487,
                20.992073
              ],
              [
                106.346436,
                20.992148
              ],
              [
                106.346384,
                20.992226
              ],
              [
                106.346349,
                20.992278
              ],
              [
                106.346225,
                20.992403
              ],
              [
                106.346144,
                20.992484
              ],
              [
                106.345914,
                20.992716
              ],
              [
                106.34587,
                20.992748
              ],
              [
                106.345779,
                20.992813
              ],
              [
                106.34544,
                20.99306
              ],
              [
                106.34519,
                20.993224
              ],
              [
                106.345052,
                20.993314
              ],
              [
                106.344562,
                20.993583
              ],
              [
                106.344317,
                20.993698
              ],
              [
                106.344093,
                20.993802
              ],
              [
                106.343844,
                20.993919
              ],
              [
                106.343088,
                20.994287
              ],
              [
                106.342839,
                20.994408
              ],
              [
                106.342437,
                20.994604
              ],
              [
                106.342054,
                20.994785
              ],
              [
                106.342077,
                20.995024
              ],
              [
                106.342305,
                20.996023
              ],
              [
                106.342353,
                20.996237
              ],
              [
                106.342347,
                20.996473
              ],
              [
                106.342296,
                20.996763
              ],
              [
                106.34236,
                20.996795
              ],
              [
                106.342392,
                20.996849
              ],
              [
                106.342441,
                20.996986
              ],
              [
                106.342539,
                20.997269
              ],
              [
                106.342711,
                20.997656
              ],
              [
                106.342767,
                20.997796
              ],
              [
                106.34278,
                20.997871
              ],
              [
                106.342783,
                20.997909
              ],
              [
                106.342771,
                20.997942
              ],
              [
                106.342759,
                20.997972
              ],
              [
                106.342673,
                20.998039
              ],
              [
                106.342445,
                20.998154
              ],
              [
                106.342529,
                20.998288
              ],
              [
                106.342568,
                20.998446
              ],
              [
                106.342589,
                20.99901
              ],
              [
                106.342589,
                20.999011
              ],
              [
                106.342594,
                20.999156
              ],
              [
                106.342659,
                20.999285
              ],
              [
                106.342767,
                20.999389
              ],
              [
                106.342817,
                20.999457
              ],
              [
                106.342804,
                20.999484
              ],
              [
                106.342734,
                20.999519
              ],
              [
                106.342623,
                20.999565
              ],
              [
                106.342466,
                20.999629
              ],
              [
                106.342424,
                20.999576
              ],
              [
                106.342373,
                20.99952
              ],
              [
                106.342327,
                20.999476
              ],
              [
                106.342269,
                20.999433
              ],
              [
                106.342204,
                20.999389
              ],
              [
                106.342105,
                20.999337
              ],
              [
                106.342084,
                20.999328
              ],
              [
                106.342029,
                20.999309
              ],
              [
                106.34198,
                20.999292
              ],
              [
                106.341862,
                20.999264
              ],
              [
                106.341688,
                20.999217
              ],
              [
                106.341642,
                20.999206
              ],
              [
                106.341595,
                20.999193
              ],
              [
                106.341572,
                20.999179
              ],
              [
                106.34155,
                20.999163
              ],
              [
                106.341519,
                20.999192
              ],
              [
                106.341363,
                20.999339
              ],
              [
                106.341308,
                20.999391
              ],
              [
                106.34138,
                20.999422
              ],
              [
                106.341517,
                20.999466
              ],
              [
                106.341546,
                20.999582
              ],
              [
                106.341523,
                20.999865
              ],
              [
                106.341389,
                20.99988
              ],
              [
                106.341304,
                20.999864
              ],
              [
                106.341153,
                20.999727
              ],
              [
                106.341087,
                20.999725
              ],
              [
                106.341089,
                20.999757
              ],
              [
                106.341121,
                20.999826
              ],
              [
                106.341221,
                20.999914
              ],
              [
                106.341256,
                20.999965
              ],
              [
                106.341244,
                21.000004
              ],
              [
                106.341155,
                21.000049
              ],
              [
                106.341229,
                21.000146
              ],
              [
                106.340892,
                21.000198
              ],
              [
                106.340837,
                21.000109
              ],
              [
                106.340805,
                21.000037
              ],
              [
                106.340773,
                21.000014
              ],
              [
                106.340715,
                20.999999
              ],
              [
                106.340673,
                20.999937
              ],
              [
                106.340481,
                20.999889
              ],
              [
                106.340467,
                20.999758
              ],
              [
                106.340437,
                20.999746
              ],
              [
                106.339967,
                20.999765
              ],
              [
                106.339764,
                20.999791
              ],
              [
                106.339795,
                20.999974
              ],
              [
                106.339796,
                21.000109
              ],
              [
                106.339747,
                21.0003
              ],
              [
                106.339724,
                21.000576
              ],
              [
                106.339713,
                21.000731
              ],
              [
                106.339848,
                21.000698
              ],
              [
                106.339902,
                21.001004
              ],
              [
                106.339842,
                21.001005
              ],
              [
                106.339643,
                21.00101
              ],
              [
                106.339456,
                21.000984
              ],
              [
                106.339336,
                21.000989
              ],
              [
                106.339415,
                21.001545
              ],
              [
                106.339451,
                21.001768
              ],
              [
                106.339443,
                21.001864
              ],
              [
                106.339362,
                21.00225
              ],
              [
                106.339362,
                21.00231
              ],
              [
                106.339392,
                21.002338
              ],
              [
                106.339494,
                21.002369
              ],
              [
                106.33946,
                21.002654
              ],
              [
                106.338555,
                21.002575
              ],
              [
                106.338517,
                21.003097
              ],
              [
                106.338145,
                21.002994
              ],
              [
                106.338134,
                21.002991
              ],
              [
                106.338126,
                21.003059
              ],
              [
                106.338115,
                21.003146
              ],
              [
                106.338102,
                21.003249
              ],
              [
                106.338088,
                21.003392
              ],
              [
                106.337918,
                21.003324
              ],
              [
                106.337043,
                21.00298
              ],
              [
                106.336923,
                21.00292
              ],
              [
                106.336959,
                21.00312
              ],
              [
                106.337021,
                21.003287
              ],
              [
                106.3371,
                21.003499
              ],
              [
                106.337575,
                21.004549
              ],
              [
                106.338093,
                21.005678
              ],
              [
                106.338254,
                21.006088
              ],
              [
                106.338176,
                21.006138
              ],
              [
                106.337909,
                21.006308
              ],
              [
                106.337873,
                21.006231
              ],
              [
                106.337772,
                21.00601
              ],
              [
                106.337766,
                21.005998
              ],
              [
                106.33731,
                21.00616
              ],
              [
                106.337261,
                21.006199
              ],
              [
                106.336844,
                21.00635
              ],
              [
                106.336724,
                21.00642
              ],
              [
                106.336703,
                21.006464
              ],
              [
                106.336733,
                21.006513
              ],
              [
                106.33685,
                21.006714
              ],
              [
                106.336716,
                21.006822
              ],
              [
                106.336808,
                21.006964
              ],
              [
                106.336914,
                21.007128
              ],
              [
                106.337009,
                21.007224
              ],
              [
                106.337256,
                21.007477
              ],
              [
                106.337299,
                21.007495
              ],
              [
                106.337328,
                21.007494
              ],
              [
                106.337395,
                21.0076
              ],
              [
                106.337586,
                21.008025
              ],
              [
                106.337877,
                21.008549
              ],
              [
                106.33809,
                21.008917
              ],
              [
                106.338338,
                21.008797
              ],
              [
                106.338942,
                21.008566
              ],
              [
                106.33902,
                21.008737
              ],
              [
                106.339111,
                21.008927
              ],
              [
                106.339313,
                21.009351
              ],
              [
                106.33933,
                21.009387
              ],
              [
                106.339625,
                21.010049
              ],
              [
                106.339697,
                21.010209
              ],
              [
                106.3398,
                21.010432
              ],
              [
                106.340053,
                21.010981
              ],
              [
                106.340123,
                21.011133
              ],
              [
                106.340266,
                21.011447
              ],
              [
                106.340435,
                21.011815
              ],
              [
                106.340526,
                21.012015
              ],
              [
                106.340554,
                21.012076
              ],
              [
                106.340617,
                21.012213
              ],
              [
                106.340719,
                21.012433
              ],
              [
                106.340985,
                21.013013
              ],
              [
                106.341064,
                21.013184
              ],
              [
                106.341247,
                21.013581
              ],
              [
                106.341331,
                21.01376
              ],
              [
                106.341447,
                21.014006
              ],
              [
                106.341717,
                21.014579
              ],
              [
                106.341754,
                21.014664
              ],
              [
                106.341774,
                21.01471
              ],
              [
                106.341856,
                21.014669
              ],
              [
                106.341945,
                21.014632
              ],
              [
                106.34201,
                21.01461
              ],
              [
                106.342095,
                21.014587
              ],
              [
                106.342192,
                21.014573
              ],
              [
                106.3423,
                21.01456
              ],
              [
                106.34245,
                21.01455
              ],
              [
                106.342582,
                21.014552
              ],
              [
                106.342821,
                21.014551
              ],
              [
                106.342964,
                21.014546
              ],
              [
                106.343067,
                21.014541
              ],
              [
                106.343162,
                21.014531
              ],
              [
                106.343398,
                21.014483
              ],
              [
                106.343513,
                21.014463
              ],
              [
                106.343681,
                21.014431
              ],
              [
                106.343955,
                21.014389
              ],
              [
                106.344478,
                21.014296
              ],
              [
                106.344849,
                21.014235
              ],
              [
                106.345103,
                21.014199
              ],
              [
                106.345328,
                21.014165
              ],
              [
                106.3455,
                21.014141
              ],
              [
                106.345748,
                21.01411
              ],
              [
                106.345949,
                21.014082
              ],
              [
                106.346285,
                21.01402
              ],
              [
                106.346538,
                21.013981
              ],
              [
                106.346999,
                21.013906
              ],
              [
                106.34706,
                21.014181
              ],
              [
                106.347165,
                21.014522
              ],
              [
                106.347276,
                21.014882
              ],
              [
                106.347325,
                21.015062
              ],
              [
                106.347466,
                21.015555
              ],
              [
                106.347577,
                21.0159
              ],
              [
                106.347677,
                21.01634
              ],
              [
                106.347745,
                21.016541
              ],
              [
                106.347932,
                21.017196
              ],
              [
                106.348097,
                21.017769
              ],
              [
                106.34819,
                21.018032
              ],
              [
                106.34827,
                21.018237
              ],
              [
                106.348444,
                21.018678
              ],
              [
                106.34857,
                21.019
              ],
              [
                106.348824,
                21.019661
              ],
              [
                106.348913,
                21.019859
              ],
              [
                106.34896,
                21.020002
              ],
              [
                106.349008,
                21.020145
              ],
              [
                106.349121,
                21.02053
              ],
              [
                106.349206,
                21.02084
              ],
              [
                106.349274,
                21.021086
              ],
              [
                106.349326,
                21.021116
              ],
              [
                106.349602,
                21.021259
              ],
              [
                106.349677,
                21.021298
              ],
              [
                106.349797,
                21.021386
              ],
              [
                106.349875,
                21.021434
              ],
              [
                106.350183,
                21.02154
              ],
              [
                106.350307,
                21.021583
              ],
              [
                106.350327,
                21.02159
              ],
              [
                106.350603,
                21.021701
              ],
              [
                106.350697,
                21.021786
              ],
              [
                106.350734,
                21.021882
              ],
              [
                106.350752,
                21.021915
              ],
              [
                106.350761,
                21.021932
              ],
              [
                106.350773,
                21.021954
              ],
              [
                106.351101,
                21.022151
              ],
              [
                106.351164,
                21.022188
              ],
              [
                106.351425,
                21.022338
              ],
              [
                106.351636,
                21.022421
              ],
              [
                106.352034,
                21.022512
              ],
              [
                106.352397,
                21.022558
              ],
              [
                106.352427,
                21.022585
              ],
              [
                106.352429,
                21.022604
              ],
              [
                106.352419,
                21.022656
              ],
              [
                106.352389,
                21.022816
              ],
              [
                106.352356,
                21.023032
              ],
              [
                106.352354,
                21.023046
              ],
              [
                106.352363,
                21.023148
              ],
              [
                106.35241,
                21.023349
              ],
              [
                106.352525,
                21.023844
              ],
              [
                106.352596,
                21.024251
              ],
              [
                106.352624,
                21.024413
              ],
              [
                106.352696,
                21.024824
              ],
              [
                106.352796,
                21.025463
              ],
              [
                106.352818,
                21.025606
              ],
              [
                106.352893,
                21.026091
              ],
              [
                106.352939,
                21.026292
              ],
              [
                106.352958,
                21.026384
              ],
              [
                106.353047,
                21.026829
              ],
              [
                106.353078,
                21.026983
              ],
              [
                106.353198,
                21.027641
              ],
              [
                106.353254,
                21.027945
              ],
              [
                106.353271,
                21.028039
              ],
              [
                106.353422,
                21.028894
              ],
              [
                106.353448,
                21.029046
              ],
              [
                106.353656,
                21.030212
              ],
              [
                106.35382,
                21.031131
              ],
              [
                106.353871,
                21.031417
              ],
              [
                106.354025,
                21.03225
              ],
              [
                106.354111,
                21.032715
              ],
              [
                106.354159,
                21.032974
              ],
              [
                106.354163,
                21.032995
              ],
              [
                106.354177,
                21.033
              ],
              [
                106.356351,
                21.033669
              ],
              [
                106.357986,
                21.034174
              ],
              [
                106.35914,
                21.03454
              ],
              [
                106.359445,
                21.034638
              ],
              [
                106.359453,
                21.03464
              ],
              [
                106.359423,
                21.034735
              ],
              [
                106.359387,
                21.034849
              ],
              [
                106.36099,
                21.035402
              ],
              [
                106.36102,
                21.035412
              ],
              [
                106.363571,
                21.036317
              ],
              [
                106.363619,
                21.036083
              ],
              [
                106.363967,
                21.034402
              ],
              [
                106.364527,
                21.032963
              ],
              [
                106.365888,
                21.03063
              ],
              [
                106.366767,
                21.029272
              ],
              [
                106.367256,
                21.028607
              ],
              [
                106.367779,
                21.027953
              ],
              [
                106.367894,
                21.027762
              ],
              [
                106.368292,
                21.027266
              ],
              [
                106.36878,
                21.026634
              ],
              [
                106.369126,
                21.026202
              ],
              [
                106.369333,
                21.025944
              ],
              [
                106.369574,
                21.025667
              ],
              [
                106.369928,
                21.025227
              ],
              [
                106.371696,
                21.023524
              ],
              [
                106.372898,
                21.022678
              ],
              [
                106.374609,
                21.021917
              ],
              [
                106.376148,
                21.021418
              ],
              [
                106.376874,
                21.02118
              ],
              [
                106.376874,
                21.02118
              ],
              [
                106.377143,
                21.021092
              ],
              [
                106.378072,
                21.020721
              ],
              [
                106.378308,
                21.020626
              ],
              [
                106.380205,
                21.019882
              ],
              [
                106.38146,
                21.019687
              ],
              [
                106.38146,
                21.019687
              ]
            ]
          ]
        ]
      },
      "properties": {
        "code": "10645",
        "name": "An Phú",
        "nameEn": "An Phu",
        "fullName": "Xã An Phú",
        "fullNameEn": "An Phu Commune",
        "codeName": "an_phu",
        "postalCode": "03557",
        "postalCodePrefix": "",
        "gisServerId": "diaphanhanhchinhcapxa_2025.844",
        "areaKm2": 27.25
      }
    }
  ]
}