{
  "type": "FeatureCollection",
  "bbox": [
    106.362385,
    20.910135,
    106.40439,
    20.987303
  ],
  "features": [
    {
      "type": "Feature",
      "id": "10660",
      "bbox": [
        106.362385,
        20.910135,
        106.40439,
        20.987303
      ],
      "geometry": {
        "type": "MultiPolygon",
        "coordinates": [
          [
            [
              [
                106.38786,
                20.986173
              ],
              [
                106.387869,
                20.985816
              ],
              [
                106.387926,
                20.985563
              ],
              [
                106.387968,
                20.985364
              ],
              [
                106.388,
                20.9852
              ],
              [
                106.388011,
                20.985142
              ],
              [
                106.388046,
                20.985023
              ],
              [
                106.388463,
                20.983365
              ],
              [
                106.388769,
                20.98125
              ],
              [
                106.388498,
                20.979007
              ],
              [
                106.387609,
                20.974306
              ],
              [
                106.387608,
                20.974303
              ],
              [
                106.38699,
                20.974128
              ],
              [
                106.386846,
                20.974088
              ],
              [
                106.385873,
                20.973778
              ],
              [
                106.385503,
                20.973602
              ],
              [
                106.385086,
                20.97333
              ],
              [
                106.384381,
                20.972721
              ],
              [
                106.383327,
                20.971775
              ],
              [
                106.382617,
                20.971138
              ],
              [
                106.382588,
                20.971115
              ],
              [
                106.382466,
                20.971018
              ],
              [
                106.383072,
                20.970439
              ],
              [
                106.383388,
                20.970139
              ],
              [
                106.383712,
                20.969848
              ],
              [
                106.384092,
                20.969547
              ],
              [
                106.384286,
                20.969412
              ],
              [
                106.385334,
                20.968817
              ],
              [
                106.385761,
                20.968603
              ],
              [
                106.38642,
                20.968291
              ],
              [
                106.387582,
                20.96774
              ],
              [
                106.388567,
                20.967532
              ],
              [
                106.389583,
                20.967351
              ],
              [
                106.39,
                20.9673
              ],
              [
                106.390916,
                20.967235
              ],
              [
                106.391607,
                20.967172
              ],
              [
                106.391899,
                20.967105
              ],
              [
                106.393524,
                20.966709
              ],
              [
                106.394338,
                20.965328
              ],
              [
                106.395368,
                20.959762
              ],
              [
                106.394969,
                20.957973
              ],
              [
                106.392295,
                20.954633
              ],
              [
                106.391842,
                20.954087
              ],
              [
                106.391675,
                20.953895
              ],
              [
                106.391432,
                20.953637
              ],
              [
                106.391207,
                20.953436
              ],
              [
                106.390971,
                20.953244
              ],
              [
                106.390637,
                20.953015
              ],
              [
                106.389946,
                20.952593
              ],
              [
                106.389264,
                20.952237
              ],
              [
                106.38862,
                20.951919
              ],
              [
                106.387597,
                20.951396
              ],
              [
                106.387118,
                20.95117
              ],
              [
                106.386688,
                20.950929
              ],
              [
                106.386392,
                20.950697
              ],
              [
                106.386171,
                20.950446
              ],
              [
                106.385959,
                20.950148
              ],
              [
                106.385742,
                20.949856
              ],
              [
                106.385617,
                20.949613
              ],
              [
                106.385515,
                20.949312
              ],
              [
                106.385254,
                20.948304
              ],
              [
                106.385259,
                20.947988
              ],
              [
                106.38534,
                20.947665
              ],
              [
                106.385341,
                20.947662
              ],
              [
                106.385648,
                20.947132
              ],
              [
                106.385934,
                20.946742
              ],
              [
                106.386391,
                20.945792
              ],
              [
                106.386801,
                20.944684
              ],
              [
                106.38764,
                20.942189
              ],
              [
                106.388116,
                20.94083
              ],
              [
                106.388325,
                20.940219
              ],
              [
                106.388561,
                20.938532
              ],
              [
                106.388805,
                20.936859
              ],
              [
                106.388989,
                20.936141
              ],
              [
                106.389402,
                20.935384
              ],
              [
                106.39,
                20.934892
              ],
              [
                106.390669,
                20.934571
              ],
              [
                106.391416,
                20.93445
              ],
              [
                106.391996,
                20.934496
              ],
              [
                106.392738,
                20.934676
              ],
              [
                106.394004,
                20.935375
              ],
              [
                106.395671,
                20.936552
              ],
              [
                106.397569,
                20.938724
              ],
              [
                106.398863,
                20.940426
              ],
              [
                106.399327,
                20.940852
              ],
              [
                106.399886,
                20.941254
              ],
              [
                106.400662,
                20.941786
              ],
              [
                106.401603,
                20.942086
              ],
              [
                106.402054,
                20.942149
              ],
              [
                106.402468,
                20.942124
              ],
              [
                106.402892,
                20.942015
              ],
              [
                106.403343,
                20.941756
              ],
              [
                106.403753,
                20.941277
              ],
              [
                106.404141,
                20.940612
              ],
              [
                106.404299,
                20.940314
              ],
              [
                106.40439,
                20.939957
              ],
              [
                106.404382,
                20.939472
              ],
              [
                106.404296,
                20.938899
              ],
              [
                106.404133,
                20.938365
              ],
              [
                106.403792,
                20.937777
              ],
              [
                106.403521,
                20.937354
              ],
              [
                106.402924,
                20.936664
              ],
              [
                106.401997,
                20.935708
              ],
              [
                106.400539,
                20.934389
              ],
              [
                106.3991,
                20.933269
              ],
              [
                106.398047,
                20.932196
              ],
              [
                106.397435,
                20.931293
              ],
              [
                106.397021,
                20.929946
              ],
              [
                106.396473,
                20.927751
              ],
              [
                106.396014,
                20.925538
              ],
              [
                106.395959,
                20.924451
              ],
              [
                106.395961,
                20.923298
              ],
              [
                106.396144,
                20.921008
              ],
              [
                106.39634,
                20.91959
              ],
              [
                106.396513,
                20.919015
              ],
              [
                106.396973,
                20.918257
              ],
              [
                106.39698,
                20.918252
              ],
              [
                106.397405,
                20.917914
              ],
              [
                106.396267,
                20.917393
              ],
              [
                106.396158,
                20.917343
              ],
              [
                106.3961,
                20.917284
              ],
              [
                106.395542,
                20.916715
              ],
              [
                106.395069,
                20.916265
              ],
              [
                106.394271,
                20.915184
              ],
              [
                106.393844,
                20.914482
              ],
              [
                106.393835,
                20.914465
              ],
              [
                106.393656,
                20.914575
              ],
              [
                106.393034,
                20.91496
              ],
              [
                106.392492,
                20.914576
              ],
              [
                106.392093,
                20.915658
              ],
              [
                106.391403,
                20.91524
              ],
              [
                106.388824,
                20.913615
              ],
              [
                106.38879,
                20.913644
              ],
              [
                106.38844,
                20.914122
              ],
              [
                106.387443,
                20.913464
              ],
              [
                106.386961,
                20.912716
              ],
              [
                106.387205,
                20.912477
              ],
              [
                106.38807,
                20.911531
              ],
              [
                106.387576,
                20.911102
              ],
              [
                106.386695,
                20.910337
              ],
              [
                106.386462,
                20.910135
              ],
              [
                106.386011,
                20.910217
              ],
              [
                106.385824,
                20.91033
              ],
              [
                106.38569,
                20.910439
              ],
              [
                106.385614,
                20.910593
              ],
              [
                106.385553,
                20.910955
              ],
              [
                106.385579,
                20.911384
              ],
              [
                106.385648,
                20.911866
              ],
              [
                106.385728,
                20.912616
              ],
              [
                106.385672,
                20.913113
              ],
              [
                106.38566,
                20.913614
              ],
              [
                106.385673,
                20.913819
              ],
              [
                106.385733,
                20.914029
              ],
              [
                106.38582,
                20.914289
              ],
              [
                106.385961,
                20.914507
              ],
              [
                106.386177,
                20.914825
              ],
              [
                106.38646,
                20.915291
              ],
              [
                106.386821,
                20.915747
              ],
              [
                106.386845,
                20.915864
              ],
              [
                106.386827,
                20.916093
              ],
              [
                106.386827,
                20.916094
              ],
              [
                106.386792,
                20.916504
              ],
              [
                106.386781,
                20.916831
              ],
              [
                106.386764,
                20.917066
              ],
              [
                106.386729,
                20.917212
              ],
              [
                106.386641,
                20.917414
              ],
              [
                106.386463,
                20.917616
              ],
              [
                106.386156,
                20.917757
              ],
              [
                106.385978,
                20.917769
              ],
              [
                106.385794,
                20.91777
              ],
              [
                106.385578,
                20.917726
              ],
              [
                106.385358,
                20.917631
              ],
              [
                106.385131,
                20.917481
              ],
              [
                106.384846,
                20.917174
              ],
              [
                106.384755,
                20.916944
              ],
              [
                106.384732,
                20.916784
              ],
              [
                106.38472,
                20.916704
              ],
              [
                106.384735,
                20.916503
              ],
              [
                106.384852,
                20.915731
              ],
              [
                106.384893,
                20.915229
              ],
              [
                106.384818,
                20.915003
              ],
              [
                106.384664,
                20.914839
              ],
              [
                106.384479,
                20.914676
              ],
              [
                106.384257,
                20.914635
              ],
              [
                106.384059,
                20.914679
              ],
              [
                106.383627,
                20.91497
              ],
              [
                106.383081,
                20.91539
              ],
              [
                106.382709,
                20.915544
              ],
              [
                106.38235,
                20.915582
              ],
              [
                106.382022,
                20.915506
              ],
              [
                106.381873,
                20.915313
              ],
              [
                106.381813,
                20.915102
              ],
              [
                106.381849,
                20.914881
              ],
              [
                106.382141,
                20.914107
              ],
              [
                106.382374,
                20.913161
              ],
              [
                106.38236,
                20.912976
              ],
              [
                106.382226,
                20.91229
              ],
              [
                106.382115,
                20.911998
              ],
              [
                106.381736,
                20.911493
              ],
              [
                106.381287,
                20.911139
              ],
              [
                106.381032,
                20.911021
              ],
              [
                106.38049,
                20.9109
              ],
              [
                106.380032,
                20.910886
              ],
              [
                106.379562,
                20.910907
              ],
              [
                106.379149,
                20.911024
              ],
              [
                106.37877,
                20.911272
              ],
              [
                106.378595,
                20.911487
              ],
              [
                106.378525,
                20.911573
              ],
              [
                106.378452,
                20.911902
              ],
              [
                106.378531,
                20.912242
              ],
              [
                106.378685,
                20.912414
              ],
              [
                106.378947,
                20.912514
              ],
              [
                106.379303,
                20.912571
              ],
              [
                106.379819,
                20.91265
              ],
              [
                106.380342,
                20.912825
              ],
              [
                106.380669,
                20.91305
              ],
              [
                106.380945,
                20.91337
              ],
              [
                106.38112,
                20.913745
              ],
              [
                106.381142,
                20.913978
              ],
              [
                106.381067,
                20.914176
              ],
              [
                106.380915,
                20.914225
              ],
              [
                106.380762,
                20.914226
              ],
              [
                106.380558,
                20.91415
              ],
              [
                106.380244,
                20.913896
              ],
              [
                106.379565,
                20.913369
              ],
              [
                106.379246,
                20.913258
              ],
              [
                106.378864,
                20.913226
              ],
              [
                106.378184,
                20.913279
              ],
              [
                106.376872,
                20.913646
              ],
              [
                106.376625,
                20.913774
              ],
              [
                106.376444,
                20.913911
              ],
              [
                106.376349,
                20.914045
              ],
              [
                106.376293,
                20.914182
              ],
              [
                106.376279,
                20.914275
              ],
              [
                106.37628,
                20.914354
              ],
              [
                106.376326,
                20.914464
              ],
              [
                106.376396,
                20.914521
              ],
              [
                106.376649,
                20.914619
              ],
              [
                106.376872,
                20.914707
              ],
              [
                106.377375,
                20.914904
              ],
              [
                106.378337,
                20.915363
              ],
              [
                106.378843,
                20.915687
              ],
              [
                106.378939,
                20.915798
              ],
              [
                106.379005,
                20.915886
              ],
              [
                106.379044,
                20.916007
              ],
              [
                106.379081,
                20.916199
              ],
              [
                106.379112,
                20.916501
              ],
              [
                106.379096,
                20.916817
              ],
              [
                106.379067,
                20.917047
              ],
              [
                106.379035,
                20.917182
              ],
              [
                106.378977,
                20.91738
              ],
              [
                106.378873,
                20.917589
              ],
              [
                106.378761,
                20.917745
              ],
              [
                106.378744,
                20.917768
              ],
              [
                106.378631,
                20.91787
              ],
              [
                106.378513,
                20.917909
              ],
              [
                106.378419,
                20.917909
              ],
              [
                106.378306,
                20.917887
              ],
              [
                106.378219,
                20.917843
              ],
              [
                106.378156,
                20.917776
              ],
              [
                106.378109,
                20.917704
              ],
              [
                106.37798,
                20.917409
              ],
              [
                106.377881,
                20.917161
              ],
              [
                106.377784,
                20.916911
              ],
              [
                106.377684,
                20.916717
              ],
              [
                106.377559,
                20.916503
              ],
              [
                106.377293,
                20.91611
              ],
              [
                106.377056,
                20.915823
              ],
              [
                106.376872,
                20.915724
              ],
              [
                106.37667,
                20.915534
              ],
              [
                106.376446,
                20.915387
              ],
              [
                106.376082,
                20.915198
              ],
              [
                106.375724,
                20.915088
              ],
              [
                106.375444,
                20.915048
              ],
              [
                106.375266,
                20.915044
              ],
              [
                106.375088,
                20.915075
              ],
              [
                106.37492,
                20.915198
              ],
              [
                106.374834,
                20.915329
              ],
              [
                106.374794,
                20.915432
              ],
              [
                106.374777,
                20.915537
              ],
              [
                106.374796,
                20.915936
              ],
              [
                106.374824,
                20.916332
              ],
              [
                106.374819,
                20.916434
              ],
              [
                106.374809,
                20.916529
              ],
              [
                106.374735,
                20.916781
              ],
              [
                106.374503,
                20.917153
              ],
              [
                106.372731,
                20.919528
              ],
              [
                106.372021,
                20.920484
              ],
              [
                106.371442,
                20.921163
              ],
              [
                106.369389,
                20.923385
              ],
              [
                106.367455,
                20.92539
              ],
              [
                106.365861,
                20.927146
              ],
              [
                106.365665,
                20.927448
              ],
              [
                106.366887,
                20.927489
              ],
              [
                106.367124,
                20.927484
              ],
              [
                106.369238,
                20.927499
              ],
              [
                106.370619,
                20.927473
              ],
              [
                106.371497,
                20.927524
              ],
              [
                106.372177,
                20.92764
              ],
              [
                106.372575,
                20.927744
              ],
              [
                106.372928,
                20.927947
              ],
              [
                106.37309,
                20.928113
              ],
              [
                106.373237,
                20.928334
              ],
              [
                106.373285,
                20.928628
              ],
              [
                106.373265,
                20.928936
              ],
              [
                106.373161,
                20.92921
              ],
              [
                106.372814,
                20.929722
              ],
              [
                106.372443,
                20.930018
              ],
              [
                106.372048,
                20.930215
              ],
              [
                106.37166,
                20.930369
              ],
              [
                106.371143,
                20.930538
              ],
              [
                106.370854,
                20.930684
              ],
              [
                106.370642,
                20.93085
              ],
              [
                106.370483,
                20.931045
              ],
              [
                106.370356,
                20.931254
              ],
              [
                106.37026,
                20.931606
              ],
              [
                106.370269,
                20.931829
              ],
              [
                106.370334,
                20.932194
              ],
              [
                106.370575,
                20.932722
              ],
              [
                106.37087,
                20.933222
              ],
              [
                106.370956,
                20.933487
              ],
              [
                106.371036,
                20.933866
              ],
              [
                106.371125,
                20.934461
              ],
              [
                106.371178,
                20.935119
              ],
              [
                106.371184,
                20.935822
              ],
              [
                106.371139,
                20.936841
              ],
              [
                106.371144,
                20.937422
              ],
              [
                106.371209,
                20.937844
              ],
              [
                106.371381,
                20.938259
              ],
              [
                106.371644,
                20.938665
              ],
              [
                106.371899,
                20.93895
              ],
              [
                106.372121,
                20.939092
              ],
              [
                106.372597,
                20.939332
              ],
              [
                106.372804,
                20.939459
              ],
              [
                106.372897,
                20.939609
              ],
              [
                106.372953,
                20.939852
              ],
              [
                106.372925,
                20.940168
              ],
              [
                106.372854,
                20.940486
              ],
              [
                106.372703,
                20.940952
              ],
              [
                106.372682,
                20.941181
              ],
              [
                106.372731,
                20.941482
              ],
              [
                106.372974,
                20.942116
              ],
              [
                106.373043,
                20.942352
              ],
              [
                106.373069,
                20.942608
              ],
              [
                106.373072,
                20.942759
              ],
              [
                106.373047,
                20.942916
              ],
              [
                106.373011,
                20.943015
              ],
              [
                106.372944,
                20.943098
              ],
              [
                106.372871,
                20.943159
              ],
              [
                106.372734,
                20.943233
              ],
              [
                106.372582,
                20.943285
              ],
              [
                106.372155,
                20.943379
              ],
              [
                106.371665,
                20.943465
              ],
              [
                106.371557,
                20.943497
              ],
              [
                106.3715,
                20.943539
              ],
              [
                106.371487,
                20.943595
              ],
              [
                106.371482,
                20.943658
              ],
              [
                106.371545,
                20.943818
              ],
              [
                106.371642,
                20.943971
              ],
              [
                106.371835,
                20.944225
              ],
              [
                106.372053,
                20.944467
              ],
              [
                106.372717,
                20.94501
              ],
              [
                106.373216,
                20.945314
              ],
              [
                106.373008,
                20.945731
              ],
              [
                106.37268,
                20.9464
              ],
              [
                106.372619,
                20.946494
              ],
              [
                106.372549,
                20.946601
              ],
              [
                106.372496,
                20.946681
              ],
              [
                106.372432,
                20.946744
              ],
              [
                106.37242,
                20.946755
              ],
              [
                106.372333,
                20.94684
              ],
              [
                106.372027,
                20.947123
              ],
              [
                106.371535,
                20.947664
              ],
              [
                106.371079,
                20.948195
              ],
              [
                106.371067,
                20.94821
              ],
              [
                106.371061,
                20.948214
              ],
              [
                106.370889,
                20.948351
              ],
              [
                106.370744,
                20.948702
              ],
              [
                106.370594,
                20.948908
              ],
              [
                106.3704,
                20.949134
              ],
              [
                106.370193,
                20.949418
              ],
              [
                106.370146,
                20.949483
              ],
              [
                106.370025,
                20.949652
              ],
              [
                106.369985,
                20.949686
              ],
              [
                106.369919,
                20.94974
              ],
              [
                106.369857,
                20.949753
              ],
              [
                106.36979,
                20.949753
              ],
              [
                106.36971,
                20.949749
              ],
              [
                106.369653,
                20.949737
              ],
              [
                106.369599,
                20.949696
              ],
              [
                106.369559,
                20.94965
              ],
              [
                106.369532,
                20.949592
              ],
              [
                106.369515,
                20.949567
              ],
              [
                106.369502,
                20.949565
              ],
              [
                106.36941,
                20.949526
              ],
              [
                106.369367,
                20.949508
              ],
              [
                106.369311,
                20.949508
              ],
              [
                106.369234,
                20.94955
              ],
              [
                106.369201,
                20.949555
              ],
              [
                106.369157,
                20.94954
              ],
              [
                106.369123,
                20.949503
              ],
              [
                106.369003,
                20.949463
              ],
              [
                106.368907,
                20.949487
              ],
              [
                106.36874,
                20.949599
              ],
              [
                106.368528,
                20.949835
              ],
              [
                106.368314,
                20.950314
              ],
              [
                106.368159,
                20.950664
              ],
              [
                106.367672,
                20.951323
              ],
              [
                106.367309,
                20.951709
              ],
              [
                106.367051,
                20.951859
              ],
              [
                106.36662,
                20.95202
              ],
              [
                106.366263,
                20.952216
              ],
              [
                106.365178,
                20.953714
              ],
              [
                106.363827,
                20.955353
              ],
              [
                106.363414,
                20.954997
              ],
              [
                106.36333,
                20.954908
              ],
              [
                106.362991,
                20.955147
              ],
              [
                106.362736,
                20.955352
              ],
              [
                106.362456,
                20.955576
              ],
              [
                106.362385,
                20.955633
              ],
              [
                106.365263,
                20.958786
              ],
              [
                106.365341,
                20.958803
              ],
              [
                106.366349,
                20.95963
              ],
              [
                106.366415,
                20.959668
              ],
              [
                106.36841,
                20.960803
              ],
              [
                106.36835,
                20.960903
              ],
              [
                106.367858,
                20.961718
              ],
              [
                106.368853,
                20.962963
              ],
              [
                106.36914,
                20.963323
              ],
              [
                106.370491,
                20.964838
              ],
              [
                106.37027,
                20.965234
              ],
              [
                106.369871,
                20.965529
              ],
              [
                106.368966,
                20.966196
              ],
              [
                106.368865,
                20.966692
              ],
              [
                106.369333,
                20.967731
              ],
              [
                106.369157,
                20.967834
              ],
              [
                106.369022,
                20.967912
              ],
              [
                106.368877,
                20.967996
              ],
              [
                106.368846,
                20.968015
              ],
              [
                106.36889,
                20.968089
              ],
              [
                106.369799,
                20.969588
              ],
              [
                106.36986,
                20.969722
              ],
              [
                106.370031,
                20.970093
              ],
              [
                106.370031,
                20.970094
              ],
              [
                106.370032,
                20.970097
              ],
              [
                106.370058,
                20.970201
              ],
              [
                106.37011,
                20.970409
              ],
              [
                106.370122,
                20.970522
              ],
              [
                106.37015,
                20.970791
              ],
              [
                106.370148,
                20.971216
              ],
              [
                106.370079,
                20.97202
              ],
              [
                106.370091,
                20.972235
              ],
              [
                106.370129,
                20.972387
              ],
              [
                106.37015,
                20.972428
              ],
              [
                106.370268,
                20.972649
              ],
              [
                106.370374,
                20.972782
              ],
              [
                106.37103,
                20.973604
              ],
              [
                106.37166,
                20.974344
              ],
              [
                106.371731,
                20.974427
              ],
              [
                106.371876,
                20.974598
              ],
              [
                106.371915,
                20.974644
              ],
              [
                106.371947,
                20.97469
              ],
              [
                106.372111,
                20.974929
              ],
              [
                106.37223,
                20.975172
              ],
              [
                106.372311,
                20.975419
              ],
              [
                106.372314,
                20.975429
              ],
              [
                106.37239,
                20.975787
              ],
              [
                106.372411,
                20.975934
              ],
              [
                106.372431,
                20.976474
              ],
              [
                106.372386,
                20.976926
              ],
              [
                106.3723,
                20.977243
              ],
              [
                106.372252,
                20.97742
              ],
              [
                106.372209,
                20.977552
              ],
              [
                106.372121,
                20.977825
              ],
              [
                106.372106,
                20.977876
              ],
              [
                106.372067,
                20.978017
              ],
              [
                106.372007,
                20.97838
              ],
              [
                106.371986,
                20.978514
              ],
              [
                106.371929,
                20.979128
              ],
              [
                106.371937,
                20.979276
              ],
              [
                106.371947,
                20.979434
              ],
              [
                106.371979,
                20.979639
              ],
              [
                106.372049,
                20.979858
              ],
              [
                106.372052,
                20.979868
              ],
              [
                106.372134,
                20.980026
              ],
              [
                106.372208,
                20.980169
              ],
              [
                106.372481,
                20.980558
              ],
              [
                106.372707,
                20.980819
              ],
              [
                106.372979,
                20.981046
              ],
              [
                106.373553,
                20.981438
              ],
              [
                106.374168,
                20.981878
              ],
              [
                106.374563,
                20.982209
              ],
              [
                106.374696,
                20.982332
              ],
              [
                106.374764,
                20.982456
              ],
              [
                106.374791,
                20.982633
              ],
              [
                106.374772,
                20.982805
              ],
              [
                106.374713,
                20.983002
              ],
              [
                106.374632,
                20.983149
              ],
              [
                106.374559,
                20.983264
              ],
              [
                106.374371,
                20.98346
              ],
              [
                106.374166,
                20.983653
              ],
              [
                106.373774,
                20.984003
              ],
              [
                106.373455,
                20.984397
              ],
              [
                106.373366,
                20.984599
              ],
              [
                106.373303,
                20.984814
              ],
              [
                106.373282,
                20.985037
              ],
              [
                106.373322,
                20.985237
              ],
              [
                106.373384,
                20.985391
              ],
              [
                106.373531,
                20.985594
              ],
              [
                106.373809,
                20.985879
              ],
              [
                106.374131,
                20.986113
              ],
              [
                106.374469,
                20.986297
              ],
              [
                106.374546,
                20.986334
              ],
              [
                106.37465,
                20.986427
              ],
              [
                106.374685,
                20.986545
              ],
              [
                106.374687,
                20.98675
              ],
              [
                106.374702,
                20.987144
              ],
              [
                106.374711,
                20.987244
              ],
              [
                106.374761,
                20.98728
              ],
              [
                106.374812,
                20.987289
              ],
              [
                106.374872,
                20.9873
              ],
              [
                106.375036,
                20.987303
              ],
              [
                106.375253,
                20.987294
              ],
              [
                106.375406,
                20.987242
              ],
              [
                106.375527,
                20.987148
              ],
              [
                106.375583,
                20.987026
              ],
              [
                106.375724,
                20.986555
              ],
              [
                106.375794,
                20.986322
              ],
              [
                106.37596,
                20.986141
              ],
              [
                106.376327,
                20.985749
              ],
              [
                106.376873,
                20.985144
              ],
              [
                106.377091,
                20.984823
              ],
              [
                106.377381,
                20.984401
              ],
              [
                106.377504,
                20.984171
              ],
              [
                106.37778,
                20.983819
              ],
              [
                106.377901,
                20.983753
              ],
              [
                106.377957,
                20.983741
              ],
              [
                106.378055,
                20.98374
              ],
              [
                106.37815,
                20.983758
              ],
              [
                106.378247,
                20.983803
              ],
              [
                106.378401,
                20.983895
              ],
              [
                106.378705,
                20.984091
              ],
              [
                106.378976,
                20.984314
              ],
              [
                106.379243,
                20.984543
              ],
              [
                106.379645,
                20.984877
              ],
              [
                106.379847,
                20.985037
              ],
              [
                106.380127,
                20.985178
              ],
              [
                106.380427,
                20.98532
              ],
              [
                106.380578,
                20.98538
              ],
              [
                106.380827,
                20.98548
              ],
              [
                106.381208,
                20.985622
              ],
              [
                106.381401,
                20.985692
              ],
              [
                106.381414,
                20.985701
              ],
              [
                106.381487,
                20.985755
              ],
              [
                106.381562,
                20.985829
              ],
              [
                106.381567,
                20.985827
              ],
              [
                106.381649,
                20.985788
              ],
              [
                106.38198,
                20.985633
              ],
              [
                106.382548,
                20.985485
              ],
              [
                106.383624,
                20.98506
              ],
              [
                106.384092,
                20.984877
              ],
              [
                106.384465,
                20.984731
              ],
              [
                106.384792,
                20.98466
              ],
              [
                106.385033,
                20.984669
              ],
              [
                106.38527,
                20.984703
              ],
              [
                106.385458,
                20.984777
              ],
              [
                106.385622,
                20.984898
              ],
              [
                106.385673,
                20.984936
              ],
              [
                106.386134,
                20.985302
              ],
              [
                106.386519,
                20.985632
              ],
              [
                106.386898,
                20.985785
              ],
              [
                106.386935,
                20.9858
              ],
              [
                106.387432,
                20.986
              ],
              [
                106.38786,
                20.986173
              ],
              [
                106.38786,
                20.986173
              ]
            ]
          ]
        ]
      },
      "properties": {
        "code": "10660",
        "name": "Ái Quốc",
        "nameEn": "Ai Quoc",
        "fullName": "Phường Ái Quốc",
        "fullNameEn": "Ai Quoc Ward",
        "codeName": "ai_quoc",
        "postalCode": "03122",
        "postalCodePrefix": "",
        "gisServerId": "diaphanhanhchinhcapxa_2025.848",
        "areaKm2": 17.6
      }
    }
  ]
}