{
  "type": "FeatureCollection",
  "bbox": [
    106.473718,
    20.898128,
    106.548603,
    20.966596
  ],
  "features": [
    {
      "type": "Feature",
      "id": "10792",
      "bbox": [
        106.473718,
        20.898128,
        106.548603,
        20.966596
      ],
      "geometry": {
        "type": "MultiPolygon",
        "coordinates": [
          [
            [
              [
                106.481872,
                20.961897
              ],
              [
                106.482431,
                20.961787
              ],
              [
                106.482767,
                20.961813
              ],
              [
                106.483073,
                20.961887
              ],
              [
                106.483329,
                20.962009
              ],
              [
                106.483565,
                20.962265
              ],
              [
                106.48372,
                20.962493
              ],
              [
                106.48386,
                20.962618
              ],
              [
                106.483992,
                20.962674
              ],
              [
                106.484122,
                20.96267
              ],
              [
                106.484242,
                20.962636
              ],
              [
                106.484318,
                20.962579
              ],
              [
                106.484473,
                20.962458
              ],
              [
                106.484654,
                20.962217
              ],
              [
                106.484834,
                20.96189
              ],
              [
                106.484995,
                20.961707
              ],
              [
                106.485188,
                20.961667
              ],
              [
                106.485473,
                20.961722
              ],
              [
                106.486016,
                20.962062
              ],
              [
                106.486571,
                20.962592
              ],
              [
                106.4866,
                20.962621
              ],
              [
                106.487188,
                20.963189
              ],
              [
                106.487679,
                20.963453
              ],
              [
                106.488189,
                20.963553
              ],
              [
                106.488514,
                20.963531
              ],
              [
                106.488981,
                20.963365
              ],
              [
                106.489355,
                20.963151
              ],
              [
                106.489758,
                20.962737
              ],
              [
                106.490272,
                20.962206
              ],
              [
                106.490345,
                20.9621
              ],
              [
                106.490418,
                20.961992
              ],
              [
                106.490573,
                20.961764
              ],
              [
                106.490842,
                20.961207
              ],
              [
                106.490911,
                20.960886
              ],
              [
                106.491003,
                20.960664
              ],
              [
                106.491121,
                20.960545
              ],
              [
                106.491096,
                20.960469
              ],
              [
                106.491031,
                20.960269
              ],
              [
                106.491021,
                20.960243
              ],
              [
                106.491009,
                20.960214
              ],
              [
                106.490546,
                20.959059
              ],
              [
                106.490366,
                20.958698
              ],
              [
                106.490214,
                20.958392
              ],
              [
                106.489555,
                20.957643
              ],
              [
                106.489043,
                20.957351
              ],
              [
                106.488747,
                20.957267
              ],
              [
                106.488146,
                20.957215
              ],
              [
                106.487717,
                20.957266
              ],
              [
                106.487709,
                20.957267
              ],
              [
                106.486989,
                20.957493
              ],
              [
                106.486118,
                20.957979
              ],
              [
                106.48543,
                20.958367
              ],
              [
                106.484994,
                20.958505
              ],
              [
                106.48478,
                20.958516
              ],
              [
                106.484525,
                20.958451
              ],
              [
                106.484391,
                20.958319
              ],
              [
                106.484338,
                20.95809
              ],
              [
                106.484426,
                20.957754
              ],
              [
                106.485038,
                20.956831
              ],
              [
                106.48549,
                20.956206
              ],
              [
                106.48584,
                20.955524
              ],
              [
                106.485988,
                20.955064
              ],
              [
                106.486184,
                20.954326
              ],
              [
                106.486428,
                20.953265
              ],
              [
                106.486516,
                20.952429
              ],
              [
                106.486537,
                20.951952
              ],
              [
                106.48654,
                20.9519
              ],
              [
                106.486554,
                20.951717
              ],
              [
                106.486594,
                20.951595
              ],
              [
                106.486748,
                20.951423
              ],
              [
                106.486772,
                20.951408
              ],
              [
                106.487173,
                20.951157
              ],
              [
                106.487377,
                20.951079
              ],
              [
                106.487865,
                20.951444
              ],
              [
                106.488166,
                20.951779
              ],
              [
                106.488468,
                20.952217
              ],
              [
                106.488641,
                20.952861
              ],
              [
                106.48867,
                20.952972
              ],
              [
                106.48884,
                20.953512
              ],
              [
                106.48905,
                20.953876
              ],
              [
                106.489347,
                20.954231
              ],
              [
                106.489689,
                20.954476
              ],
              [
                106.490088,
                20.954702
              ],
              [
                106.490559,
                20.954859
              ],
              [
                106.490679,
                20.954895
              ],
              [
                106.491317,
                20.955085
              ],
              [
                106.491803,
                20.955246
              ],
              [
                106.492202,
                20.955436
              ],
              [
                106.492571,
                20.955655
              ],
              [
                106.492795,
                20.95589
              ],
              [
                106.492935,
                20.956175
              ],
              [
                106.492963,
                20.956286
              ],
              [
                106.493002,
                20.95644
              ],
              [
                106.493004,
                20.956659
              ],
              [
                106.493005,
                20.956666
              ],
              [
                106.492969,
                20.956935
              ],
              [
                106.492812,
                20.957249
              ],
              [
                106.492575,
                20.957605
              ],
              [
                106.49252,
                20.957687
              ],
              [
                106.492297,
                20.958024
              ],
              [
                106.492079,
                20.958395
              ],
              [
                106.491952,
                20.958658
              ],
              [
                106.49184,
                20.958978
              ],
              [
                106.491771,
                20.959301
              ],
              [
                106.491749,
                20.959771
              ],
              [
                106.491818,
                20.960154
              ],
              [
                106.491927,
                20.960415
              ],
              [
                106.492163,
                20.960743
              ],
              [
                106.492368,
                20.960959
              ],
              [
                106.49261,
                20.96112
              ],
              [
                106.492614,
                20.961122
              ],
              [
                106.492882,
                20.961199
              ],
              [
                106.493088,
                20.961222
              ],
              [
                106.493248,
                20.96121
              ],
              [
                106.493617,
                20.961092
              ],
              [
                106.493882,
                20.960885
              ],
              [
                106.494414,
                20.960228
              ],
              [
                106.494438,
                20.960197
              ],
              [
                106.494851,
                20.959667
              ],
              [
                106.495436,
                20.959146
              ],
              [
                106.495769,
                20.958975
              ],
              [
                106.496155,
                20.958776
              ],
              [
                106.496761,
                20.958501
              ],
              [
                106.497047,
                20.9584
              ],
              [
                106.497087,
                20.958274
              ],
              [
                106.497121,
                20.957654
              ],
              [
                106.497161,
                20.957271
              ],
              [
                106.497186,
                20.957022
              ],
              [
                106.497245,
                20.956845
              ],
              [
                106.497329,
                20.956605
              ],
              [
                106.497348,
                20.956376
              ],
              [
                106.497334,
                20.95607
              ],
              [
                106.497379,
                20.955953
              ],
              [
                106.497399,
                20.955902
              ],
              [
                106.497597,
                20.955365
              ],
              [
                106.49774,
                20.954928
              ],
              [
                106.497787,
                20.954464
              ],
              [
                106.497666,
                20.95414
              ],
              [
                106.497418,
                20.953774
              ],
              [
                106.497244,
                20.953633
              ],
              [
                106.496963,
                20.953549
              ],
              [
                106.496662,
                20.953466
              ],
              [
                106.496074,
                20.953198
              ],
              [
                106.495986,
                20.953147
              ],
              [
                106.496078,
                20.952864
              ],
              [
                106.496111,
                20.952763
              ],
              [
                106.49615,
                20.952729
              ],
              [
                106.496426,
                20.952486
              ],
              [
                106.496867,
                20.952016
              ],
              [
                106.49846,
                20.949743
              ],
              [
                106.50002,
                20.948068
              ],
              [
                106.499581,
                20.947367
              ],
              [
                106.499706,
                20.947256
              ],
              [
                106.499831,
                20.947145
              ],
              [
                106.500124,
                20.946883
              ],
              [
                106.500145,
                20.946909
              ],
              [
                106.500409,
                20.947228
              ],
              [
                106.500632,
                20.947
              ],
              [
                106.500632,
                20.946999
              ],
              [
                106.501176,
                20.946445
              ],
              [
                106.500689,
                20.946023
              ],
              [
                106.500923,
                20.945737
              ],
              [
                106.499162,
                20.943739
              ],
              [
                106.499016,
                20.943574
              ],
              [
                106.498962,
                20.943513
              ],
              [
                106.499447,
                20.943081
              ],
              [
                106.500412,
                20.942272
              ],
              [
                106.501094,
                20.941681
              ],
              [
                106.501311,
                20.941493
              ],
              [
                106.50136,
                20.941258
              ],
              [
                106.501501,
                20.940683
              ],
              [
                106.501598,
                20.94046
              ],
              [
                106.50187,
                20.940174
              ],
              [
                106.501872,
                20.940173
              ],
              [
                106.502204,
                20.939912
              ],
              [
                106.502382,
                20.939853
              ],
              [
                106.50261,
                20.939823
              ],
              [
                106.502982,
                20.939824
              ],
              [
                106.503026,
                20.939824
              ],
              [
                106.503295,
                20.939823
              ],
              [
                106.503426,
                20.939772
              ],
              [
                106.50369,
                20.939671
              ],
              [
                106.503787,
                20.93962
              ],
              [
                106.504109,
                20.939292
              ],
              [
                106.504205,
                20.939168
              ],
              [
                106.504676,
                20.938847
              ],
              [
                106.505656,
                20.93853
              ],
              [
                106.506537,
                20.938246
              ],
              [
                106.506889,
                20.93815
              ],
              [
                106.507051,
                20.938128
              ],
              [
                106.507188,
                20.938132
              ],
              [
                106.507379,
                20.938145
              ],
              [
                106.507219,
                20.938918
              ],
              [
                106.50712,
                20.939973
              ],
              [
                106.507126,
                20.940235
              ],
              [
                106.507142,
                20.940547
              ],
              [
                106.507178,
                20.941034
              ],
              [
                106.507213,
                20.941368
              ],
              [
                106.507275,
                20.941679
              ],
              [
                106.507355,
                20.941914
              ],
              [
                106.507458,
                20.942171
              ],
              [
                106.507563,
                20.942367
              ],
              [
                106.507691,
                20.942577
              ],
              [
                106.507831,
                20.942771
              ],
              [
                106.507997,
                20.942953
              ],
              [
                106.508389,
                20.943297
              ],
              [
                106.508739,
                20.94352
              ],
              [
                106.509215,
                20.943701
              ],
              [
                106.509889,
                20.943782
              ],
              [
                106.510206,
                20.94383
              ],
              [
                106.510514,
                20.943869
              ],
              [
                106.510913,
                20.943904
              ],
              [
                106.511231,
                20.943938
              ],
              [
                106.511803,
                20.943985
              ],
              [
                106.512092,
                20.943993
              ],
              [
                106.512293,
                20.943979
              ],
              [
                106.512529,
                20.943964
              ],
              [
                106.512779,
                20.943927
              ],
              [
                106.513009,
                20.943858
              ],
              [
                106.513182,
                20.943794
              ],
              [
                106.513479,
                20.943666
              ],
              [
                106.51394,
                20.943425
              ],
              [
                106.514414,
                20.943097
              ],
              [
                106.514715,
                20.942852
              ],
              [
                106.514926,
                20.942644
              ],
              [
                106.515586,
                20.942004
              ],
              [
                106.515673,
                20.941915
              ],
              [
                106.51576,
                20.941826
              ],
              [
                106.51609,
                20.941501
              ],
              [
                106.516588,
                20.941009
              ],
              [
                106.517433,
                20.940084
              ],
              [
                106.517977,
                20.939455
              ],
              [
                106.518684,
                20.938474
              ],
              [
                106.519014,
                20.937897
              ],
              [
                106.519283,
                20.937321
              ],
              [
                106.519454,
                20.936825
              ],
              [
                106.519534,
                20.93643
              ],
              [
                106.519604,
                20.935877
              ],
              [
                106.51963,
                20.935397
              ],
              [
                106.519603,
                20.934988
              ],
              [
                106.519508,
                20.934623
              ],
              [
                106.519352,
                20.934316
              ],
              [
                106.519106,
                20.934103
              ],
              [
                106.518737,
                20.933856
              ],
              [
                106.51827,
                20.933709
              ],
              [
                106.517282,
                20.933403
              ],
              [
                106.517148,
                20.933348
              ],
              [
                106.51624,
                20.932953
              ],
              [
                106.515823,
                20.932534
              ],
              [
                106.515606,
                20.932199
              ],
              [
                106.515442,
                20.931791
              ],
              [
                106.515385,
                20.931498
              ],
              [
                106.515412,
                20.931103
              ],
              [
                106.515523,
                20.930722
              ],
              [
                106.515687,
                20.930348
              ],
              [
                106.515959,
                20.930066
              ],
              [
                106.516307,
                20.929776
              ],
              [
                106.516671,
                20.92955
              ],
              [
                106.517246,
                20.929342
              ],
              [
                106.517344,
                20.929319
              ],
              [
                106.517708,
                20.929245
              ],
              [
                106.517805,
                20.929237
              ],
              [
                106.518789,
                20.929152
              ],
              [
                106.519346,
                20.929204
              ],
              [
                106.519851,
                20.9293
              ],
              [
                106.520409,
                20.929446
              ],
              [
                106.520815,
                20.929564
              ],
              [
                106.52126,
                20.929739
              ],
              [
                106.521612,
                20.929915
              ],
              [
                106.521935,
                20.930127
              ],
              [
                106.522366,
                20.930489
              ],
              [
                106.523146,
                20.931343
              ],
              [
                106.523993,
                20.932138
              ],
              [
                106.524438,
                20.932349
              ],
              [
                106.524851,
                20.93246
              ],
              [
                106.525194,
                20.932443
              ],
              [
                106.525499,
                20.932354
              ],
              [
                106.525718,
                20.932173
              ],
              [
                106.52577,
                20.932022
              ],
              [
                106.525791,
                20.931821
              ],
              [
                106.525635,
                20.9315
              ],
              [
                106.525353,
                20.931094
              ],
              [
                106.525087,
                20.930867
              ],
              [
                106.5249,
                20.930675
              ],
              [
                106.524467,
                20.930259
              ],
              [
                106.524163,
                20.929937
              ],
              [
                106.52392,
                20.929581
              ],
              [
                106.523821,
                20.92928
              ],
              [
                106.523772,
                20.929013
              ],
              [
                106.523816,
                20.928793
              ],
              [
                106.52394,
                20.928534
              ],
              [
                106.524418,
                20.927922
              ],
              [
                106.525115,
                20.927491
              ],
              [
                106.526182,
                20.927068
              ],
              [
                106.526393,
                20.926988
              ],
              [
                106.526719,
                20.926897
              ],
              [
                106.527094,
                20.926818
              ],
              [
                106.527338,
                20.926809
              ],
              [
                106.52874,
                20.926746
              ],
              [
                106.530073,
                20.926686
              ],
              [
                106.531518,
                20.926735
              ],
              [
                106.532536,
                20.926793
              ],
              [
                106.53357,
                20.926875
              ],
              [
                106.534416,
                20.926996
              ],
              [
                106.534854,
                20.927078
              ],
              [
                106.535365,
                20.927255
              ],
              [
                106.536,
                20.927662
              ],
              [
                106.536145,
                20.927797
              ],
              [
                106.53629,
                20.927968
              ],
              [
                106.536465,
                20.928184
              ],
              [
                106.536634,
                20.928477
              ],
              [
                106.536867,
                20.928946
              ],
              [
                106.537242,
                20.929707
              ],
              [
                106.537566,
                20.930583
              ],
              [
                106.537681,
                20.931026
              ],
              [
                106.537724,
                20.931343
              ],
              [
                106.537717,
                20.931811
              ],
              [
                106.537705,
                20.932052
              ],
              [
                106.537679,
                20.932267
              ],
              [
                106.537624,
                20.932567
              ],
              [
                106.537527,
                20.932786
              ],
              [
                106.537441,
                20.932953
              ],
              [
                106.537303,
                20.933202
              ],
              [
                106.537184,
                20.933361
              ],
              [
                106.537036,
                20.933506
              ],
              [
                106.536767,
                20.933724
              ],
              [
                106.53636,
                20.93392
              ],
              [
                106.535976,
                20.93399
              ],
              [
                106.53561,
                20.93401
              ],
              [
                106.535134,
                20.933944
              ],
              [
                106.535092,
                20.933935
              ],
              [
                106.534662,
                20.93388
              ],
              [
                106.534184,
                20.933841
              ],
              [
                106.533845,
                20.933844
              ],
              [
                106.533509,
                20.933912
              ],
              [
                106.533312,
                20.93396
              ],
              [
                106.53316,
                20.93403
              ],
              [
                106.532981,
                20.934149
              ],
              [
                106.532788,
                20.934298
              ],
              [
                106.532543,
                20.934559
              ],
              [
                106.532264,
                20.934862
              ],
              [
                106.532019,
                20.935198
              ],
              [
                106.531815,
                20.93544
              ],
              [
                106.531699,
                20.935649
              ],
              [
                106.531614,
                20.935854
              ],
              [
                106.53157,
                20.936044
              ],
              [
                106.531564,
                20.93622
              ],
              [
                106.531581,
                20.936378
              ],
              [
                106.531715,
                20.93685
              ],
              [
                106.531991,
                20.937281
              ],
              [
                106.532218,
                20.937508
              ],
              [
                106.532606,
                20.937806
              ],
              [
                106.533371,
                20.938169
              ],
              [
                106.534414,
                20.938757
              ],
              [
                106.535759,
                20.939404
              ],
              [
                106.536592,
                20.939663
              ],
              [
                106.537503,
                20.939852
              ],
              [
                106.538624,
                20.940039
              ],
              [
                106.539727,
                20.940227
              ],
              [
                106.540236,
                20.94024
              ],
              [
                106.540592,
                20.940243
              ],
              [
                106.54089,
                20.940174
              ],
              [
                106.541238,
                20.940016
              ],
              [
                106.541585,
                20.939702
              ],
              [
                106.541887,
                20.939382
              ],
              [
                106.542181,
                20.938878
              ],
              [
                106.542555,
                20.93814
              ],
              [
                106.542962,
                20.937349
              ],
              [
                106.543196,
                20.936819
              ],
              [
                106.54332,
                20.936442
              ],
              [
                106.543423,
                20.935987
              ],
              [
                106.543446,
                20.935706
              ],
              [
                106.543465,
                20.93552
              ],
              [
                106.54348,
                20.935365
              ],
              [
                106.543459,
                20.935156
              ],
              [
                106.54338,
                20.934894
              ],
              [
                106.543139,
                20.934298
              ],
              [
                106.542967,
                20.933978
              ],
              [
                106.542381,
                20.932997
              ],
              [
                106.542056,
                20.932324
              ],
              [
                106.541898,
                20.931734
              ],
              [
                106.54185,
                20.93143
              ],
              [
                106.541816,
                20.931221
              ],
              [
                106.541813,
                20.930916
              ],
              [
                106.541847,
                20.930558
              ],
              [
                106.541938,
                20.930109
              ],
              [
                106.542067,
                20.929671
              ],
              [
                106.542311,
                20.929215
              ],
              [
                106.542593,
                20.928878
              ],
              [
                106.5433,
                20.928236
              ],
              [
                106.543849,
                20.927874
              ],
              [
                106.544143,
                20.927657
              ],
              [
                106.544286,
                20.927456
              ],
              [
                106.544317,
                20.92731
              ],
              [
                106.54428,
                20.927099
              ],
              [
                106.544136,
                20.92685
              ],
              [
                106.543876,
                20.926527
              ],
              [
                106.543462,
                20.926047
              ],
              [
                106.543038,
                20.925549
              ],
              [
                106.54274,
                20.925134
              ],
              [
                106.542491,
                20.924692
              ],
              [
                106.542352,
                20.92438
              ],
              [
                106.542299,
                20.923875
              ],
              [
                106.54238,
                20.923482
              ],
              [
                106.542549,
                20.92319
              ],
              [
                106.542717,
                20.922953
              ],
              [
                106.542921,
                20.922787
              ],
              [
                106.543278,
                20.922631
              ],
              [
                106.54345,
                20.922582
              ],
              [
                106.543765,
                20.922517
              ],
              [
                106.544014,
                20.922486
              ],
              [
                106.544248,
                20.922522
              ],
              [
                106.544327,
                20.922555
              ],
              [
                106.544514,
                20.922634
              ],
              [
                106.544621,
                20.922665
              ],
              [
                106.544856,
                20.922732
              ],
              [
                106.545407,
                20.922889
              ],
              [
                106.545774,
                20.922972
              ],
              [
                106.546019,
                20.923032
              ],
              [
                106.546278,
                20.923029
              ],
              [
                106.546553,
                20.923013
              ],
              [
                106.546832,
                20.922962
              ],
              [
                106.547101,
                20.922874
              ],
              [
                106.547425,
                20.922689
              ],
              [
                106.547839,
                20.922456
              ],
              [
                106.548137,
                20.922205
              ],
              [
                106.548383,
                20.92192
              ],
              [
                106.548478,
                20.921747
              ],
              [
                106.548552,
                20.921522
              ],
              [
                106.54859,
                20.921273
              ],
              [
                106.548603,
                20.921005
              ],
              [
                106.548599,
                20.920671
              ],
              [
                106.548561,
                20.920351
              ],
              [
                106.548527,
                20.920069
              ],
              [
                106.548418,
                20.919855
              ],
              [
                106.548294,
                20.919636
              ],
              [
                106.548109,
                20.919437
              ],
              [
                106.547773,
                20.919186
              ],
              [
                106.547635,
                20.919126
              ],
              [
                106.547478,
                20.919092
              ],
              [
                106.547249,
                20.919065
              ],
              [
                106.547051,
                20.919092
              ],
              [
                106.54681,
                20.919108
              ],
              [
                106.546579,
                20.919197
              ],
              [
                106.546347,
                20.919338
              ],
              [
                106.546124,
                20.919534
              ],
              [
                106.545936,
                20.919772
              ],
              [
                106.545609,
                20.92032
              ],
              [
                106.54522,
                20.921016
              ],
              [
                106.544949,
                20.921416
              ],
              [
                106.544658,
                20.921673
              ],
              [
                106.544389,
                20.921823
              ],
              [
                106.543952,
                20.921954
              ],
              [
                106.543813,
                20.921988
              ],
              [
                106.543316,
                20.922011
              ],
              [
                106.542931,
                20.922002
              ],
              [
                106.542503,
                20.921925
              ],
              [
                106.541862,
                20.921691
              ],
              [
                106.541464,
                20.921468
              ],
              [
                106.541193,
                20.921264
              ],
              [
                106.540962,
                20.921033
              ],
              [
                106.540736,
                20.920637
              ],
              [
                106.54067,
                20.920435
              ],
              [
                106.540625,
                20.920086
              ],
              [
                106.540677,
                20.919693
              ],
              [
                106.540898,
                20.919081
              ],
              [
                106.540938,
                20.918944
              ],
              [
                106.540915,
                20.91882
              ],
              [
                106.540838,
                20.918644
              ],
              [
                106.540691,
                20.918506
              ],
              [
                106.539821,
                20.918062
              ],
              [
                106.539045,
                20.917722
              ],
              [
                106.539025,
                20.917718
              ],
              [
                106.538772,
                20.917707
              ],
              [
                106.538402,
                20.917685
              ],
              [
                106.538148,
                20.917701
              ],
              [
                106.53693,
                20.917778
              ],
              [
                106.536344,
                20.917688
              ],
              [
                106.536012,
                20.917559
              ],
              [
                106.53541,
                20.917147
              ],
              [
                106.535062,
                20.916719
              ],
              [
                106.534724,
                20.915946
              ],
              [
                106.534515,
                20.915398
              ],
              [
                106.534365,
                20.914467
              ],
              [
                106.534302,
                20.913362
              ],
              [
                106.534189,
                20.912894
              ],
              [
                106.534027,
                20.912526
              ],
              [
                106.533768,
                20.912157
              ],
              [
                106.533604,
                20.911991
              ],
              [
                106.5334,
                20.911879
              ],
              [
                106.533186,
                20.911822
              ],
              [
                106.53303,
                20.911803
              ],
              [
                106.532787,
                20.911791
              ],
              [
                106.532553,
                20.911826
              ],
              [
                106.532073,
                20.912005
              ],
              [
                106.531593,
                20.912285
              ],
              [
                106.531121,
                20.912684
              ],
              [
                106.530875,
                20.912966
              ],
              [
                106.530726,
                20.91324
              ],
              [
                106.530534,
                20.913916
              ],
              [
                106.530413,
                20.914428
              ],
              [
                106.530257,
                20.914876
              ],
              [
                106.530078,
                20.915213
              ],
              [
                106.529882,
                20.915413
              ],
              [
                106.529622,
                20.915576
              ],
              [
                106.529299,
                20.915664
              ],
              [
                106.528943,
                20.915716
              ],
              [
                106.528359,
                20.915684
              ],
              [
                106.527824,
                20.915505
              ],
              [
                106.527398,
                20.91571
              ],
              [
                106.526308,
                20.916092
              ],
              [
                106.525256,
                20.916496
              ],
              [
                106.524927,
                20.916642
              ],
              [
                106.524747,
                20.916701
              ],
              [
                106.523154,
                20.917121
              ],
              [
                106.522263,
                20.917354
              ],
              [
                106.520513,
                20.9178
              ],
              [
                106.520178,
                20.917882
              ],
              [
                106.52004,
                20.91789
              ],
              [
                106.519987,
                20.917884
              ],
              [
                106.51996,
                20.917845
              ],
              [
                106.519911,
                20.917576
              ],
              [
                106.519902,
                20.917386
              ],
              [
                106.519854,
                20.917211
              ],
              [
                106.519753,
                20.916972
              ],
              [
                106.519631,
                20.916643
              ],
              [
                106.519576,
                20.916446
              ],
              [
                106.519574,
                20.916263
              ],
              [
                106.519584,
                20.916175
              ],
              [
                106.519612,
                20.915959
              ],
              [
                106.51966,
                20.915801
              ],
              [
                106.519743,
                20.9157
              ],
              [
                106.519849,
                20.91562
              ],
              [
                106.520035,
                20.91555
              ],
              [
                106.52037,
                20.915483
              ],
              [
                106.520671,
                20.915415
              ],
              [
                106.520808,
                20.915368
              ],
              [
                106.520935,
                20.915296
              ],
              [
                106.520997,
                20.915244
              ],
              [
                106.521203,
                20.915053
              ],
              [
                106.521482,
                20.914762
              ],
              [
                106.521613,
                20.914585
              ],
              [
                106.521666,
                20.914474
              ],
              [
                106.521703,
                20.914337
              ],
              [
                106.521694,
                20.914201
              ],
              [
                106.521654,
                20.914058
              ],
              [
                106.52148,
                20.913798
              ],
              [
                106.521322,
                20.913649
              ],
              [
                106.521195,
                20.913542
              ],
              [
                106.521022,
                20.913461
              ],
              [
                106.520846,
                20.913416
              ],
              [
                106.520713,
                20.913421
              ],
              [
                106.520579,
                20.913451
              ],
              [
                106.520394,
                20.913572
              ],
              [
                106.520292,
                20.913665
              ],
              [
                106.520201,
                20.913759
              ],
              [
                106.520103,
                20.913842
              ],
              [
                106.519996,
                20.91389
              ],
              [
                106.519844,
                20.913934
              ],
              [
                106.519543,
                20.913973
              ],
              [
                106.519285,
                20.913981
              ],
              [
                106.519051,
                20.91397
              ],
              [
                106.51878,
                20.913954
              ],
              [
                106.518554,
                20.91391
              ],
              [
                106.518309,
                20.913837
              ],
              [
                106.518072,
                20.913749
              ],
              [
                106.517881,
                20.913613
              ],
              [
                106.517772,
                20.91349
              ],
              [
                106.517498,
                20.913242
              ],
              [
                106.517379,
                20.913135
              ],
              [
                106.517244,
                20.913054
              ],
              [
                106.517164,
                20.913022
              ],
              [
                106.517065,
                20.913002
              ],
              [
                106.516942,
                20.912992
              ],
              [
                106.516786,
                20.913008
              ],
              [
                106.516645,
                20.913034
              ],
              [
                106.516497,
                20.913082
              ],
              [
                106.516307,
                20.913177
              ],
              [
                106.516068,
                20.913312
              ],
              [
                106.515889,
                20.913452
              ],
              [
                106.515709,
                20.913612
              ],
              [
                106.515607,
                20.913735
              ],
              [
                106.515558,
                20.913829
              ],
              [
                106.515533,
                20.91394
              ],
              [
                106.515541,
                20.914037
              ],
              [
                106.515613,
                20.914256
              ],
              [
                106.515729,
                20.914491
              ],
              [
                106.515753,
                20.914584
              ],
              [
                106.515753,
                20.914645
              ],
              [
                106.515735,
                20.914724
              ],
              [
                106.515694,
                20.91481
              ],
              [
                106.515611,
                20.914915
              ],
              [
                106.515095,
                20.91525
              ],
              [
                106.514922,
                20.915384
              ],
              [
                106.514635,
                20.915615
              ],
              [
                106.514472,
                20.915752
              ],
              [
                106.514324,
                20.915856
              ],
              [
                106.514194,
                20.915933
              ],
              [
                106.514079,
                20.915993
              ],
              [
                106.513991,
                20.916029
              ],
              [
                106.513812,
                20.916115
              ],
              [
                106.513689,
                20.91621
              ],
              [
                106.513544,
                20.916159
              ],
              [
                106.512083,
                20.915723
              ],
              [
                106.511113,
                20.915434
              ],
              [
                106.511196,
                20.91518
              ],
              [
                106.511218,
                20.915114
              ],
              [
                106.510836,
                20.914995
              ],
              [
                106.510179,
                20.914467
              ],
              [
                106.510054,
                20.91465
              ],
              [
                106.509742,
                20.915088
              ],
              [
                106.510188,
                20.915338
              ],
              [
                106.509987,
                20.915784
              ],
              [
                106.509704,
                20.915616
              ],
              [
                106.509429,
                20.916026
              ],
              [
                106.509621,
                20.916206
              ],
              [
                106.509455,
                20.916496
              ],
              [
                106.509142,
                20.916382
              ],
              [
                106.509014,
                20.916607
              ],
              [
                106.508734,
                20.916432
              ],
              [
                106.508636,
                20.91662
              ],
              [
                106.508545,
                20.916599
              ],
              [
                106.507878,
                20.916481
              ],
              [
                106.507957,
                20.916287
              ],
              [
                106.507673,
                20.916166
              ],
              [
                106.507331,
                20.91597
              ],
              [
                106.50717,
                20.916371
              ],
              [
                106.50707,
                20.916358
              ],
              [
                106.507015,
                20.916359
              ],
              [
                106.50692,
                20.916388
              ],
              [
                106.506829,
                20.916418
              ],
              [
                106.50676,
                20.916476
              ],
              [
                106.506678,
                20.916576
              ],
              [
                106.506622,
                20.91667
              ],
              [
                106.506556,
                20.916799
              ],
              [
                106.506412,
                20.917054
              ],
              [
                106.506297,
                20.917172
              ],
              [
                106.506216,
                20.917223
              ],
              [
                106.506098,
                20.917269
              ],
              [
                106.505966,
                20.917284
              ],
              [
                106.505868,
                20.917266
              ],
              [
                106.50574,
                20.917223
              ],
              [
                106.505498,
                20.917101
              ],
              [
                106.505178,
                20.916977
              ],
              [
                106.504996,
                20.916924
              ],
              [
                106.504831,
                20.916881
              ],
              [
                106.504633,
                20.916832
              ],
              [
                106.504572,
                20.916807
              ],
              [
                106.504461,
                20.916733
              ],
              [
                106.504332,
                20.916644
              ],
              [
                106.504213,
                20.916533
              ],
              [
                106.504126,
                20.91643
              ],
              [
                106.504087,
                20.916348
              ],
              [
                106.504059,
                20.916182
              ],
              [
                106.504066,
                20.915864
              ],
              [
                106.503649,
                20.916097
              ],
              [
                106.503483,
                20.916224
              ],
              [
                106.503405,
                20.916292
              ],
              [
                106.503236,
                20.916433
              ],
              [
                106.503144,
                20.916322
              ],
              [
                106.503042,
                20.916357
              ],
              [
                106.503019,
                20.916114
              ],
              [
                106.502607,
                20.916189
              ],
              [
                106.502488,
                20.91552
              ],
              [
                106.502213,
                20.915517
              ],
              [
                106.502215,
                20.915465
              ],
              [
                106.502222,
                20.915259
              ],
              [
                106.502223,
                20.915223
              ],
              [
                106.5022,
                20.915105
              ],
              [
                106.501976,
                20.915238
              ],
              [
                106.501872,
                20.915267
              ],
              [
                106.501869,
                20.915267
              ],
              [
                106.501705,
                20.915264
              ],
              [
                106.501568,
                20.915196
              ],
              [
                106.501382,
                20.914976
              ],
              [
                106.501217,
                20.914482
              ],
              [
                106.501175,
                20.91412
              ],
              [
                106.501202,
                20.913737
              ],
              [
                106.501271,
                20.913345
              ],
              [
                106.501284,
                20.913162
              ],
              [
                106.501253,
                20.913044
              ],
              [
                106.501194,
                20.912905
              ],
              [
                106.501021,
                20.912759
              ],
              [
                106.500852,
                20.912671
              ],
              [
                106.500503,
                20.912535
              ],
              [
                106.500106,
                20.912445
              ],
              [
                106.499692,
                20.912312
              ],
              [
                106.499481,
                20.912207
              ],
              [
                106.499346,
                20.912068
              ],
              [
                106.499268,
                20.911861
              ],
              [
                106.499255,
                20.911692
              ],
              [
                106.499292,
                20.911563
              ],
              [
                106.499394,
                20.911447
              ],
              [
                106.49945,
                20.911336
              ],
              [
                106.499449,
                20.911246
              ],
              [
                106.499414,
                20.911167
              ],
              [
                106.499114,
                20.910823
              ],
              [
                106.498526,
                20.910146
              ],
              [
                106.498289,
                20.909718
              ],
              [
                106.498168,
                20.909457
              ],
              [
                106.498143,
                20.909243
              ],
              [
                106.498194,
                20.909013
              ],
              [
                106.498281,
                20.908858
              ],
              [
                106.498469,
                20.908648
              ],
              [
                106.498707,
                20.908427
              ],
              [
                106.499084,
                20.908259
              ],
              [
                106.499399,
                20.908127
              ],
              [
                106.499688,
                20.907992
              ],
              [
                106.4999,
                20.907847
              ],
              [
                106.500005,
                20.907717
              ],
              [
                106.500054,
                20.907587
              ],
              [
                106.500056,
                20.907415
              ],
              [
                106.500005,
                20.907258
              ],
              [
                106.499831,
                20.907059
              ],
              [
                106.49967,
                20.906992
              ],
              [
                106.499429,
                20.906958
              ],
              [
                106.499235,
                20.906967
              ],
              [
                106.498961,
                20.907081
              ],
              [
                106.498491,
                20.907361
              ],
              [
                106.497888,
                20.907721
              ],
              [
                106.497291,
                20.907974
              ],
              [
                106.496956,
                20.908063
              ],
              [
                106.496632,
                20.908087
              ],
              [
                106.496345,
                20.908007
              ],
              [
                106.496,
                20.907831
              ],
              [
                106.495761,
                20.907582
              ],
              [
                106.49564,
                20.907318
              ],
              [
                106.495611,
                20.90702
              ],
              [
                106.495628,
                20.906859
              ],
              [
                106.495684,
                20.906729
              ],
              [
                106.495827,
                20.906574
              ],
              [
                106.496286,
                20.906237
              ],
              [
                106.496749,
                20.906007
              ],
              [
                106.497076,
                20.905875
              ],
              [
                106.497281,
                20.905747
              ],
              [
                106.497428,
                20.905563
              ],
              [
                106.497456,
                20.905391
              ],
              [
                106.49744,
                20.905276
              ],
              [
                106.497312,
                20.905084
              ],
              [
                106.497074,
                20.904889
              ],
              [
                106.496625,
                20.904627
              ],
              [
                106.496314,
                20.904498
              ],
              [
                106.49599,
                20.904475
              ],
              [
                106.495788,
                20.904516
              ],
              [
                106.495636,
                20.904582
              ],
              [
                106.495455,
                20.904774
              ],
              [
                106.495287,
                20.905123
              ],
              [
                106.495156,
                20.905429
              ],
              [
                106.495073,
                20.905853
              ],
              [
                106.494983,
                20.906434
              ],
              [
                106.49492,
                20.906611
              ],
              [
                106.494856,
                20.906694
              ],
              [
                106.49475,
                20.90677
              ],
              [
                106.49462,
                20.906807
              ],
              [
                106.494479,
                20.906797
              ],
              [
                106.494364,
                20.906759
              ],
              [
                106.49418,
                20.906617
              ],
              [
                106.494071,
                20.906396
              ],
              [
                106.494023,
                20.906192
              ],
              [
                106.494032,
                20.905923
              ],
              [
                106.494102,
                20.905555
              ],
              [
                106.494486,
                20.904402
              ],
              [
                106.494521,
                20.904115
              ],
              [
                106.494452,
                20.903707
              ],
              [
                106.494188,
                20.903208
              ],
              [
                106.493593,
                20.90213
              ],
              [
                106.493306,
                20.901584
              ],
              [
                106.493012,
                20.901253
              ],
              [
                106.492489,
                20.90081
              ],
              [
                106.492148,
                20.900597
              ],
              [
                106.491623,
                20.900401
              ],
              [
                106.49116,
                20.900262
              ],
              [
                106.49087,
                20.900221
              ],
              [
                106.490591,
                20.900253
              ],
              [
                106.490246,
                20.90036
              ],
              [
                106.489927,
                20.900542
              ],
              [
                106.489586,
                20.900846
              ],
              [
                106.489193,
                20.901215
              ],
              [
                106.488863,
                20.901444
              ],
              [
                106.488605,
                20.901557
              ],
              [
                106.488304,
                20.901631
              ],
              [
                106.487927,
                20.901678
              ],
              [
                106.487508,
                20.901692
              ],
              [
                106.487068,
                20.901635
              ],
              [
                106.48669,
                20.901541
              ],
              [
                106.486414,
                20.901411
              ],
              [
                106.486279,
                20.901262
              ],
              [
                106.486231,
                20.901115
              ],
              [
                106.486244,
                20.900825
              ],
              [
                106.486321,
                20.900569
              ],
              [
                106.486502,
                20.900324
              ],
              [
                106.486676,
                20.900161
              ],
              [
                106.486976,
                20.900004
              ],
              [
                106.487432,
                20.899818
              ],
              [
                106.48772,
                20.899668
              ],
              [
                106.487963,
                20.89949
              ],
              [
                106.488076,
                20.899349
              ],
              [
                106.488139,
                20.899223
              ],
              [
                106.488157,
                20.899083
              ],
              [
                106.488121,
                20.898915
              ],
              [
                106.488028,
                20.898769
              ],
              [
                106.487813,
                20.898595
              ],
              [
                106.487452,
                20.898419
              ],
              [
                106.487299,
                20.898327
              ],
              [
                106.487119,
                20.898236
              ],
              [
                106.486744,
                20.898174
              ],
              [
                106.486237,
                20.898128
              ],
              [
                106.486197,
                20.89813
              ],
              [
                106.486072,
                20.898136
              ],
              [
                106.485696,
                20.898276
              ],
              [
                106.484653,
                20.898988
              ],
              [
                106.484606,
                20.89899
              ],
              [
                106.484191,
                20.899781
              ],
              [
                106.48413,
                20.899898
              ],
              [
                106.484108,
                20.899951
              ],
              [
                106.48374,
                20.900863
              ],
              [
                106.483544,
                20.901421
              ],
              [
                106.483369,
                20.901849
              ],
              [
                106.482917,
                20.902957
              ],
              [
                106.482717,
                20.903124
              ],
              [
                106.482615,
                20.903173
              ],
              [
                106.482552,
                20.903187
              ],
              [
                106.482463,
                20.903182
              ],
              [
                106.481189,
                20.902767
              ],
              [
                106.480479,
                20.902536
              ],
              [
                106.479501,
                20.904524
              ],
              [
                106.478348,
                20.90687
              ],
              [
                106.478172,
                20.907229
              ],
              [
                106.477378,
                20.908995
              ],
              [
                106.47679,
                20.910301
              ],
              [
                106.475609,
                20.91354
              ],
              [
                106.475236,
                20.915138
              ],
              [
                106.475216,
                20.915224
              ],
              [
                106.47501,
                20.917487
              ],
              [
                106.47484,
                20.919352
              ],
              [
                106.47487,
                20.920711
              ],
              [
                106.474874,
                20.920906
              ],
              [
                106.474918,
                20.921097
              ],
              [
                106.475353,
                20.922981
              ],
              [
                106.476214,
                20.925182
              ],
              [
                106.476927,
                20.926295
              ],
              [
                106.477625,
                20.927068
              ],
              [
                106.478609,
                20.928159
              ],
              [
                106.480716,
                20.929986
              ],
              [
                106.481441,
                20.930615
              ],
              [
                106.482981,
                20.931935
              ],
              [
                106.483298,
                20.932234
              ],
              [
                106.484368,
                20.933243
              ],
              [
                106.485776,
                20.935166
              ],
              [
                106.486089,
                20.935967
              ],
              [
                106.486145,
                20.936177
              ],
              [
                106.486612,
                20.937913
              ],
              [
                106.486697,
                20.939233
              ],
              [
                106.486736,
                20.939823
              ],
              [
                106.486666,
                20.940361
              ],
              [
                106.486601,
                20.940736
              ],
              [
                106.486543,
                20.940906
              ],
              [
                106.486331,
                20.941532
              ],
              [
                106.485898,
                20.94246
              ],
              [
                106.485259,
                20.943519
              ],
              [
                106.484769,
                20.944114
              ],
              [
                106.48437,
                20.944598
              ],
              [
                106.483633,
                20.945409
              ],
              [
                106.483084,
                20.94599
              ],
              [
                106.482059,
                20.946884
              ],
              [
                106.481158,
                20.947498
              ],
              [
                106.48061,
                20.947865
              ],
              [
                106.480439,
                20.947979
              ],
              [
                106.479423,
                20.948499
              ],
              [
                106.478948,
                20.948695
              ],
              [
                106.478161,
                20.949069
              ],
              [
                106.477528,
                20.949351
              ],
              [
                106.476266,
                20.949835
              ],
              [
                106.475258,
                20.95012
              ],
              [
                106.47471,
                20.950248
              ],
              [
                106.474469,
                20.950293
              ],
              [
                106.47441,
                20.950818
              ],
              [
                106.474382,
                20.951072
              ],
              [
                106.474284,
                20.951537
              ],
              [
                106.474136,
                20.951841
              ],
              [
                106.474075,
                20.951967
              ],
              [
                106.473975,
                20.952228
              ],
              [
                106.473941,
                20.952319
              ],
              [
                106.473903,
                20.952528
              ],
              [
                106.473864,
                20.952741
              ],
              [
                106.473718,
                20.953449
              ],
              [
                106.473732,
                20.953841
              ],
              [
                106.473817,
                20.954271
              ],
              [
                106.474245,
                20.955271
              ],
              [
                106.474669,
                20.956013
              ],
              [
                106.475371,
                20.95702
              ],
              [
                106.475877,
                20.9578
              ],
              [
                106.476179,
                20.958409
              ],
              [
                106.476367,
                20.958895
              ],
              [
                106.476463,
                20.959391
              ],
              [
                106.476501,
                20.960137
              ],
              [
                106.476424,
                20.960615
              ],
              [
                106.476221,
                20.961609
              ],
              [
                106.476179,
                20.961813
              ],
              [
                106.476177,
                20.961819
              ],
              [
                106.476072,
                20.962091
              ],
              [
                106.476004,
                20.962378
              ],
              [
                106.475989,
                20.962914
              ],
              [
                106.47612,
                20.964873
              ],
              [
                106.476362,
                20.965702
              ],
              [
                106.476859,
                20.966141
              ],
              [
                106.477416,
                20.96649
              ],
              [
                106.477562,
                20.966581
              ],
              [
                106.477969,
                20.966596
              ],
              [
                106.478528,
                20.966486
              ],
              [
                106.478862,
                20.966331
              ],
              [
                106.479074,
                20.966157
              ],
              [
                106.479194,
                20.965907
              ],
              [
                106.479292,
                20.965543
              ],
              [
                106.479367,
                20.964911
              ],
              [
                106.479408,
                20.963878
              ],
              [
                106.479456,
                20.963562
              ],
              [
                106.479655,
                20.963121
              ],
              [
                106.480007,
                20.962735
              ],
              [
                106.480175,
                20.962632
              ],
              [
                106.480291,
                20.962561
              ],
              [
                106.480979,
                20.96222
              ],
              [
                106.481872,
                20.961897
              ],
              [
                106.481872,
                20.961897
              ]
            ]
          ]
        ]
      },
      "properties": {
        "code": "10792",
        "name": "An Thành",
        "nameEn": "An Thanh",
        "fullName": "Xã An Thành",
        "fullNameEn": "An Thanh Commune",
        "codeName": "an_thanh",
        "postalCode": "03327",
        "postalCodePrefix": "",
        "gisServerId": "diaphanhanhchinhcapxa_2025.840",
        "areaKm2": 23.66
      }
    }
  ]
}