{
  "type": "FeatureCollection",
  "bbox": [
    106.409579,
    20.845009,
    106.46462,
    20.920947
  ],
  "features": [
    {
      "type": "Feature",
      "id": "10813",
      "bbox": [
        106.409579,
        20.845009,
        106.46462,
        20.920947
      ],
      "geometry": {
        "type": "MultiPolygon",
        "coordinates": [
          [
            [
              [
                106.441808,
                20.907359
              ],
              [
                106.445699,
                20.908845
              ],
              [
                106.450143,
                20.91146
              ],
              [
                106.451063,
                20.911882
              ],
              [
                106.451568,
                20.912079
              ],
              [
                106.452341,
                20.912252
              ],
              [
                106.45344,
                20.912364
              ],
              [
                106.45467,
                20.91244
              ],
              [
                106.455654,
                20.912417
              ],
              [
                106.456637,
                20.912308
              ],
              [
                106.458015,
                20.911952
              ],
              [
                106.459239,
                20.911483
              ],
              [
                106.460538,
                20.910805
              ],
              [
                106.461433,
                20.910224
              ],
              [
                106.461856,
                20.909861
              ],
              [
                106.462309,
                20.909291
              ],
              [
                106.462511,
                20.908881
              ],
              [
                106.462584,
                20.908615
              ],
              [
                106.462655,
                20.908019
              ],
              [
                106.462803,
                20.905945
              ],
              [
                106.462785,
                20.904856
              ],
              [
                106.462622,
                20.904091
              ],
              [
                106.462506,
                20.903536
              ],
              [
                106.462318,
                20.902983
              ],
              [
                106.462023,
                20.902321
              ],
              [
                106.461449,
                20.901307
              ],
              [
                106.460704,
                20.900069
              ],
              [
                106.460014,
                20.898784
              ],
              [
                106.459534,
                20.897573
              ],
              [
                106.459165,
                20.896403
              ],
              [
                106.458986,
                20.895679
              ],
              [
                106.458955,
                20.895356
              ],
              [
                106.45896,
                20.895071
              ],
              [
                106.458964,
                20.894781
              ],
              [
                106.458957,
                20.894413
              ],
              [
                106.458955,
                20.893993
              ],
              [
                106.458969,
                20.893527
              ],
              [
                106.458989,
                20.893133
              ],
              [
                106.459228,
                20.890299
              ],
              [
                106.460103,
                20.888169
              ],
              [
                106.461302,
                20.885941
              ],
              [
                106.461663,
                20.885422
              ],
              [
                106.462014,
                20.884609
              ],
              [
                106.463131,
                20.882761
              ],
              [
                106.46462,
                20.880238
              ],
              [
                106.463741,
                20.879963
              ],
              [
                106.462739,
                20.878992
              ],
              [
                106.462078,
                20.877623
              ],
              [
                106.461493,
                20.875035
              ],
              [
                106.461207,
                20.874015
              ],
              [
                106.460511,
                20.873146
              ],
              [
                106.460398,
                20.873004
              ],
              [
                106.460235,
                20.872825
              ],
              [
                106.460114,
                20.872705
              ],
              [
                106.459973,
                20.872575
              ],
              [
                106.459765,
                20.872402
              ],
              [
                106.459637,
                20.872286
              ],
              [
                106.459196,
                20.871846
              ],
              [
                106.45893,
                20.871556
              ],
              [
                106.458523,
                20.871172
              ],
              [
                106.458325,
                20.870971
              ],
              [
                106.458212,
                20.87085
              ],
              [
                106.457612,
                20.87029
              ],
              [
                106.457531,
                20.869834
              ],
              [
                106.457473,
                20.869509
              ],
              [
                106.456615,
                20.869233
              ],
              [
                106.455574,
                20.868001
              ],
              [
                106.454035,
                20.865454
              ],
              [
                106.453134,
                20.862684
              ],
              [
                106.452885,
                20.86086
              ],
              [
                106.451304,
                20.859865
              ],
              [
                106.451196,
                20.859897
              ],
              [
                106.451045,
                20.859929
              ],
              [
                106.450874,
                20.859954
              ],
              [
                106.450616,
                20.859978
              ],
              [
                106.450373,
                20.859985
              ],
              [
                106.450229,
                20.859982
              ],
              [
                106.449812,
                20.859973
              ],
              [
                106.449539,
                20.859991
              ],
              [
                106.448286,
                20.860179
              ],
              [
                106.447999,
                20.860216
              ],
              [
                106.447822,
                20.860239
              ],
              [
                106.447736,
                20.860248
              ],
              [
                106.447543,
                20.860267
              ],
              [
                106.447425,
                20.860273
              ],
              [
                106.447357,
                20.860277
              ],
              [
                106.447075,
                20.860276
              ],
              [
                106.446793,
                20.860262
              ],
              [
                106.446614,
                20.860245
              ],
              [
                106.446049,
                20.860165
              ],
              [
                106.445567,
                20.860111
              ],
              [
                106.445225,
                20.860063
              ],
              [
                106.44487,
                20.85999
              ],
              [
                106.444638,
                20.859919
              ],
              [
                106.444483,
                20.859852
              ],
              [
                106.444291,
                20.85975
              ],
              [
                106.443973,
                20.85956
              ],
              [
                106.44358,
                20.859316
              ],
              [
                106.443349,
                20.859165
              ],
              [
                106.443202,
                20.859058
              ],
              [
                106.443131,
                20.859
              ],
              [
                106.443004,
                20.85888
              ],
              [
                106.442826,
                20.858685
              ],
              [
                106.442655,
                20.858484
              ],
              [
                106.442488,
                20.85828
              ],
              [
                106.442328,
                20.858072
              ],
              [
                106.442227,
                20.857917
              ],
              [
                106.442173,
                20.857817
              ],
              [
                106.442116,
                20.857669
              ],
              [
                106.442092,
                20.857581
              ],
              [
                106.442074,
                20.857489
              ],
              [
                106.442059,
                20.857356
              ],
              [
                106.442045,
                20.857028
              ],
              [
                106.442044,
                20.856632
              ],
              [
                106.44206,
                20.855778
              ],
              [
                106.442055,
                20.855526
              ],
              [
                106.442022,
                20.855163
              ],
              [
                106.44192,
                20.854405
              ],
              [
                106.441859,
                20.854056
              ],
              [
                106.441784,
                20.853707
              ],
              [
                106.441722,
                20.853467
              ],
              [
                106.441591,
                20.853017
              ],
              [
                106.441537,
                20.852777
              ],
              [
                106.44151,
                20.852618
              ],
              [
                106.4415,
                20.852558
              ],
              [
                106.441465,
                20.852297
              ],
              [
                106.441423,
                20.851987
              ],
              [
                106.441355,
                20.851654
              ],
              [
                106.441291,
                20.851416
              ],
              [
                106.44121,
                20.851162
              ],
              [
                106.441148,
                20.850991
              ],
              [
                106.441058,
                20.850768
              ],
              [
                106.440883,
                20.850399
              ],
              [
                106.440704,
                20.85008
              ],
              [
                106.439819,
                20.848644
              ],
              [
                106.439674,
                20.848421
              ],
              [
                106.43952,
                20.848204
              ],
              [
                106.438582,
                20.847007
              ],
              [
                106.438355,
                20.846729
              ],
              [
                106.438186,
                20.846536
              ],
              [
                106.437895,
                20.846221
              ],
              [
                106.437712,
                20.846041
              ],
              [
                106.437582,
                20.845931
              ],
              [
                106.437511,
                20.845879
              ],
              [
                106.437361,
                20.845785
              ],
              [
                106.437126,
                20.845658
              ],
              [
                106.436881,
                20.845547
              ],
              [
                106.436613,
                20.845452
              ],
              [
                106.43627,
                20.845348
              ],
              [
                106.43625,
                20.845341
              ],
              [
                106.435611,
                20.84516
              ],
              [
                106.43506,
                20.845009
              ],
              [
                106.434627,
                20.845974
              ],
              [
                106.434076,
                20.846773
              ],
              [
                106.433875,
                20.847016
              ],
              [
                106.433783,
                20.847127
              ],
              [
                106.433675,
                20.847267
              ],
              [
                106.433073,
                20.846871
              ],
              [
                106.432557,
                20.846634
              ],
              [
                106.432484,
                20.846861
              ],
              [
                106.431133,
                20.846427
              ],
              [
                106.43024,
                20.850542
              ],
              [
                106.430038,
                20.851398
              ],
              [
                106.428191,
                20.851007
              ],
              [
                106.428062,
                20.851522
              ],
              [
                106.42738,
                20.851289
              ],
              [
                106.427515,
                20.850845
              ],
              [
                106.426824,
                20.850662
              ],
              [
                106.426341,
                20.850534
              ],
              [
                106.426261,
                20.850512
              ],
              [
                106.42626,
                20.850519
              ],
              [
                106.426256,
                20.850642
              ],
              [
                106.426262,
                20.850771
              ],
              [
                106.426293,
                20.850978
              ],
              [
                106.426352,
                20.851232
              ],
              [
                106.42653,
                20.851865
              ],
              [
                106.426565,
                20.852002
              ],
              [
                106.426608,
                20.852169
              ],
              [
                106.426663,
                20.852438
              ],
              [
                106.426701,
                20.852714
              ],
              [
                106.426724,
                20.85303
              ],
              [
                106.426727,
                20.853315
              ],
              [
                106.426717,
                20.853575
              ],
              [
                106.426681,
                20.854186
              ],
              [
                106.426676,
                20.854437
              ],
              [
                106.426695,
                20.854758
              ],
              [
                106.426752,
                20.855228
              ],
              [
                106.42679,
                20.855429
              ],
              [
                106.42684,
                20.855629
              ],
              [
                106.426899,
                20.855823
              ],
              [
                106.426986,
                20.856071
              ],
              [
                106.427161,
                20.85652
              ],
              [
                106.427383,
                20.857065
              ],
              [
                106.427504,
                20.857341
              ],
              [
                106.427609,
                20.857563
              ],
              [
                106.427813,
                20.857954
              ],
              [
                106.428023,
                20.858315
              ],
              [
                106.428175,
                20.858552
              ],
              [
                106.428436,
                20.858906
              ],
              [
                106.428635,
                20.859195
              ],
              [
                106.428926,
                20.859658
              ],
              [
                106.429026,
                20.85985
              ],
              [
                106.429059,
                20.859934
              ],
              [
                106.429084,
                20.86002
              ],
              [
                106.429102,
                20.860116
              ],
              [
                106.429111,
                20.860218
              ],
              [
                106.429101,
                20.860399
              ],
              [
                106.429081,
                20.860502
              ],
              [
                106.429051,
                20.860607
              ],
              [
                106.428997,
                20.860734
              ],
              [
                106.428956,
                20.860809
              ],
              [
                106.428845,
                20.860971
              ],
              [
                106.428787,
                20.86104
              ],
              [
                106.428695,
                20.861136
              ],
              [
                106.42855,
                20.861255
              ],
              [
                106.42843,
                20.861333
              ],
              [
                106.428364,
                20.861368
              ],
              [
                106.428292,
                20.861402
              ],
              [
                106.428137,
                20.861463
              ],
              [
                106.427877,
                20.861535
              ],
              [
                106.427681,
                20.861569
              ],
              [
                106.427492,
                20.861586
              ],
              [
                106.427283,
                20.861592
              ],
              [
                106.427127,
                20.861589
              ],
              [
                106.426855,
                20.861573
              ],
              [
                106.425797,
                20.861487
              ],
              [
                106.425189,
                20.861421
              ],
              [
                106.424472,
                20.86133
              ],
              [
                106.424062,
                20.861301
              ],
              [
                106.423656,
                20.861292
              ],
              [
                106.423326,
                20.861302
              ],
              [
                106.423087,
                20.861325
              ],
              [
                106.422851,
                20.86137
              ],
              [
                106.422661,
                20.861427
              ],
              [
                106.42254,
                20.861476
              ],
              [
                106.422429,
                20.86153
              ],
              [
                106.422236,
                20.861649
              ],
              [
                106.422116,
                20.861748
              ],
              [
                106.422069,
                20.861798
              ],
              [
                106.421993,
                20.861894
              ],
              [
                106.421931,
                20.861991
              ],
              [
                106.421881,
                20.862092
              ],
              [
                106.421836,
                20.862209
              ],
              [
                106.421816,
                20.862278
              ],
              [
                106.421796,
                20.862378
              ],
              [
                106.421789,
                20.862451
              ],
              [
                106.421788,
                20.862526
              ],
              [
                106.421799,
                20.862667
              ],
              [
                106.421812,
                20.862743
              ],
              [
                106.421844,
                20.862874
              ],
              [
                106.42188,
                20.862973
              ],
              [
                106.421923,
                20.863064
              ],
              [
                106.422022,
                20.863217
              ],
              [
                106.422117,
                20.863334
              ],
              [
                106.422212,
                20.863435
              ],
              [
                106.422415,
                20.863626
              ],
              [
                106.422517,
                20.863708
              ],
              [
                106.422631,
                20.86379
              ],
              [
                106.422834,
                20.863914
              ],
              [
                106.423027,
                20.864007
              ],
              [
                106.423294,
                20.864104
              ],
              [
                106.423581,
                20.864181
              ],
              [
                106.423869,
                20.86424
              ],
              [
                106.424213,
                20.864289
              ],
              [
                106.424584,
                20.864321
              ],
              [
                106.424881,
                20.864334
              ],
              [
                106.425468,
                20.864347
              ],
              [
                106.425469,
                20.864347
              ],
              [
                106.42547,
                20.864347
              ],
              [
                106.425465,
                20.864484
              ],
              [
                106.425419,
                20.865916
              ],
              [
                106.425319,
                20.869224
              ],
              [
                106.425343,
                20.869454
              ],
              [
                106.425311,
                20.869485
              ],
              [
                106.425249,
                20.869547
              ],
              [
                106.425177,
                20.869637
              ],
              [
                106.425135,
                20.869701
              ],
              [
                106.425065,
                20.869836
              ],
              [
                106.425033,
                20.869914
              ],
              [
                106.424987,
                20.870064
              ],
              [
                106.424961,
                20.8702
              ],
              [
                106.42495,
                20.870316
              ],
              [
                106.424947,
                20.870449
              ],
              [
                106.424955,
                20.870599
              ],
              [
                106.424975,
                20.870759
              ],
              [
                106.425004,
                20.870916
              ],
              [
                106.425059,
                20.871149
              ],
              [
                106.425136,
                20.871421
              ],
              [
                106.425364,
                20.872133
              ],
              [
                106.425516,
                20.872554
              ],
              [
                106.425578,
                20.872702
              ],
              [
                106.425764,
                20.873148
              ],
              [
                106.425807,
                20.873275
              ],
              [
                106.425864,
                20.873482
              ],
              [
                106.425896,
                20.873653
              ],
              [
                106.425949,
                20.873869
              ],
              [
                106.425934,
                20.874016
              ],
              [
                106.425835,
                20.874306
              ],
              [
                106.425611,
                20.874778
              ],
              [
                106.42546,
                20.874976
              ],
              [
                106.425071,
                20.875367
              ],
              [
                106.424557,
                20.875851
              ],
              [
                106.424497,
                20.875904
              ],
              [
                106.424417,
                20.875974
              ],
              [
                106.424231,
                20.876055
              ],
              [
                106.423964,
                20.876118
              ],
              [
                106.42342,
                20.876287
              ],
              [
                106.423058,
                20.876333
              ],
              [
                106.422696,
                20.876333
              ],
              [
                106.422226,
                20.876236
              ],
              [
                106.421709,
                20.876058
              ],
              [
                106.421112,
                20.875862
              ],
              [
                106.420634,
                20.875751
              ],
              [
                106.419791,
                20.87569
              ],
              [
                106.419192,
                20.875724
              ],
              [
                106.418473,
                20.875895
              ],
              [
                106.417801,
                20.876227
              ],
              [
                106.41713,
                20.876698
              ],
              [
                106.416585,
                20.877133
              ],
              [
                106.416049,
                20.877768
              ],
              [
                106.415907,
                20.87816
              ],
              [
                106.415838,
                20.878523
              ],
              [
                106.415786,
                20.879025
              ],
              [
                106.415897,
                20.879519
              ],
              [
                106.416157,
                20.87998
              ],
              [
                106.416418,
                20.880171
              ],
              [
                106.416736,
                20.880312
              ],
              [
                106.417069,
                20.880359
              ],
              [
                106.417587,
                20.880308
              ],
              [
                106.418294,
                20.880055
              ],
              [
                106.41916,
                20.879589
              ],
              [
                106.419775,
                20.879311
              ],
              [
                106.420361,
                20.879131
              ],
              [
                106.4211,
                20.879028
              ],
              [
                106.421679,
                20.878991
              ],
              [
                106.422176,
                20.879044
              ],
              [
                106.422516,
                20.879142
              ],
              [
                106.422943,
                20.879461
              ],
              [
                106.423287,
                20.879913
              ],
              [
                106.423506,
                20.880517
              ],
              [
                106.423645,
                20.881083
              ],
              [
                106.423768,
                20.88205
              ],
              [
                106.424016,
                20.882876
              ],
              [
                106.424027,
                20.883145
              ],
              [
                106.423923,
                20.883536
              ],
              [
                106.423744,
                20.883928
              ],
              [
                106.423457,
                20.884211
              ],
              [
                106.423097,
                20.88445
              ],
              [
                106.422306,
                20.884794
              ],
              [
                106.421137,
                20.885381
              ],
              [
                106.419891,
                20.885947
              ],
              [
                106.418994,
                20.886341
              ],
              [
                106.418306,
                20.886562
              ],
              [
                106.41794,
                20.886587
              ],
              [
                106.417485,
                20.886522
              ],
              [
                106.417451,
                20.88675
              ],
              [
                106.417445,
                20.886929
              ],
              [
                106.417466,
                20.887008
              ],
              [
                106.417602,
                20.887124
              ],
              [
                106.417799,
                20.88732
              ],
              [
                106.417897,
                20.88747
              ],
              [
                106.417991,
                20.887708
              ],
              [
                106.418039,
                20.887918
              ],
              [
                106.41804,
                20.888064
              ],
              [
                106.417993,
                20.888217
              ],
              [
                106.417881,
                20.888433
              ],
              [
                106.417609,
                20.888768
              ],
              [
                106.417484,
                20.888965
              ],
              [
                106.417477,
                20.889056
              ],
              [
                106.417501,
                20.889156
              ],
              [
                106.417515,
                20.889283
              ],
              [
                106.417498,
                20.889369
              ],
              [
                106.417342,
                20.88954
              ],
              [
                106.417047,
                20.889791
              ],
              [
                106.416903,
                20.889945
              ],
              [
                106.416796,
                20.890183
              ],
              [
                106.41664,
                20.890664
              ],
              [
                106.416508,
                20.89116
              ],
              [
                106.416406,
                20.891484
              ],
              [
                106.416362,
                20.891592
              ],
              [
                106.416294,
                20.891661
              ],
              [
                106.416225,
                20.8917
              ],
              [
                106.416159,
                20.891701
              ],
              [
                106.416065,
                20.89169
              ],
              [
                106.415942,
                20.891633
              ],
              [
                106.415353,
                20.891141
              ],
              [
                106.415187,
                20.89104
              ],
              [
                106.415057,
                20.891014
              ],
              [
                106.414922,
                20.891049
              ],
              [
                106.414773,
                20.891151
              ],
              [
                106.414491,
                20.891483
              ],
              [
                106.414185,
                20.891908
              ],
              [
                106.413662,
                20.89258
              ],
              [
                106.413454,
                20.892849
              ],
              [
                106.413366,
                20.893036
              ],
              [
                106.41331,
                20.893259
              ],
              [
                106.413276,
                20.893477
              ],
              [
                106.413275,
                20.893635
              ],
              [
                106.413275,
                20.893646
              ],
              [
                106.413293,
                20.893765
              ],
              [
                106.413368,
                20.893985
              ],
              [
                106.413534,
                20.894248
              ],
              [
                106.413805,
                20.894546
              ],
              [
                106.414061,
                20.894773
              ],
              [
                106.414313,
                20.894928
              ],
              [
                106.414569,
                20.895058
              ],
              [
                106.414906,
                20.895171
              ],
              [
                106.41541,
                20.895345
              ],
              [
                106.415624,
                20.895391
              ],
              [
                106.415762,
                20.895401
              ],
              [
                106.416102,
                20.895387
              ],
              [
                106.41647,
                20.895371
              ],
              [
                106.416722,
                20.895353
              ],
              [
                106.416804,
                20.895362
              ],
              [
                106.416861,
                20.895385
              ],
              [
                106.416894,
                20.895457
              ],
              [
                106.41691,
                20.895633
              ],
              [
                106.416917,
                20.895956
              ],
              [
                106.416923,
                20.896278
              ],
              [
                106.41692,
                20.896658
              ],
              [
                106.416919,
                20.896823
              ],
              [
                106.416803,
                20.897462
              ],
              [
                106.415487,
                20.897142
              ],
              [
                106.414633,
                20.896927
              ],
              [
                106.414635,
                20.897318
              ],
              [
                106.414164,
                20.89761
              ],
              [
                106.412936,
                20.898372
              ],
              [
                106.414173,
                20.89968
              ],
              [
                106.414724,
                20.898871
              ],
              [
                106.415528,
                20.900035
              ],
              [
                106.416416,
                20.898722
              ],
              [
                106.416767,
                20.897851
              ],
              [
                106.416913,
                20.897489
              ],
              [
                106.416992,
                20.897508
              ],
              [
                106.417277,
                20.897546
              ],
              [
                106.417488,
                20.897567
              ],
              [
                106.417844,
                20.897595
              ],
              [
                106.417955,
                20.897729
              ],
              [
                106.41809,
                20.8979
              ],
              [
                106.418637,
                20.898426
              ],
              [
                106.418837,
                20.898564
              ],
              [
                106.419018,
                20.898746
              ],
              [
                106.419095,
                20.898853
              ],
              [
                106.419104,
                20.898964
              ],
              [
                106.419083,
                20.899165
              ],
              [
                106.419023,
                20.899316
              ],
              [
                106.418872,
                20.899486
              ],
              [
                106.417529,
                20.900749
              ],
              [
                106.417295,
                20.900965
              ],
              [
                106.41729,
                20.90097
              ],
              [
                106.417137,
                20.901064
              ],
              [
                106.416315,
                20.90173
              ],
              [
                106.415719,
                20.902311
              ],
              [
                106.415333,
                20.902726
              ],
              [
                106.415246,
                20.902883
              ],
              [
                106.415185,
                20.903111
              ],
              [
                106.415194,
                20.903457
              ],
              [
                106.415252,
                20.904177
              ],
              [
                106.41526,
                20.904209
              ],
              [
                106.415321,
                20.904433
              ],
              [
                106.415428,
                20.904624
              ],
              [
                106.415559,
                20.904733
              ],
              [
                106.416182,
                20.905057
              ],
              [
                106.416613,
                20.905226
              ],
              [
                106.416801,
                20.905279
              ],
              [
                106.417094,
                20.905324
              ],
              [
                106.417406,
                20.905321
              ],
              [
                106.417847,
                20.905279
              ],
              [
                106.418821,
                20.905071
              ],
              [
                106.418923,
                20.905061
              ],
              [
                106.419171,
                20.905109
              ],
              [
                106.419302,
                20.905183
              ],
              [
                106.419455,
                20.905466
              ],
              [
                106.419634,
                20.90593
              ],
              [
                106.419657,
                20.906047
              ],
              [
                106.419642,
                20.906172
              ],
              [
                106.41954,
                20.906391
              ],
              [
                106.419414,
                20.906556
              ],
              [
                106.419278,
                20.906665
              ],
              [
                106.419095,
                20.906768
              ],
              [
                106.418312,
                20.907074
              ],
              [
                106.417799,
                20.907233
              ],
              [
                106.417237,
                20.907316
              ],
              [
                106.417163,
                20.907325
              ],
              [
                106.416941,
                20.907315
              ],
              [
                106.416584,
                20.907261
              ],
              [
                106.416326,
                20.907171
              ],
              [
                106.416007,
                20.907021
              ],
              [
                106.415802,
                20.906936
              ],
              [
                106.415608,
                20.906908
              ],
              [
                106.415109,
                20.906918
              ],
              [
                106.414855,
                20.906977
              ],
              [
                106.414599,
                20.907116
              ],
              [
                106.414398,
                20.907372
              ],
              [
                106.414326,
                20.907555
              ],
              [
                106.414289,
                20.907961
              ],
              [
                106.414329,
                20.908179
              ],
              [
                106.414497,
                20.908486
              ],
              [
                106.414829,
                20.908916
              ],
              [
                106.415223,
                20.909289
              ],
              [
                106.415505,
                20.909484
              ],
              [
                106.415704,
                20.909644
              ],
              [
                106.415823,
                20.909807
              ],
              [
                106.415885,
                20.909983
              ],
              [
                106.415904,
                20.910164
              ],
              [
                106.415898,
                20.910322
              ],
              [
                106.415868,
                20.910451
              ],
              [
                106.41582,
                20.910584
              ],
              [
                106.415779,
                20.910685
              ],
              [
                106.415667,
                20.910919
              ],
              [
                106.41552,
                20.911167
              ],
              [
                106.415374,
                20.911391
              ],
              [
                106.415257,
                20.911521
              ],
              [
                106.415113,
                20.911655
              ],
              [
                106.41501,
                20.911716
              ],
              [
                106.414908,
                20.911746
              ],
              [
                106.414776,
                20.911746
              ],
              [
                106.414642,
                20.911729
              ],
              [
                106.413897,
                20.911622
              ],
              [
                106.413703,
                20.911614
              ],
              [
                106.413455,
                20.911643
              ],
              [
                106.413224,
                20.911699
              ],
              [
                106.413046,
                20.91176
              ],
              [
                106.41285,
                20.911857
              ],
              [
                106.412537,
                20.912066
              ],
              [
                106.411976,
                20.912534
              ],
              [
                106.411468,
                20.912953
              ],
              [
                106.410953,
                20.913298
              ],
              [
                106.410133,
                20.913678
              ],
              [
                106.409654,
                20.913865
              ],
              [
                106.409594,
                20.913907
              ],
              [
                106.409579,
                20.913961
              ],
              [
                106.409589,
                20.914006
              ],
              [
                106.409659,
                20.914053
              ],
              [
                106.409956,
                20.914179
              ],
              [
                106.410316,
                20.91426
              ],
              [
                106.410666,
                20.914292
              ],
              [
                106.410933,
                20.914263
              ],
              [
                106.411348,
                20.914146
              ],
              [
                106.411576,
                20.91404
              ],
              [
                106.412047,
                20.913728
              ],
              [
                106.412543,
                20.913393
              ],
              [
                106.412939,
                20.913204
              ],
              [
                106.413186,
                20.913115
              ],
              [
                106.41345,
                20.913068
              ],
              [
                106.414219,
                20.913017
              ],
              [
                106.415026,
                20.912985
              ],
              [
                106.415614,
                20.912973
              ],
              [
                106.415834,
                20.913001
              ],
              [
                106.41601,
                20.913086
              ],
              [
                106.41618,
                20.913243
              ],
              [
                106.416397,
                20.913683
              ],
              [
                106.416665,
                20.914539
              ],
              [
                106.416714,
                20.914983
              ],
              [
                106.416673,
                20.915363
              ],
              [
                106.416618,
                20.915618
              ],
              [
                106.416525,
                20.91578
              ],
              [
                106.416304,
                20.916018
              ],
              [
                106.416125,
                20.91624
              ],
              [
                106.416079,
                20.916381
              ],
              [
                106.416045,
                20.916504
              ],
              [
                106.415907,
                20.916723
              ],
              [
                106.415542,
                20.917192
              ],
              [
                106.415306,
                20.9174
              ],
              [
                106.414985,
                20.91781
              ],
              [
                106.414611,
                20.918288
              ],
              [
                106.414732,
                20.918362
              ],
              [
                106.415432,
                20.918791
              ],
              [
                106.416232,
                20.919257
              ],
              [
                106.416717,
                20.919525
              ],
              [
                106.417007,
                20.919671
              ],
              [
                106.417454,
                20.919868
              ],
              [
                106.418051,
                20.920114
              ],
              [
                106.418441,
                20.920284
              ],
              [
                106.418959,
                20.920492
              ],
              [
                106.419488,
                20.920662
              ],
              [
                106.42005,
                20.920789
              ],
              [
                106.420595,
                20.92088
              ],
              [
                106.420872,
                20.920924
              ],
              [
                106.421375,
                20.920947
              ],
              [
                106.421975,
                20.920899
              ],
              [
                106.422526,
                20.920811
              ],
              [
                106.422904,
                20.920739
              ],
              [
                106.423261,
                20.920658
              ],
              [
                106.423597,
                20.920532
              ],
              [
                106.423877,
                20.920409
              ],
              [
                106.424381,
                20.920111
              ],
              [
                106.424948,
                20.919497
              ],
              [
                106.425274,
                20.919004
              ],
              [
                106.425534,
                20.918333
              ],
              [
                106.42583,
                20.917302
              ],
              [
                106.425821,
                20.916382
              ],
              [
                106.425615,
                20.914747
              ],
              [
                106.425503,
                20.913696
              ],
              [
                106.425519,
                20.912644
              ],
              [
                106.425652,
                20.911926
              ],
              [
                106.425925,
                20.911231
              ],
              [
                106.426693,
                20.91034
              ],
              [
                106.427926,
                20.909288
              ],
              [
                106.428767,
                20.908731
              ],
              [
                106.430255,
                20.907925
              ],
              [
                106.43201,
                20.907324
              ],
              [
                106.433977,
                20.906913
              ],
              [
                106.436214,
                20.906703
              ],
              [
                106.437842,
                20.906702
              ],
              [
                106.440388,
                20.906967
              ],
              [
                106.441808,
                20.907359
              ],
              [
                106.441808,
                20.907359
              ]
            ]
          ]
        ]
      },
      "properties": {
        "code": "10813",
        "name": "Thanh Hà",
        "nameEn": "Thanh Ha",
        "fullName": "Xã Thanh Hà",
        "fullNameEn": "Thanh Ha Commune",
        "codeName": "thanh_ha",
        "postalCode": "03206",
        "postalCodePrefix": "",
        "gisServerId": "diaphanhanhchinhcapxa_2025.845",
        "areaKm2": 25.9
      }
    }
  ]
}