{
  "type": "FeatureCollection",
  "bbox": [
    106.16751,
    20.944023,
    106.244904,
    20.995824
  ],
  "features": [
    {
      "type": "Feature",
      "id": "10888",
      "bbox": [
        106.16751,
        20.944023,
        106.244904,
        20.995824
      ],
      "geometry": {
        "type": "MultiPolygon",
        "coordinates": [
          [
            [
              [
                106.227451,
                20.994004
              ],
              [
                106.227594,
                20.993997
              ],
              [
                106.227709,
                20.994009
              ],
              [
                106.227966,
                20.994036
              ],
              [
                106.228289,
                20.994237
              ],
              [
                106.228753,
                20.994533
              ],
              [
                106.229033,
                20.994599
              ],
              [
                106.229228,
                20.994604
              ],
              [
                106.229345,
                20.99457
              ],
              [
                106.22942,
                20.994453
              ],
              [
                106.22951,
                20.994184
              ],
              [
                106.229586,
                20.993589
              ],
              [
                106.229588,
                20.993551
              ],
              [
                106.229713,
                20.992974
              ],
              [
                106.22975,
                20.992909
              ],
              [
                106.229832,
                20.992765
              ],
              [
                106.229974,
                20.992665
              ],
              [
                106.230152,
                20.992613
              ],
              [
                106.230355,
                20.992594
              ],
              [
                106.230668,
                20.992666
              ],
              [
                106.231063,
                20.99281
              ],
              [
                106.231342,
                20.992993
              ],
              [
                106.231666,
                20.993331
              ],
              [
                106.231923,
                20.993715
              ],
              [
                106.232111,
                20.994033
              ],
              [
                106.232197,
                20.994462
              ],
              [
                106.232269,
                20.994963
              ],
              [
                106.232368,
                20.995221
              ],
              [
                106.232503,
                20.995405
              ],
              [
                106.232685,
                20.995484
              ],
              [
                106.232941,
                20.995512
              ],
              [
                106.233003,
                20.995514
              ],
              [
                106.233516,
                20.995457
              ],
              [
                106.233814,
                20.995387
              ],
              [
                106.234015,
                20.995278
              ],
              [
                106.234117,
                20.995187
              ],
              [
                106.234258,
                20.995061
              ],
              [
                106.234288,
                20.995028
              ],
              [
                106.234454,
                20.994845
              ],
              [
                106.234576,
                20.994776
              ],
              [
                106.234938,
                20.994708
              ],
              [
                106.235903,
                20.994558
              ],
              [
                106.236139,
                20.994459
              ],
              [
                106.236378,
                20.994339
              ],
              [
                106.236473,
                20.994238
              ],
              [
                106.236487,
                20.994041
              ],
              [
                106.236475,
                20.993611
              ],
              [
                106.236543,
                20.99346
              ],
              [
                106.236766,
                20.993257
              ],
              [
                106.237123,
                20.993025
              ],
              [
                106.237295,
                20.992981
              ],
              [
                106.237483,
                20.993048
              ],
              [
                106.23764,
                20.993172
              ],
              [
                106.237914,
                20.993554
              ],
              [
                106.238141,
                20.993753
              ],
              [
                106.238216,
                20.993788
              ],
              [
                106.238365,
                20.993787
              ],
              [
                106.238545,
                20.993725
              ],
              [
                106.23897,
                20.993338
              ],
              [
                106.239405,
                20.992808
              ],
              [
                106.2398,
                20.992346
              ],
              [
                106.239825,
                20.992317
              ],
              [
                106.240099,
                20.99182
              ],
              [
                106.240261,
                20.991575
              ],
              [
                106.240561,
                20.991408
              ],
              [
                106.240794,
                20.991342
              ],
              [
                106.241023,
                20.99133
              ],
              [
                106.24118,
                20.991375
              ],
              [
                106.241288,
                20.991489
              ],
              [
                106.24165,
                20.991907
              ],
              [
                106.241757,
                20.992024
              ],
              [
                106.241762,
                20.992029
              ],
              [
                106.241952,
                20.992238
              ],
              [
                106.242127,
                20.99239
              ],
              [
                106.242418,
                20.992485
              ],
              [
                106.242712,
                20.992493
              ],
              [
                106.242911,
                20.992467
              ],
              [
                106.243145,
                20.992359
              ],
              [
                106.243276,
                20.992299
              ],
              [
                106.243323,
                20.992273
              ],
              [
                106.243793,
                20.992009
              ],
              [
                106.243998,
                20.991862
              ],
              [
                106.244095,
                20.991793
              ],
              [
                106.244415,
                20.991546
              ],
              [
                106.244522,
                20.991482
              ],
              [
                106.244627,
                20.991438
              ],
              [
                106.244697,
                20.991433
              ],
              [
                106.244748,
                20.991442
              ],
              [
                106.244806,
                20.991499
              ],
              [
                106.244904,
                20.991367
              ],
              [
                106.244854,
                20.991023
              ],
              [
                106.244836,
                20.990902
              ],
              [
                106.244796,
                20.990629
              ],
              [
                106.244729,
                20.990349
              ],
              [
                106.244589,
                20.989759
              ],
              [
                106.244586,
                20.989747
              ],
              [
                106.244446,
                20.988961
              ],
              [
                106.244381,
                20.988595
              ],
              [
                106.24436,
                20.988538
              ],
              [
                106.244357,
                20.988529
              ],
              [
                106.244246,
                20.98823
              ],
              [
                106.244224,
                20.988172
              ],
              [
                106.244196,
                20.988097
              ],
              [
                106.244028,
                20.987879
              ],
              [
                106.244021,
                20.98787
              ],
              [
                106.243954,
                20.987781
              ],
              [
                106.243907,
                20.987708
              ],
              [
                106.243813,
                20.9876
              ],
              [
                106.243768,
                20.987548
              ],
              [
                106.243577,
                20.987643
              ],
              [
                106.243347,
                20.987761
              ],
              [
                106.243303,
                20.987784
              ],
              [
                106.24316,
                20.987832
              ],
              [
                106.242938,
                20.987907
              ],
              [
                106.242865,
                20.987932
              ],
              [
                106.242278,
                20.98815
              ],
              [
                106.242028,
                20.988243
              ],
              [
                106.241766,
                20.988315
              ],
              [
                106.24162,
                20.988317
              ],
              [
                106.241593,
                20.988313
              ],
              [
                106.241452,
                20.988274
              ],
              [
                106.241246,
                20.988172
              ],
              [
                106.240705,
                20.987832
              ],
              [
                106.240628,
                20.987783
              ],
              [
                106.239999,
                20.987387
              ],
              [
                106.239627,
                20.98717
              ],
              [
                106.239616,
                20.987112
              ],
              [
                106.239593,
                20.987048
              ],
              [
                106.239545,
                20.986909
              ],
              [
                106.239492,
                20.986575
              ],
              [
                106.239496,
                20.986516
              ],
              [
                106.239644,
                20.98648
              ],
              [
                106.239786,
                20.986445
              ],
              [
                106.239886,
                20.986427
              ],
              [
                106.239918,
                20.986421
              ],
              [
                106.239971,
                20.986409
              ],
              [
                106.239966,
                20.986386
              ],
              [
                106.239804,
                20.985998
              ],
              [
                106.239615,
                20.985603
              ],
              [
                106.239456,
                20.985241
              ],
              [
                106.23944,
                20.985149
              ],
              [
                106.239439,
                20.985125
              ],
              [
                106.239432,
                20.984819
              ],
              [
                106.239429,
                20.984764
              ],
              [
                106.239409,
                20.984411
              ],
              [
                106.239402,
                20.98426
              ],
              [
                106.23939,
                20.984146
              ],
              [
                106.239353,
                20.984022
              ],
              [
                106.239107,
                20.983465
              ],
              [
                106.238534,
                20.982326
              ],
              [
                106.238443,
                20.982152
              ],
              [
                106.23793,
                20.98126
              ],
              [
                106.237628,
                20.980708
              ],
              [
                106.237584,
                20.980694
              ],
              [
                106.23751,
                20.980675
              ],
              [
                106.23707,
                20.980561
              ],
              [
                106.236857,
                20.980491
              ],
              [
                106.236445,
                20.980355
              ],
              [
                106.236267,
                20.980296
              ],
              [
                106.234856,
                20.979901
              ],
              [
                106.234395,
                20.979781
              ],
              [
                106.23383,
                20.979628
              ],
              [
                106.233703,
                20.979593
              ],
              [
                106.23367,
                20.979584
              ],
              [
                106.23369,
                20.979534
              ],
              [
                106.233698,
                20.979514
              ],
              [
                106.233884,
                20.979173
              ],
              [
                106.233903,
                20.979134
              ],
              [
                106.233925,
                20.979099
              ],
              [
                106.233965,
                20.979036
              ],
              [
                106.234028,
                20.978942
              ],
              [
                106.234089,
                20.978847
              ],
              [
                106.234105,
                20.978822
              ],
              [
                106.234099,
                20.978751
              ],
              [
                106.234154,
                20.978617
              ],
              [
                106.234838,
                20.977481
              ],
              [
                106.235478,
                20.976413
              ],
              [
                106.235997,
                20.975577
              ],
              [
                106.236401,
                20.974945
              ],
              [
                106.236496,
                20.974895
              ],
              [
                106.236501,
                20.974892
              ],
              [
                106.236543,
                20.97487
              ],
              [
                106.236562,
                20.974735
              ],
              [
                106.236592,
                20.974531
              ],
              [
                106.236571,
                20.97337
              ],
              [
                106.236569,
                20.973342
              ],
              [
                106.23657,
                20.973277
              ],
              [
                106.236571,
                20.973249
              ],
              [
                106.236111,
                20.973115
              ],
              [
                106.235838,
                20.973035
              ],
              [
                106.235309,
                20.972894
              ],
              [
                106.235168,
                20.97286
              ],
              [
                106.235175,
                20.972832
              ],
              [
                106.235188,
                20.972782
              ],
              [
                106.235188,
                20.972782
              ],
              [
                106.235232,
                20.972652
              ],
              [
                106.235452,
                20.971799
              ],
              [
                106.235445,
                20.971797
              ],
              [
                106.23517,
                20.971711
              ],
              [
                106.234545,
                20.971591
              ],
              [
                106.234545,
                20.97143
              ],
              [
                106.234289,
                20.971407
              ],
              [
                106.234149,
                20.971395
              ],
              [
                106.234153,
                20.97139
              ],
              [
                106.234165,
                20.971389
              ],
              [
                106.234178,
                20.97136
              ],
              [
                106.234238,
                20.971226
              ],
              [
                106.234248,
                20.971194
              ],
              [
                106.234288,
                20.971069
              ],
              [
                106.234287,
                20.971021
              ],
              [
                106.234268,
                20.970975
              ],
              [
                106.234361,
                20.970855
              ],
              [
                106.23442,
                20.970784
              ],
              [
                106.234531,
                20.970683
              ],
              [
                106.234566,
                20.970634
              ],
              [
                106.23456,
                20.970567
              ],
              [
                106.235486,
                20.970206
              ],
              [
                106.237103,
                20.969575
              ],
              [
                106.236897,
                20.96907
              ],
              [
                106.236549,
                20.968496
              ],
              [
                106.236267,
                20.968048
              ],
              [
                106.235973,
                20.967627
              ],
              [
                106.235969,
                20.967514
              ],
              [
                106.235978,
                20.967445
              ],
              [
                106.236191,
                20.967396
              ],
              [
                106.236725,
                20.967147
              ],
              [
                106.236777,
                20.967123
              ],
              [
                106.237398,
                20.966845
              ],
              [
                106.237623,
                20.966761
              ],
              [
                106.237748,
                20.966715
              ],
              [
                106.237778,
                20.966798
              ],
              [
                106.237843,
                20.967021
              ],
              [
                106.237861,
                20.967237
              ],
              [
                106.238044,
                20.967998
              ],
              [
                106.239251,
                20.96777
              ],
              [
                106.239398,
                20.968196
              ],
              [
                106.239802,
                20.968081
              ],
              [
                106.239824,
                20.96808
              ],
              [
                106.239876,
                20.968077
              ],
              [
                106.240047,
                20.968008
              ],
              [
                106.240671,
                20.967753
              ],
              [
                106.240747,
                20.967722
              ],
              [
                106.240853,
                20.967675
              ],
              [
                106.241649,
                20.967377
              ],
              [
                106.242446,
                20.967079
              ],
              [
                106.242617,
                20.967015
              ],
              [
                106.242766,
                20.966959
              ],
              [
                106.242765,
                20.966958
              ],
              [
                106.242784,
                20.966951
              ],
              [
                106.242766,
                20.966889
              ],
              [
                106.242714,
                20.96671
              ],
              [
                106.242713,
                20.966709
              ],
              [
                106.242479,
                20.966013
              ],
              [
                106.242574,
                20.965987
              ],
              [
                106.242644,
                20.965963
              ],
              [
                106.242623,
                20.965964
              ],
              [
                106.242552,
                20.965721
              ],
              [
                106.242536,
                20.965691
              ],
              [
                106.242533,
                20.965686
              ],
              [
                106.242564,
                20.96568
              ],
              [
                106.242761,
                20.965637
              ],
              [
                106.242839,
                20.965599
              ],
              [
                106.242966,
                20.965537
              ],
              [
                106.243089,
                20.965468
              ],
              [
                106.243174,
                20.96542
              ],
              [
                106.242589,
                20.964224
              ],
              [
                106.24217,
                20.963347
              ],
              [
                106.242398,
                20.963011
              ],
              [
                106.242506,
                20.963123
              ],
              [
                106.242589,
                20.963208
              ],
              [
                106.242624,
                20.963271
              ],
              [
                106.24261,
                20.963306
              ],
              [
                106.242724,
                20.963351
              ],
              [
                106.242799,
                20.963488
              ],
              [
                106.242939,
                20.963506
              ],
              [
                106.243039,
                20.963577
              ],
              [
                106.243004,
                20.963671
              ],
              [
                106.243042,
                20.96375
              ],
              [
                106.243082,
                20.963755
              ],
              [
                106.243263,
                20.963545
              ],
              [
                106.243391,
                20.96349
              ],
              [
                106.243519,
                20.96356
              ],
              [
                106.243561,
                20.963554
              ],
              [
                106.243684,
                20.963469
              ],
              [
                106.243719,
                20.96352
              ],
              [
                106.243779,
                20.96347
              ],
              [
                106.243698,
                20.963273
              ],
              [
                106.243696,
                20.963242
              ],
              [
                106.243633,
                20.963141
              ],
              [
                106.243537,
                20.963026
              ],
              [
                106.243476,
                20.96292
              ],
              [
                106.243455,
                20.962828
              ],
              [
                106.243321,
                20.962835
              ],
              [
                106.243264,
                20.96286
              ],
              [
                106.243185,
                20.962912
              ],
              [
                106.243146,
                20.962951
              ],
              [
                106.242949,
                20.962873
              ],
              [
                106.242971,
                20.962826
              ],
              [
                106.242973,
                20.962795
              ],
              [
                106.24295,
                20.962765
              ],
              [
                106.242915,
                20.962762
              ],
              [
                106.242894,
                20.962763
              ],
              [
                106.242889,
                20.962783
              ],
              [
                106.242854,
                20.962935
              ],
              [
                106.242871,
                20.96296
              ],
              [
                106.242839,
                20.963041
              ],
              [
                106.242813,
                20.963085
              ],
              [
                106.242727,
                20.963121
              ],
              [
                106.242438,
                20.962895
              ],
              [
                106.242456,
                20.962868
              ],
              [
                106.242518,
                20.962776
              ],
              [
                106.242703,
                20.9625
              ],
              [
                106.242707,
                20.962493
              ],
              [
                106.243269,
                20.962205
              ],
              [
                106.244486,
                20.961892
              ],
              [
                106.244391,
                20.9618
              ],
              [
                106.244322,
                20.961733
              ],
              [
                106.244047,
                20.961531
              ],
              [
                106.243795,
                20.961346
              ],
              [
                106.243489,
                20.961076
              ],
              [
                106.243496,
                20.961028
              ],
              [
                106.243665,
                20.960866
              ],
              [
                106.243648,
                20.960852
              ],
              [
                106.243463,
                20.960577
              ],
              [
                106.243315,
                20.960722
              ],
              [
                106.243265,
                20.960692
              ],
              [
                106.243174,
                20.960616
              ],
              [
                106.243006,
                20.960473
              ],
              [
                106.243585,
                20.959883
              ],
              [
                106.243644,
                20.9598
              ],
              [
                106.243965,
                20.959501
              ],
              [
                106.243966,
                20.959499
              ],
              [
                106.243981,
                20.959474
              ],
              [
                106.243912,
                20.959279
              ],
              [
                106.243885,
                20.959239
              ],
              [
                106.243851,
                20.959136
              ],
              [
                106.24366,
                20.958703
              ],
              [
                106.243614,
                20.958574
              ],
              [
                106.243411,
                20.958131
              ],
              [
                106.243397,
                20.958112
              ],
              [
                106.243387,
                20.958108
              ],
              [
                106.243376,
                20.958104
              ],
              [
                106.243163,
                20.957539
              ],
              [
                106.243094,
                20.957376
              ],
              [
                106.243012,
                20.957183
              ],
              [
                106.24301,
                20.957178
              ],
              [
                106.242888,
                20.956888
              ],
              [
                106.24278,
                20.956668
              ],
              [
                106.242684,
                20.956504
              ],
              [
                106.242664,
                20.95641
              ],
              [
                106.242625,
                20.956235
              ],
              [
                106.242609,
                20.95619
              ],
              [
                106.242393,
                20.955705
              ],
              [
                106.242307,
                20.955503
              ],
              [
                106.242097,
                20.955033
              ],
              [
                106.241945,
                20.954706
              ],
              [
                106.242734,
                20.954257
              ],
              [
                106.242581,
                20.954175
              ],
              [
                106.241325,
                20.953421
              ],
              [
                106.240354,
                20.952869
              ],
              [
                106.240316,
                20.95287
              ],
              [
                106.240159,
                20.952875
              ],
              [
                106.239923,
                20.952902
              ],
              [
                106.239875,
                20.952897
              ],
              [
                106.239864,
                20.952895
              ],
              [
                106.239894,
                20.952759
              ],
              [
                106.240303,
                20.951488
              ],
              [
                106.240356,
                20.951334
              ],
              [
                106.240516,
                20.951005
              ],
              [
                106.240408,
                20.950892
              ],
              [
                106.240312,
                20.950884
              ],
              [
                106.23947,
                20.951037
              ],
              [
                106.239455,
                20.950956
              ],
              [
                106.239425,
                20.950794
              ],
              [
                106.239414,
                20.950711
              ],
              [
                106.239405,
                20.950637
              ],
              [
                106.239379,
                20.948442
              ],
              [
                106.239372,
                20.947872
              ],
              [
                106.239112,
                20.947862
              ],
              [
                106.237241,
                20.947377
              ],
              [
                106.237164,
                20.946784
              ],
              [
                106.236598,
                20.946774
              ],
              [
                106.23654,
                20.94619
              ],
              [
                106.236538,
                20.94617
              ],
              [
                106.235917,
                20.946118
              ],
              [
                106.235823,
                20.944023
              ],
              [
                106.234289,
                20.944079
              ],
              [
                106.232769,
                20.944123
              ],
              [
                106.232355,
                20.944135
              ],
              [
                106.232534,
                20.945547
              ],
              [
                106.232484,
                20.945545
              ],
              [
                106.231935,
                20.945527
              ],
              [
                106.230113,
                20.945517
              ],
              [
                106.228444,
                20.945498
              ],
              [
                106.227196,
                20.945486
              ],
              [
                106.225761,
                20.94547
              ],
              [
                106.22575,
                20.945533
              ],
              [
                106.225749,
                20.945669
              ],
              [
                106.225768,
                20.94638
              ],
              [
                106.225781,
                20.946865
              ],
              [
                106.225794,
                20.948343
              ],
              [
                106.225784,
                20.948357
              ],
              [
                106.225677,
                20.948517
              ],
              [
                106.225409,
                20.948813
              ],
              [
                106.225168,
                20.949081
              ],
              [
                106.224693,
                20.949685
              ],
              [
                106.224442,
                20.950004
              ],
              [
                106.224356,
                20.950124
              ],
              [
                106.223796,
                20.950898
              ],
              [
                106.223779,
                20.950921
              ],
              [
                106.223415,
                20.951456
              ],
              [
                106.223004,
                20.952058
              ],
              [
                106.222951,
                20.952138
              ],
              [
                106.222839,
                20.952281
              ],
              [
                106.222791,
                20.952316
              ],
              [
                106.222667,
                20.952348
              ],
              [
                106.222629,
                20.952358
              ],
              [
                106.222498,
                20.952388
              ],
              [
                106.222361,
                20.95242
              ],
              [
                106.22235,
                20.952423
              ],
              [
                106.221661,
                20.952583
              ],
              [
                106.221609,
                20.952595
              ],
              [
                106.221463,
                20.952628
              ],
              [
                106.221359,
                20.952652
              ],
              [
                106.22108,
                20.952716
              ],
              [
                106.220383,
                20.952877
              ],
              [
                106.220319,
                20.952889
              ],
              [
                106.220908,
                20.95389
              ],
              [
                106.220868,
                20.953916
              ],
              [
                106.220565,
                20.954038
              ],
              [
                106.220242,
                20.954172
              ],
              [
                106.22008,
                20.95424
              ],
              [
                106.219986,
                20.954272
              ],
              [
                106.219998,
                20.954341
              ],
              [
                106.220083,
                20.954602
              ],
              [
                106.217467,
                20.955102
              ],
              [
                106.216702,
                20.955258
              ],
              [
                106.215658,
                20.955451
              ],
              [
                106.213149,
                20.955941
              ],
              [
                106.211698,
                20.956219
              ],
              [
                106.20983,
                20.956573
              ],
              [
                106.208142,
                20.956907
              ],
              [
                106.206319,
                20.95725
              ],
              [
                106.205672,
                20.957364
              ],
              [
                106.20506,
                20.957491
              ],
              [
                106.205034,
                20.957431
              ],
              [
                106.204957,
                20.957253
              ],
              [
                106.204748,
                20.95686
              ],
              [
                106.204567,
                20.956513
              ],
              [
                106.204277,
                20.955956
              ],
              [
                106.204162,
                20.955737
              ],
              [
                106.203999,
                20.955404
              ],
              [
                106.203999,
                20.955365
              ],
              [
                106.203993,
                20.955306
              ],
              [
                106.203968,
                20.955155
              ],
              [
                106.203934,
                20.954986
              ],
              [
                106.203916,
                20.954855
              ],
              [
                106.203885,
                20.954658
              ],
              [
                106.203869,
                20.954563
              ],
              [
                106.203851,
                20.954428
              ],
              [
                106.203785,
                20.954033
              ],
              [
                106.203764,
                20.953943
              ],
              [
                106.203687,
                20.953394
              ],
              [
                106.203617,
                20.952934
              ],
              [
                106.20358,
                20.95261
              ],
              [
                106.203561,
                20.952515
              ],
              [
                106.203499,
                20.952093
              ],
              [
                106.203468,
                20.95194
              ],
              [
                106.20345,
                20.951796
              ],
              [
                106.203429,
                20.951755
              ],
              [
                106.203391,
                20.951608
              ],
              [
                106.20336,
                20.951474
              ],
              [
                106.203254,
                20.951484
              ],
              [
                106.20318,
                20.951314
              ],
              [
                106.202679,
                20.949988
              ],
              [
                106.20254,
                20.949995
              ],
              [
                106.202406,
                20.949865
              ],
              [
                106.201887,
                20.949885
              ],
              [
                106.201837,
                20.949777
              ],
              [
                106.201612,
                20.949682
              ],
              [
                106.201525,
                20.949635
              ],
              [
                106.20134,
                20.949534
              ],
              [
                106.20133,
                20.949529
              ],
              [
                106.20127,
                20.949626
              ],
              [
                106.20123,
                20.949665
              ],
              [
                106.201146,
                20.949626
              ],
              [
                106.200927,
                20.949506
              ],
              [
                106.20087,
                20.949485
              ],
              [
                106.20077,
                20.949447
              ],
              [
                106.200699,
                20.94944
              ],
              [
                106.200511,
                20.94944
              ],
              [
                106.200494,
                20.949446
              ],
              [
                106.200363,
                20.949264
              ],
              [
                106.200341,
                20.949251
              ],
              [
                106.200266,
                20.949209
              ],
              [
                106.200239,
                20.949194
              ],
              [
                106.200152,
                20.949138
              ],
              [
                106.20008,
                20.94909
              ],
              [
                106.199986,
                20.949029
              ],
              [
                106.199883,
                20.949113
              ],
              [
                106.199466,
                20.949453
              ],
              [
                106.198994,
                20.949908
              ],
              [
                106.198303,
                20.950437
              ],
              [
                106.198136,
                20.950565
              ],
              [
                106.198128,
                20.950571
              ],
              [
                106.198093,
                20.950591
              ],
              [
                106.197976,
                20.950659
              ],
              [
                106.197707,
                20.950815
              ],
              [
                106.197178,
                20.951122
              ],
              [
                106.196817,
                20.951245
              ],
              [
                106.196677,
                20.951292
              ],
              [
                106.196283,
                20.951361
              ],
              [
                106.196129,
                20.951368
              ],
              [
                106.195638,
                20.951392
              ],
              [
                106.195125,
                20.951417
              ],
              [
                106.19475,
                20.951402
              ],
              [
                106.194356,
                20.951392
              ],
              [
                106.194159,
                20.951434
              ],
              [
                106.193668,
                20.951663
              ],
              [
                106.193156,
                20.951975
              ],
              [
                106.192989,
                20.952093
              ],
              [
                106.192947,
                20.952123
              ],
              [
                106.192749,
                20.952264
              ],
              [
                106.192511,
                20.952514
              ],
              [
                106.19218,
                20.952814
              ],
              [
                106.19208,
                20.952905
              ],
              [
                106.191976,
                20.952968
              ],
              [
                106.191872,
                20.953031
              ],
              [
                106.191442,
                20.953292
              ],
              [
                106.191233,
                20.953397
              ],
              [
                106.190884,
                20.953515
              ],
              [
                106.190439,
                20.953542
              ],
              [
                106.190082,
                20.953521
              ],
              [
                106.189528,
                20.953447
              ],
              [
                106.189286,
                20.953429
              ],
              [
                106.189019,
                20.953409
              ],
              [
                106.188255,
                20.953384
              ],
              [
                106.187282,
                20.953409
              ],
              [
                106.186111,
                20.953333
              ],
              [
                106.185222,
                20.953234
              ],
              [
                106.18499,
                20.953204
              ],
              [
                106.18464,
                20.953166
              ],
              [
                106.182659,
                20.952814
              ],
              [
                106.182625,
                20.952807
              ],
              [
                106.180975,
                20.952463
              ],
              [
                106.179869,
                20.952179
              ],
              [
                106.178693,
                20.952048
              ],
              [
                106.178142,
                20.952083
              ],
              [
                106.177726,
                20.952172
              ],
              [
                106.177442,
                20.952327
              ],
              [
                106.17714,
                20.952585
              ],
              [
                106.177048,
                20.952664
              ],
              [
                106.176643,
                20.952983
              ],
              [
                106.176296,
                20.953205
              ],
              [
                106.175813,
                20.953514
              ],
              [
                106.175123,
                20.953806
              ],
              [
                106.174897,
                20.953849
              ],
              [
                106.174808,
                20.953867
              ],
              [
                106.174577,
                20.953906
              ],
              [
                106.174304,
                20.954015
              ],
              [
                106.173689,
                20.95433
              ],
              [
                106.173425,
                20.954492
              ],
              [
                106.173117,
                20.954678
              ],
              [
                106.172798,
                20.954859
              ],
              [
                106.172608,
                20.954951
              ],
              [
                106.172353,
                20.955071
              ],
              [
                106.172065,
                20.955226
              ],
              [
                106.17176,
                20.95538
              ],
              [
                106.171376,
                20.955575
              ],
              [
                106.171004,
                20.955779
              ],
              [
                106.170872,
                20.955905
              ],
              [
                106.170763,
                20.956033
              ],
              [
                106.170667,
                20.956134
              ],
              [
                106.170572,
                20.956266
              ],
              [
                106.170385,
                20.956539
              ],
              [
                106.170244,
                20.9568
              ],
              [
                106.170109,
                20.957134
              ],
              [
                106.170035,
                20.957345
              ],
              [
                106.169962,
                20.957577
              ],
              [
                106.169845,
                20.95794
              ],
              [
                106.169772,
                20.958174
              ],
              [
                106.169773,
                20.958479
              ],
              [
                106.169803,
                20.958723
              ],
              [
                106.169839,
                20.959045
              ],
              [
                106.16987,
                20.959318
              ],
              [
                106.16987,
                20.95949
              ],
              [
                106.169835,
                20.95969
              ],
              [
                106.169794,
                20.959846
              ],
              [
                106.169735,
                20.959957
              ],
              [
                106.169497,
                20.960225
              ],
              [
                106.169285,
                20.960334
              ],
              [
                106.169262,
                20.960427
              ],
              [
                106.169249,
                20.960652
              ],
              [
                106.169248,
                20.960663
              ],
              [
                106.16927,
                20.960796
              ],
              [
                106.169313,
                20.961065
              ],
              [
                106.169314,
                20.961139
              ],
              [
                106.169317,
                20.96151
              ],
              [
                106.169221,
                20.962034
              ],
              [
                106.169061,
                20.96317
              ],
              [
                106.169006,
                20.96353
              ],
              [
                106.168964,
                20.964245
              ],
              [
                106.168964,
                20.964248
              ],
              [
                106.168879,
                20.964798
              ],
              [
                106.168805,
                20.965049
              ],
              [
                106.168654,
                20.965266
              ],
              [
                106.168439,
                20.965446
              ],
              [
                106.168262,
                20.965579
              ],
              [
                106.168175,
                20.965765
              ],
              [
                106.168074,
                20.965996
              ],
              [
                106.167987,
                20.966254
              ],
              [
                106.167907,
                20.966491
              ],
              [
                106.167831,
                20.966816
              ],
              [
                106.167808,
                20.966982
              ],
              [
                106.167781,
                20.967189
              ],
              [
                106.16778,
                20.9672
              ],
              [
                106.167769,
                20.96748
              ],
              [
                106.167761,
                20.967535
              ],
              [
                106.167758,
                20.967555
              ],
              [
                106.167754,
                20.967583
              ],
              [
                106.167656,
                20.968258
              ],
              [
                106.167615,
                20.968551
              ],
              [
                106.1676,
                20.968652
              ],
              [
                106.167536,
                20.969146
              ],
              [
                106.16751,
                20.969346
              ],
              [
                106.167584,
                20.969411
              ],
              [
                106.167697,
                20.96951
              ],
              [
                106.167922,
                20.969584
              ],
              [
                106.168565,
                20.969775
              ],
              [
                106.168727,
                20.969919
              ],
              [
                106.168817,
                20.970001
              ],
              [
                106.168852,
                20.970046
              ],
              [
                106.168977,
                20.970211
              ],
              [
                106.169389,
                20.970615
              ],
              [
                106.169767,
                20.971012
              ],
              [
                106.170208,
                20.971518
              ],
              [
                106.170267,
                20.971569
              ],
              [
                106.170299,
                20.971596
              ],
              [
                106.170465,
                20.971739
              ],
              [
                106.170582,
                20.971829
              ],
              [
                106.170901,
                20.972038
              ],
              [
                106.171053,
                20.972311
              ],
              [
                106.171122,
                20.972507
              ],
              [
                106.171163,
                20.972623
              ],
              [
                106.171425,
                20.972731
              ],
              [
                106.171624,
                20.972748
              ],
              [
                106.171801,
                20.972757
              ],
              [
                106.17194,
                20.972804
              ],
              [
                106.17219,
                20.972915
              ],
              [
                106.172453,
                20.973132
              ],
              [
                106.172601,
                20.973254
              ],
              [
                106.172768,
                20.973329
              ],
              [
                106.172941,
                20.97339
              ],
              [
                106.173169,
                20.973455
              ],
              [
                106.173302,
                20.973491
              ],
              [
                106.173424,
                20.973529
              ],
              [
                106.173617,
                20.973615
              ],
              [
                106.173669,
                20.973673
              ],
              [
                106.173724,
                20.973766
              ],
              [
                106.173752,
                20.973834
              ],
              [
                106.173799,
                20.973989
              ],
              [
                106.173836,
                20.974121
              ],
              [
                106.173857,
                20.974196
              ],
              [
                106.174042,
                20.974508
              ],
              [
                106.174177,
                20.974646
              ],
              [
                106.174211,
                20.97467
              ],
              [
                106.174504,
                20.97488
              ],
              [
                106.174518,
                20.974897
              ],
              [
                106.174838,
                20.975296
              ],
              [
                106.17492,
                20.975361
              ],
              [
                106.175038,
                20.975402
              ],
              [
                106.175465,
                20.975406
              ],
              [
                106.175586,
                20.975431
              ],
              [
                106.175694,
                20.975464
              ],
              [
                106.175746,
                20.975498
              ],
              [
                106.175798,
                20.975554
              ],
              [
                106.175802,
                20.975558
              ],
              [
                106.176069,
                20.975845
              ],
              [
                106.176123,
                20.975868
              ],
              [
                106.176176,
                20.975879
              ],
              [
                106.176249,
                20.975883
              ],
              [
                106.176338,
                20.975836
              ],
              [
                106.176408,
                20.975756
              ],
              [
                106.176466,
                20.975596
              ],
              [
                106.176585,
                20.975273
              ],
              [
                106.176668,
                20.975141
              ],
              [
                106.17673,
                20.975071
              ],
              [
                106.17676,
                20.975045
              ],
              [
                106.176782,
                20.975026
              ],
              [
                106.176862,
                20.974994
              ],
              [
                106.176969,
                20.974962
              ],
              [
                106.177105,
                20.974952
              ],
              [
                106.177124,
                20.974954
              ],
              [
                106.177228,
                20.974961
              ],
              [
                106.177343,
                20.97498
              ],
              [
                106.177442,
                20.975017
              ],
              [
                106.177535,
                20.975135
              ],
              [
                106.177605,
                20.975246
              ],
              [
                106.17763,
                20.97533
              ],
              [
                106.177647,
                20.975421
              ],
              [
                106.177651,
                20.975443
              ],
              [
                106.177649,
                20.975916
              ],
              [
                106.177701,
                20.976232
              ],
              [
                106.177806,
                20.976553
              ],
              [
                106.177892,
                20.976656
              ],
              [
                106.177969,
                20.976727
              ],
              [
                106.178063,
                20.97675
              ],
              [
                106.178154,
                20.97676
              ],
              [
                106.178639,
                20.976614
              ],
              [
                106.17872,
                20.976614
              ],
              [
                106.178831,
                20.976651
              ],
              [
                106.178981,
                20.976798
              ],
              [
                106.179078,
                20.976953
              ],
              [
                106.179123,
                20.977105
              ],
              [
                106.179134,
                20.977208
              ],
              [
                106.179147,
                20.97733
              ],
              [
                106.179185,
                20.977427
              ],
              [
                106.17927,
                20.977479
              ],
              [
                106.179381,
                20.977495
              ],
              [
                106.179595,
                20.977473
              ],
              [
                106.180347,
                20.977426
              ],
              [
                106.180776,
                20.977477
              ],
              [
                106.180974,
                20.977501
              ],
              [
                106.181448,
                20.977662
              ],
              [
                106.181656,
                20.977811
              ],
              [
                106.18171,
                20.977947
              ],
              [
                106.181738,
                20.978324
              ],
              [
                106.181721,
                20.978469
              ],
              [
                106.181737,
                20.978618
              ],
              [
                106.181789,
                20.978736
              ],
              [
                106.181878,
                20.978808
              ],
              [
                106.182026,
                20.978855
              ],
              [
                106.182207,
                20.978857
              ],
              [
                106.182571,
                20.97881
              ],
              [
                106.183131,
                20.978771
              ],
              [
                106.183459,
                20.978793
              ],
              [
                106.183813,
                20.97885
              ],
              [
                106.184489,
                20.979001
              ],
              [
                106.184638,
                20.979027
              ],
              [
                106.184776,
                20.979052
              ],
              [
                106.184897,
                20.979057
              ],
              [
                106.185064,
                20.979043
              ],
              [
                106.18528,
                20.978982
              ],
              [
                106.185443,
                20.97888
              ],
              [
                106.185502,
                20.978835
              ],
              [
                106.18568,
                20.9787
              ],
              [
                106.1858,
                20.978691
              ],
              [
                106.185926,
                20.978728
              ],
              [
                106.186015,
                20.97879
              ],
              [
                106.186259,
                20.979163
              ],
              [
                106.186405,
                20.979312
              ],
              [
                106.186709,
                20.979522
              ],
              [
                106.186898,
                20.979586
              ],
              [
                106.187296,
                20.979632
              ],
              [
                106.187425,
                20.979672
              ],
              [
                106.187496,
                20.979741
              ],
              [
                106.187511,
                20.979838
              ],
              [
                106.187498,
                20.97997
              ],
              [
                106.18741,
                20.980137
              ],
              [
                106.18736,
                20.980251
              ],
              [
                106.187295,
                20.980435
              ],
              [
                106.187284,
                20.980505
              ],
              [
                106.187266,
                20.980625
              ],
              [
                106.187269,
                20.980704
              ],
              [
                106.187272,
                20.98081
              ],
              [
                106.187273,
                20.980858
              ],
              [
                106.187326,
                20.980959
              ],
              [
                106.187337,
                20.98097
              ],
              [
                106.187418,
                20.981051
              ],
              [
                106.187472,
                20.981071
              ],
              [
                106.187522,
                20.981089
              ],
              [
                106.187698,
                20.98107
              ],
              [
                106.187889,
                20.980978
              ],
              [
                106.18852,
                20.980493
              ],
              [
                106.188687,
                20.980363
              ],
              [
                106.189394,
                20.979923
              ],
              [
                106.189792,
                20.979663
              ],
              [
                106.190217,
                20.979446
              ],
              [
                106.19067,
                20.979249
              ],
              [
                106.190945,
                20.979181
              ],
              [
                106.191128,
                20.97915
              ],
              [
                106.191369,
                20.97911
              ],
              [
                106.191641,
                20.979121
              ],
              [
                106.191993,
                20.979203
              ],
              [
                106.192492,
                20.97932
              ],
              [
                106.193077,
                20.979376
              ],
              [
                106.193243,
                20.979392
              ],
              [
                106.193484,
                20.979471
              ],
              [
                106.19366,
                20.979529
              ],
              [
                106.194481,
                20.979838
              ],
              [
                106.195208,
                20.980071
              ],
              [
                106.19566,
                20.980174
              ],
              [
                106.195745,
                20.980194
              ],
              [
                106.196,
                20.980274
              ],
              [
                106.19626,
                20.980357
              ],
              [
                106.197675,
                20.980893
              ],
              [
                106.198255,
                20.981086
              ],
              [
                106.198518,
                20.981173
              ],
              [
                106.199122,
                20.981373
              ],
              [
                106.200056,
                20.981758
              ],
              [
                106.200229,
                20.981841
              ],
              [
                106.200321,
                20.981886
              ],
              [
                106.200413,
                20.98193
              ],
              [
                106.200627,
                20.981995
              ],
              [
                106.201291,
                20.982135
              ],
              [
                106.201816,
                20.982218
              ],
              [
                106.202056,
                20.982307
              ],
              [
                106.202199,
                20.982468
              ],
              [
                106.202303,
                20.982721
              ],
              [
                106.202421,
                20.982997
              ],
              [
                106.202525,
                20.9831
              ],
              [
                106.202794,
                20.98319
              ],
              [
                106.202914,
                20.983231
              ],
              [
                106.203091,
                20.983284
              ],
              [
                106.203314,
                20.98332
              ],
              [
                106.203315,
                20.98332
              ],
              [
                106.20368,
                20.983331
              ],
              [
                106.204012,
                20.983308
              ],
              [
                106.204127,
                20.983295
              ],
              [
                106.204194,
                20.983288
              ],
              [
                106.204437,
                20.983237
              ],
              [
                106.204836,
                20.983214
              ],
              [
                106.205444,
                20.983311
              ],
              [
                106.205872,
                20.983427
              ],
              [
                106.206373,
                20.983625
              ],
              [
                106.206965,
                20.983821
              ],
              [
                106.20769,
                20.984127
              ],
              [
                106.208272,
                20.984338
              ],
              [
                106.208599,
                20.984432
              ],
              [
                106.209123,
                20.984518
              ],
              [
                106.209572,
                20.984577
              ],
              [
                106.209791,
                20.984642
              ],
              [
                106.210036,
                20.984755
              ],
              [
                106.210301,
                20.985092
              ],
              [
                106.210463,
                20.985297
              ],
              [
                106.210761,
                20.985644
              ],
              [
                106.211116,
                20.98601
              ],
              [
                106.211274,
                20.986119
              ],
              [
                106.211545,
                20.986203
              ],
              [
                106.21208,
                20.986304
              ],
              [
                106.212355,
                20.986361
              ],
              [
                106.212503,
                20.986392
              ],
              [
                106.212942,
                20.986523
              ],
              [
                106.213116,
                20.986587
              ],
              [
                106.213322,
                20.986707
              ],
              [
                106.213534,
                20.986871
              ],
              [
                106.213711,
                20.987007
              ],
              [
                106.213873,
                20.987214
              ],
              [
                106.214072,
                20.987487
              ],
              [
                106.214257,
                20.987738
              ],
              [
                106.214381,
                20.987945
              ],
              [
                106.214525,
                20.988193
              ],
              [
                106.214658,
                20.98837
              ],
              [
                106.214773,
                20.988492
              ],
              [
                106.214987,
                20.988699
              ],
              [
                106.21508,
                20.988776
              ],
              [
                106.215207,
                20.988835
              ],
              [
                106.215291,
                20.988851
              ],
              [
                106.215406,
                20.988852
              ],
              [
                106.215638,
                20.988802
              ],
              [
                106.21581,
                20.988742
              ],
              [
                106.21618,
                20.988654
              ],
              [
                106.216326,
                20.988651
              ],
              [
                106.216518,
                20.98867
              ],
              [
                106.216663,
                20.988706
              ],
              [
                106.216801,
                20.98875
              ],
              [
                106.216924,
                20.988793
              ],
              [
                106.217022,
                20.988839
              ],
              [
                106.217173,
                20.988919
              ],
              [
                106.21731,
                20.989025
              ],
              [
                106.217466,
                20.989128
              ],
              [
                106.217636,
                20.989271
              ],
              [
                106.217748,
                20.989354
              ],
              [
                106.217861,
                20.98941
              ],
              [
                106.217904,
                20.989432
              ],
              [
                106.217996,
                20.989463
              ],
              [
                106.218047,
                20.98948
              ],
              [
                106.218197,
                20.989517
              ],
              [
                106.218397,
                20.989561
              ],
              [
                106.218604,
                20.989582
              ],
              [
                106.218987,
                20.989585
              ],
              [
                106.219374,
                20.989586
              ],
              [
                106.219726,
                20.989575
              ],
              [
                106.22014,
                20.98962
              ],
              [
                106.220317,
                20.989652
              ],
              [
                106.220532,
                20.989693
              ],
              [
                106.220711,
                20.989734
              ],
              [
                106.220865,
                20.989772
              ],
              [
                106.220919,
                20.989794
              ],
              [
                106.220974,
                20.989839
              ],
              [
                106.221063,
                20.989946
              ],
              [
                106.22108,
                20.990028
              ],
              [
                106.221092,
                20.990156
              ],
              [
                106.221056,
                20.990323
              ],
              [
                106.220972,
                20.990447
              ],
              [
                106.220871,
                20.990571
              ],
              [
                106.220663,
                20.990784
              ],
              [
                106.220455,
                20.990998
              ],
              [
                106.22037,
                20.991103
              ],
              [
                106.220339,
                20.991173
              ],
              [
                106.220296,
                20.991422
              ],
              [
                106.220299,
                20.991551
              ],
              [
                106.22036,
                20.991834
              ],
              [
                106.220434,
                20.992056
              ],
              [
                106.220536,
                20.992298
              ],
              [
                106.220604,
                20.992519
              ],
              [
                106.220643,
                20.992723
              ],
              [
                106.220649,
                20.992865
              ],
              [
                106.220639,
                20.992979
              ],
              [
                106.220619,
                20.993243
              ],
              [
                106.220614,
                20.99345
              ],
              [
                106.22063,
                20.993628
              ],
              [
                106.220631,
                20.993811
              ],
              [
                106.220621,
                20.993939
              ],
              [
                106.2206,
                20.99404
              ],
              [
                106.220562,
                20.994132
              ],
              [
                106.220466,
                20.994308
              ],
              [
                106.220378,
                20.994459
              ],
              [
                106.220362,
                20.994493
              ],
              [
                106.220269,
                20.994683
              ],
              [
                106.220207,
                20.994915
              ],
              [
                106.220172,
                20.995023
              ],
              [
                106.220155,
                20.995139
              ],
              [
                106.220152,
                20.995277
              ],
              [
                106.220168,
                20.995381
              ],
              [
                106.220212,
                20.995543
              ],
              [
                106.220263,
                20.995613
              ],
              [
                106.220325,
                20.995669
              ],
              [
                106.220395,
                20.995732
              ],
              [
                106.220457,
                20.99577
              ],
              [
                106.220587,
                20.995808
              ],
              [
                106.220598,
                20.995811
              ],
              [
                106.220725,
                20.995824
              ],
              [
                106.221108,
                20.99581
              ],
              [
                106.221629,
                20.995677
              ],
              [
                106.222337,
                20.995448
              ],
              [
                106.222448,
                20.995412
              ],
              [
                106.223124,
                20.995245
              ],
              [
                106.223754,
                20.995181
              ],
              [
                106.224043,
                20.995131
              ],
              [
                106.224322,
                20.995019
              ],
              [
                106.224568,
                20.994844
              ],
              [
                106.224985,
                20.994444
              ],
              [
                106.225225,
                20.994278
              ],
              [
                106.225451,
                20.994189
              ],
              [
                106.225743,
                20.994127
              ],
              [
                106.22629,
                20.994069
              ],
              [
                106.226359,
                20.994065
              ],
              [
                106.226948,
                20.994029
              ],
              [
                106.227451,
                20.994004
              ],
              [
                106.227451,
                20.994004
              ]
            ]
          ]
        ]
      },
      "properties": {
        "code": "10888",
        "name": "Cẩm Giang",
        "nameEn": "Cam Giang",
        "fullName": "Xã Cẩm Giang",
        "fullNameEn": "Cam Giang Commune",
        "codeName": "cam_giang",
        "postalCode": "03606",
        "postalCodePrefix": "",
        "gisServerId": "diaphanhanhchinhcapxa_2025.863",
        "areaKm2": 26.64
      }
    }
  ]
}