{
  "type": "FeatureCollection",
  "bbox": [
    106.439064,
    20.799702,
    106.515957,
    20.88034
  ],
  "features": [
    {
      "type": "Feature",
      "id": "10882",
      "bbox": [
        106.439064,
        20.799702,
        106.515957,
        20.88034
      ],
      "geometry": {
        "type": "MultiPolygon",
        "coordinates": [
          [
            [
              [
                106.476813,
                20.876234
              ],
              [
                106.476889,
                20.875992
              ],
              [
                106.476942,
                20.875824
              ],
              [
                106.476995,
                20.875719
              ],
              [
                106.477078,
                20.875551
              ],
              [
                106.477185,
                20.875336
              ],
              [
                106.477318,
                20.875061
              ],
              [
                106.477417,
                20.874857
              ],
              [
                106.477433,
                20.874824
              ],
              [
                106.477552,
                20.874577
              ],
              [
                106.477827,
                20.874012
              ],
              [
                106.478759,
                20.872278
              ],
              [
                106.47923,
                20.871267
              ],
              [
                106.479466,
                20.870761
              ],
              [
                106.479775,
                20.870075
              ],
              [
                106.479839,
                20.869907
              ],
              [
                106.479893,
                20.86971
              ],
              [
                106.479908,
                20.86967
              ],
              [
                106.479948,
                20.869562
              ],
              [
                106.480092,
                20.869274
              ],
              [
                106.480236,
                20.868914
              ],
              [
                106.480286,
                20.868823
              ],
              [
                106.480398,
                20.868783
              ],
              [
                106.480739,
                20.868785
              ],
              [
                106.480825,
                20.86877
              ],
              [
                106.480895,
                20.868698
              ],
              [
                106.480965,
                20.868525
              ],
              [
                106.480971,
                20.868504
              ],
              [
                106.481034,
                20.868285
              ],
              [
                106.481109,
                20.868161
              ],
              [
                106.481181,
                20.868122
              ],
              [
                106.48119,
                20.868117
              ],
              [
                106.481347,
                20.868092
              ],
              [
                106.481557,
                20.868058
              ],
              [
                106.481568,
                20.868056
              ],
              [
                106.481497,
                20.867931
              ],
              [
                106.481355,
                20.867804
              ],
              [
                106.481347,
                20.86774
              ],
              [
                106.481425,
                20.867614
              ],
              [
                106.481681,
                20.867228
              ],
              [
                106.482323,
                20.866218
              ],
              [
                106.483182,
                20.864874
              ],
              [
                106.483242,
                20.864781
              ],
              [
                106.483421,
                20.8645
              ],
              [
                106.483383,
                20.864483
              ],
              [
                106.483137,
                20.864359
              ],
              [
                106.482976,
                20.864261
              ],
              [
                106.482845,
                20.864158
              ],
              [
                106.482759,
                20.864069
              ],
              [
                106.482546,
                20.86385
              ],
              [
                106.482259,
                20.863578
              ],
              [
                106.482129,
                20.863433
              ],
              [
                106.482086,
                20.863371
              ],
              [
                106.482031,
                20.86329
              ],
              [
                106.481982,
                20.863199
              ],
              [
                106.481933,
                20.863089
              ],
              [
                106.481834,
                20.862838
              ],
              [
                106.481794,
                20.862714
              ],
              [
                106.48177,
                20.862601
              ],
              [
                106.48176,
                20.862506
              ],
              [
                106.481759,
                20.862465
              ],
              [
                106.481757,
                20.86241
              ],
              [
                106.481764,
                20.862295
              ],
              [
                106.48177,
                20.862262
              ],
              [
                106.481775,
                20.862229
              ],
              [
                106.481757,
                20.862222
              ],
              [
                106.481306,
                20.862009
              ],
              [
                106.481045,
                20.861747
              ],
              [
                106.480532,
                20.861317
              ],
              [
                106.48005,
                20.860876
              ],
              [
                106.479553,
                20.860493
              ],
              [
                106.47901,
                20.860077
              ],
              [
                106.478764,
                20.859946
              ],
              [
                106.478477,
                20.859727
              ],
              [
                106.477048,
                20.85864
              ],
              [
                106.477252,
                20.858346
              ],
              [
                106.47767,
                20.857772
              ],
              [
                106.477916,
                20.857455
              ],
              [
                106.4783,
                20.856999
              ],
              [
                106.478572,
                20.856686
              ],
              [
                106.479702,
                20.855519
              ],
              [
                106.479708,
                20.855514
              ],
              [
                106.479798,
                20.855443
              ],
              [
                106.482575,
                20.852171
              ],
              [
                106.483101,
                20.851557
              ],
              [
                106.484151,
                20.850331
              ],
              [
                106.485823,
                20.848402
              ],
              [
                106.486062,
                20.848256
              ],
              [
                106.487439,
                20.847413
              ],
              [
                106.488682,
                20.846653
              ],
              [
                106.48917,
                20.846437
              ],
              [
                106.492452,
                20.844988
              ],
              [
                106.494407,
                20.843752
              ],
              [
                106.494413,
                20.843747
              ],
              [
                106.494612,
                20.843586
              ],
              [
                106.495705,
                20.842704
              ],
              [
                106.496406,
                20.841627
              ],
              [
                106.496764,
                20.840801
              ],
              [
                106.49682,
                20.84042
              ],
              [
                106.496874,
                20.84028
              ],
              [
                106.496924,
                20.840147
              ],
              [
                106.496965,
                20.840004
              ],
              [
                106.496992,
                20.839858
              ],
              [
                106.497088,
                20.839174
              ],
              [
                106.497113,
                20.838942
              ],
              [
                106.497123,
                20.838775
              ],
              [
                106.497123,
                20.838617
              ],
              [
                106.497108,
                20.838414
              ],
              [
                106.497077,
                20.838202
              ],
              [
                106.497041,
                20.838016
              ],
              [
                106.497019,
                20.837905
              ],
              [
                106.496973,
                20.837708
              ],
              [
                106.496973,
                20.837708
              ],
              [
                106.49673,
                20.836664
              ],
              [
                106.496599,
                20.836157
              ],
              [
                106.496555,
                20.835987
              ],
              [
                106.496433,
                20.835486
              ],
              [
                106.496424,
                20.835447
              ],
              [
                106.49636,
                20.83522
              ],
              [
                106.495989,
                20.834064
              ],
              [
                106.495899,
                20.833801
              ],
              [
                106.49574,
                20.83339
              ],
              [
                106.49559,
                20.83306
              ],
              [
                106.495556,
                20.832985
              ],
              [
                106.495421,
                20.832648
              ],
              [
                106.495306,
                20.832438
              ],
              [
                106.495169,
                20.832215
              ],
              [
                106.49515,
                20.832188
              ],
              [
                106.495028,
                20.832012
              ],
              [
                106.494763,
                20.831631
              ],
              [
                106.494677,
                20.8315
              ],
              [
                106.493268,
                20.829622
              ],
              [
                106.492877,
                20.82919
              ],
              [
                106.492226,
                20.828471
              ],
              [
                106.491166,
                20.8273
              ],
              [
                106.490931,
                20.827041
              ],
              [
                106.490811,
                20.826927
              ],
              [
                106.490605,
                20.82675
              ],
              [
                106.490604,
                20.826749
              ],
              [
                106.490471,
                20.826617
              ],
              [
                106.490244,
                20.826358
              ],
              [
                106.490108,
                20.82619
              ],
              [
                106.490012,
                20.826071
              ],
              [
                106.489535,
                20.825451
              ],
              [
                106.489369,
                20.825203
              ],
              [
                106.48919,
                20.82495
              ],
              [
                106.488812,
                20.824437
              ],
              [
                106.488659,
                20.824218
              ],
              [
                106.488557,
                20.824046
              ],
              [
                106.488546,
                20.824027
              ],
              [
                106.488445,
                20.823814
              ],
              [
                106.488417,
                20.823736
              ],
              [
                106.488394,
                20.823671
              ],
              [
                106.488359,
                20.823537
              ],
              [
                106.48834,
                20.823422
              ],
              [
                106.488327,
                20.823286
              ],
              [
                106.488323,
                20.823114
              ],
              [
                106.488335,
                20.822858
              ],
              [
                106.488355,
                20.822693
              ],
              [
                106.488391,
                20.822526
              ],
              [
                106.488395,
                20.822514
              ],
              [
                106.488446,
                20.822373
              ],
              [
                106.488511,
                20.822253
              ],
              [
                106.488566,
                20.822172
              ],
              [
                106.488632,
                20.822088
              ],
              [
                106.488715,
                20.821997
              ],
              [
                106.488807,
                20.821907
              ],
              [
                106.488944,
                20.821789
              ],
              [
                106.489444,
                20.821413
              ],
              [
                106.4901,
                20.82086
              ],
              [
                106.490319,
                20.820691
              ],
              [
                106.490404,
                20.820635
              ],
              [
                106.490535,
                20.820549
              ],
              [
                106.490856,
                20.82036
              ],
              [
                106.491049,
                20.820257
              ],
              [
                106.491286,
                20.820153
              ],
              [
                106.491448,
                20.820096
              ],
              [
                106.491623,
                20.820044
              ],
              [
                106.491967,
                20.819964
              ],
              [
                106.492449,
                20.819885
              ],
              [
                106.492631,
                20.819863
              ],
              [
                106.492878,
                20.819828
              ],
              [
                106.493363,
                20.81976
              ],
              [
                106.493896,
                20.819802
              ],
              [
                106.495948,
                20.819967
              ],
              [
                106.498163,
                20.820347
              ],
              [
                106.498863,
                20.820467
              ],
              [
                106.499547,
                20.820584
              ],
              [
                106.500297,
                20.820672
              ],
              [
                106.500369,
                20.820681
              ],
              [
                106.501871,
                20.820858
              ],
              [
                106.503364,
                20.821244
              ],
              [
                106.508191,
                20.822043
              ],
              [
                106.510126,
                20.822255
              ],
              [
                106.511901,
                20.822257
              ],
              [
                106.513357,
                20.821766
              ],
              [
                106.513713,
                20.821645
              ],
              [
                106.513744,
                20.82162
              ],
              [
                106.514104,
                20.821332
              ],
              [
                106.51482,
                20.820759
              ],
              [
                106.515375,
                20.819933
              ],
              [
                106.5157,
                20.819
              ],
              [
                106.515922,
                20.817204
              ],
              [
                106.515957,
                20.816616
              ],
              [
                106.515783,
                20.814466
              ],
              [
                106.515345,
                20.812641
              ],
              [
                106.514058,
                20.809713
              ],
              [
                106.512971,
                20.807787
              ],
              [
                106.510259,
                20.803508
              ],
              [
                106.508399,
                20.800513
              ],
              [
                106.506899,
                20.802135
              ],
              [
                106.505424,
                20.803085
              ],
              [
                106.504654,
                20.803677
              ],
              [
                106.504285,
                20.804131
              ],
              [
                106.504,
                20.805286
              ],
              [
                106.503735,
                20.806622
              ],
              [
                106.503503,
                20.807326
              ],
              [
                106.503295,
                20.807643
              ],
              [
                106.502953,
                20.807925
              ],
              [
                106.502107,
                20.808283
              ],
              [
                106.501871,
                20.808323
              ],
              [
                106.501336,
                20.808378
              ],
              [
                106.500943,
                20.808417
              ],
              [
                106.500689,
                20.808428
              ],
              [
                106.500455,
                20.808431
              ],
              [
                106.499943,
                20.80842
              ],
              [
                106.499411,
                20.808381
              ],
              [
                106.498798,
                20.808311
              ],
              [
                106.498147,
                20.808218
              ],
              [
                106.497385,
                20.808092
              ],
              [
                106.496787,
                20.807982
              ],
              [
                106.49628,
                20.807874
              ],
              [
                106.495913,
                20.80778
              ],
              [
                106.495579,
                20.807677
              ],
              [
                106.495201,
                20.807545
              ],
              [
                106.49477,
                20.807371
              ],
              [
                106.494066,
                20.807069
              ],
              [
                106.493667,
                20.806876
              ],
              [
                106.493542,
                20.806808
              ],
              [
                106.493424,
                20.806744
              ],
              [
                106.493173,
                20.806594
              ],
              [
                106.492735,
                20.806319
              ],
              [
                106.492494,
                20.806158
              ],
              [
                106.491983,
                20.805791
              ],
              [
                106.491438,
                20.805409
              ],
              [
                106.490944,
                20.805048
              ],
              [
                106.490638,
                20.804811
              ],
              [
                106.490314,
                20.804532
              ],
              [
                106.489968,
                20.804211
              ],
              [
                106.48944,
                20.803707
              ],
              [
                106.489065,
                20.803338
              ],
              [
                106.48882,
                20.803087
              ],
              [
                106.488581,
                20.802813
              ],
              [
                106.487773,
                20.801806
              ],
              [
                106.487482,
                20.801459
              ],
              [
                106.48701,
                20.800934
              ],
              [
                106.486741,
                20.800644
              ],
              [
                106.486499,
                20.800397
              ],
              [
                106.486295,
                20.800148
              ],
              [
                106.486191,
                20.800022
              ],
              [
                106.484477,
                20.799702
              ],
              [
                106.483862,
                20.800115
              ],
              [
                106.483271,
                20.800835
              ],
              [
                106.482862,
                20.801384
              ],
              [
                106.482614,
                20.801739
              ],
              [
                106.481938,
                20.802809
              ],
              [
                106.481561,
                20.803426
              ],
              [
                106.479789,
                20.806469
              ],
              [
                106.479632,
                20.806744
              ],
              [
                106.479225,
                20.807456
              ],
              [
                106.478566,
                20.80851
              ],
              [
                106.476806,
                20.811326
              ],
              [
                106.476405,
                20.811933
              ],
              [
                106.47588,
                20.812721
              ],
              [
                106.475388,
                20.813459
              ],
              [
                106.474722,
                20.814458
              ],
              [
                106.474375,
                20.814949
              ],
              [
                106.473956,
                20.815544
              ],
              [
                106.47279,
                20.817074
              ],
              [
                106.472655,
                20.817251
              ],
              [
                106.472223,
                20.817854
              ],
              [
                106.471816,
                20.818415
              ],
              [
                106.471594,
                20.818699
              ],
              [
                106.471582,
                20.818713
              ],
              [
                106.471146,
                20.819222
              ],
              [
                106.471111,
                20.819262
              ],
              [
                106.470912,
                20.819478
              ],
              [
                106.47048,
                20.819947
              ],
              [
                106.47022,
                20.820222
              ],
              [
                106.469942,
                20.820504
              ],
              [
                106.469658,
                20.820779
              ],
              [
                106.469573,
                20.820858
              ],
              [
                106.469355,
                20.821062
              ],
              [
                106.469098,
                20.82129
              ],
              [
                106.468784,
                20.821556
              ],
              [
                106.46855,
                20.821741
              ],
              [
                106.468416,
                20.821839
              ],
              [
                106.468348,
                20.821889
              ],
              [
                106.468146,
                20.822025
              ],
              [
                106.468016,
                20.822105
              ],
              [
                106.46797,
                20.822133
              ],
              [
                106.467947,
                20.822148
              ],
              [
                106.467736,
                20.822262
              ],
              [
                106.467547,
                20.822353
              ],
              [
                106.467347,
                20.82244
              ],
              [
                106.467096,
                20.822537
              ],
              [
                106.466832,
                20.822625
              ],
              [
                106.466721,
                20.822656
              ],
              [
                106.466557,
                20.822702
              ],
              [
                106.46634,
                20.82275
              ],
              [
                106.466147,
                20.822781
              ],
              [
                106.466123,
                20.822785
              ],
              [
                106.465915,
                20.822807
              ],
              [
                106.465631,
                20.822825
              ],
              [
                106.465389,
                20.822829
              ],
              [
                106.465193,
                20.822824
              ],
              [
                106.464963,
                20.822807
              ],
              [
                106.464728,
                20.822778
              ],
              [
                106.464365,
                20.822717
              ],
              [
                106.464079,
                20.822653
              ],
              [
                106.463809,
                20.822579
              ],
              [
                106.463597,
                20.822506
              ],
              [
                106.463348,
                20.822398
              ],
              [
                106.463138,
                20.822291
              ],
              [
                106.462864,
                20.822137
              ],
              [
                106.462583,
                20.821966
              ],
              [
                106.461991,
                20.821578
              ],
              [
                106.461811,
                20.821451
              ],
              [
                106.461636,
                20.821316
              ],
              [
                106.461623,
                20.821306
              ],
              [
                106.46162,
                20.821303
              ],
              [
                106.46127,
                20.821006
              ],
              [
                106.460014,
                20.819903
              ],
              [
                106.459802,
                20.819723
              ],
              [
                106.459586,
                20.81955
              ],
              [
                106.458655,
                20.818852
              ],
              [
                106.458417,
                20.818673
              ],
              [
                106.457656,
                20.818103
              ],
              [
                106.457602,
                20.818063
              ],
              [
                106.457523,
                20.818005
              ],
              [
                106.457305,
                20.817847
              ],
              [
                106.457079,
                20.817692
              ],
              [
                106.455556,
                20.816683
              ],
              [
                106.455325,
                20.816535
              ],
              [
                106.455088,
                20.816394
              ],
              [
                106.454679,
                20.816176
              ],
              [
                106.453746,
                20.815699
              ],
              [
                106.452814,
                20.815222
              ],
              [
                106.452693,
                20.815161
              ],
              [
                106.452111,
                20.814872
              ],
              [
                106.451853,
                20.814762
              ],
              [
                106.45159,
                20.814661
              ],
              [
                106.450832,
                20.814383
              ],
              [
                106.450015,
                20.814084
              ],
              [
                106.449827,
                20.814016
              ],
              [
                106.448618,
                20.813594
              ],
              [
                106.448357,
                20.81351
              ],
              [
                106.448093,
                20.81344
              ],
              [
                106.447736,
                20.813373
              ],
              [
                106.447197,
                20.813288
              ],
              [
                106.446836,
                20.813239
              ],
              [
                106.446462,
                20.8132
              ],
              [
                106.445432,
                20.813113
              ],
              [
                106.444518,
                20.813052
              ],
              [
                106.443938,
                20.813026
              ],
              [
                106.443751,
                20.813022
              ],
              [
                106.44364,
                20.813027
              ],
              [
                106.44342,
                20.813055
              ],
              [
                106.443285,
                20.813072
              ],
              [
                106.44314,
                20.81309
              ],
              [
                106.442911,
                20.813134
              ],
              [
                106.442749,
                20.813184
              ],
              [
                106.442591,
                20.813243
              ],
              [
                106.442437,
                20.81331
              ],
              [
                106.442318,
                20.813373
              ],
              [
                106.442231,
                20.81343
              ],
              [
                106.442102,
                20.813536
              ],
              [
                106.442079,
                20.813558
              ],
              [
                106.441699,
                20.813925
              ],
              [
                106.441632,
                20.813998
              ],
              [
                106.441535,
                20.814105
              ],
              [
                106.441459,
                20.814202
              ],
              [
                106.441281,
                20.81443
              ],
              [
                106.44118,
                20.814596
              ],
              [
                106.441021,
                20.814916
              ],
              [
                106.440403,
                20.816331
              ],
              [
                106.44011,
                20.817041
              ],
              [
                106.439854,
                20.817742
              ],
              [
                106.43977,
                20.817989
              ],
              [
                106.439498,
                20.819053
              ],
              [
                106.439152,
                20.821171
              ],
              [
                106.439064,
                20.822291
              ],
              [
                106.439073,
                20.82251
              ],
              [
                106.439107,
                20.822956
              ],
              [
                106.439148,
                20.823364
              ],
              [
                106.439187,
                20.82368
              ],
              [
                106.439238,
                20.824012
              ],
              [
                106.439301,
                20.824333
              ],
              [
                106.439357,
                20.824564
              ],
              [
                106.439485,
                20.824984
              ],
              [
                106.439909,
                20.826232
              ],
              [
                106.440242,
                20.827222
              ],
              [
                106.440424,
                20.827713
              ],
              [
                106.440776,
                20.828559
              ],
              [
                106.441171,
                20.829505
              ],
              [
                106.441605,
                20.830606
              ],
              [
                106.442426,
                20.832595
              ],
              [
                106.442434,
                20.832613
              ],
              [
                106.442528,
                20.832841
              ],
              [
                106.442548,
                20.83289
              ],
              [
                106.442949,
                20.83386
              ],
              [
                106.443204,
                20.834436
              ],
              [
                106.444375,
                20.837069
              ],
              [
                106.445474,
                20.839434
              ],
              [
                106.445722,
                20.83996
              ],
              [
                106.446013,
                20.840544
              ],
              [
                106.446352,
                20.841203
              ],
              [
                106.446448,
                20.841375
              ],
              [
                106.446608,
                20.841661
              ],
              [
                106.44731,
                20.842809
              ],
              [
                106.448636,
                20.844977
              ],
              [
                106.448939,
                20.84547
              ],
              [
                106.449229,
                20.845918
              ],
              [
                106.449284,
                20.846002
              ],
              [
                106.44967,
                20.846578
              ],
              [
                106.44954,
                20.84765
              ],
              [
                106.449796,
                20.848797
              ],
              [
                106.450087,
                20.849411
              ],
              [
                106.449968,
                20.850249
              ],
              [
                106.449607,
                20.852166
              ],
              [
                106.448568,
                20.855271
              ],
              [
                106.448065,
                20.856665
              ],
              [
                106.447876,
                20.857757
              ],
              [
                106.448286,
                20.860179
              ],
              [
                106.449539,
                20.859991
              ],
              [
                106.449812,
                20.859973
              ],
              [
                106.450229,
                20.859982
              ],
              [
                106.450373,
                20.859985
              ],
              [
                106.450616,
                20.859978
              ],
              [
                106.450874,
                20.859954
              ],
              [
                106.451045,
                20.859929
              ],
              [
                106.451196,
                20.859897
              ],
              [
                106.451304,
                20.859865
              ],
              [
                106.452885,
                20.86086
              ],
              [
                106.453134,
                20.862684
              ],
              [
                106.454035,
                20.865454
              ],
              [
                106.455574,
                20.868001
              ],
              [
                106.456615,
                20.869233
              ],
              [
                106.457473,
                20.869509
              ],
              [
                106.457531,
                20.869834
              ],
              [
                106.457612,
                20.87029
              ],
              [
                106.458212,
                20.87085
              ],
              [
                106.458325,
                20.870971
              ],
              [
                106.458523,
                20.871172
              ],
              [
                106.45893,
                20.871556
              ],
              [
                106.459196,
                20.871846
              ],
              [
                106.459637,
                20.872286
              ],
              [
                106.459765,
                20.872402
              ],
              [
                106.459973,
                20.872575
              ],
              [
                106.460114,
                20.872705
              ],
              [
                106.460235,
                20.872825
              ],
              [
                106.460398,
                20.873004
              ],
              [
                106.460511,
                20.873146
              ],
              [
                106.461207,
                20.874015
              ],
              [
                106.461493,
                20.875035
              ],
              [
                106.462078,
                20.877623
              ],
              [
                106.462739,
                20.878992
              ],
              [
                106.463741,
                20.879963
              ],
              [
                106.46462,
                20.880238
              ],
              [
                106.46492,
                20.880332
              ],
              [
                106.464937,
                20.880339
              ],
              [
                106.465365,
                20.88034
              ],
              [
                106.465788,
                20.880293
              ],
              [
                106.466614,
                20.879963
              ],
              [
                106.468043,
                20.879054
              ],
              [
                106.469708,
                20.877713
              ],
              [
                106.470814,
                20.876437
              ],
              [
                106.471641,
                20.875163
              ],
              [
                106.472304,
                20.874013
              ],
              [
                106.473265,
                20.871595
              ],
              [
                106.473469,
                20.87139
              ],
              [
                106.474108,
                20.872374
              ],
              [
                106.474338,
                20.872728
              ],
              [
                106.47509,
                20.874012
              ],
              [
                106.475701,
                20.874837
              ],
              [
                106.476488,
                20.875826
              ],
              [
                106.476813,
                20.876234
              ],
              [
                106.476813,
                20.876234
              ]
            ]
          ]
        ]
      },
      "properties": {
        "code": "10882",
        "name": "Hà Đông",
        "nameEn": "Ha Dong",
        "fullName": "Xã Hà Đông",
        "fullNameEn": "Ha Dong Commune",
        "codeName": "ha_dong",
        "postalCode": "03234",
        "postalCodePrefix": "",
        "gisServerId": "diaphanhanhchinhcapxa_2025.849",
        "areaKm2": 33.15
      }
    }
  ]
}