{
  "type": "FeatureCollection",
  "bbox": [
    106.233418,
    20.902452,
    106.300745,
    20.936597
  ],
  "features": [
    {
      "type": "Feature",
      "id": "10891",
      "bbox": [
        106.233418,
        20.902452,
        106.300745,
        20.936597
      ],
      "geometry": {
        "type": "MultiPolygon",
        "coordinates": [
          [
            [
              [
                106.289748,
                20.936597
              ],
              [
                106.290143,
                20.935838
              ],
              [
                106.290332,
                20.935868
              ],
              [
                106.290409,
                20.935878
              ],
              [
                106.290673,
                20.935916
              ],
              [
                106.292297,
                20.936077
              ],
              [
                106.292589,
                20.936105
              ],
              [
                106.293218,
                20.932236
              ],
              [
                106.292265,
                20.932133
              ],
              [
                106.292015,
                20.932106
              ],
              [
                106.291813,
                20.932084
              ],
              [
                106.292154,
                20.930567
              ],
              [
                106.292495,
                20.929051
              ],
              [
                106.29401,
                20.929262
              ],
              [
                106.294171,
                20.929286
              ],
              [
                106.295744,
                20.929519
              ],
              [
                106.295898,
                20.929542
              ],
              [
                106.296775,
                20.929664
              ],
              [
                106.297793,
                20.929807
              ],
              [
                106.297945,
                20.928914
              ],
              [
                106.298102,
                20.927989
              ],
              [
                106.298593,
                20.926217
              ],
              [
                106.300117,
                20.926336
              ],
              [
                106.30018,
                20.926126
              ],
              [
                106.300371,
                20.925483
              ],
              [
                106.300443,
                20.925068
              ],
              [
                106.300434,
                20.924961
              ],
              [
                106.300348,
                20.92466
              ],
              [
                106.300338,
                20.924431
              ],
              [
                106.300389,
                20.924151
              ],
              [
                106.300495,
                20.923845
              ],
              [
                106.300502,
                20.923814
              ],
              [
                106.30054,
                20.923737
              ],
              [
                106.30054,
                20.923737
              ],
              [
                106.300745,
                20.922891
              ],
              [
                106.300467,
                20.922839
              ],
              [
                106.300045,
                20.922707
              ],
              [
                106.299639,
                20.922528
              ],
              [
                106.299269,
                20.922316
              ],
              [
                106.298897,
                20.922084
              ],
              [
                106.298599,
                20.921805
              ],
              [
                106.298332,
                20.921523
              ],
              [
                106.298078,
                20.921193
              ],
              [
                106.297845,
                20.920821
              ],
              [
                106.297701,
                20.920515
              ],
              [
                106.29757,
                20.920233
              ],
              [
                106.297357,
                20.91953
              ],
              [
                106.297257,
                20.918919
              ],
              [
                106.297162,
                20.918493
              ],
              [
                106.297043,
                20.918067
              ],
              [
                106.296776,
                20.917373
              ],
              [
                106.296522,
                20.916945
              ],
              [
                106.296171,
                20.916507
              ],
              [
                106.296026,
                20.916381
              ],
              [
                106.295819,
                20.916237
              ],
              [
                106.295491,
                20.916062
              ],
              [
                106.295489,
                20.916061
              ],
              [
                106.295049,
                20.915883
              ],
              [
                106.294529,
                20.91578
              ],
              [
                106.294077,
                20.915714
              ],
              [
                106.293884,
                20.915715
              ],
              [
                106.293399,
                20.915761
              ],
              [
                106.293399,
                20.915761
              ],
              [
                106.292876,
                20.915831
              ],
              [
                106.292876,
                20.915831
              ],
              [
                106.292006,
                20.915996
              ],
              [
                106.292006,
                20.915996
              ],
              [
                106.291439,
                20.916241
              ],
              [
                106.291439,
                20.916241
              ],
              [
                106.290872,
                20.916551
              ],
              [
                106.290872,
                20.916551
              ],
              [
                106.290205,
                20.917072
              ],
              [
                106.290205,
                20.917072
              ],
              [
                106.289579,
                20.917612
              ],
              [
                106.289579,
                20.917612
              ],
              [
                106.289117,
                20.918304
              ],
              [
                106.288591,
                20.918748
              ],
              [
                106.288591,
                20.918748
              ],
              [
                106.287962,
                20.918944
              ],
              [
                106.287962,
                20.918944
              ],
              [
                106.28723,
                20.919007
              ],
              [
                106.28723,
                20.919007
              ],
              [
                106.286415,
                20.91886
              ],
              [
                106.285393,
                20.918351
              ],
              [
                106.284635,
                20.917803
              ],
              [
                106.284141,
                20.917175
              ],
              [
                106.283871,
                20.916527
              ],
              [
                106.283542,
                20.916109
              ],
              [
                106.282806,
                20.915751
              ],
              [
                106.281971,
                20.9157
              ],
              [
                106.281076,
                20.915726
              ],
              [
                106.280527,
                20.91573
              ],
              [
                106.279321,
                20.915445
              ],
              [
                106.278525,
                20.915349
              ],
              [
                106.27808,
                20.915365
              ],
              [
                106.27808,
                20.915365
              ],
              [
                106.277547,
                20.9155
              ],
              [
                106.277547,
                20.9155
              ],
              [
                106.277072,
                20.915767
              ],
              [
                106.277072,
                20.915767
              ],
              [
                106.276515,
                20.916064
              ],
              [
                106.276515,
                20.916064
              ],
              [
                106.275761,
                20.916326
              ],
              [
                106.275761,
                20.916326
              ],
              [
                106.275176,
                20.91639
              ],
              [
                106.274693,
                20.916448
              ],
              [
                106.274693,
                20.916448
              ],
              [
                106.274072,
                20.916691
              ],
              [
                106.274072,
                20.916691
              ],
              [
                106.272998,
                20.917308
              ],
              [
                106.272998,
                20.917308
              ],
              [
                106.272534,
                20.917642
              ],
              [
                106.272534,
                20.917642
              ],
              [
                106.272407,
                20.917734
              ],
              [
                106.272407,
                20.917734
              ],
              [
                106.27127,
                20.918559
              ],
              [
                106.27127,
                20.918559
              ],
              [
                106.270897,
                20.918753
              ],
              [
                106.270897,
                20.918753
              ],
              [
                106.270389,
                20.918924
              ],
              [
                106.270389,
                20.918924
              ],
              [
                106.269926,
                20.918999
              ],
              [
                106.269557,
                20.918996
              ],
              [
                106.269181,
                20.918927
              ],
              [
                106.269009,
                20.918874
              ],
              [
                106.268779,
                20.918727
              ],
              [
                106.268503,
                20.918442
              ],
              [
                106.268018,
                20.917701
              ],
              [
                106.267729,
                20.917363
              ],
              [
                106.267447,
                20.917108
              ],
              [
                106.267157,
                20.916961
              ],
              [
                106.266941,
                20.916852
              ],
              [
                106.266547,
                20.916657
              ],
              [
                106.266383,
                20.916506
              ],
              [
                106.266264,
                20.916164
              ],
              [
                106.26621,
                20.915848
              ],
              [
                106.266142,
                20.915274
              ],
              [
                106.266068,
                20.914815
              ],
              [
                106.265887,
                20.914416
              ],
              [
                106.265668,
                20.914071
              ],
              [
                106.265341,
                20.913739
              ],
              [
                106.264631,
                20.913254
              ],
              [
                106.264074,
                20.9129
              ],
              [
                106.264074,
                20.9129
              ],
              [
                106.264068,
                20.912894
              ],
              [
                106.263977,
                20.912721
              ],
              [
                106.263957,
                20.912548
              ],
              [
                106.263985,
                20.912123
              ],
              [
                106.264014,
                20.911735
              ],
              [
                106.263915,
                20.911401
              ],
              [
                106.263747,
                20.911067
              ],
              [
                106.263515,
                20.910722
              ],
              [
                106.262777,
                20.909826
              ],
              [
                106.262353,
                20.909404
              ],
              [
                106.261733,
                20.908997
              ],
              [
                106.26052,
                20.908384
              ],
              [
                106.260034,
                20.908125
              ],
              [
                106.259574,
                20.907811
              ],
              [
                106.259087,
                20.907433
              ],
              [
                106.258614,
                20.907167
              ],
              [
                106.258274,
                20.90704
              ],
              [
                106.257856,
                20.90694
              ],
              [
                106.256836,
                20.906708
              ],
              [
                106.256115,
                20.906451
              ],
              [
                106.255464,
                20.906139
              ],
              [
                106.255011,
                20.905933
              ],
              [
                106.254469,
                20.905793
              ],
              [
                106.254158,
                20.905737
              ],
              [
                106.254011,
                20.905738
              ],
              [
                106.254011,
                20.905738
              ],
              [
                106.253755,
                20.905805
              ],
              [
                106.253755,
                20.905805
              ],
              [
                106.253337,
                20.90592
              ],
              [
                106.253337,
                20.90592
              ],
              [
                106.252962,
                20.906089
              ],
              [
                106.252962,
                20.906089
              ],
              [
                106.252534,
                20.906327
              ],
              [
                106.252534,
                20.906327
              ],
              [
                106.252116,
                20.906557
              ],
              [
                106.252116,
                20.906557
              ],
              [
                106.251873,
                20.906656
              ],
              [
                106.251873,
                20.906656
              ],
              [
                106.250433,
                20.906348
              ],
              [
                106.249758,
                20.906245
              ],
              [
                106.248944,
                20.906192
              ],
              [
                106.248383,
                20.906112
              ],
              [
                106.24786,
                20.905853
              ],
              [
                106.246582,
                20.905097
              ],
              [
                106.245801,
                20.904493
              ],
              [
                106.245654,
                20.904379
              ],
              [
                106.245084,
                20.903937
              ],
              [
                106.244481,
                20.903391
              ],
              [
                106.243977,
                20.902978
              ],
              [
                106.243577,
                20.902666
              ],
              [
                106.243464,
                20.902577
              ],
              [
                106.243235,
                20.902452
              ],
              [
                106.2428,
                20.902961
              ],
              [
                106.2428,
                20.902961
              ],
              [
                106.242059,
                20.903095
              ],
              [
                106.242059,
                20.903095
              ],
              [
                106.241581,
                20.903189
              ],
              [
                106.241587,
                20.903252
              ],
              [
                106.241628,
                20.903358
              ],
              [
                106.241741,
                20.903649
              ],
              [
                106.241956,
                20.904205
              ],
              [
                106.241956,
                20.904205
              ],
              [
                106.240718,
                20.904558
              ],
              [
                106.240718,
                20.904558
              ],
              [
                106.240443,
                20.904632
              ],
              [
                106.240492,
                20.904853
              ],
              [
                106.240562,
                20.905171
              ],
              [
                106.24059,
                20.905265
              ],
              [
                106.240607,
                20.905284
              ],
              [
                106.240631,
                20.905297
              ],
              [
                106.240883,
                20.905262
              ],
              [
                106.240883,
                20.905262
              ],
              [
                106.240963,
                20.905247
              ],
              [
                106.240963,
                20.905247
              ],
              [
                106.241019,
                20.905376
              ],
              [
                106.241098,
                20.905559
              ],
              [
                106.24131,
                20.905498
              ],
              [
                106.242137,
                20.906697
              ],
              [
                106.24191,
                20.907039
              ],
              [
                106.241537,
                20.907204
              ],
              [
                106.241537,
                20.907204
              ],
              [
                106.241219,
                20.907263
              ],
              [
                106.241219,
                20.907263
              ],
              [
                106.241019,
                20.906891
              ],
              [
                106.240644,
                20.906401
              ],
              [
                106.240594,
                20.906355
              ],
              [
                106.240279,
                20.906368
              ],
              [
                106.240211,
                20.906425
              ],
              [
                106.240211,
                20.906425
              ],
              [
                106.240247,
                20.906525
              ],
              [
                106.239534,
                20.906852
              ],
              [
                106.239768,
                20.907355
              ],
              [
                106.239912,
                20.907299
              ],
              [
                106.240002,
                20.907496
              ],
              [
                106.239827,
                20.907546
              ],
              [
                106.239826,
                20.907546
              ],
              [
                106.239938,
                20.907867
              ],
              [
                106.24005,
                20.908187
              ],
              [
                106.240061,
                20.908302
              ],
              [
                106.240092,
                20.908619
              ],
              [
                106.240094,
                20.908641
              ],
              [
                106.240144,
                20.908739
              ],
              [
                106.239457,
                20.908806
              ],
              [
                106.239761,
                20.910583
              ],
              [
                106.239831,
                20.911087
              ],
              [
                106.239831,
                20.911087
              ],
              [
                106.23972,
                20.911146
              ],
              [
                106.23972,
                20.911146
              ],
              [
                106.239617,
                20.911201
              ],
              [
                106.239617,
                20.911201
              ],
              [
                106.239617,
                20.911207
              ],
              [
                106.239229,
                20.911183
              ],
              [
                106.238775,
                20.911194
              ],
              [
                106.238734,
                20.911244
              ],
              [
                106.238913,
                20.911834
              ],
              [
                106.239043,
                20.912179
              ],
              [
                106.239219,
                20.912234
              ],
              [
                106.240036,
                20.91226
              ],
              [
                106.239952,
                20.912759
              ],
              [
                106.239361,
                20.912781
              ],
              [
                106.239369,
                20.913107
              ],
              [
                106.239847,
                20.913153
              ],
              [
                106.240914,
                20.913132
              ],
              [
                106.24097,
                20.913882
              ],
              [
                106.241001,
                20.914821
              ],
              [
                106.241137,
                20.914807
              ],
              [
                106.241137,
                20.914807
              ],
              [
                106.241246,
                20.914796
              ],
              [
                106.241246,
                20.914796
              ],
              [
                106.241928,
                20.914744
              ],
              [
                106.241928,
                20.914744
              ],
              [
                106.242207,
                20.914731
              ],
              [
                106.242584,
                20.914726
              ],
              [
                106.243427,
                20.914728
              ],
              [
                106.243843,
                20.914722
              ],
              [
                106.244092,
                20.914713
              ],
              [
                106.244149,
                20.915311
              ],
              [
                106.244158,
                20.915731
              ],
              [
                106.244197,
                20.916506
              ],
              [
                106.244234,
                20.917224
              ],
              [
                106.24424,
                20.917315
              ],
              [
                106.244502,
                20.919061
              ],
              [
                106.244626,
                20.91993
              ],
              [
                106.244745,
                20.920222
              ],
              [
                106.245056,
                20.920985
              ],
              [
                106.245318,
                20.921671
              ],
              [
                106.245566,
                20.922285
              ],
              [
                106.245721,
                20.922894
              ],
              [
                106.245924,
                20.923533
              ],
              [
                106.245839,
                20.923734
              ],
              [
                106.244039,
                20.925447
              ],
              [
                106.244039,
                20.925447
              ],
              [
                106.244242,
                20.925781
              ],
              [
                106.244292,
                20.925864
              ],
              [
                106.243925,
                20.92591
              ],
              [
                106.243925,
                20.92591
              ],
              [
                106.242985,
                20.926057
              ],
              [
                106.242905,
                20.926395
              ],
              [
                106.242905,
                20.926395
              ],
              [
                106.242801,
                20.926494
              ],
              [
                106.242801,
                20.926494
              ],
              [
                106.242649,
                20.926557
              ],
              [
                106.242649,
                20.926557
              ],
              [
                106.242167,
                20.926728
              ],
              [
                106.242167,
                20.926728
              ],
              [
                106.241923,
                20.926849
              ],
              [
                106.241923,
                20.926849
              ],
              [
                106.241749,
                20.926973
              ],
              [
                106.241718,
                20.927093
              ],
              [
                106.241726,
                20.927251
              ],
              [
                106.241736,
                20.927311
              ],
              [
                106.241775,
                20.92735
              ],
              [
                106.241861,
                20.927403
              ],
              [
                106.24192,
                20.927463
              ],
              [
                106.241922,
                20.927465
              ],
              [
                106.241924,
                20.927474
              ],
              [
                106.241942,
                20.927543
              ],
              [
                106.24194,
                20.927712
              ],
              [
                106.241869,
                20.927837
              ],
              [
                106.241869,
                20.927837
              ],
              [
                106.240911,
                20.928786
              ],
              [
                106.240911,
                20.928786
              ],
              [
                106.240727,
                20.928697
              ],
              [
                106.240608,
                20.928891
              ],
              [
                106.240517,
                20.929139
              ],
              [
                106.239914,
                20.929068
              ],
              [
                106.239714,
                20.929033
              ],
              [
                106.239322,
                20.928942
              ],
              [
                106.239031,
                20.92886
              ],
              [
                106.23901,
                20.928948
              ],
              [
                106.238568,
                20.928792
              ],
              [
                106.237937,
                20.928668
              ],
              [
                106.237779,
                20.928848
              ],
              [
                106.237398,
                20.928857
              ],
              [
                106.237398,
                20.928857
              ],
              [
                106.237364,
                20.928864
              ],
              [
                106.237364,
                20.928864
              ],
              [
                106.237357,
                20.928856
              ],
              [
                106.236729,
                20.92904
              ],
              [
                106.236729,
                20.92904
              ],
              [
                106.236234,
                20.929083
              ],
              [
                106.236234,
                20.929083
              ],
              [
                106.235864,
                20.929128
              ],
              [
                106.235864,
                20.929128
              ],
              [
                106.235544,
                20.929181
              ],
              [
                106.235544,
                20.929181
              ],
              [
                106.234846,
                20.929302
              ],
              [
                106.234846,
                20.929302
              ],
              [
                106.234449,
                20.929344
              ],
              [
                106.234449,
                20.929344
              ],
              [
                106.234294,
                20.929405
              ],
              [
                106.234292,
                20.929455
              ],
              [
                106.234289,
                20.929523
              ],
              [
                106.234178,
                20.930286
              ],
              [
                106.234179,
                20.930919
              ],
              [
                106.234159,
                20.931429
              ],
              [
                106.234095,
                20.931762
              ],
              [
                106.234074,
                20.931817
              ],
              [
                106.234002,
                20.932014
              ],
              [
                106.233989,
                20.932048
              ],
              [
                106.233977,
                20.932081
              ],
              [
                106.233914,
                20.93225
              ],
              [
                106.233859,
                20.932471
              ],
              [
                106.233845,
                20.932529
              ],
              [
                106.233845,
                20.932594
              ],
              [
                106.233845,
                20.932615
              ],
              [
                106.233861,
                20.932848
              ],
              [
                106.233892,
                20.933229
              ],
              [
                106.233886,
                20.933473
              ],
              [
                106.23387,
                20.93355
              ],
              [
                106.233813,
                20.933832
              ],
              [
                106.233635,
                20.934706
              ],
              [
                106.23361,
                20.934832
              ],
              [
                106.233515,
                20.93519
              ],
              [
                106.233437,
                20.935464
              ],
              [
                106.233434,
                20.935495
              ],
              [
                106.233419,
                20.935666
              ],
              [
                106.233418,
                20.935679
              ],
              [
                106.235199,
                20.935527
              ],
              [
                106.235199,
                20.935527
              ],
              [
                106.235391,
                20.935511
              ],
              [
                106.262476,
                20.933285
              ],
              [
                106.263613,
                20.933188
              ],
              [
                106.264763,
                20.933198
              ],
              [
                106.266234,
                20.933336
              ],
              [
                106.268334,
                20.933527
              ],
              [
                106.268411,
                20.933534
              ],
              [
                106.268411,
                20.933534
              ],
              [
                106.268638,
                20.933554
              ],
              [
                106.268883,
                20.933574
              ],
              [
                106.269829,
                20.933648
              ],
              [
                106.272048,
                20.933872
              ],
              [
                106.274741,
                20.934149
              ],
              [
                106.27714,
                20.934401
              ],
              [
                106.277128,
                20.934516
              ],
              [
                106.282822,
                20.935099
              ],
              [
                106.286671,
                20.935751
              ],
              [
                106.288211,
                20.936089
              ],
              [
                106.289748,
                20.936597
              ],
              [
                106.289748,
                20.936597
              ]
            ]
          ]
        ]
      },
      "properties": {
        "code": "10891",
        "name": "Tứ Minh",
        "nameEn": "Tu Minh",
        "fullName": "Phường Tứ Minh",
        "fullNameEn": "Tu Minh Ward",
        "codeName": "tu_minh",
        "postalCode": "03126",
        "postalCodePrefix": "",
        "gisServerId": "diaphanhanhchinhcapxa_2025.861",
        "areaKm2": 14.77
      }
    }
  ]
}