{
  "type": "FeatureCollection",
  "bbox": [
    106.136967,
    20.851994,
    106.218688,
    20.901901
  ],
  "features": [
    {
      "type": "Feature",
      "id": "10972",
      "bbox": [
        106.136967,
        20.851994,
        106.218688,
        20.901901
      ],
      "geometry": {
        "type": "MultiPolygon",
        "coordinates": [
          [
            [
              [
                106.161685,
                20.896029
              ],
              [
                106.161863,
                20.89591
              ],
              [
                106.16268,
                20.895363
              ],
              [
                106.163607,
                20.895652
              ],
              [
                106.164079,
                20.895991
              ],
              [
                106.165407,
                20.89771
              ],
              [
                106.166726,
                20.89688
              ],
              [
                106.169801,
                20.894945
              ],
              [
                106.170167,
                20.894714
              ],
              [
                106.17047,
                20.89452
              ],
              [
                106.17057,
                20.894597
              ],
              [
                106.170658,
                20.894653
              ],
              [
                106.170825,
                20.894729
              ],
              [
                106.17091,
                20.894769
              ],
              [
                106.170979,
                20.894802
              ],
              [
                106.171146,
                20.89491
              ],
              [
                106.171212,
                20.894943
              ],
              [
                106.171382,
                20.894721
              ],
              [
                106.171516,
                20.894513
              ],
              [
                106.171617,
                20.89437
              ],
              [
                106.171768,
                20.894152
              ],
              [
                106.171501,
                20.893866
              ],
              [
                106.171474,
                20.893837
              ],
              [
                106.171452,
                20.893813
              ],
              [
                106.172019,
                20.893338
              ],
              [
                106.17386,
                20.891798
              ],
              [
                106.174377,
                20.891363
              ],
              [
                106.174599,
                20.891177
              ],
              [
                106.17497,
                20.890865
              ],
              [
                106.175151,
                20.890714
              ],
              [
                106.175227,
                20.890766
              ],
              [
                106.175448,
                20.890918
              ],
              [
                106.175677,
                20.890935
              ],
              [
                106.175706,
                20.890937
              ],
              [
                106.176529,
                20.890436
              ],
              [
                106.176533,
                20.890328
              ],
              [
                106.177294,
                20.890293
              ],
              [
                106.177455,
                20.890326
              ],
              [
                106.17751,
                20.890338
              ],
              [
                106.17771,
                20.890329
              ],
              [
                106.177918,
                20.890331
              ],
              [
                106.178241,
                20.890338
              ],
              [
                106.178248,
                20.890338
              ],
              [
                106.178308,
                20.89034
              ],
              [
                106.178329,
                20.889985
              ],
              [
                106.178329,
                20.889979
              ],
              [
                106.178414,
                20.889986
              ],
              [
                106.178415,
                20.889987
              ],
              [
                106.178424,
                20.889896
              ],
              [
                106.178434,
                20.889803
              ],
              [
                106.178434,
                20.889799
              ],
              [
                106.178957,
                20.88992
              ],
              [
                106.178954,
                20.889927
              ],
              [
                106.178943,
                20.889955
              ],
              [
                106.178814,
                20.890294
              ],
              [
                106.178823,
                20.890289
              ],
              [
                106.179333,
                20.890007
              ],
              [
                106.179386,
                20.889977
              ],
              [
                106.179519,
                20.889762
              ],
              [
                106.180002,
                20.889424
              ],
              [
                106.1803,
                20.889261
              ],
              [
                106.180944,
                20.889011
              ],
              [
                106.181212,
                20.888867
              ],
              [
                106.181444,
                20.889013
              ],
              [
                106.181543,
                20.889063
              ],
              [
                106.18157,
                20.889077
              ],
              [
                106.182077,
                20.888894
              ],
              [
                106.182309,
                20.888743
              ],
              [
                106.182723,
                20.888752
              ],
              [
                106.182606,
                20.888418
              ],
              [
                106.182616,
                20.888408
              ],
              [
                106.182979,
                20.888083
              ],
              [
                106.18297,
                20.888061
              ],
              [
                106.184263,
                20.886938
              ],
              [
                106.183484,
                20.886074
              ],
              [
                106.18332,
                20.885893
              ],
              [
                106.183758,
                20.885531
              ],
              [
                106.183574,
                20.885369
              ],
              [
                106.185014,
                20.884204
              ],
              [
                106.185077,
                20.884152
              ],
              [
                106.184499,
                20.883523
              ],
              [
                106.185792,
                20.88237
              ],
              [
                106.186974,
                20.881314
              ],
              [
                106.187086,
                20.881212
              ],
              [
                106.187725,
                20.880631
              ],
              [
                106.187945,
                20.880673
              ],
              [
                106.18795,
                20.880623
              ],
              [
                106.187956,
                20.880619
              ],
              [
                106.188001,
                20.880596
              ],
              [
                106.18805,
                20.880596
              ],
              [
                106.188255,
                20.88064
              ],
              [
                106.188389,
                20.880656
              ],
              [
                106.18843,
                20.880646
              ],
              [
                106.188468,
                20.880631
              ],
              [
                106.188514,
                20.880597
              ],
              [
                106.18856,
                20.880491
              ],
              [
                106.188587,
                20.880341
              ],
              [
                106.188663,
                20.88028
              ],
              [
                106.188745,
                20.880277
              ],
              [
                106.18884,
                20.880276
              ],
              [
                106.188863,
                20.880271
              ],
              [
                106.188904,
                20.880237
              ],
              [
                106.188917,
                20.880201
              ],
              [
                106.188942,
                20.880129
              ],
              [
                106.188941,
                20.880042
              ],
              [
                106.188959,
                20.880005
              ],
              [
                106.188985,
                20.880005
              ],
              [
                106.189049,
                20.88001
              ],
              [
                106.189167,
                20.880064
              ],
              [
                106.190191,
                20.880403
              ],
              [
                106.190377,
                20.880465
              ],
              [
                106.190436,
                20.880461
              ],
              [
                106.190473,
                20.880459
              ],
              [
                106.190499,
                20.880458
              ],
              [
                106.190581,
                20.879783
              ],
              [
                106.190627,
                20.87979
              ],
              [
                106.190782,
                20.879804
              ],
              [
                106.190902,
                20.879817
              ],
              [
                106.190905,
                20.879817
              ],
              [
                106.191199,
                20.879842
              ],
              [
                106.191544,
                20.879866
              ],
              [
                106.192014,
                20.879899
              ],
              [
                106.192414,
                20.879926
              ],
              [
                106.192777,
                20.879954
              ],
              [
                106.193047,
                20.879969
              ],
              [
                106.193266,
                20.879982
              ],
              [
                106.193549,
                20.880013
              ],
              [
                106.193594,
                20.878821
              ],
              [
                106.193943,
                20.878842
              ],
              [
                106.196418,
                20.878993
              ],
              [
                106.196789,
                20.879018
              ],
              [
                106.196801,
                20.879019
              ],
              [
                106.196803,
                20.879192
              ],
              [
                106.197305,
                20.879231
              ],
              [
                106.197231,
                20.878633
              ],
              [
                106.197221,
                20.878611
              ],
              [
                106.198892,
                20.878503
              ],
              [
                106.198917,
                20.877977
              ],
              [
                106.198802,
                20.877968
              ],
              [
                106.198661,
                20.877957
              ],
              [
                106.198463,
                20.875809
              ],
              [
                106.19845,
                20.875661
              ],
              [
                106.198452,
                20.875632
              ],
              [
                106.198763,
                20.87571
              ],
              [
                106.199065,
                20.874937
              ],
              [
                106.199278,
                20.874391
              ],
              [
                106.199587,
                20.874604
              ],
              [
                106.199664,
                20.874513
              ],
              [
                106.199946,
                20.874019
              ],
              [
                106.200275,
                20.873711
              ],
              [
                106.200209,
                20.873601
              ],
              [
                106.200205,
                20.87355
              ],
              [
                106.200213,
                20.873529
              ],
              [
                106.200437,
                20.873495
              ],
              [
                106.201203,
                20.873396
              ],
              [
                106.203688,
                20.873042
              ],
              [
                106.206779,
                20.872651
              ],
              [
                106.210525,
                20.872169
              ],
              [
                106.212724,
                20.871895
              ],
              [
                106.213178,
                20.86959
              ],
              [
                106.213351,
                20.868732
              ],
              [
                106.213391,
                20.868531
              ],
              [
                106.213432,
                20.868387
              ],
              [
                106.213481,
                20.868268
              ],
              [
                106.213582,
                20.868078
              ],
              [
                106.213781,
                20.867703
              ],
              [
                106.213818,
                20.867574
              ],
              [
                106.213825,
                20.867499
              ],
              [
                106.21381,
                20.867437
              ],
              [
                106.21378,
                20.867383
              ],
              [
                106.213808,
                20.867304
              ],
              [
                106.214002,
                20.866752
              ],
              [
                106.218184,
                20.867574
              ],
              [
                106.218636,
                20.867238
              ],
              [
                106.218635,
                20.867181
              ],
              [
                106.218634,
                20.8671
              ],
              [
                106.218688,
                20.86676
              ],
              [
                106.218677,
                20.866674
              ],
              [
                106.21867,
                20.866653
              ],
              [
                106.218635,
                20.866545
              ],
              [
                106.218491,
                20.866307
              ],
              [
                106.218413,
                20.866088
              ],
              [
                106.218343,
                20.865777
              ],
              [
                106.218228,
                20.865262
              ],
              [
                106.218119,
                20.864696
              ],
              [
                106.218111,
                20.864654
              ],
              [
                106.218065,
                20.864418
              ],
              [
                106.218048,
                20.864326
              ],
              [
                106.218008,
                20.864005
              ],
              [
                106.217829,
                20.86396
              ],
              [
                106.21641,
                20.86342
              ],
              [
                106.215902,
                20.863226
              ],
              [
                106.215423,
                20.863043
              ],
              [
                106.213215,
                20.862202
              ],
              [
                106.212748,
                20.862024
              ],
              [
                106.211522,
                20.861559
              ],
              [
                106.209426,
                20.860764
              ],
              [
                106.20932,
                20.860794
              ],
              [
                106.207647,
                20.862771
              ],
              [
                106.207034,
                20.863496
              ],
              [
                106.206792,
                20.863782
              ],
              [
                106.20658,
                20.863618
              ],
              [
                106.20676,
                20.863432
              ],
              [
                106.206693,
                20.863267
              ],
              [
                106.20667,
                20.862712
              ],
              [
                106.206406,
                20.862739
              ],
              [
                106.206291,
                20.862049
              ],
              [
                106.20621,
                20.861931
              ],
              [
                106.206247,
                20.861896
              ],
              [
                106.206492,
                20.861782
              ],
              [
                106.206565,
                20.861748
              ],
              [
                106.206566,
                20.861461
              ],
              [
                106.206786,
                20.861364
              ],
              [
                106.206687,
                20.860872
              ],
              [
                106.206677,
                20.860822
              ],
              [
                106.206053,
                20.860704
              ],
              [
                106.206106,
                20.860334
              ],
              [
                106.205947,
                20.860244
              ],
              [
                106.205912,
                20.860216
              ],
              [
                106.205911,
                20.860216
              ],
              [
                106.205806,
                20.860167
              ],
              [
                106.205767,
                20.860088
              ],
              [
                106.205762,
                20.859967
              ],
              [
                106.205536,
                20.859868
              ],
              [
                106.205695,
                20.85933
              ],
              [
                106.20567,
                20.859324
              ],
              [
                106.205683,
                20.859124
              ],
              [
                106.205686,
                20.859073
              ],
              [
                106.205696,
                20.858914
              ],
              [
                106.205576,
                20.858359
              ],
              [
                106.205548,
                20.858357
              ],
              [
                106.205461,
                20.858349
              ],
              [
                106.205402,
                20.858315
              ],
              [
                106.205372,
                20.858298
              ],
              [
                106.20525,
                20.85817
              ],
              [
                106.205244,
                20.858117
              ],
              [
                106.205219,
                20.858015
              ],
              [
                106.20509,
                20.857877
              ],
              [
                106.205064,
                20.857849
              ],
              [
                106.205057,
                20.857774
              ],
              [
                106.205077,
                20.857692
              ],
              [
                106.205078,
                20.857688
              ],
              [
                106.204211,
                20.857516
              ],
              [
                106.204047,
                20.857484
              ],
              [
                106.203988,
                20.857472
              ],
              [
                106.204051,
                20.857243
              ],
              [
                106.204197,
                20.856709
              ],
              [
                106.204129,
                20.856693
              ],
              [
                106.203918,
                20.856645
              ],
              [
                106.203746,
                20.856605
              ],
              [
                106.203706,
                20.856596
              ],
              [
                106.203667,
                20.856517
              ],
              [
                106.203538,
                20.856253
              ],
              [
                106.203491,
                20.856158
              ],
              [
                106.203482,
                20.856139
              ],
              [
                106.203419,
                20.856011
              ],
              [
                106.203373,
                20.855917
              ],
              [
                106.203242,
                20.855649
              ],
              [
                106.202675,
                20.855591
              ],
              [
                106.197379,
                20.855051
              ],
              [
                106.185081,
                20.85479
              ],
              [
                106.183895,
                20.854819
              ],
              [
                106.183385,
                20.854836
              ],
              [
                106.182401,
                20.854871
              ],
              [
                106.180428,
                20.854941
              ],
              [
                106.180221,
                20.854949
              ],
              [
                106.178565,
                20.854995
              ],
              [
                106.177946,
                20.855012
              ],
              [
                106.176161,
                20.855071
              ],
              [
                106.176177,
                20.855134
              ],
              [
                106.174434,
                20.855125
              ],
              [
                106.174434,
                20.855125
              ],
              [
                106.174433,
                20.855123
              ],
              [
                106.174368,
                20.855125
              ],
              [
                106.172184,
                20.855192
              ],
              [
                106.17065,
                20.85524
              ],
              [
                106.1706,
                20.855241
              ],
              [
                106.170434,
                20.855246
              ],
              [
                106.168763,
                20.855293
              ],
              [
                106.168353,
                20.855304
              ],
              [
                106.168036,
                20.855315
              ],
              [
                106.166561,
                20.855367
              ],
              [
                106.166203,
                20.855377
              ],
              [
                106.16519,
                20.855405
              ],
              [
                106.164176,
                20.855409
              ],
              [
                106.163659,
                20.855403
              ],
              [
                106.163659,
                20.855404
              ],
              [
                106.162776,
                20.855391
              ],
              [
                106.161578,
                20.855348
              ],
              [
                106.161444,
                20.855341
              ],
              [
                106.161212,
                20.855328
              ],
              [
                106.160754,
                20.855303
              ],
              [
                106.160226,
                20.855259
              ],
              [
                106.160183,
                20.855255
              ],
              [
                106.159695,
                20.855214
              ],
              [
                106.1589,
                20.855137
              ],
              [
                106.158489,
                20.855097
              ],
              [
                106.157426,
                20.854954
              ],
              [
                106.157127,
                20.854908
              ],
              [
                106.156239,
                20.854772
              ],
              [
                106.155999,
                20.854736
              ],
              [
                106.154706,
                20.854539
              ],
              [
                106.138002,
                20.852071
              ],
              [
                106.137478,
                20.851994
              ],
              [
                106.137682,
                20.85249
              ],
              [
                106.137868,
                20.852872
              ],
              [
                106.138064,
                20.853147
              ],
              [
                106.139189,
                20.854552
              ],
              [
                106.140552,
                20.856289
              ],
              [
                106.141191,
                20.857063
              ],
              [
                106.141434,
                20.857406
              ],
              [
                106.141616,
                20.857681
              ],
              [
                106.141836,
                20.858102
              ],
              [
                106.141937,
                20.858371
              ],
              [
                106.14206,
                20.858918
              ],
              [
                106.142117,
                20.859355
              ],
              [
                106.142126,
                20.859506
              ],
              [
                106.142173,
                20.860262
              ],
              [
                106.142183,
                20.861123
              ],
              [
                106.142158,
                20.862129
              ],
              [
                106.142194,
                20.863672
              ],
              [
                106.142145,
                20.86525
              ],
              [
                106.142137,
                20.865437
              ],
              [
                106.142167,
                20.866614
              ],
              [
                106.142193,
                20.867514
              ],
              [
                106.142239,
                20.868205
              ],
              [
                106.14222,
                20.868823
              ],
              [
                106.142221,
                20.869118
              ],
              [
                106.142242,
                20.869405
              ],
              [
                106.142297,
                20.869612
              ],
              [
                106.142386,
                20.869802
              ],
              [
                106.14254,
                20.869955
              ],
              [
                106.142839,
                20.870175
              ],
              [
                106.143254,
                20.870506
              ],
              [
                106.143442,
                20.87072
              ],
              [
                106.143608,
                20.870991
              ],
              [
                106.143651,
                20.871145
              ],
              [
                106.14368,
                20.871342
              ],
              [
                106.143635,
                20.871529
              ],
              [
                106.143562,
                20.871754
              ],
              [
                106.143279,
                20.872374
              ],
              [
                106.143205,
                20.872611
              ],
              [
                106.143195,
                20.872787
              ],
              [
                106.143223,
                20.87302
              ],
              [
                106.14332,
                20.873277
              ],
              [
                106.143806,
                20.874014
              ],
              [
                106.143806,
                20.874015
              ],
              [
                106.143854,
                20.874151
              ],
              [
                106.14392,
                20.874374
              ],
              [
                106.143942,
                20.874637
              ],
              [
                106.143959,
                20.874851
              ],
              [
                106.143916,
                20.875338
              ],
              [
                106.143791,
                20.875884
              ],
              [
                106.143788,
                20.875901
              ],
              [
                106.143713,
                20.87632
              ],
              [
                106.143688,
                20.876465
              ],
              [
                106.143684,
                20.876518
              ],
              [
                106.143663,
                20.876807
              ],
              [
                106.143645,
                20.877068
              ],
              [
                106.143663,
                20.877498
              ],
              [
                106.143738,
                20.877871
              ],
              [
                106.143851,
                20.878158
              ],
              [
                106.144174,
                20.878491
              ],
              [
                106.144668,
                20.87891
              ],
              [
                106.14479,
                20.879006
              ],
              [
                106.145241,
                20.879362
              ],
              [
                106.145691,
                20.879785
              ],
              [
                106.146177,
                20.880236
              ],
              [
                106.146391,
                20.880449
              ],
              [
                106.146606,
                20.880682
              ],
              [
                106.146839,
                20.881072
              ],
              [
                106.146966,
                20.881456
              ],
              [
                106.14712,
                20.881932
              ],
              [
                106.147249,
                20.882426
              ],
              [
                106.147362,
                20.883001
              ],
              [
                106.147364,
                20.883744
              ],
              [
                106.147229,
                20.884186
              ],
              [
                106.147219,
                20.884454
              ],
              [
                106.147229,
                20.884576
              ],
              [
                106.147244,
                20.884742
              ],
              [
                106.147306,
                20.885158
              ],
              [
                106.147315,
                20.8854
              ],
              [
                106.147321,
                20.885532
              ],
              [
                106.147284,
                20.885974
              ],
              [
                106.147251,
                20.886265
              ],
              [
                106.147255,
                20.886598
              ],
              [
                106.147308,
                20.8872
              ],
              [
                106.147329,
                20.887651
              ],
              [
                106.147335,
                20.887786
              ],
              [
                106.147351,
                20.888141
              ],
              [
                106.147305,
                20.888672
              ],
              [
                106.1473,
                20.888689
              ],
              [
                106.147194,
                20.889079
              ],
              [
                106.14702,
                20.889357
              ],
              [
                106.146786,
                20.889473
              ],
              [
                106.146504,
                20.889589
              ],
              [
                106.14631,
                20.889775
              ],
              [
                106.14617,
                20.889957
              ],
              [
                106.146031,
                20.890143
              ],
              [
                106.145809,
                20.890469
              ],
              [
                106.145686,
                20.8907
              ],
              [
                106.145595,
                20.890908
              ],
              [
                106.145366,
                20.891242
              ],
              [
                106.144892,
                20.891579
              ],
              [
                106.144454,
                20.891887
              ],
              [
                106.144433,
                20.891902
              ],
              [
                106.144386,
                20.891935
              ],
              [
                106.143937,
                20.89218
              ],
              [
                106.143857,
                20.892205
              ],
              [
                106.143631,
                20.892217
              ],
              [
                106.143308,
                20.89217
              ],
              [
                106.142971,
                20.892118
              ],
              [
                106.142756,
                20.892118
              ],
              [
                106.14261,
                20.892143
              ],
              [
                106.142459,
                20.892229
              ],
              [
                106.142226,
                20.8924
              ],
              [
                106.141995,
                20.892543
              ],
              [
                106.141832,
                20.892625
              ],
              [
                106.141598,
                20.892703
              ],
              [
                106.14145,
                20.892739
              ],
              [
                106.141262,
                20.892757
              ],
              [
                106.140758,
                20.892806
              ],
              [
                106.140682,
                20.892818
              ],
              [
                106.139904,
                20.892904
              ],
              [
                106.139599,
                20.892983
              ],
              [
                106.139573,
                20.893003
              ],
              [
                106.139422,
                20.893116
              ],
              [
                106.139182,
                20.89341
              ],
              [
                106.139137,
                20.893465
              ],
              [
                106.139032,
                20.893588
              ],
              [
                106.139019,
                20.893608
              ],
              [
                106.138953,
                20.893681
              ],
              [
                106.138893,
                20.893748
              ],
              [
                106.138775,
                20.893861
              ],
              [
                106.138737,
                20.893897
              ],
              [
                106.138617,
                20.894136
              ],
              [
                106.138587,
                20.894336
              ],
              [
                106.138576,
                20.894404
              ],
              [
                106.138528,
                20.89501
              ],
              [
                106.138443,
                20.895338
              ],
              [
                106.138399,
                20.895676
              ],
              [
                106.138403,
                20.89577
              ],
              [
                106.138388,
                20.896001
              ],
              [
                106.138327,
                20.896454
              ],
              [
                106.138263,
                20.896878
              ],
              [
                106.138235,
                20.89724
              ],
              [
                106.138225,
                20.897604
              ],
              [
                106.138263,
                20.897839
              ],
              [
                106.138285,
                20.897979
              ],
              [
                106.138277,
                20.898327
              ],
              [
                106.138234,
                20.898683
              ],
              [
                106.13816,
                20.898922
              ],
              [
                106.13808,
                20.899101
              ],
              [
                106.137904,
                20.899453
              ],
              [
                106.137786,
                20.899684
              ],
              [
                106.137507,
                20.900126
              ],
              [
                106.137341,
                20.900411
              ],
              [
                106.137288,
                20.900502
              ],
              [
                106.137125,
                20.900815
              ],
              [
                106.136967,
                20.90111
              ],
              [
                106.137249,
                20.90118
              ],
              [
                106.137336,
                20.901202
              ],
              [
                106.137526,
                20.901264
              ],
              [
                106.137834,
                20.901213
              ],
              [
                106.137924,
                20.901753
              ],
              [
                106.138134,
                20.901738
              ],
              [
                106.13819,
                20.901901
              ],
              [
                106.138737,
                20.901867
              ],
              [
                106.139266,
                20.901806
              ],
              [
                106.139704,
                20.90173
              ],
              [
                106.139578,
                20.901465
              ],
              [
                106.139584,
                20.901386
              ],
              [
                106.139794,
                20.901171
              ],
              [
                106.139957,
                20.901438
              ],
              [
                106.14016,
                20.901196
              ],
              [
                106.140005,
                20.900926
              ],
              [
                106.140153,
                20.900693
              ],
              [
                106.14045,
                20.900841
              ],
              [
                106.14076,
                20.900598
              ],
              [
                106.140685,
                20.900336
              ],
              [
                106.140956,
                20.900199
              ],
              [
                106.140997,
                20.90027
              ],
              [
                106.141084,
                20.900196
              ],
              [
                106.140982,
                20.900043
              ],
              [
                106.140862,
                20.899986
              ],
              [
                106.140978,
                20.899942
              ],
              [
                106.141526,
                20.90003
              ],
              [
                106.142137,
                20.900494
              ],
              [
                106.14234,
                20.900445
              ],
              [
                106.142922,
                20.900285
              ],
              [
                106.143349,
                20.900208
              ],
              [
                106.143487,
                20.90016
              ],
              [
                106.143273,
                20.899544
              ],
              [
                106.143495,
                20.898997
              ],
              [
                106.1434,
                20.898964
              ],
              [
                106.143177,
                20.898888
              ],
              [
                106.143127,
                20.898871
              ],
              [
                106.143085,
                20.898852
              ],
              [
                106.142809,
                20.898729
              ],
              [
                106.142662,
                20.898614
              ],
              [
                106.142604,
                20.89854
              ],
              [
                106.142577,
                20.898507
              ],
              [
                106.142536,
                20.898454
              ],
              [
                106.142579,
                20.898436
              ],
              [
                106.142609,
                20.898424
              ],
              [
                106.144065,
                20.897505
              ],
              [
                106.144519,
                20.896811
              ],
              [
                106.144719,
                20.896928
              ],
              [
                106.144954,
                20.897066
              ],
              [
                106.14508,
                20.897143
              ],
              [
                106.14575,
                20.897539
              ],
              [
                106.146948,
                20.898239
              ],
              [
                106.146992,
                20.898161
              ],
              [
                106.147063,
                20.898037
              ],
              [
                106.147355,
                20.898205
              ],
              [
                106.148274,
                20.898756
              ],
              [
                106.149766,
                20.899629
              ],
              [
                106.149527,
                20.898546
              ],
              [
                106.149523,
                20.897347
              ],
              [
                106.150685,
                20.897431
              ],
              [
                106.151123,
                20.897449
              ],
              [
                106.151137,
                20.897408
              ],
              [
                106.151268,
                20.897057
              ],
              [
                106.151368,
                20.896836
              ],
              [
                106.151352,
                20.896831
              ],
              [
                106.149105,
                20.896105
              ],
              [
                106.149183,
                20.895983
              ],
              [
                106.149375,
                20.895687
              ],
              [
                106.15,
                20.894833
              ],
              [
                106.151736,
                20.895407
              ],
              [
                106.152005,
                20.895491
              ],
              [
                106.152479,
                20.89423
              ],
              [
                106.153397,
                20.894604
              ],
              [
                106.153563,
                20.894186
              ],
              [
                106.153584,
                20.894194
              ],
              [
                106.15658,
                20.895307
              ],
              [
                106.156933,
                20.895465
              ],
              [
                106.157227,
                20.895051
              ],
              [
                106.157386,
                20.894833
              ],
              [
                106.157523,
                20.894646
              ],
              [
                106.157997,
                20.893997
              ],
              [
                106.158059,
                20.893913
              ],
              [
                106.15827,
                20.894056
              ],
              [
                106.158736,
                20.894392
              ],
              [
                106.158894,
                20.894505
              ],
              [
                106.159205,
                20.894729
              ],
              [
                106.159517,
                20.894954
              ],
              [
                106.159579,
                20.894998
              ],
              [
                106.160204,
                20.895392
              ],
              [
                106.160474,
                20.895562
              ],
              [
                106.160871,
                20.895833
              ],
              [
                106.161427,
                20.896211
              ],
              [
                106.161547,
                20.896122
              ],
              [
                106.161685,
                20.896029
              ],
              [
                106.161685,
                20.896029
              ]
            ]
          ]
        ]
      },
      "properties": {
        "code": "10972",
        "name": "Đường An",
        "nameEn": "Duong An",
        "fullName": "Xã Đường An",
        "fullNameEn": "Duong An Commune",
        "codeName": "duong_an",
        "postalCode": "03725",
        "postalCodePrefix": "",
        "gisServerId": "diaphanhanhchinhcapxa_2025.864",
        "areaKm2": 25.53
      }
    }
  ]
}