{
  "type": "FeatureCollection",
  "bbox": [
    106.124276,
    20.81839,
    106.209614,
    20.855649
  ],
  "features": [
    {
      "type": "Feature",
      "id": "10993",
      "bbox": [
        106.124276,
        20.81839,
        106.209614,
        20.855649
      ],
      "geometry": {
        "type": "MultiPolygon",
        "coordinates": [
          [
            [
              [
                106.199478,
                20.821824
              ],
              [
                106.199173,
                20.82173
              ],
              [
                106.199159,
                20.821708
              ],
              [
                106.199153,
                20.821698
              ],
              [
                106.199004,
                20.821531
              ],
              [
                106.198137,
                20.820558
              ],
              [
                106.197829,
                20.819833
              ],
              [
                106.197337,
                20.820201
              ],
              [
                106.1964,
                20.820013
              ],
              [
                106.196126,
                20.819958
              ],
              [
                106.194791,
                20.819685
              ],
              [
                106.194261,
                20.819576
              ],
              [
                106.194248,
                20.819574
              ],
              [
                106.191957,
                20.819187
              ],
              [
                106.191387,
                20.819091
              ],
              [
                106.189898,
                20.818851
              ],
              [
                106.189813,
                20.818838
              ],
              [
                106.187705,
                20.818517
              ],
              [
                106.186876,
                20.81839
              ],
              [
                106.186745,
                20.818409
              ],
              [
                106.186634,
                20.818449
              ],
              [
                106.182876,
                20.819744
              ],
              [
                106.180279,
                20.820657
              ],
              [
                106.179529,
                20.820789
              ],
              [
                106.179595,
                20.820915
              ],
              [
                106.181847,
                20.822257
              ],
              [
                106.182213,
                20.822493
              ],
              [
                106.179613,
                20.823228
              ],
              [
                106.179649,
                20.823287
              ],
              [
                106.180653,
                20.824749
              ],
              [
                106.181166,
                20.825217
              ],
              [
                106.180726,
                20.82554
              ],
              [
                106.180349,
                20.825817
              ],
              [
                106.180259,
                20.825883
              ],
              [
                106.178691,
                20.82708
              ],
              [
                106.178167,
                20.82748
              ],
              [
                106.177671,
                20.827944
              ],
              [
                106.176449,
                20.82919
              ],
              [
                106.17603,
                20.829724
              ],
              [
                106.177634,
                20.830932
              ],
              [
                106.177513,
                20.831035
              ],
              [
                106.177244,
                20.831286
              ],
              [
                106.177085,
                20.831439
              ],
              [
                106.176898,
                20.831616
              ],
              [
                106.17674,
                20.831765
              ],
              [
                106.176717,
                20.831852
              ],
              [
                106.176718,
                20.832128
              ],
              [
                106.176697,
                20.832146
              ],
              [
                106.176679,
                20.83226
              ],
              [
                106.176683,
                20.833137
              ],
              [
                106.176688,
                20.834287
              ],
              [
                106.176691,
                20.835011
              ],
              [
                106.1767,
                20.836975
              ],
              [
                106.1767,
                20.837071
              ],
              [
                106.176703,
                20.837798
              ],
              [
                106.176704,
                20.837981
              ],
              [
                106.176651,
                20.84047
              ],
              [
                106.176718,
                20.841377
              ],
              [
                106.175091,
                20.841334
              ],
              [
                106.174259,
                20.841312
              ],
              [
                106.17368,
                20.840641
              ],
              [
                106.17352,
                20.840072
              ],
              [
                106.173261,
                20.840093
              ],
              [
                106.172767,
                20.840139
              ],
              [
                106.172272,
                20.840186
              ],
              [
                106.171778,
                20.840232
              ],
              [
                106.171293,
                20.840292
              ],
              [
                106.170809,
                20.840338
              ],
              [
                106.170325,
                20.840388
              ],
              [
                106.169846,
                20.840442
              ],
              [
                106.169362,
                20.840492
              ],
              [
                106.168877,
                20.840538
              ],
              [
                106.167912,
                20.840643
              ],
              [
                106.167423,
                20.840687
              ],
              [
                106.166982,
                20.840725
              ],
              [
                106.165963,
                20.840842
              ],
              [
                106.164807,
                20.840954
              ],
              [
                106.163673,
                20.841071
              ],
              [
                106.162758,
                20.841181
              ],
              [
                106.162964,
                20.838282
              ],
              [
                106.162994,
                20.837865
              ],
              [
                106.163058,
                20.836911
              ],
              [
                106.163119,
                20.836013
              ],
              [
                106.163145,
                20.835632
              ],
              [
                106.163179,
                20.835478
              ],
              [
                106.163249,
                20.835325
              ],
              [
                106.163279,
                20.835331
              ],
              [
                106.163319,
                20.835162
              ],
              [
                106.16275,
                20.835067
              ],
              [
                106.162164,
                20.834954
              ],
              [
                106.162062,
                20.834913
              ],
              [
                106.162043,
                20.834886
              ],
              [
                106.162023,
                20.834836
              ],
              [
                106.162041,
                20.834731
              ],
              [
                106.162215,
                20.833687
              ],
              [
                106.16224,
                20.83363
              ],
              [
                106.162293,
                20.833184
              ],
              [
                106.16229,
                20.833148
              ],
              [
                106.162402,
                20.832469
              ],
              [
                106.162395,
                20.83241
              ],
              [
                106.162363,
                20.832362
              ],
              [
                106.162032,
                20.832206
              ],
              [
                106.161971,
                20.832147
              ],
              [
                106.161977,
                20.832117
              ],
              [
                106.162191,
                20.831877
              ],
              [
                106.162279,
                20.831777
              ],
              [
                106.162295,
                20.831735
              ],
              [
                106.162279,
                20.831693
              ],
              [
                106.162243,
                20.831662
              ],
              [
                106.16203,
                20.831471
              ],
              [
                106.161914,
                20.831366
              ],
              [
                106.161996,
                20.831271
              ],
              [
                106.162144,
                20.831102
              ],
              [
                106.162949,
                20.830178
              ],
              [
                106.16279,
                20.83001
              ],
              [
                106.160507,
                20.827583
              ],
              [
                106.160483,
                20.827588
              ],
              [
                106.160309,
                20.827406
              ],
              [
                106.15816,
                20.827835
              ],
              [
                106.157031,
                20.82806
              ],
              [
                106.156973,
                20.828071
              ],
              [
                106.156709,
                20.828124
              ],
              [
                106.155786,
                20.828308
              ],
              [
                106.154852,
                20.828572
              ],
              [
                106.153377,
                20.829569
              ],
              [
                106.152247,
                20.828743
              ],
              [
                106.151898,
                20.82894
              ],
              [
                106.151848,
                20.828968
              ],
              [
                106.151742,
                20.828815
              ],
              [
                106.151599,
                20.82861
              ],
              [
                106.151111,
                20.828924
              ],
              [
                106.150628,
                20.829234
              ],
              [
                106.150246,
                20.828889
              ],
              [
                106.149955,
                20.828643
              ],
              [
                106.149962,
                20.828637
              ],
              [
                106.15069,
                20.828013
              ],
              [
                106.150652,
                20.827985
              ],
              [
                106.150426,
                20.827842
              ],
              [
                106.148679,
                20.826737
              ],
              [
                106.147757,
                20.826154
              ],
              [
                106.144881,
                20.824332
              ],
              [
                106.144552,
                20.824124
              ],
              [
                106.144457,
                20.824064
              ],
              [
                106.142228,
                20.822628
              ],
              [
                106.141033,
                20.821858
              ],
              [
                106.141942,
                20.81935
              ],
              [
                106.140671,
                20.818728
              ],
              [
                106.140295,
                20.818562
              ],
              [
                106.140212,
                20.818848
              ],
              [
                106.140064,
                20.819356
              ],
              [
                106.139987,
                20.819597
              ],
              [
                106.139813,
                20.8201
              ],
              [
                106.139538,
                20.820675
              ],
              [
                106.139437,
                20.820839
              ],
              [
                106.139408,
                20.820911
              ],
              [
                106.139086,
                20.821362
              ],
              [
                106.138737,
                20.821874
              ],
              [
                106.13828,
                20.822471
              ],
              [
                106.137989,
                20.822735
              ],
              [
                106.137705,
                20.822946
              ],
              [
                106.137439,
                20.823109
              ],
              [
                106.137002,
                20.823328
              ],
              [
                106.135809,
                20.823873
              ],
              [
                106.135041,
                20.824266
              ],
              [
                106.13462,
                20.82451
              ],
              [
                106.134199,
                20.824859
              ],
              [
                106.133654,
                20.825365
              ],
              [
                106.133374,
                20.825711
              ],
              [
                106.133106,
                20.826082
              ],
              [
                106.133004,
                20.826244
              ],
              [
                106.132749,
                20.826733
              ],
              [
                106.132409,
                20.827216
              ],
              [
                106.131601,
                20.828297
              ],
              [
                106.131154,
                20.828723
              ],
              [
                106.130562,
                20.829136
              ],
              [
                106.129969,
                20.829405
              ],
              [
                106.129132,
                20.829626
              ],
              [
                106.128576,
                20.829723
              ],
              [
                106.128095,
                20.829733
              ],
              [
                106.126873,
                20.829662
              ],
              [
                106.126469,
                20.829594
              ],
              [
                106.126167,
                20.829487
              ],
              [
                106.125986,
                20.829342
              ],
              [
                106.125678,
                20.82909
              ],
              [
                106.125355,
                20.828834
              ],
              [
                106.125308,
                20.828945
              ],
              [
                106.125326,
                20.828953
              ],
              [
                106.125331,
                20.829023
              ],
              [
                106.12526,
                20.829256
              ],
              [
                106.125258,
                20.829259
              ],
              [
                106.125232,
                20.829412
              ],
              [
                106.125111,
                20.829445
              ],
              [
                106.124926,
                20.829809
              ],
              [
                106.125001,
                20.829849
              ],
              [
                106.125041,
                20.829871
              ],
              [
                106.125029,
                20.829885
              ],
              [
                106.124752,
                20.83022
              ],
              [
                106.124724,
                20.830253
              ],
              [
                106.124736,
                20.830264
              ],
              [
                106.1249,
                20.830418
              ],
              [
                106.124866,
                20.830652
              ],
              [
                106.12482,
                20.83092
              ],
              [
                106.124792,
                20.831072
              ],
              [
                106.124769,
                20.831274
              ],
              [
                106.124763,
                20.831444
              ],
              [
                106.124772,
                20.831598
              ],
              [
                106.124792,
                20.831746
              ],
              [
                106.124808,
                20.831854
              ],
              [
                106.124778,
                20.832012
              ],
              [
                106.124751,
                20.832087
              ],
              [
                106.124697,
                20.832157
              ],
              [
                106.124672,
                20.832188
              ],
              [
                106.124556,
                20.832362
              ],
              [
                106.124555,
                20.832364
              ],
              [
                106.124342,
                20.832774
              ],
              [
                106.124313,
                20.832828
              ],
              [
                106.124313,
                20.83283
              ],
              [
                106.124276,
                20.8329
              ],
              [
                106.124585,
                20.833311
              ],
              [
                106.124639,
                20.833383
              ],
              [
                106.125194,
                20.83297
              ],
              [
                106.125436,
                20.833223
              ],
              [
                106.125764,
                20.833565
              ],
              [
                106.126085,
                20.833901
              ],
              [
                106.126873,
                20.834724
              ],
              [
                106.127285,
                20.835159
              ],
              [
                106.127931,
                20.835841
              ],
              [
                106.12836,
                20.836295
              ],
              [
                106.128426,
                20.836362
              ],
              [
                106.128893,
                20.83684
              ],
              [
                106.128897,
                20.836844
              ],
              [
                106.128811,
                20.836884
              ],
              [
                106.128779,
                20.836901
              ],
              [
                106.128769,
                20.837449
              ],
              [
                106.12905,
                20.837472
              ],
              [
                106.12905,
                20.837664
              ],
              [
                106.129114,
                20.837676
              ],
              [
                106.129077,
                20.838202
              ],
              [
                106.129367,
                20.838208
              ],
              [
                106.129265,
                20.842118
              ],
              [
                106.12932,
                20.842149
              ],
              [
                106.129418,
                20.842265
              ],
              [
                106.129492,
                20.842353
              ],
              [
                106.129338,
                20.843797
              ],
              [
                106.129297,
                20.844173
              ],
              [
                106.129289,
                20.844254
              ],
              [
                106.129176,
                20.845354
              ],
              [
                106.129158,
                20.845441
              ],
              [
                106.129136,
                20.845473
              ],
              [
                106.129114,
                20.845507
              ],
              [
                106.128902,
                20.845687
              ],
              [
                106.128458,
                20.846035
              ],
              [
                106.127821,
                20.846532
              ],
              [
                106.126873,
                20.847273
              ],
              [
                106.126093,
                20.847829
              ],
              [
                106.126873,
                20.848142
              ],
              [
                106.127396,
                20.848362
              ],
              [
                106.12748,
                20.848383
              ],
              [
                106.127575,
                20.848386
              ],
              [
                106.127614,
                20.848408
              ],
              [
                106.127683,
                20.84845
              ],
              [
                106.128218,
                20.848944
              ],
              [
                106.128512,
                20.849216
              ],
              [
                106.128708,
                20.849347
              ],
              [
                106.128817,
                20.849381
              ],
              [
                106.12901,
                20.849442
              ],
              [
                106.130083,
                20.849756
              ],
              [
                106.130267,
                20.84981
              ],
              [
                106.130829,
                20.849975
              ],
              [
                106.132519,
                20.850448
              ],
              [
                106.13283,
                20.850528
              ],
              [
                106.132979,
                20.850538
              ],
              [
                106.136504,
                20.850287
              ],
              [
                106.136839,
                20.850263
              ],
              [
                106.137278,
                20.851506
              ],
              [
                106.137478,
                20.851994
              ],
              [
                106.138002,
                20.852071
              ],
              [
                106.154706,
                20.854539
              ],
              [
                106.155999,
                20.854736
              ],
              [
                106.156239,
                20.854772
              ],
              [
                106.157127,
                20.854908
              ],
              [
                106.157426,
                20.854954
              ],
              [
                106.158489,
                20.855097
              ],
              [
                106.1589,
                20.855137
              ],
              [
                106.159695,
                20.855214
              ],
              [
                106.160183,
                20.855255
              ],
              [
                106.160226,
                20.855259
              ],
              [
                106.160754,
                20.855303
              ],
              [
                106.161212,
                20.855328
              ],
              [
                106.161444,
                20.855341
              ],
              [
                106.161578,
                20.855348
              ],
              [
                106.162776,
                20.855391
              ],
              [
                106.163659,
                20.855404
              ],
              [
                106.163659,
                20.855403
              ],
              [
                106.164176,
                20.855409
              ],
              [
                106.16519,
                20.855405
              ],
              [
                106.166203,
                20.855377
              ],
              [
                106.166561,
                20.855367
              ],
              [
                106.168036,
                20.855315
              ],
              [
                106.168353,
                20.855304
              ],
              [
                106.168763,
                20.855293
              ],
              [
                106.170434,
                20.855246
              ],
              [
                106.1706,
                20.855241
              ],
              [
                106.17065,
                20.85524
              ],
              [
                106.172184,
                20.855192
              ],
              [
                106.174368,
                20.855125
              ],
              [
                106.174433,
                20.855123
              ],
              [
                106.174434,
                20.855125
              ],
              [
                106.174434,
                20.855125
              ],
              [
                106.176177,
                20.855134
              ],
              [
                106.176161,
                20.855071
              ],
              [
                106.177946,
                20.855012
              ],
              [
                106.178565,
                20.854995
              ],
              [
                106.180221,
                20.854949
              ],
              [
                106.180428,
                20.854941
              ],
              [
                106.182401,
                20.854871
              ],
              [
                106.183385,
                20.854836
              ],
              [
                106.183895,
                20.854819
              ],
              [
                106.185081,
                20.85479
              ],
              [
                106.197379,
                20.855051
              ],
              [
                106.202675,
                20.855591
              ],
              [
                106.203242,
                20.855649
              ],
              [
                106.203188,
                20.855541
              ],
              [
                106.20294,
                20.855033
              ],
              [
                106.202935,
                20.855021
              ],
              [
                106.202778,
                20.8547
              ],
              [
                106.202641,
                20.854524
              ],
              [
                106.202471,
                20.85428
              ],
              [
                106.202275,
                20.853945
              ],
              [
                106.202107,
                20.853645
              ],
              [
                106.202019,
                20.853522
              ],
              [
                106.201813,
                20.853235
              ],
              [
                106.203222,
                20.852003
              ],
              [
                106.201693,
                20.850384
              ],
              [
                106.202712,
                20.849354
              ],
              [
                106.202666,
                20.849326
              ],
              [
                106.199962,
                20.848107
              ],
              [
                106.200123,
                20.847782
              ],
              [
                106.200528,
                20.84681
              ],
              [
                106.201026,
                20.847054
              ],
              [
                106.201307,
                20.847192
              ],
              [
                106.201394,
                20.846979
              ],
              [
                106.201556,
                20.846528
              ],
              [
                106.201632,
                20.846453
              ],
              [
                106.202166,
                20.846643
              ],
              [
                106.202246,
                20.846482
              ],
              [
                106.202455,
                20.846184
              ],
              [
                106.202796,
                20.846319
              ],
              [
                106.202889,
                20.846191
              ],
              [
                106.20319,
                20.846369
              ],
              [
                106.203434,
                20.846036
              ],
              [
                106.203366,
                20.845987
              ],
              [
                106.203946,
                20.845441
              ],
              [
                106.204154,
                20.845323
              ],
              [
                106.204886,
                20.845065
              ],
              [
                106.205109,
                20.844933
              ],
              [
                106.205116,
                20.844757
              ],
              [
                106.205287,
                20.84468
              ],
              [
                106.205279,
                20.844651
              ],
              [
                106.205219,
                20.844434
              ],
              [
                106.205366,
                20.844229
              ],
              [
                106.205601,
                20.844066
              ],
              [
                106.205701,
                20.844208
              ],
              [
                106.205821,
                20.844371
              ],
              [
                106.205991,
                20.844603
              ],
              [
                106.206286,
                20.844463
              ],
              [
                106.20646,
                20.844578
              ],
              [
                106.206841,
                20.84405
              ],
              [
                106.206653,
                20.843746
              ],
              [
                106.206699,
                20.843593
              ],
              [
                106.206576,
                20.843472
              ],
              [
                106.20673,
                20.843369
              ],
              [
                106.206854,
                20.843426
              ],
              [
                106.207273,
                20.843085
              ],
              [
                106.207427,
                20.842874
              ],
              [
                106.207389,
                20.842815
              ],
              [
                106.207854,
                20.84203
              ],
              [
                106.208457,
                20.841424
              ],
              [
                106.209614,
                20.839884
              ],
              [
                106.209608,
                20.839879
              ],
              [
                106.207992,
                20.838717
              ],
              [
                106.207047,
                20.837561
              ],
              [
                106.205821,
                20.836172
              ],
              [
                106.20543,
                20.835099
              ],
              [
                106.205101,
                20.833391
              ],
              [
                106.203247,
                20.829514
              ],
              [
                106.202108,
                20.828635
              ],
              [
                106.199279,
                20.826795
              ],
              [
                106.20066,
                20.824751
              ],
              [
                106.199788,
                20.824155
              ],
              [
                106.199834,
                20.822098
              ],
              [
                106.199478,
                20.821824
              ],
              [
                106.199478,
                20.821824
              ]
            ]
          ]
        ]
      },
      "properties": {
        "code": "10993",
        "name": "Thượng Hồng",
        "nameEn": "Thuong Hong",
        "fullName": "Xã Thượng Hồng",
        "fullNameEn": "Thuong Hong Commune",
        "codeName": "thuong_hong",
        "postalCode": "03726",
        "postalCodePrefix": "",
        "gisServerId": "diaphanhanhchinhcapxa_2025.883",
        "areaKm2": 24.01
      }
    }
  ]
}