{
  "type": "FeatureCollection",
  "bbox": [
    106.271379,
    20.793822,
    106.350635,
    20.863048
  ],
  "features": [
    {
      "type": "Feature",
      "id": "11050",
      "bbox": [
        106.271379,
        20.793822,
        106.350635,
        20.863048
      ],
      "geometry": {
        "type": "MultiPolygon",
        "coordinates": [
          [
            [
              [
                106.341189,
                20.858313
              ],
              [
                106.341125,
                20.85827
              ],
              [
                106.340921,
                20.85821
              ],
              [
                106.340559,
                20.858103
              ],
              [
                106.340283,
                20.857985
              ],
              [
                106.340085,
                20.857886
              ],
              [
                106.339911,
                20.85772
              ],
              [
                106.339814,
                20.857542
              ],
              [
                106.339818,
                20.857231
              ],
              [
                106.339961,
                20.856877
              ],
              [
                106.340085,
                20.85656
              ],
              [
                106.34017,
                20.856051
              ],
              [
                106.340205,
                20.85571
              ],
              [
                106.340349,
                20.855428
              ],
              [
                106.340613,
                20.855086
              ],
              [
                106.341181,
                20.854621
              ],
              [
                106.3418,
                20.85421
              ],
              [
                106.342534,
                20.853786
              ],
              [
                106.343059,
                20.853507
              ],
              [
                106.343375,
                20.853289
              ],
              [
                106.343842,
                20.852825
              ],
              [
                106.344283,
                20.852451
              ],
              [
                106.344502,
                20.852025
              ],
              [
                106.344778,
                20.851605
              ],
              [
                106.345111,
                20.85116
              ],
              [
                106.345298,
                20.850788
              ],
              [
                106.345355,
                20.850351
              ],
              [
                106.345333,
                20.849534
              ],
              [
                106.34529,
                20.848566
              ],
              [
                106.345138,
                20.848249
              ],
              [
                106.344983,
                20.848024
              ],
              [
                106.344607,
                20.84774
              ],
              [
                106.343878,
                20.847215
              ],
              [
                106.34357,
                20.846945
              ],
              [
                106.343431,
                20.846774
              ],
              [
                106.343218,
                20.846335
              ],
              [
                106.342875,
                20.845516
              ],
              [
                106.342587,
                20.844841
              ],
              [
                106.342457,
                20.844466
              ],
              [
                106.342445,
                20.844304
              ],
              [
                106.342481,
                20.84415
              ],
              [
                106.342575,
                20.843995
              ],
              [
                106.342844,
                20.84376
              ],
              [
                106.343197,
                20.843599
              ],
              [
                106.343593,
                20.843405
              ],
              [
                106.343711,
                20.843338
              ],
              [
                106.343844,
                20.843252
              ],
              [
                106.343982,
                20.843136
              ],
              [
                106.344113,
                20.843009
              ],
              [
                106.344244,
                20.842868
              ],
              [
                106.344426,
                20.842646
              ],
              [
                106.344601,
                20.842454
              ],
              [
                106.344793,
                20.842353
              ],
              [
                106.34496,
                20.842324
              ],
              [
                106.345118,
                20.842328
              ],
              [
                106.345337,
                20.842379
              ],
              [
                106.345615,
                20.842511
              ],
              [
                106.346191,
                20.842902
              ],
              [
                106.346404,
                20.843047
              ],
              [
                106.346661,
                20.843188
              ],
              [
                106.346951,
                20.843306
              ],
              [
                106.347227,
                20.843387
              ],
              [
                106.347497,
                20.843438
              ],
              [
                106.347755,
                20.843483
              ],
              [
                106.348021,
                20.843496
              ],
              [
                106.348224,
                20.843489
              ],
              [
                106.348412,
                20.843466
              ],
              [
                106.348673,
                20.843423
              ],
              [
                106.349495,
                20.843263
              ],
              [
                106.350062,
                20.843165
              ],
              [
                106.350351,
                20.843016
              ],
              [
                106.350529,
                20.842857
              ],
              [
                106.350626,
                20.842648
              ],
              [
                106.350635,
                20.842415
              ],
              [
                106.350573,
                20.841748
              ],
              [
                106.350548,
                20.841549
              ],
              [
                106.350535,
                20.841429
              ],
              [
                106.350482,
                20.84062
              ],
              [
                106.350456,
                20.840272
              ],
              [
                106.350436,
                20.840158
              ],
              [
                106.350312,
                20.839879
              ],
              [
                106.350169,
                20.839712
              ],
              [
                106.349823,
                20.839447
              ],
              [
                106.349411,
                20.839112
              ],
              [
                106.349051,
                20.838776
              ],
              [
                106.348874,
                20.838628
              ],
              [
                106.348575,
                20.838469
              ],
              [
                106.348204,
                20.838375
              ],
              [
                106.347426,
                20.838435
              ],
              [
                106.346759,
                20.838568
              ],
              [
                106.346231,
                20.838584
              ],
              [
                106.345907,
                20.83856
              ],
              [
                106.345652,
                20.838508
              ],
              [
                106.345483,
                20.838408
              ],
              [
                106.345236,
                20.838156
              ],
              [
                106.344763,
                20.837577
              ],
              [
                106.344391,
                20.837105
              ],
              [
                106.343922,
                20.836736
              ],
              [
                106.343615,
                20.836502
              ],
              [
                106.343416,
                20.836428
              ],
              [
                106.343084,
                20.836377
              ],
              [
                106.342282,
                20.836283
              ],
              [
                106.342161,
                20.836501
              ],
              [
                106.342082,
                20.836653
              ],
              [
                106.342083,
                20.836758
              ],
              [
                106.342193,
                20.836923
              ],
              [
                106.34239,
                20.837162
              ],
              [
                106.342469,
                20.837311
              ],
              [
                106.342607,
                20.837233
              ],
              [
                106.343276,
                20.837932
              ],
              [
                106.343052,
                20.837967
              ],
              [
                106.342885,
                20.838041
              ],
              [
                106.342875,
                20.838045
              ],
              [
                106.342777,
                20.838127
              ],
              [
                106.342607,
                20.838364
              ],
              [
                106.342581,
                20.838401
              ],
              [
                106.342522,
                20.838483
              ],
              [
                106.342291,
                20.838807
              ],
              [
                106.342154,
                20.838999
              ],
              [
                106.342045,
                20.839084
              ],
              [
                106.34138,
                20.839491
              ],
              [
                106.3409,
                20.839801
              ],
              [
                106.340303,
                20.840186
              ],
              [
                106.339478,
                20.840738
              ],
              [
                106.339244,
                20.840895
              ],
              [
                106.338349,
                20.841576
              ],
              [
                106.338182,
                20.841388
              ],
              [
                106.337984,
                20.841168
              ],
              [
                106.337725,
                20.841425
              ],
              [
                106.337613,
                20.841448
              ],
              [
                106.337548,
                20.841479
              ],
              [
                106.337261,
                20.841696
              ],
              [
                106.336961,
                20.841818
              ],
              [
                106.336882,
                20.841787
              ],
              [
                106.336067,
                20.841953
              ],
              [
                106.335663,
                20.841246
              ],
              [
                106.334178,
                20.841699
              ],
              [
                106.333913,
                20.840768
              ],
              [
                106.333676,
                20.840831
              ],
              [
                106.333213,
                20.840983
              ],
              [
                106.333248,
                20.841092
              ],
              [
                106.333196,
                20.841111
              ],
              [
                106.332708,
                20.841283
              ],
              [
                106.33237,
                20.840433
              ],
              [
                106.332973,
                20.840214
              ],
              [
                106.332946,
                20.840136
              ],
              [
                106.332589,
                20.839005
              ],
              [
                106.332229,
                20.837884
              ],
              [
                106.332208,
                20.83782
              ],
              [
                106.331861,
                20.836465
              ],
              [
                106.331502,
                20.835015
              ],
              [
                106.331562,
                20.835031
              ],
              [
                106.331613,
                20.835044
              ],
              [
                106.331655,
                20.835038
              ],
              [
                106.331696,
                20.835033
              ],
              [
                106.331768,
                20.834993
              ],
              [
                106.331795,
                20.834965
              ],
              [
                106.331783,
                20.834868
              ],
              [
                106.331726,
                20.834581
              ],
              [
                106.331708,
                20.834473
              ],
              [
                106.331784,
                20.834433
              ],
              [
                106.331725,
                20.834216
              ],
              [
                106.331683,
                20.834051
              ],
              [
                106.330448,
                20.834495
              ],
              [
                106.330012,
                20.834637
              ],
              [
                106.329563,
                20.834689
              ],
              [
                106.328973,
                20.834707
              ],
              [
                106.328774,
                20.834683
              ],
              [
                106.328263,
                20.834722
              ],
              [
                106.327995,
                20.834716
              ],
              [
                106.327885,
                20.834744
              ],
              [
                106.327175,
                20.835105
              ],
              [
                106.325734,
                20.836032
              ],
              [
                106.324744,
                20.836728
              ],
              [
                106.32353,
                20.837488
              ],
              [
                106.3224,
                20.838467
              ],
              [
                106.32201,
                20.838747
              ],
              [
                106.321947,
                20.838639
              ],
              [
                106.321735,
                20.838374
              ],
              [
                106.321702,
                20.838281
              ],
              [
                106.321687,
                20.838223
              ],
              [
                106.321656,
                20.838187
              ],
              [
                106.321597,
                20.838176
              ],
              [
                106.321479,
                20.838183
              ],
              [
                106.321327,
                20.83809
              ],
              [
                106.321223,
                20.838037
              ],
              [
                106.321147,
                20.838035
              ],
              [
                106.321074,
                20.838053
              ],
              [
                106.321005,
                20.838136
              ],
              [
                106.32096,
                20.838203
              ],
              [
                106.320797,
                20.838328
              ],
              [
                106.320677,
                20.838418
              ],
              [
                106.320644,
                20.838435
              ],
              [
                106.32059,
                20.838429
              ],
              [
                106.320515,
                20.83839
              ],
              [
                106.320501,
                20.838376
              ],
              [
                106.32001,
                20.838687
              ],
              [
                106.319758,
                20.83855
              ],
              [
                106.319247,
                20.838332
              ],
              [
                106.318967,
                20.838235
              ],
              [
                106.31779,
                20.837871
              ],
              [
                106.316861,
                20.838617
              ],
              [
                106.317167,
                20.839975
              ],
              [
                106.317313,
                20.840555
              ],
              [
                106.317365,
                20.840772
              ],
              [
                106.317416,
                20.840989
              ],
              [
                106.317523,
                20.841344
              ],
              [
                106.316906,
                20.841641
              ],
              [
                106.316932,
                20.841735
              ],
              [
                106.316859,
                20.841824
              ],
              [
                106.316969,
                20.842061
              ],
              [
                106.31678,
                20.842169
              ],
              [
                106.316545,
                20.841907
              ],
              [
                106.3165,
                20.841892
              ],
              [
                106.316455,
                20.841876
              ],
              [
                106.316293,
                20.841504
              ],
              [
                106.316337,
                20.841425
              ],
              [
                106.316356,
                20.841372
              ],
              [
                106.316334,
                20.84132
              ],
              [
                106.316287,
                20.841287
              ],
              [
                106.316209,
                20.841285
              ],
              [
                106.316091,
                20.841328
              ],
              [
                106.315965,
                20.8414
              ],
              [
                106.315899,
                20.841493
              ],
              [
                106.315876,
                20.841572
              ],
              [
                106.315349,
                20.841821
              ],
              [
                106.314841,
                20.840597
              ],
              [
                106.31471,
                20.840635
              ],
              [
                106.313834,
                20.839418
              ],
              [
                106.313814,
                20.839393
              ],
              [
                106.31387,
                20.839294
              ],
              [
                106.314438,
                20.838291
              ],
              [
                106.314686,
                20.837855
              ],
              [
                106.315132,
                20.837027
              ],
              [
                106.315218,
                20.836935
              ],
              [
                106.3146,
                20.836731
              ],
              [
                106.314013,
                20.836553
              ],
              [
                106.313524,
                20.836405
              ],
              [
                106.313373,
                20.836351
              ],
              [
                106.313317,
                20.836331
              ],
              [
                106.313339,
                20.836255
              ],
              [
                106.313439,
                20.835699
              ],
              [
                106.313572,
                20.835013
              ],
              [
                106.312842,
                20.834768
              ],
              [
                106.312631,
                20.83466
              ],
              [
                106.313104,
                20.833346
              ],
              [
                106.313132,
                20.833268
              ],
              [
                106.313297,
                20.832811
              ],
              [
                106.313605,
                20.831956
              ],
              [
                106.313639,
                20.831861
              ],
              [
                106.313775,
                20.831484
              ],
              [
                106.313775,
                20.831483
              ],
              [
                106.314013,
                20.830824
              ],
              [
                106.314079,
                20.830641
              ],
              [
                106.314168,
                20.830394
              ],
              [
                106.31409,
                20.830345
              ],
              [
                106.31404,
                20.830308
              ],
              [
                106.313857,
                20.830256
              ],
              [
                106.313646,
                20.830251
              ],
              [
                106.313522,
                20.830227
              ],
              [
                106.313539,
                20.83013
              ],
              [
                106.313576,
                20.829972
              ],
              [
                106.313687,
                20.829557
              ],
              [
                106.313738,
                20.829427
              ],
              [
                106.313787,
                20.829254
              ],
              [
                106.313818,
                20.829125
              ],
              [
                106.313838,
                20.828939
              ],
              [
                106.313803,
                20.828846
              ],
              [
                106.313766,
                20.828816
              ],
              [
                106.313684,
                20.828599
              ],
              [
                106.313558,
                20.828437
              ],
              [
                106.313318,
                20.828238
              ],
              [
                106.313247,
                20.828159
              ],
              [
                106.313295,
                20.828092
              ],
              [
                106.313372,
                20.828029
              ],
              [
                106.313548,
                20.827899
              ],
              [
                106.313671,
                20.827802
              ],
              [
                106.313696,
                20.827739
              ],
              [
                106.313692,
                20.827676
              ],
              [
                106.313642,
                20.827597
              ],
              [
                106.313506,
                20.827465
              ],
              [
                106.313327,
                20.827311
              ],
              [
                106.3131,
                20.827159
              ],
              [
                106.313026,
                20.827135
              ],
              [
                106.312958,
                20.827153
              ],
              [
                106.31291,
                20.8272
              ],
              [
                106.312842,
                20.827306
              ],
              [
                106.312747,
                20.827405
              ],
              [
                106.312558,
                20.827589
              ],
              [
                106.312353,
                20.827759
              ],
              [
                106.312237,
                20.827865
              ],
              [
                106.312086,
                20.828083
              ],
              [
                106.311894,
                20.82827
              ],
              [
                106.311761,
                20.82832
              ],
              [
                106.311657,
                20.828329
              ],
              [
                106.311515,
                20.828299
              ],
              [
                106.311409,
                20.82825
              ],
              [
                106.311312,
                20.828179
              ],
              [
                106.311224,
                20.828058
              ],
              [
                106.311155,
                20.827881
              ],
              [
                106.311143,
                20.827645
              ],
              [
                106.311176,
                20.827441
              ],
              [
                106.311235,
                20.827177
              ],
              [
                106.311248,
                20.827041
              ],
              [
                106.31125,
                20.826896
              ],
              [
                106.311244,
                20.826817
              ],
              [
                106.311218,
                20.826722
              ],
              [
                106.311141,
                20.826632
              ],
              [
                106.311026,
                20.826542
              ],
              [
                106.310938,
                20.826471
              ],
              [
                106.310724,
                20.826295
              ],
              [
                106.310658,
                20.82625
              ],
              [
                106.310584,
                20.826215
              ],
              [
                106.310499,
                20.826186
              ],
              [
                106.310423,
                20.826189
              ],
              [
                106.310358,
                20.826198
              ],
              [
                106.310292,
                20.826218
              ],
              [
                106.310095,
                20.826297
              ],
              [
                106.309852,
                20.826444
              ],
              [
                106.309764,
                20.826472
              ],
              [
                106.309732,
                20.826391
              ],
              [
                106.309741,
                20.82622
              ],
              [
                106.30972,
                20.826147
              ],
              [
                106.309699,
                20.826119
              ],
              [
                106.309681,
                20.826104
              ],
              [
                106.309635,
                20.826073
              ],
              [
                106.309471,
                20.826013
              ],
              [
                106.309414,
                20.825981
              ],
              [
                106.309356,
                20.825958
              ],
              [
                106.309307,
                20.825935
              ],
              [
                106.309257,
                20.825928
              ],
              [
                106.309157,
                20.825918
              ],
              [
                106.308913,
                20.825897
              ],
              [
                106.308617,
                20.825879
              ],
              [
                106.308543,
                20.826012
              ],
              [
                106.30847,
                20.826145
              ],
              [
                106.308259,
                20.826492
              ],
              [
                106.308182,
                20.826614
              ],
              [
                106.308119,
                20.826704
              ],
              [
                106.307978,
                20.826917
              ],
              [
                106.307784,
                20.82677
              ],
              [
                106.307804,
                20.826522
              ],
              [
                106.307821,
                20.826209
              ],
              [
                106.30777,
                20.826006
              ],
              [
                106.307707,
                20.825792
              ],
              [
                106.307652,
                20.825691
              ],
              [
                106.307504,
                20.825534
              ],
              [
                106.307515,
                20.825474
              ],
              [
                106.307522,
                20.82544
              ],
              [
                106.307499,
                20.825388
              ],
              [
                106.307413,
                20.825193
              ],
              [
                106.30747,
                20.825138
              ],
              [
                106.307468,
                20.825061
              ],
              [
                106.307541,
                20.824998
              ],
              [
                106.307561,
                20.824931
              ],
              [
                106.307257,
                20.824718
              ],
              [
                106.307051,
                20.82453
              ],
              [
                106.307138,
                20.824448
              ],
              [
                106.307337,
                20.824242
              ],
              [
                106.307374,
                20.824209
              ],
              [
                106.307608,
                20.823961
              ],
              [
                106.307841,
                20.823714
              ],
              [
                106.307978,
                20.82357
              ],
              [
                106.308115,
                20.823426
              ],
              [
                106.308576,
                20.822938
              ],
              [
                106.309036,
                20.822449
              ],
              [
                106.309573,
                20.821887
              ],
              [
                106.309891,
                20.821555
              ],
              [
                106.310209,
                20.821222
              ],
              [
                106.310774,
                20.82063
              ],
              [
                106.310821,
                20.820591
              ],
              [
                106.310616,
                20.820268
              ],
              [
                106.310396,
                20.819936
              ],
              [
                106.310176,
                20.819586
              ],
              [
                106.309956,
                20.819236
              ],
              [
                106.309944,
                20.81921
              ],
              [
                106.309935,
                20.819193
              ],
              [
                106.309919,
                20.819164
              ],
              [
                106.310162,
                20.818964
              ],
              [
                106.310881,
                20.818363
              ],
              [
                106.3114,
                20.817917
              ],
              [
                106.312004,
                20.817395
              ],
              [
                106.312357,
                20.817095
              ],
              [
                106.312842,
                20.816653
              ],
              [
                106.31312,
                20.816412
              ],
              [
                106.313398,
                20.816172
              ],
              [
                106.314308,
                20.815381
              ],
              [
                106.314776,
                20.814983
              ],
              [
                106.315242,
                20.814584
              ],
              [
                106.316167,
                20.813787
              ],
              [
                106.316655,
                20.813374
              ],
              [
                106.317028,
                20.812998
              ],
              [
                106.31732,
                20.813182
              ],
              [
                106.318511,
                20.813999
              ],
              [
                106.319235,
                20.814486
              ],
              [
                106.319423,
                20.814281
              ],
              [
                106.319743,
                20.813932
              ],
              [
                106.319657,
                20.813871
              ],
              [
                106.319679,
                20.81384
              ],
              [
                106.320094,
                20.813252
              ],
              [
                106.319156,
                20.812626
              ],
              [
                106.319356,
                20.812396
              ],
              [
                106.319462,
                20.812274
              ],
              [
                106.31929,
                20.812165
              ],
              [
                106.31892,
                20.811904
              ],
              [
                106.318796,
                20.811815
              ],
              [
                106.319,
                20.81154
              ],
              [
                106.318683,
                20.811308
              ],
              [
                106.318671,
                20.811299
              ],
              [
                106.318823,
                20.811073
              ],
              [
                106.31861,
                20.810923
              ],
              [
                106.318358,
                20.810738
              ],
              [
                106.318334,
                20.81072
              ],
              [
                106.318334,
                20.810719
              ],
              [
                106.318682,
                20.810306
              ],
              [
                106.319043,
                20.809878
              ],
              [
                106.31882,
                20.809662
              ],
              [
                106.318679,
                20.809524
              ],
              [
                106.318814,
                20.809346
              ],
              [
                106.318637,
                20.80913
              ],
              [
                106.319303,
                20.808712
              ],
              [
                106.319091,
                20.808433
              ],
              [
                106.319599,
                20.808104
              ],
              [
                106.319808,
                20.807963
              ],
              [
                106.319797,
                20.807877
              ],
              [
                106.319887,
                20.807818
              ],
              [
                106.319923,
                20.807647
              ],
              [
                106.320082,
                20.807532
              ],
              [
                106.320359,
                20.807333
              ],
              [
                106.320395,
                20.807236
              ],
              [
                106.320429,
                20.807143
              ],
              [
                106.320699,
                20.807106
              ],
              [
                106.320697,
                20.807083
              ],
              [
                106.320673,
                20.806802
              ],
              [
                106.32067,
                20.806766
              ],
              [
                106.320647,
                20.806506
              ],
              [
                106.32062,
                20.806186
              ],
              [
                106.320609,
                20.806057
              ],
              [
                106.320603,
                20.80599
              ],
              [
                106.32057,
                20.805604
              ],
              [
                106.320549,
                20.805369
              ],
              [
                106.320524,
                20.805079
              ],
              [
                106.320524,
                20.805074
              ],
              [
                106.32052,
                20.80502
              ],
              [
                106.320505,
                20.80483
              ],
              [
                106.320502,
                20.804801
              ],
              [
                106.320479,
                20.804544
              ],
              [
                106.320446,
                20.80418
              ],
              [
                106.320435,
                20.804061
              ],
              [
                106.320434,
                20.804006
              ],
              [
                106.320432,
                20.803951
              ],
              [
                106.320444,
                20.803885
              ],
              [
                106.320542,
                20.803684
              ],
              [
                106.320681,
                20.803411
              ],
              [
                106.320751,
                20.803272
              ],
              [
                106.320824,
                20.803129
              ],
              [
                106.32099,
                20.802826
              ],
              [
                106.321052,
                20.802711
              ],
              [
                106.321224,
                20.802397
              ],
              [
                106.321227,
                20.802392
              ],
              [
                106.32133,
                20.802202
              ],
              [
                106.32146,
                20.801962
              ],
              [
                106.321493,
                20.801902
              ],
              [
                106.321507,
                20.801874
              ],
              [
                106.32143,
                20.801843
              ],
              [
                106.321085,
                20.801702
              ],
              [
                106.320753,
                20.801567
              ],
              [
                106.320611,
                20.801508
              ],
              [
                106.319967,
                20.801241
              ],
              [
                106.319735,
                20.801144
              ],
              [
                106.319419,
                20.801013
              ],
              [
                106.318721,
                20.800735
              ],
              [
                106.318368,
                20.800595
              ],
              [
                106.318242,
                20.800544
              ],
              [
                106.318149,
                20.800506
              ],
              [
                106.318145,
                20.800505
              ],
              [
                106.317692,
                20.800326
              ],
              [
                106.317666,
                20.800327
              ],
              [
                106.317646,
                20.800365
              ],
              [
                106.31763,
                20.800396
              ],
              [
                106.317283,
                20.800256
              ],
              [
                106.317251,
                20.800243
              ],
              [
                106.317052,
                20.800163
              ],
              [
                106.316687,
                20.800001
              ],
              [
                106.31665,
                20.800019
              ],
              [
                106.316612,
                20.800012
              ],
              [
                106.316239,
                20.799836
              ],
              [
                106.314883,
                20.79911
              ],
              [
                106.316577,
                20.797183
              ],
              [
                106.316233,
                20.796933
              ],
              [
                106.316061,
                20.796798
              ],
              [
                106.315998,
                20.796745
              ],
              [
                106.315898,
                20.796734
              ],
              [
                106.315815,
                20.796741
              ],
              [
                106.315739,
                20.796763
              ],
              [
                106.315638,
                20.796752
              ],
              [
                106.315459,
                20.796709
              ],
              [
                106.315415,
                20.796638
              ],
              [
                106.315411,
                20.796363
              ],
              [
                106.315404,
                20.796263
              ],
              [
                106.315357,
                20.796148
              ],
              [
                106.315365,
                20.796025
              ],
              [
                106.315299,
                20.795971
              ],
              [
                106.314924,
                20.795667
              ],
              [
                106.314597,
                20.795385
              ],
              [
                106.31445,
                20.795259
              ],
              [
                106.314258,
                20.795111
              ],
              [
                106.31425,
                20.795107
              ],
              [
                106.314186,
                20.795073
              ],
              [
                106.314141,
                20.795049
              ],
              [
                106.31381,
                20.794895
              ],
              [
                106.313752,
                20.794868
              ],
              [
                106.313573,
                20.794778
              ],
              [
                106.313461,
                20.794713
              ],
              [
                106.313415,
                20.794674
              ],
              [
                106.313309,
                20.79458
              ],
              [
                106.313195,
                20.79448
              ],
              [
                106.31276,
                20.794107
              ],
              [
                106.312747,
                20.794096
              ],
              [
                106.312524,
                20.793915
              ],
              [
                106.312438,
                20.793851
              ],
              [
                106.312389,
                20.793822
              ],
              [
                106.312148,
                20.794016
              ],
              [
                106.312082,
                20.79407
              ],
              [
                106.311665,
                20.794406
              ],
              [
                106.311609,
                20.794452
              ],
              [
                106.311019,
                20.794933
              ],
              [
                106.310754,
                20.79515
              ],
              [
                106.310201,
                20.795596
              ],
              [
                106.309621,
                20.796063
              ],
              [
                106.309577,
                20.796098
              ],
              [
                106.308716,
                20.796783
              ],
              [
                106.308335,
                20.797086
              ],
              [
                106.30809,
                20.797281
              ],
              [
                106.307028,
                20.798117
              ],
              [
                106.306902,
                20.798216
              ],
              [
                106.306863,
                20.798246
              ],
              [
                106.305867,
                20.799001
              ],
              [
                106.305876,
                20.799076
              ],
              [
                106.305855,
                20.7992
              ],
              [
                106.305828,
                20.799221
              ],
              [
                106.305533,
                20.79925
              ],
              [
                106.304849,
                20.799302
              ],
              [
                106.304765,
                20.799122
              ],
              [
                106.304668,
                20.798811
              ],
              [
                106.304526,
                20.798435
              ],
              [
                106.30436,
                20.798025
              ],
              [
                106.304155,
                20.797613
              ],
              [
                106.303933,
                20.797202
              ],
              [
                106.30376,
                20.796889
              ],
              [
                106.303571,
                20.796682
              ],
              [
                106.303347,
                20.796468
              ],
              [
                106.302944,
                20.796128
              ],
              [
                106.302592,
                20.795924
              ],
              [
                106.30217,
                20.7957
              ],
              [
                106.301825,
                20.795543
              ],
              [
                106.301466,
                20.795412
              ],
              [
                106.301101,
                20.795321
              ],
              [
                106.300637,
                20.795256
              ],
              [
                106.300232,
                20.795299
              ],
              [
                106.30018,
                20.795301
              ],
              [
                106.299903,
                20.795331
              ],
              [
                106.299645,
                20.795402
              ],
              [
                106.299409,
                20.795523
              ],
              [
                106.299127,
                20.795685
              ],
              [
                106.298935,
                20.795831
              ],
              [
                106.298778,
                20.796042
              ],
              [
                106.29832,
                20.796793
              ],
              [
                106.297901,
                20.797588
              ],
              [
                106.297569,
                20.798349
              ],
              [
                106.297328,
                20.799236
              ],
              [
                106.297153,
                20.799956
              ],
              [
                106.29708,
                20.800311
              ],
              [
                106.296999,
                20.800849
              ],
              [
                106.296953,
                20.801306
              ],
              [
                106.296927,
                20.801702
              ],
              [
                106.296938,
                20.802548
              ],
              [
                106.296924,
                20.803041
              ],
              [
                106.296945,
                20.803401
              ],
              [
                106.296974,
                20.803715
              ],
              [
                106.29707,
                20.804157
              ],
              [
                106.297166,
                20.804612
              ],
              [
                106.297163,
                20.804716
              ],
              [
                106.299069,
                20.808199
              ],
              [
                106.299762,
                20.810775
              ],
              [
                106.300081,
                20.812379
              ],
              [
                106.299905,
                20.813183
              ],
              [
                106.298777,
                20.814155
              ],
              [
                106.298501,
                20.814222
              ],
              [
                106.298068,
                20.814242
              ],
              [
                106.297656,
                20.814178
              ],
              [
                106.297288,
                20.814037
              ],
              [
                106.296383,
                20.813519
              ],
              [
                106.295771,
                20.81311
              ],
              [
                106.295024,
                20.812657
              ],
              [
                106.293926,
                20.811801
              ],
              [
                106.293357,
                20.811276
              ],
              [
                106.293167,
                20.811084
              ],
              [
                106.290365,
                20.807726
              ],
              [
                106.290269,
                20.807442
              ],
              [
                106.290165,
                20.807086
              ],
              [
                106.290043,
                20.806705
              ],
              [
                106.28993,
                20.806318
              ],
              [
                106.289819,
                20.805902
              ],
              [
                106.289708,
                20.805495
              ],
              [
                106.289583,
                20.805084
              ],
              [
                106.289413,
                20.80468
              ],
              [
                106.289268,
                20.804387
              ],
              [
                106.289022,
                20.804024
              ],
              [
                106.288749,
                20.803686
              ],
              [
                106.288159,
                20.803044
              ],
              [
                106.287886,
                20.802765
              ],
              [
                106.287574,
                20.802474
              ],
              [
                106.287248,
                20.802211
              ],
              [
                106.286925,
                20.801979
              ],
              [
                106.286636,
                20.801796
              ],
              [
                106.286204,
                20.80163
              ],
              [
                106.285881,
                20.801536
              ],
              [
                106.28554,
                20.801474
              ],
              [
                106.285321,
                20.80145
              ],
              [
                106.284973,
                20.801467
              ],
              [
                106.28438,
                20.801553
              ],
              [
                106.283858,
                20.801678
              ],
              [
                106.283379,
                20.80186
              ],
              [
                106.28301,
                20.802081
              ],
              [
                106.282793,
                20.802263
              ],
              [
                106.282678,
                20.802377
              ],
              [
                106.282381,
                20.802704
              ],
              [
                106.28199,
                20.803137
              ],
              [
                106.281942,
                20.803229
              ],
              [
                106.280848,
                20.80502
              ],
              [
                106.28053,
                20.805654
              ],
              [
                106.280379,
                20.80605
              ],
              [
                106.280335,
                20.806238
              ],
              [
                106.28031,
                20.806438
              ],
              [
                106.280311,
                20.806693
              ],
              [
                106.28032,
                20.806973
              ],
              [
                106.28039,
                20.807444
              ],
              [
                106.280433,
                20.807708
              ],
              [
                106.280502,
                20.807887
              ],
              [
                106.280614,
                20.808163
              ],
              [
                106.280714,
                20.808346
              ],
              [
                106.280821,
                20.80853
              ],
              [
                106.280966,
                20.808761
              ],
              [
                106.281145,
                20.809024
              ],
              [
                106.281383,
                20.809391
              ],
              [
                106.281596,
                20.809741
              ],
              [
                106.281707,
                20.809957
              ],
              [
                106.281802,
                20.810284
              ],
              [
                106.28188,
                20.81054
              ],
              [
                106.281953,
                20.810886
              ],
              [
                106.281992,
                20.811094
              ],
              [
                106.282014,
                20.811446
              ],
              [
                106.281994,
                20.811869
              ],
              [
                106.281879,
                20.812342
              ],
              [
                106.281804,
                20.812549
              ],
              [
                106.281667,
                20.812807
              ],
              [
                106.281667,
                20.812808
              ],
              [
                106.281409,
                20.813321
              ],
              [
                106.281409,
                20.813321
              ],
              [
                106.281191,
                20.813686
              ],
              [
                106.28119,
                20.813686
              ],
              [
                106.281024,
                20.813919
              ],
              [
                106.280906,
                20.814034
              ],
              [
                106.280905,
                20.814035
              ],
              [
                106.280546,
                20.814308
              ],
              [
                106.280546,
                20.814308
              ],
              [
                106.28032,
                20.814472
              ],
              [
                106.280097,
                20.814634
              ],
              [
                106.280096,
                20.814634
              ],
              [
                106.279968,
                20.814743
              ],
              [
                106.279641,
                20.814954
              ],
              [
                106.27964,
                20.814954
              ],
              [
                106.279274,
                20.815177
              ],
              [
                106.278828,
                20.815444
              ],
              [
                106.27849,
                20.815558
              ],
              [
                106.278489,
                20.815558
              ],
              [
                106.278137,
                20.815658
              ],
              [
                106.277536,
                20.815904
              ],
              [
                106.276954,
                20.816102
              ],
              [
                106.276497,
                20.816306
              ],
              [
                106.275882,
                20.816598
              ],
              [
                106.275674,
                20.816728
              ],
              [
                106.275468,
                20.816861
              ],
              [
                106.275305,
                20.817003
              ],
              [
                106.275099,
                20.817227
              ],
              [
                106.27487,
                20.817511
              ],
              [
                106.27487,
                20.817511
              ],
              [
                106.274677,
                20.817788
              ],
              [
                106.274677,
                20.817789
              ],
              [
                106.274307,
                20.818396
              ],
              [
                106.274098,
                20.818757
              ],
              [
                106.273835,
                20.819204
              ],
              [
                106.273835,
                20.819204
              ],
              [
                106.273718,
                20.819444
              ],
              [
                106.27356,
                20.819772
              ],
              [
                106.273451,
                20.820008
              ],
              [
                106.273451,
                20.820008
              ],
              [
                106.273403,
                20.82014
              ],
              [
                106.273403,
                20.82014
              ],
              [
                106.273316,
                20.820335
              ],
              [
                106.273229,
                20.820649
              ],
              [
                106.273162,
                20.820974
              ],
              [
                106.273145,
                20.821264
              ],
              [
                106.273125,
                20.821658
              ],
              [
                106.273105,
                20.821778
              ],
              [
                106.27312,
                20.822172
              ],
              [
                106.273141,
                20.822728
              ],
              [
                106.273142,
                20.822915
              ],
              [
                106.273169,
                20.823134
              ],
              [
                106.273183,
                20.823353
              ],
              [
                106.273217,
                20.823515
              ],
              [
                106.273209,
                20.823773
              ],
              [
                106.273241,
                20.824062
              ],
              [
                106.273275,
                20.824382
              ],
              [
                106.273307,
                20.824854
              ],
              [
                106.27328,
                20.825257
              ],
              [
                106.273276,
                20.825544
              ],
              [
                106.273234,
                20.825886
              ],
              [
                106.273233,
                20.825887
              ],
              [
                106.273153,
                20.826199
              ],
              [
                106.273153,
                20.826199
              ],
              [
                106.273093,
                20.826459
              ],
              [
                106.27301,
                20.826667
              ],
              [
                106.27301,
                20.826667
              ],
              [
                106.272894,
                20.826922
              ],
              [
                106.272776,
                20.827182
              ],
              [
                106.272776,
                20.827183
              ],
              [
                106.272511,
                20.827662
              ],
              [
                106.272284,
                20.827997
              ],
              [
                106.272284,
                20.827997
              ],
              [
                106.272013,
                20.828345
              ],
              [
                106.272012,
                20.828346
              ],
              [
                106.271826,
                20.828551
              ],
              [
                106.271379,
                20.829027
              ],
              [
                106.272024,
                20.829708
              ],
              [
                106.272615,
                20.830146
              ],
              [
                106.27306,
                20.830534
              ],
              [
                106.273349,
                20.830813
              ],
              [
                106.273573,
                20.83108
              ],
              [
                106.273657,
                20.831249
              ],
              [
                106.2737,
                20.831454
              ],
              [
                106.273695,
                20.831454
              ],
              [
                106.272726,
                20.832228
              ],
              [
                106.272663,
                20.832278
              ],
              [
                106.272443,
                20.83248
              ],
              [
                106.272389,
                20.832541
              ],
              [
                106.272329,
                20.832589
              ],
              [
                106.272246,
                20.832616
              ],
              [
                106.272169,
                20.832616
              ],
              [
                106.272118,
                20.83261
              ],
              [
                106.272067,
                20.832621
              ],
              [
                106.272038,
                20.832667
              ],
              [
                106.27199,
                20.832798
              ],
              [
                106.271954,
                20.832949
              ],
              [
                106.27191,
                20.833159
              ],
              [
                106.272097,
                20.833676
              ],
              [
                106.272362,
                20.834194
              ],
              [
                106.272458,
                20.834377
              ],
              [
                106.272614,
                20.834532
              ],
              [
                106.272722,
                20.834586
              ],
              [
                106.272837,
                20.834593
              ],
              [
                106.273016,
                20.834561
              ],
              [
                106.273262,
                20.83444
              ],
              [
                106.273741,
                20.834171
              ],
              [
                106.273969,
                20.834095
              ],
              [
                106.274305,
                20.834044
              ],
              [
                106.274366,
                20.834048
              ],
              [
                106.274714,
                20.834205
              ],
              [
                106.274893,
                20.834315
              ],
              [
                106.27528,
                20.834646
              ],
              [
                106.275758,
                20.835115
              ],
              [
                106.275858,
                20.835263
              ],
              [
                106.276065,
                20.83574
              ],
              [
                106.276156,
                20.835931
              ],
              [
                106.27631,
                20.836133
              ],
              [
                106.276746,
                20.836631
              ],
              [
                106.276833,
                20.83678
              ],
              [
                106.276847,
                20.836899
              ],
              [
                106.276835,
                20.836992
              ],
              [
                106.276792,
                20.8371
              ],
              [
                106.276636,
                20.837472
              ],
              [
                106.276494,
                20.837993
              ],
              [
                106.276249,
                20.838732
              ],
              [
                106.276054,
                20.839376
              ],
              [
                106.275853,
                20.840011
              ],
              [
                106.275719,
                20.840457
              ],
              [
                106.275764,
                20.840471
              ],
              [
                106.275776,
                20.840473
              ],
              [
                106.276905,
                20.840777
              ],
              [
                106.27726,
                20.840866
              ],
              [
                106.27726,
                20.840867
              ],
              [
                106.277315,
                20.840952
              ],
              [
                106.277509,
                20.841005
              ],
              [
                106.277617,
                20.840998
              ],
              [
                106.277696,
                20.840931
              ],
              [
                106.279375,
                20.842071
              ],
              [
                106.280054,
                20.841258
              ],
              [
                106.280676,
                20.841672
              ],
              [
                106.280974,
                20.841857
              ],
              [
                106.28096,
                20.841881
              ],
              [
                106.281349,
                20.842113
              ],
              [
                106.281566,
                20.842241
              ],
              [
                106.282011,
                20.842498
              ],
              [
                106.282488,
                20.842778
              ],
              [
                106.282972,
                20.843057
              ],
              [
                106.283468,
                20.843348
              ],
              [
                106.283535,
                20.843386
              ],
              [
                106.283619,
                20.84342
              ],
              [
                106.283609,
                20.843533
              ],
              [
                106.283576,
                20.844108
              ],
              [
                106.283557,
                20.844392
              ],
              [
                106.285139,
                20.844456
              ],
              [
                106.284885,
                20.845698
              ],
              [
                106.28476,
                20.846316
              ],
              [
                106.284688,
                20.846297
              ],
              [
                106.284144,
                20.846148
              ],
              [
                106.283457,
                20.845964
              ],
              [
                106.283442,
                20.84596
              ],
              [
                106.28344,
                20.845979
              ],
              [
                106.283437,
                20.846019
              ],
              [
                106.283413,
                20.846328
              ],
              [
                106.283407,
                20.846406
              ],
              [
                106.283393,
                20.846592
              ],
              [
                106.283392,
                20.84662
              ],
              [
                106.283388,
                20.846706
              ],
              [
                106.283378,
                20.846929
              ],
              [
                106.283376,
                20.846977
              ],
              [
                106.283368,
                20.847179
              ],
              [
                106.283358,
                20.847282
              ],
              [
                106.283351,
                20.847371
              ],
              [
                106.283334,
                20.84755
              ],
              [
                106.283332,
                20.847577
              ],
              [
                106.283295,
                20.847555
              ],
              [
                106.282673,
                20.847283
              ],
              [
                106.282431,
                20.847175
              ],
              [
                106.281893,
                20.846926
              ],
              [
                106.281236,
                20.846635
              ],
              [
                106.281228,
                20.846661
              ],
              [
                106.28118,
                20.846833
              ],
              [
                106.280581,
                20.846847
              ],
              [
                106.279885,
                20.846865
              ],
              [
                106.279112,
                20.846892
              ],
              [
                106.279138,
                20.847385
              ],
              [
                106.279145,
                20.847504
              ],
              [
                106.278793,
                20.847474
              ],
              [
                106.278091,
                20.847398
              ],
              [
                106.277678,
                20.847362
              ],
              [
                106.277616,
                20.847487
              ],
              [
                106.277586,
                20.847456
              ],
              [
                106.277431,
                20.84749
              ],
              [
                106.277405,
                20.847452
              ],
              [
                106.277363,
                20.847422
              ],
              [
                106.277319,
                20.847411
              ],
              [
                106.276516,
                20.847207
              ],
              [
                106.275348,
                20.847042
              ],
              [
                106.274898,
                20.846997
              ],
              [
                106.274795,
                20.846976
              ],
              [
                106.274744,
                20.84695
              ],
              [
                106.274701,
                20.846917
              ],
              [
                106.274627,
                20.846884
              ],
              [
                106.27459,
                20.846867
              ],
              [
                106.274539,
                20.846811
              ],
              [
                106.274413,
                20.846615
              ],
              [
                106.274505,
                20.846504
              ],
              [
                106.274549,
                20.846404
              ],
              [
                106.274545,
                20.846358
              ],
              [
                106.274507,
                20.846218
              ],
              [
                106.27445,
                20.846101
              ],
              [
                106.274372,
                20.846009
              ],
              [
                106.274251,
                20.845968
              ],
              [
                106.274136,
                20.845978
              ],
              [
                106.274038,
                20.846229
              ],
              [
                106.27396,
                20.8465
              ],
              [
                106.27403,
                20.846582
              ],
              [
                106.274273,
                20.84694
              ],
              [
                106.27437,
                20.846969
              ],
              [
                106.274444,
                20.847129
              ],
              [
                106.274663,
                20.847147
              ],
              [
                106.274659,
                20.847393
              ],
              [
                106.274827,
                20.847512
              ],
              [
                106.274933,
                20.847491
              ],
              [
                106.275043,
                20.847693
              ],
              [
                106.275279,
                20.848148
              ],
              [
                106.275552,
                20.848607
              ],
              [
                106.275802,
                20.849067
              ],
              [
                106.276042,
                20.849517
              ],
              [
                106.276443,
                20.849462
              ],
              [
                106.27655,
                20.849514
              ],
              [
                106.276524,
                20.849566
              ],
              [
                106.276491,
                20.849654
              ],
              [
                106.276765,
                20.850258
              ],
              [
                106.27688,
                20.850614
              ],
              [
                106.27687,
                20.850643
              ],
              [
                106.276985,
                20.850632
              ],
              [
                106.277349,
                20.850595
              ],
              [
                106.278136,
                20.8505
              ],
              [
                106.27848,
                20.850458
              ],
              [
                106.27848,
                20.85048
              ],
              [
                106.278641,
                20.851386
              ],
              [
                106.278802,
                20.852292
              ],
              [
                106.278974,
                20.853341
              ],
              [
                106.279106,
                20.854004
              ],
              [
                106.279132,
                20.854281
              ],
              [
                106.278682,
                20.854553
              ],
              [
                106.278806,
                20.854764
              ],
              [
                106.278215,
                20.855292
              ],
              [
                106.277786,
                20.855693
              ],
              [
                106.277713,
                20.855837
              ],
              [
                106.277104,
                20.855771
              ],
              [
                106.277012,
                20.855874
              ],
              [
                106.276109,
                20.856054
              ],
              [
                106.276463,
                20.857004
              ],
              [
                106.276463,
                20.857004
              ],
              [
                106.276578,
                20.857018
              ],
              [
                106.276634,
                20.857064
              ],
              [
                106.276715,
                20.857084
              ],
              [
                106.276808,
                20.857097
              ],
              [
                106.276889,
                20.857153
              ],
              [
                106.276939,
                20.85718
              ],
              [
                106.276912,
                20.857469
              ],
              [
                106.277294,
                20.857508
              ],
              [
                106.277291,
                20.857535
              ],
              [
                106.277276,
                20.857573
              ],
              [
                106.277256,
                20.857659
              ],
              [
                106.277298,
                20.85769
              ],
              [
                106.277323,
                20.857736
              ],
              [
                106.27732,
                20.857789
              ],
              [
                106.27726,
                20.85786
              ],
              [
                106.276958,
                20.857772
              ],
              [
                106.276803,
                20.857842
              ],
              [
                106.276907,
                20.858105
              ],
              [
                106.276652,
                20.858163
              ],
              [
                106.276642,
                20.858309
              ],
              [
                106.276872,
                20.858733
              ],
              [
                106.276764,
                20.859096
              ],
              [
                106.276507,
                20.859961
              ],
              [
                106.276507,
                20.859961
              ],
              [
                106.278151,
                20.8607
              ],
              [
                106.278249,
                20.860741
              ],
              [
                106.278617,
                20.860893
              ],
              [
                106.278724,
                20.860937
              ],
              [
                106.278748,
                20.860948
              ],
              [
                106.279003,
                20.861052
              ],
              [
                106.278754,
                20.861462
              ],
              [
                106.278563,
                20.861837
              ],
              [
                106.278375,
                20.862211
              ],
              [
                106.27812,
                20.862716
              ],
              [
                106.278041,
                20.862796
              ],
              [
                106.277946,
                20.86288
              ],
              [
                106.277948,
                20.862889
              ],
              [
                106.277954,
                20.863048
              ],
              [
                106.307121,
                20.857118
              ],
              [
                106.316463,
                20.856211
              ],
              [
                106.325415,
                20.856738
              ],
              [
                106.325674,
                20.856831
              ],
              [
                106.325814,
                20.856908
              ],
              [
                106.325939,
                20.856988
              ],
              [
                106.326094,
                20.8571
              ],
              [
                106.32631,
                20.857303
              ],
              [
                106.326435,
                20.857415
              ],
              [
                106.326547,
                20.857551
              ],
              [
                106.326576,
                20.857614
              ],
              [
                106.32661,
                20.857736
              ],
              [
                106.326678,
                20.857885
              ],
              [
                106.326682,
                20.857894
              ],
              [
                106.326704,
                20.857954
              ],
              [
                106.326712,
                20.857976
              ],
              [
                106.327008,
                20.857798
              ],
              [
                106.327451,
                20.857479
              ],
              [
                106.328074,
                20.857112
              ],
              [
                106.328121,
                20.857179
              ],
              [
                106.328796,
                20.858146
              ],
              [
                106.328788,
                20.858157
              ],
              [
                106.328777,
                20.858173
              ],
              [
                106.328764,
                20.858189
              ],
              [
                106.328764,
                20.85823
              ],
              [
                106.32886,
                20.858342
              ],
              [
                106.328913,
                20.85836
              ],
              [
                106.328947,
                20.85836
              ],
              [
                106.32896,
                20.858341
              ],
              [
                106.328961,
                20.858342
              ],
              [
                106.3293,
                20.858928
              ],
              [
                106.329305,
                20.858982
              ],
              [
                106.329402,
                20.859095
              ],
              [
                106.329469,
                20.859162
              ],
              [
                106.329498,
                20.859194
              ],
              [
                106.329513,
                20.859221
              ],
              [
                106.329513,
                20.859248
              ],
              [
                106.329988,
                20.860389
              ],
              [
                106.33013,
                20.860646
              ],
              [
                106.330502,
                20.861606
              ],
              [
                106.330814,
                20.861601
              ],
              [
                106.330824,
                20.861587
              ],
              [
                106.330848,
                20.861533
              ],
              [
                106.330862,
                20.861501
              ],
              [
                106.33091,
                20.861474
              ],
              [
                106.330968,
                20.861474
              ],
              [
                106.331006,
                20.861478
              ],
              [
                106.331885,
                20.861367
              ],
              [
                106.332353,
                20.862092
              ],
              [
                106.332588,
                20.861965
              ],
              [
                106.333531,
                20.861486
              ],
              [
                106.333567,
                20.861549
              ],
              [
                106.333685,
                20.861731
              ],
              [
                106.333708,
                20.861709
              ],
              [
                106.33495,
                20.860855
              ],
              [
                106.336192,
                20.860001
              ],
              [
                106.336754,
                20.860733
              ],
              [
                106.337965,
                20.859942
              ],
              [
                106.338011,
                20.859905
              ],
              [
                106.338048,
                20.859884
              ],
              [
                106.338076,
                20.859876
              ],
              [
                106.338206,
                20.859998
              ],
              [
                106.338351,
                20.860157
              ],
              [
                106.338439,
                20.860235
              ],
              [
                106.338493,
                20.860276
              ],
              [
                106.338551,
                20.860303
              ],
              [
                106.338603,
                20.860283
              ],
              [
                106.338648,
                20.860253
              ],
              [
                106.338823,
                20.860118
              ],
              [
                106.339035,
                20.859941
              ],
              [
                106.339192,
                20.859818
              ],
              [
                106.339377,
                20.859694
              ],
              [
                106.339949,
                20.859249
              ],
              [
                106.340491,
                20.858825
              ],
              [
                106.340944,
                20.858472
              ],
              [
                106.341097,
                20.858373
              ],
              [
                106.341189,
                20.858313
              ],
              [
                106.341189,
                20.858313
              ]
            ]
          ]
        ]
      },
      "properties": {
        "code": "11050",
        "name": "Gia Phúc",
        "nameEn": "Gia Phuc",
        "fullName": "Xã Gia Phúc",
        "fullNameEn": "Gia Phuc Commune",
        "codeName": "gia_phuc",
        "postalCode": "03657",
        "postalCodePrefix": "",
        "gisServerId": "diaphanhanhchinhcapxa_2025.856",
        "areaKm2": 31.79
      }
    }
  ]
}