{
  "type": "FeatureCollection",
  "bbox": [
    106.23932,
    20.775628,
    106.301731,
    20.844535
  ],
  "features": [
    {
      "type": "Feature",
      "id": "11065",
      "bbox": [
        106.23932,
        20.775628,
        106.301731,
        20.844535
      ],
      "geometry": {
        "type": "MultiPolygon",
        "coordinates": [
          [
            [
              [
                106.259328,
                20.844261
              ],
              [
                106.259332,
                20.844101
              ],
              [
                106.25941,
                20.843612
              ],
              [
                106.25946,
                20.843432
              ],
              [
                106.25957,
                20.84309
              ],
              [
                106.259661,
                20.842848
              ],
              [
                106.259816,
                20.84251
              ],
              [
                106.259894,
                20.842312
              ],
              [
                106.260391,
                20.841359
              ],
              [
                106.260652,
                20.840837
              ],
              [
                106.261078,
                20.840034
              ],
              [
                106.26122,
                20.839808
              ],
              [
                106.26168,
                20.839055
              ],
              [
                106.262015,
                20.838467
              ],
              [
                106.262481,
                20.837584
              ],
              [
                106.263037,
                20.836529
              ],
              [
                106.263547,
                20.835496
              ],
              [
                106.263893,
                20.834781
              ],
              [
                106.264596,
                20.83343
              ],
              [
                106.264769,
                20.833184
              ],
              [
                106.265495,
                20.83249
              ],
              [
                106.265851,
                20.832267
              ],
              [
                106.267153,
                20.831572
              ],
              [
                106.269041,
                20.830835
              ],
              [
                106.269642,
                20.830559
              ],
              [
                106.269946,
                20.830381
              ],
              [
                106.270608,
                20.829834
              ],
              [
                106.271182,
                20.829243
              ],
              [
                106.271379,
                20.829027
              ],
              [
                106.271826,
                20.828551
              ],
              [
                106.272012,
                20.828346
              ],
              [
                106.272013,
                20.828345
              ],
              [
                106.272284,
                20.827997
              ],
              [
                106.272284,
                20.827997
              ],
              [
                106.272511,
                20.827662
              ],
              [
                106.272776,
                20.827183
              ],
              [
                106.272776,
                20.827182
              ],
              [
                106.272894,
                20.826922
              ],
              [
                106.27301,
                20.826667
              ],
              [
                106.27301,
                20.826667
              ],
              [
                106.273093,
                20.826459
              ],
              [
                106.273153,
                20.826199
              ],
              [
                106.273153,
                20.826199
              ],
              [
                106.273233,
                20.825887
              ],
              [
                106.273234,
                20.825886
              ],
              [
                106.273276,
                20.825544
              ],
              [
                106.27328,
                20.825257
              ],
              [
                106.273307,
                20.824854
              ],
              [
                106.273275,
                20.824382
              ],
              [
                106.273241,
                20.824062
              ],
              [
                106.273209,
                20.823773
              ],
              [
                106.273217,
                20.823515
              ],
              [
                106.273183,
                20.823353
              ],
              [
                106.273169,
                20.823134
              ],
              [
                106.273142,
                20.822915
              ],
              [
                106.273141,
                20.822728
              ],
              [
                106.27312,
                20.822172
              ],
              [
                106.273105,
                20.821778
              ],
              [
                106.273125,
                20.821658
              ],
              [
                106.273145,
                20.821264
              ],
              [
                106.273162,
                20.820974
              ],
              [
                106.273229,
                20.820649
              ],
              [
                106.273316,
                20.820335
              ],
              [
                106.273403,
                20.82014
              ],
              [
                106.273403,
                20.82014
              ],
              [
                106.273451,
                20.820008
              ],
              [
                106.273451,
                20.820008
              ],
              [
                106.27356,
                20.819772
              ],
              [
                106.273718,
                20.819444
              ],
              [
                106.273835,
                20.819204
              ],
              [
                106.273835,
                20.819204
              ],
              [
                106.274098,
                20.818757
              ],
              [
                106.274307,
                20.818396
              ],
              [
                106.274677,
                20.817789
              ],
              [
                106.274677,
                20.817788
              ],
              [
                106.27487,
                20.817511
              ],
              [
                106.27487,
                20.817511
              ],
              [
                106.275099,
                20.817227
              ],
              [
                106.275305,
                20.817003
              ],
              [
                106.275468,
                20.816861
              ],
              [
                106.275674,
                20.816728
              ],
              [
                106.275882,
                20.816598
              ],
              [
                106.276497,
                20.816306
              ],
              [
                106.276954,
                20.816102
              ],
              [
                106.277536,
                20.815904
              ],
              [
                106.278137,
                20.815658
              ],
              [
                106.278489,
                20.815558
              ],
              [
                106.27849,
                20.815558
              ],
              [
                106.278828,
                20.815444
              ],
              [
                106.279274,
                20.815177
              ],
              [
                106.27964,
                20.814954
              ],
              [
                106.279641,
                20.814954
              ],
              [
                106.279968,
                20.814743
              ],
              [
                106.280096,
                20.814634
              ],
              [
                106.280097,
                20.814634
              ],
              [
                106.28032,
                20.814472
              ],
              [
                106.280546,
                20.814308
              ],
              [
                106.280546,
                20.814308
              ],
              [
                106.280905,
                20.814035
              ],
              [
                106.280906,
                20.814034
              ],
              [
                106.281024,
                20.813919
              ],
              [
                106.28119,
                20.813686
              ],
              [
                106.281191,
                20.813686
              ],
              [
                106.281409,
                20.813321
              ],
              [
                106.281409,
                20.813321
              ],
              [
                106.281667,
                20.812808
              ],
              [
                106.281667,
                20.812807
              ],
              [
                106.281804,
                20.812549
              ],
              [
                106.281879,
                20.812342
              ],
              [
                106.281994,
                20.811869
              ],
              [
                106.282014,
                20.811446
              ],
              [
                106.281992,
                20.811094
              ],
              [
                106.281953,
                20.810886
              ],
              [
                106.28188,
                20.81054
              ],
              [
                106.281802,
                20.810284
              ],
              [
                106.281707,
                20.809957
              ],
              [
                106.281596,
                20.809741
              ],
              [
                106.281383,
                20.809391
              ],
              [
                106.281145,
                20.809024
              ],
              [
                106.280966,
                20.808761
              ],
              [
                106.280821,
                20.80853
              ],
              [
                106.280714,
                20.808346
              ],
              [
                106.280614,
                20.808163
              ],
              [
                106.280502,
                20.807887
              ],
              [
                106.280433,
                20.807708
              ],
              [
                106.28039,
                20.807444
              ],
              [
                106.28032,
                20.806973
              ],
              [
                106.280311,
                20.806693
              ],
              [
                106.28031,
                20.806438
              ],
              [
                106.280335,
                20.806238
              ],
              [
                106.280379,
                20.80605
              ],
              [
                106.28053,
                20.805654
              ],
              [
                106.280848,
                20.80502
              ],
              [
                106.281942,
                20.803229
              ],
              [
                106.28199,
                20.803137
              ],
              [
                106.282381,
                20.802704
              ],
              [
                106.282678,
                20.802377
              ],
              [
                106.282793,
                20.802263
              ],
              [
                106.28301,
                20.802081
              ],
              [
                106.283379,
                20.80186
              ],
              [
                106.283858,
                20.801678
              ],
              [
                106.28438,
                20.801553
              ],
              [
                106.284973,
                20.801467
              ],
              [
                106.285321,
                20.80145
              ],
              [
                106.28554,
                20.801474
              ],
              [
                106.285881,
                20.801536
              ],
              [
                106.286204,
                20.80163
              ],
              [
                106.286636,
                20.801796
              ],
              [
                106.286925,
                20.801979
              ],
              [
                106.287248,
                20.802211
              ],
              [
                106.287574,
                20.802474
              ],
              [
                106.287886,
                20.802765
              ],
              [
                106.288159,
                20.803044
              ],
              [
                106.288749,
                20.803686
              ],
              [
                106.289022,
                20.804024
              ],
              [
                106.289268,
                20.804387
              ],
              [
                106.289413,
                20.80468
              ],
              [
                106.289583,
                20.805084
              ],
              [
                106.289708,
                20.805495
              ],
              [
                106.289819,
                20.805902
              ],
              [
                106.28993,
                20.806318
              ],
              [
                106.290043,
                20.806705
              ],
              [
                106.290165,
                20.807086
              ],
              [
                106.290269,
                20.807442
              ],
              [
                106.290365,
                20.807726
              ],
              [
                106.293167,
                20.811084
              ],
              [
                106.293357,
                20.811276
              ],
              [
                106.293926,
                20.811801
              ],
              [
                106.295024,
                20.812657
              ],
              [
                106.295771,
                20.81311
              ],
              [
                106.296383,
                20.813519
              ],
              [
                106.297288,
                20.814037
              ],
              [
                106.297656,
                20.814178
              ],
              [
                106.298068,
                20.814242
              ],
              [
                106.298501,
                20.814222
              ],
              [
                106.298777,
                20.814155
              ],
              [
                106.299905,
                20.813183
              ],
              [
                106.300081,
                20.812379
              ],
              [
                106.299762,
                20.810775
              ],
              [
                106.299069,
                20.808199
              ],
              [
                106.297163,
                20.804716
              ],
              [
                106.297166,
                20.804612
              ],
              [
                106.29707,
                20.804157
              ],
              [
                106.296974,
                20.803715
              ],
              [
                106.296945,
                20.803401
              ],
              [
                106.296924,
                20.803041
              ],
              [
                106.296938,
                20.802548
              ],
              [
                106.296927,
                20.801702
              ],
              [
                106.296953,
                20.801306
              ],
              [
                106.296999,
                20.800849
              ],
              [
                106.29708,
                20.800311
              ],
              [
                106.297153,
                20.799956
              ],
              [
                106.297328,
                20.799236
              ],
              [
                106.297569,
                20.798349
              ],
              [
                106.297901,
                20.797588
              ],
              [
                106.29832,
                20.796793
              ],
              [
                106.298778,
                20.796042
              ],
              [
                106.298935,
                20.795831
              ],
              [
                106.298661,
                20.795453
              ],
              [
                106.298609,
                20.795289
              ],
              [
                106.298616,
                20.795032
              ],
              [
                106.298573,
                20.794724
              ],
              [
                106.2984,
                20.794487
              ],
              [
                106.298219,
                20.794364
              ],
              [
                106.297999,
                20.794086
              ],
              [
                106.298177,
                20.794013
              ],
              [
                106.298301,
                20.79416
              ],
              [
                106.298378,
                20.794235
              ],
              [
                106.298575,
                20.794271
              ],
              [
                106.298863,
                20.79427
              ],
              [
                106.299154,
                20.794213
              ],
              [
                106.299373,
                20.794025
              ],
              [
                106.29972,
                20.793674
              ],
              [
                106.299936,
                20.793452
              ],
              [
                106.300069,
                20.79327
              ],
              [
                106.300164,
                20.793134
              ],
              [
                106.300254,
                20.792965
              ],
              [
                106.300352,
                20.792773
              ],
              [
                106.30038,
                20.792658
              ],
              [
                106.300417,
                20.79238
              ],
              [
                106.300475,
                20.791878
              ],
              [
                106.300565,
                20.791504
              ],
              [
                106.300539,
                20.791019
              ],
              [
                106.300503,
                20.790729
              ],
              [
                106.300449,
                20.790421
              ],
              [
                106.300374,
                20.790223
              ],
              [
                106.300277,
                20.790087
              ],
              [
                106.300113,
                20.789935
              ],
              [
                106.299787,
                20.789779
              ],
              [
                106.299621,
                20.789732
              ],
              [
                106.29961,
                20.7897
              ],
              [
                106.299548,
                20.789714
              ],
              [
                106.299015,
                20.789832
              ],
              [
                106.298734,
                20.789576
              ],
              [
                106.298674,
                20.789536
              ],
              [
                106.298634,
                20.789509
              ],
              [
                106.298388,
                20.789393
              ],
              [
                106.298218,
                20.789325
              ],
              [
                106.298015,
                20.789274
              ],
              [
                106.2979,
                20.789245
              ],
              [
                106.297599,
                20.789169
              ],
              [
                106.297439,
                20.789128
              ],
              [
                106.297217,
                20.789051
              ],
              [
                106.297213,
                20.789048
              ],
              [
                106.297115,
                20.78896
              ],
              [
                106.297058,
                20.788865
              ],
              [
                106.297014,
                20.788753
              ],
              [
                106.296973,
                20.788292
              ],
              [
                106.296971,
                20.788266
              ],
              [
                106.296964,
                20.788138
              ],
              [
                106.296957,
                20.788034
              ],
              [
                106.296955,
                20.787991
              ],
              [
                106.296979,
                20.787822
              ],
              [
                106.297009,
                20.787709
              ],
              [
                106.297041,
                20.787658
              ],
              [
                106.297065,
                20.78762
              ],
              [
                106.297147,
                20.787541
              ],
              [
                106.297419,
                20.787393
              ],
              [
                106.297426,
                20.787389
              ],
              [
                106.297684,
                20.787337
              ],
              [
                106.297702,
                20.787333
              ],
              [
                106.297952,
                20.787334
              ],
              [
                106.297997,
                20.787334
              ],
              [
                106.298242,
                20.787306
              ],
              [
                106.298353,
                20.787293
              ],
              [
                106.298673,
                20.787267
              ],
              [
                106.298774,
                20.787227
              ],
              [
                106.298989,
                20.787344
              ],
              [
                106.29923,
                20.787539
              ],
              [
                106.299516,
                20.787803
              ],
              [
                106.299714,
                20.788083
              ],
              [
                106.300065,
                20.787574
              ],
              [
                106.300297,
                20.787248
              ],
              [
                106.300599,
                20.786809
              ],
              [
                106.300929,
                20.786351
              ],
              [
                106.30126,
                20.785883
              ],
              [
                106.301548,
                20.78546
              ],
              [
                106.301731,
                20.785157
              ],
              [
                106.301407,
                20.784713
              ],
              [
                106.301322,
                20.784593
              ],
              [
                106.301253,
                20.784498
              ],
              [
                106.301116,
                20.784377
              ],
              [
                106.300897,
                20.784265
              ],
              [
                106.300646,
                20.784234
              ],
              [
                106.300378,
                20.784267
              ],
              [
                106.299294,
                20.784419
              ],
              [
                106.299039,
                20.784415
              ],
              [
                106.298747,
                20.784324
              ],
              [
                106.298481,
                20.784185
              ],
              [
                106.298363,
                20.784104
              ],
              [
                106.298313,
                20.784008
              ],
              [
                106.298286,
                20.783955
              ],
              [
                106.298251,
                20.783635
              ],
              [
                106.298265,
                20.783397
              ],
              [
                106.298344,
                20.782869
              ],
              [
                106.298392,
                20.782647
              ],
              [
                106.298402,
                20.782489
              ],
              [
                106.298405,
                20.782399
              ],
              [
                106.298409,
                20.782281
              ],
              [
                106.29839,
                20.782083
              ],
              [
                106.298321,
                20.781706
              ],
              [
                106.298209,
                20.781329
              ],
              [
                106.29809,
                20.780952
              ],
              [
                106.29798,
                20.780556
              ],
              [
                106.297943,
                20.780391
              ],
              [
                106.297903,
                20.780023
              ],
              [
                106.297879,
                20.779795
              ],
              [
                106.298065,
                20.779785
              ],
              [
                106.298088,
                20.779784
              ],
              [
                106.298068,
                20.77963
              ],
              [
                106.298037,
                20.779375
              ],
              [
                106.298493,
                20.779298
              ],
              [
                106.298956,
                20.779219
              ],
              [
                106.299409,
                20.779114
              ],
              [
                106.299653,
                20.779016
              ],
              [
                106.299839,
                20.778891
              ],
              [
                106.299921,
                20.778728
              ],
              [
                106.299939,
                20.778551
              ],
              [
                106.299934,
                20.778157
              ],
              [
                106.299893,
                20.777804
              ],
              [
                106.299788,
                20.777636
              ],
              [
                106.299585,
                20.777488
              ],
              [
                106.299112,
                20.7772
              ],
              [
                106.298778,
                20.777064
              ],
              [
                106.298136,
                20.776951
              ],
              [
                106.297648,
                20.776869
              ],
              [
                106.297198,
                20.776762
              ],
              [
                106.296662,
                20.776614
              ],
              [
                106.296307,
                20.776493
              ],
              [
                106.296189,
                20.776496
              ],
              [
                106.295968,
                20.776428
              ],
              [
                106.295912,
                20.776417
              ],
              [
                106.295654,
                20.776368
              ],
              [
                106.295461,
                20.776331
              ],
              [
                106.295209,
                20.776255
              ],
              [
                106.295132,
                20.776226
              ],
              [
                106.295097,
                20.776206
              ],
              [
                106.294988,
                20.776143
              ],
              [
                106.29493,
                20.776096
              ],
              [
                106.294874,
                20.776035
              ],
              [
                106.294667,
                20.775811
              ],
              [
                106.294565,
                20.775734
              ],
              [
                106.294454,
                20.775674
              ],
              [
                106.294215,
                20.775628
              ],
              [
                106.294136,
                20.775628
              ],
              [
                106.293994,
                20.775655
              ],
              [
                106.293824,
                20.775722
              ],
              [
                106.293594,
                20.775842
              ],
              [
                106.293591,
                20.775843
              ],
              [
                106.293575,
                20.775874
              ],
              [
                106.293578,
                20.775955
              ],
              [
                106.293593,
                20.776004
              ],
              [
                106.29386,
                20.776372
              ],
              [
                106.293896,
                20.776444
              ],
              [
                106.29401,
                20.776677
              ],
              [
                106.29401,
                20.776677
              ],
              [
                106.294034,
                20.776757
              ],
              [
                106.294063,
                20.776853
              ],
              [
                106.294084,
                20.776989
              ],
              [
                106.29407,
                20.777106
              ],
              [
                106.294056,
                20.777177
              ],
              [
                106.293991,
                20.777293
              ],
              [
                106.293932,
                20.777379
              ],
              [
                106.293852,
                20.777496
              ],
              [
                106.293825,
                20.777535
              ],
              [
                106.293706,
                20.777684
              ],
              [
                106.293521,
                20.777915
              ],
              [
                106.293495,
                20.777945
              ],
              [
                106.293464,
                20.777981
              ],
              [
                106.293466,
                20.777985
              ],
              [
                106.293249,
                20.778228
              ],
              [
                106.292929,
                20.778594
              ],
              [
                106.292898,
                20.778633
              ],
              [
                106.292889,
                20.778659
              ],
              [
                106.292843,
                20.778693
              ],
              [
                106.292726,
                20.778731
              ],
              [
                106.292514,
                20.778781
              ],
              [
                106.292343,
                20.778772
              ],
              [
                106.292176,
                20.778749
              ],
              [
                106.292008,
                20.77868
              ],
              [
                106.291736,
                20.778616
              ],
              [
                106.291608,
                20.778601
              ],
              [
                106.291606,
                20.778601
              ],
              [
                106.291468,
                20.778628
              ],
              [
                106.291323,
                20.778759
              ],
              [
                106.291256,
                20.778886
              ],
              [
                106.291169,
                20.779025
              ],
              [
                106.291036,
                20.779192
              ],
              [
                106.290869,
                20.779364
              ],
              [
                106.290761,
                20.779412
              ],
              [
                106.290644,
                20.779438
              ],
              [
                106.290438,
                20.779451
              ],
              [
                106.290236,
                20.77949
              ],
              [
                106.290044,
                20.779566
              ],
              [
                106.289925,
                20.779625
              ],
              [
                106.289798,
                20.779727
              ],
              [
                106.289509,
                20.779899
              ],
              [
                106.289319,
                20.780013
              ],
              [
                106.289161,
                20.780062
              ],
              [
                106.289008,
                20.780076
              ],
              [
                106.288837,
                20.780089
              ],
              [
                106.288184,
                20.779999
              ],
              [
                106.288025,
                20.780018
              ],
              [
                106.28762,
                20.780128
              ],
              [
                106.287181,
                20.780269
              ],
              [
                106.287267,
                20.780368
              ],
              [
                106.287286,
                20.780389
              ],
              [
                106.287497,
                20.780631
              ],
              [
                106.287571,
                20.78069
              ],
              [
                106.287596,
                20.780763
              ],
              [
                106.287603,
                20.780824
              ],
              [
                106.287603,
                20.780825
              ],
              [
                106.287594,
                20.780864
              ],
              [
                106.287609,
                20.781375
              ],
              [
                106.287577,
                20.781511
              ],
              [
                106.287498,
                20.781846
              ],
              [
                106.287223,
                20.781803
              ],
              [
                106.286927,
                20.782201
              ],
              [
                106.286753,
                20.782434
              ],
              [
                106.286727,
                20.782469
              ],
              [
                106.286989,
                20.782732
              ],
              [
                106.286996,
                20.782738
              ],
              [
                106.287089,
                20.782832
              ],
              [
                106.28709,
                20.782833
              ],
              [
                106.287172,
                20.782916
              ],
              [
                106.286883,
                20.783107
              ],
              [
                106.286501,
                20.783349
              ],
              [
                106.286597,
                20.783479
              ],
              [
                106.286848,
                20.78353
              ],
              [
                106.286902,
                20.783541
              ],
              [
                106.286903,
                20.783611
              ],
              [
                106.286756,
                20.783634
              ],
              [
                106.286498,
                20.783674
              ],
              [
                106.286011,
                20.783749
              ],
              [
                106.28593,
                20.783761
              ],
              [
                106.286033,
                20.783999
              ],
              [
                106.286055,
                20.78405
              ],
              [
                106.285721,
                20.784187
              ],
              [
                106.285684,
                20.784089
              ],
              [
                106.285396,
                20.784214
              ],
              [
                106.285128,
                20.784576
              ],
              [
                106.285144,
                20.784784
              ],
              [
                106.285148,
                20.784835
              ],
              [
                106.285033,
                20.784943
              ],
              [
                106.284962,
                20.78501
              ],
              [
                106.284691,
                20.784957
              ],
              [
                106.283819,
                20.785373
              ],
              [
                106.283697,
                20.785431
              ],
              [
                106.283414,
                20.785567
              ],
              [
                106.283334,
                20.785486
              ],
              [
                106.283299,
                20.78545
              ],
              [
                106.283234,
                20.785385
              ],
              [
                106.283008,
                20.785535
              ],
              [
                106.283084,
                20.785594
              ],
              [
                106.283088,
                20.785597
              ],
              [
                106.283474,
                20.785896
              ],
              [
                106.283538,
                20.785871
              ],
              [
                106.283901,
                20.785733
              ],
              [
                106.284011,
                20.785927
              ],
              [
                106.283882,
                20.786043
              ],
              [
                106.283207,
                20.786313
              ],
              [
                106.283187,
                20.786321
              ],
              [
                106.282954,
                20.786086
              ],
              [
                106.282704,
                20.786186
              ],
              [
                106.282542,
                20.78625
              ],
              [
                106.282313,
                20.786106
              ],
              [
                106.282312,
                20.786105
              ],
              [
                106.28227,
                20.786133
              ],
              [
                106.282245,
                20.78615
              ],
              [
                106.281806,
                20.786441
              ],
              [
                106.281736,
                20.786383
              ],
              [
                106.281633,
                20.786298
              ],
              [
                106.281581,
                20.786229
              ],
              [
                106.280941,
                20.785252
              ],
              [
                106.280579,
                20.784685
              ],
              [
                106.280439,
                20.784482
              ],
              [
                106.279925,
                20.783666
              ],
              [
                106.279861,
                20.783565
              ],
              [
                106.27952,
                20.783032
              ],
              [
                106.279187,
                20.782533
              ],
              [
                106.278981,
                20.782227
              ],
              [
                106.278852,
                20.782036
              ],
              [
                106.278512,
                20.781512
              ],
              [
                106.278351,
                20.781264
              ],
              [
                106.278308,
                20.781197
              ],
              [
                106.277356,
                20.781696
              ],
              [
                106.276788,
                20.781997
              ],
              [
                106.276212,
                20.782291
              ],
              [
                106.275925,
                20.782437
              ],
              [
                106.275636,
                20.782583
              ],
              [
                106.275488,
                20.782646
              ],
              [
                106.275451,
                20.782638
              ],
              [
                106.275174,
                20.782596
              ],
              [
                106.275134,
                20.782624
              ],
              [
                106.27506,
                20.782675
              ],
              [
                106.274717,
                20.782923
              ],
              [
                106.274578,
                20.783021
              ],
              [
                106.274439,
                20.783118
              ],
              [
                106.274333,
                20.783171
              ],
              [
                106.274288,
                20.783193
              ],
              [
                106.274137,
                20.783269
              ],
              [
                106.273992,
                20.783323
              ],
              [
                106.273847,
                20.783378
              ],
              [
                106.273817,
                20.783379
              ],
              [
                106.273876,
                20.783601
              ],
              [
                106.273624,
                20.783687
              ],
              [
                106.27352,
                20.783815
              ],
              [
                106.273471,
                20.783877
              ],
              [
                106.273556,
                20.783998
              ],
              [
                106.273581,
                20.784208
              ],
              [
                106.273589,
                20.78422
              ],
              [
                106.273611,
                20.784212
              ],
              [
                106.273633,
                20.784203
              ],
              [
                106.273661,
                20.784203
              ],
              [
                106.273689,
                20.784218
              ],
              [
                106.273713,
                20.784241
              ],
              [
                106.27375,
                20.784316
              ],
              [
                106.273768,
                20.784385
              ],
              [
                106.273789,
                20.784558
              ],
              [
                106.27379,
                20.784656
              ],
              [
                106.273793,
                20.784773
              ],
              [
                106.273731,
                20.784981
              ],
              [
                106.273569,
                20.785078
              ],
              [
                106.273347,
                20.785758
              ],
              [
                106.272777,
                20.785747
              ],
              [
                106.272693,
                20.786233
              ],
              [
                106.272825,
                20.786293
              ],
              [
                106.272835,
                20.78637
              ],
              [
                106.272847,
                20.786455
              ],
              [
                106.272881,
                20.78662
              ],
              [
                106.272905,
                20.786711
              ],
              [
                106.272956,
                20.786891
              ],
              [
                106.27301,
                20.787034
              ],
              [
                106.273089,
                20.78723
              ],
              [
                106.273183,
                20.787403
              ],
              [
                106.27324,
                20.787523
              ],
              [
                106.273338,
                20.787736
              ],
              [
                106.273416,
                20.7879
              ],
              [
                106.273222,
                20.787993
              ],
              [
                106.272995,
                20.788103
              ],
              [
                106.272438,
                20.788395
              ],
              [
                106.272372,
                20.788136
              ],
              [
                106.272057,
                20.788175
              ],
              [
                106.271878,
                20.787896
              ],
              [
                106.271766,
                20.787949
              ],
              [
                106.271573,
                20.788044
              ],
              [
                106.271527,
                20.787962
              ],
              [
                106.27132,
                20.787596
              ],
              [
                106.271175,
                20.78733
              ],
              [
                106.270948,
                20.786915
              ],
              [
                106.270817,
                20.7867
              ],
              [
                106.270506,
                20.78616
              ],
              [
                106.270339,
                20.78585
              ],
              [
                106.270094,
                20.785431
              ],
              [
                106.269778,
                20.784921
              ],
              [
                106.269674,
                20.784703
              ],
              [
                106.269657,
                20.784667
              ],
              [
                106.26972,
                20.784516
              ],
              [
                106.269871,
                20.78411
              ],
              [
                106.270012,
                20.783755
              ],
              [
                106.270103,
                20.783478
              ],
              [
                106.270103,
                20.783444
              ],
              [
                106.270242,
                20.783178
              ],
              [
                106.270338,
                20.783078
              ],
              [
                106.270367,
                20.783024
              ],
              [
                106.270438,
                20.783026
              ],
              [
                106.270491,
                20.783039
              ],
              [
                106.270564,
                20.782989
              ],
              [
                106.270606,
                20.782926
              ],
              [
                106.27062,
                20.782848
              ],
              [
                106.27064,
                20.782755
              ],
              [
                106.270891,
                20.782483
              ],
              [
                106.270855,
                20.782423
              ],
              [
                106.270842,
                20.782363
              ],
              [
                106.270841,
                20.782359
              ],
              [
                106.270726,
                20.781851
              ],
              [
                106.270686,
                20.781674
              ],
              [
                106.270529,
                20.781063
              ],
              [
                106.26966,
                20.780965
              ],
              [
                106.268921,
                20.780892
              ],
              [
                106.268209,
                20.780823
              ],
              [
                106.267098,
                20.780716
              ],
              [
                106.265945,
                20.780596
              ],
              [
                106.2659,
                20.780591
              ],
              [
                106.264854,
                20.780484
              ],
              [
                106.264608,
                20.78046
              ],
              [
                106.26456,
                20.780455
              ],
              [
                106.263301,
                20.780331
              ],
              [
                106.262803,
                20.780284
              ],
              [
                106.261992,
                20.780209
              ],
              [
                106.260558,
                20.780061
              ],
              [
                106.260429,
                20.780039
              ],
              [
                106.260348,
                20.780757
              ],
              [
                106.260341,
                20.780925
              ],
              [
                106.260331,
                20.781422
              ],
              [
                106.260285,
                20.782072
              ],
              [
                106.260274,
                20.782452
              ],
              [
                106.26027,
                20.782645
              ],
              [
                106.259828,
                20.782698
              ],
              [
                106.259299,
                20.782763
              ],
              [
                106.258858,
                20.782813
              ],
              [
                106.258214,
                20.7829
              ],
              [
                106.258236,
                20.782984
              ],
              [
                106.258756,
                20.785063
              ],
              [
                106.258702,
                20.78512
              ],
              [
                106.258381,
                20.785458
              ],
              [
                106.258262,
                20.785583
              ],
              [
                106.258237,
                20.78561
              ],
              [
                106.257562,
                20.786333
              ],
              [
                106.257557,
                20.786339
              ],
              [
                106.257511,
                20.786386
              ],
              [
                106.256837,
                20.787088
              ],
              [
                106.256721,
                20.787209
              ],
              [
                106.25669,
                20.787241
              ],
              [
                106.256278,
                20.787672
              ],
              [
                106.256162,
                20.78777
              ],
              [
                106.256134,
                20.787793
              ],
              [
                106.256134,
                20.787793
              ],
              [
                106.256134,
                20.787794
              ],
              [
                106.256084,
                20.787846
              ],
              [
                106.255951,
                20.788065
              ],
              [
                106.255836,
                20.788254
              ],
              [
                106.255775,
                20.788356
              ],
              [
                106.255455,
                20.788907
              ],
              [
                106.255357,
                20.789077
              ],
              [
                106.255163,
                20.789412
              ],
              [
                106.254998,
                20.789696
              ],
              [
                106.254846,
                20.789958
              ],
              [
                106.25472,
                20.790176
              ],
              [
                106.254612,
                20.790362
              ],
              [
                106.254472,
                20.79061
              ],
              [
                106.254148,
                20.791187
              ],
              [
                106.254032,
                20.791375
              ],
              [
                106.254018,
                20.791502
              ],
              [
                106.254154,
                20.791747
              ],
              [
                106.254417,
                20.792071
              ],
              [
                106.254704,
                20.792382
              ],
              [
                106.254912,
                20.792698
              ],
              [
                106.255137,
                20.793033
              ],
              [
                106.255308,
                20.793274
              ],
              [
                106.25525,
                20.793301
              ],
              [
                106.253895,
                20.79393
              ],
              [
                106.253473,
                20.79351
              ],
              [
                106.252477,
                20.794135
              ],
              [
                106.251872,
                20.792942
              ],
              [
                106.251871,
                20.792943
              ],
              [
                106.251626,
                20.793173
              ],
              [
                106.250756,
                20.793934
              ],
              [
                106.250538,
                20.794124
              ],
              [
                106.250398,
                20.794317
              ],
              [
                106.250238,
                20.794633
              ],
              [
                106.250138,
                20.794873
              ],
              [
                106.249421,
                20.795462
              ],
              [
                106.249096,
                20.795579
              ],
              [
                106.248649,
                20.795534
              ],
              [
                106.248068,
                20.795357
              ],
              [
                106.244304,
                20.793078
              ],
              [
                106.244114,
                20.793234
              ],
              [
                106.243894,
                20.793508
              ],
              [
                106.243623,
                20.793821
              ],
              [
                106.243375,
                20.794115
              ],
              [
                106.243211,
                20.794314
              ],
              [
                106.243125,
                20.794397
              ],
              [
                106.242972,
                20.794545
              ],
              [
                106.242723,
                20.794825
              ],
              [
                106.242423,
                20.795251
              ],
              [
                106.242274,
                20.795157
              ],
              [
                106.241703,
                20.794826
              ],
              [
                106.241354,
                20.794618
              ],
              [
                106.241008,
                20.794412
              ],
              [
                106.240886,
                20.794339
              ],
              [
                106.240734,
                20.794255
              ],
              [
                106.240672,
                20.794348
              ],
              [
                106.240627,
                20.794415
              ],
              [
                106.240339,
                20.794844
              ],
              [
                106.240264,
                20.794979
              ],
              [
                106.240199,
                20.795168
              ],
              [
                106.240096,
                20.795444
              ],
              [
                106.240074,
                20.795504
              ],
              [
                106.239869,
                20.79607
              ],
              [
                106.239722,
                20.796322
              ],
              [
                106.239637,
                20.796436
              ],
              [
                106.239517,
                20.796479
              ],
              [
                106.239382,
                20.7965
              ],
              [
                106.23932,
                20.79651
              ],
              [
                106.239331,
                20.796633
              ],
              [
                106.239349,
                20.796707
              ],
              [
                106.239436,
                20.797054
              ],
              [
                106.239467,
                20.79731
              ],
              [
                106.239468,
                20.797511
              ],
              [
                106.239457,
                20.797663
              ],
              [
                106.239477,
                20.797764
              ],
              [
                106.239535,
                20.797863
              ],
              [
                106.23958,
                20.797967
              ],
              [
                106.239686,
                20.79845
              ],
              [
                106.239862,
                20.799226
              ],
              [
                106.239933,
                20.799536
              ],
              [
                106.239949,
                20.79956
              ],
              [
                106.24,
                20.799571
              ],
              [
                106.24013,
                20.799567
              ],
              [
                106.240238,
                20.799564
              ],
              [
                106.240302,
                20.799569
              ],
              [
                106.240322,
                20.799575
              ],
              [
                106.240362,
                20.799587
              ],
              [
                106.240381,
                20.799616
              ],
              [
                106.240385,
                20.799691
              ],
              [
                106.240406,
                20.800277
              ],
              [
                106.240441,
                20.800473
              ],
              [
                106.240469,
                20.800635
              ],
              [
                106.240514,
                20.800694
              ],
              [
                106.240574,
                20.800739
              ],
              [
                106.240601,
                20.800759
              ],
              [
                106.240668,
                20.800827
              ],
              [
                106.240745,
                20.800949
              ],
              [
                106.241007,
                20.801525
              ],
              [
                106.241033,
                20.801584
              ],
              [
                106.241152,
                20.801732
              ],
              [
                106.241286,
                20.801803
              ],
              [
                106.241413,
                20.801866
              ],
              [
                106.241528,
                20.801924
              ],
              [
                106.241739,
                20.802099
              ],
              [
                106.241781,
                20.802134
              ],
              [
                106.241932,
                20.802297
              ],
              [
                106.242044,
                20.802404
              ],
              [
                106.242194,
                20.802493
              ],
              [
                106.242446,
                20.802652
              ],
              [
                106.242524,
                20.802712
              ],
              [
                106.241973,
                20.803007
              ],
              [
                106.241983,
                20.80307
              ],
              [
                106.242306,
                20.803316
              ],
              [
                106.242463,
                20.803436
              ],
              [
                106.243084,
                20.803909
              ],
              [
                106.244128,
                20.804697
              ],
              [
                106.24421,
                20.80476
              ],
              [
                106.244427,
                20.804924
              ],
              [
                106.244758,
                20.805241
              ],
              [
                106.245373,
                20.805904
              ],
              [
                106.245458,
                20.805996
              ],
              [
                106.245497,
                20.806078
              ],
              [
                106.245471,
                20.806179
              ],
              [
                106.244696,
                20.807931
              ],
              [
                106.24434,
                20.808754
              ],
              [
                106.24433,
                20.808779
              ],
              [
                106.243097,
                20.811064
              ],
              [
                106.242667,
                20.811855
              ],
              [
                106.242546,
                20.812043
              ],
              [
                106.242138,
                20.812472
              ],
              [
                106.242047,
                20.812568
              ],
              [
                106.241632,
                20.812833
              ],
              [
                106.241571,
                20.812844
              ],
              [
                106.241531,
                20.812849
              ],
              [
                106.241503,
                20.812848
              ],
              [
                106.241399,
                20.812773
              ],
              [
                106.241376,
                20.812756
              ],
              [
                106.241036,
                20.812541
              ],
              [
                106.240956,
                20.812656
              ],
              [
                106.240881,
                20.812764
              ],
              [
                106.240737,
                20.813052
              ],
              [
                106.240577,
                20.813328
              ],
              [
                106.240565,
                20.813349
              ],
              [
                106.24052,
                20.813349
              ],
              [
                106.240445,
                20.813463
              ],
              [
                106.240369,
                20.813533
              ],
              [
                106.240259,
                20.813602
              ],
              [
                106.240167,
                20.81366
              ],
              [
                106.24011,
                20.81375
              ],
              [
                106.240108,
                20.813824
              ],
              [
                106.240124,
                20.813908
              ],
              [
                106.2402,
                20.814085
              ],
              [
                106.24025,
                20.814068
              ],
              [
                106.240342,
                20.814058
              ],
              [
                106.24053,
                20.814128
              ],
              [
                106.240617,
                20.81418
              ],
              [
                106.240654,
                20.814261
              ],
              [
                106.24074,
                20.814354
              ],
              [
                106.240781,
                20.814281
              ],
              [
                106.24095,
                20.813977
              ],
              [
                106.241042,
                20.813754
              ],
              [
                106.241105,
                20.813658
              ],
              [
                106.241117,
                20.813651
              ],
              [
                106.241155,
                20.813627
              ],
              [
                106.24129,
                20.813597
              ],
              [
                106.241419,
                20.813556
              ],
              [
                106.2415,
                20.813505
              ],
              [
                106.242033,
                20.813633
              ],
              [
                106.24224,
                20.813689
              ],
              [
                106.242522,
                20.813741
              ],
              [
                106.242819,
                20.813818
              ],
              [
                106.243218,
                20.813904
              ],
              [
                106.243282,
                20.813904
              ],
              [
                106.243336,
                20.813889
              ],
              [
                106.24337,
                20.813831
              ],
              [
                106.243379,
                20.813751
              ],
              [
                106.243397,
                20.813603
              ],
              [
                106.24368,
                20.813677
              ],
              [
                106.243687,
                20.81383
              ],
              [
                106.243694,
                20.813833
              ],
              [
                106.243709,
                20.813865
              ],
              [
                106.243701,
                20.813961
              ],
              [
                106.243695,
                20.814027
              ],
              [
                106.243747,
                20.814017
              ],
              [
                106.243769,
                20.814018
              ],
              [
                106.2439,
                20.814027
              ],
              [
                106.244221,
                20.814145
              ],
              [
                106.244375,
                20.814224
              ],
              [
                106.244484,
                20.814325
              ],
              [
                106.24457,
                20.814435
              ],
              [
                106.244651,
                20.814575
              ],
              [
                106.244699,
                20.814664
              ],
              [
                106.24476,
                20.814711
              ],
              [
                106.24484,
                20.814726
              ],
              [
                106.24504,
                20.814721
              ],
              [
                106.245167,
                20.814707
              ],
              [
                106.245334,
                20.814652
              ],
              [
                106.245375,
                20.814638
              ],
              [
                106.245492,
                20.814623
              ],
              [
                106.24563,
                20.814675
              ],
              [
                106.245737,
                20.814746
              ],
              [
                106.245799,
                20.814857
              ],
              [
                106.245861,
                20.814969
              ],
              [
                106.24587,
                20.815024
              ],
              [
                106.245882,
                20.815098
              ],
              [
                106.245883,
                20.815203
              ],
              [
                106.245808,
                20.815381
              ],
              [
                106.245605,
                20.815686
              ],
              [
                106.245261,
                20.816202
              ],
              [
                106.245231,
                20.816291
              ],
              [
                106.24511,
                20.816656
              ],
              [
                106.245087,
                20.816725
              ],
              [
                106.245078,
                20.816825
              ],
              [
                106.245094,
                20.816887
              ],
              [
                106.245175,
                20.816911
              ],
              [
                106.245968,
                20.81689
              ],
              [
                106.246069,
                20.816842
              ],
              [
                106.246196,
                20.816717
              ],
              [
                106.246335,
                20.816414
              ],
              [
                106.246576,
                20.816045
              ],
              [
                106.246802,
                20.815854
              ],
              [
                106.246839,
                20.815823
              ],
              [
                106.247148,
                20.815687
              ],
              [
                106.247184,
                20.815675
              ],
              [
                106.247407,
                20.815604
              ],
              [
                106.247665,
                20.81552
              ],
              [
                106.247853,
                20.815505
              ],
              [
                106.24793,
                20.815528
              ],
              [
                106.247956,
                20.81559
              ],
              [
                106.248005,
                20.815977
              ],
              [
                106.248106,
                20.816306
              ],
              [
                106.248224,
                20.816688
              ],
              [
                106.248393,
                20.817148
              ],
              [
                106.248427,
                20.817241
              ],
              [
                106.248428,
                20.817379
              ],
              [
                106.248413,
                20.817432
              ],
              [
                106.248363,
                20.817466
              ],
              [
                106.248144,
                20.817477
              ],
              [
                106.248002,
                20.817478
              ],
              [
                106.247895,
                20.817493
              ],
              [
                106.247834,
                20.817532
              ],
              [
                106.247833,
                20.817534
              ],
              [
                106.247784,
                20.817618
              ],
              [
                106.247785,
                20.817709
              ],
              [
                106.247806,
                20.817833
              ],
              [
                106.247982,
                20.818162
              ],
              [
                106.24806,
                20.818386
              ],
              [
                106.248081,
                20.818437
              ],
              [
                106.248091,
                20.818462
              ],
              [
                106.248219,
                20.818528
              ],
              [
                106.248468,
                20.818517
              ],
              [
                106.248544,
                20.818542
              ],
              [
                106.248614,
                20.818535
              ],
              [
                106.248566,
                20.818764
              ],
              [
                106.248519,
                20.818993
              ],
              [
                106.248363,
                20.81952
              ],
              [
                106.248331,
                20.81965
              ],
              [
                106.24835,
                20.819914
              ],
              [
                106.248344,
                20.819937
              ],
              [
                106.248332,
                20.81996
              ],
              [
                106.248263,
                20.819964
              ],
              [
                106.247974,
                20.819924
              ],
              [
                106.247833,
                20.819946
              ],
              [
                106.247674,
                20.819966
              ],
              [
                106.24736,
                20.820005
              ],
              [
                106.247287,
                20.819994
              ],
              [
                106.247152,
                20.819934
              ],
              [
                106.247053,
                20.819894
              ],
              [
                106.246682,
                20.819742
              ],
              [
                106.246605,
                20.81971
              ],
              [
                106.246403,
                20.819647
              ],
              [
                106.24518,
                20.819264
              ],
              [
                106.244811,
                20.819081
              ],
              [
                106.244597,
                20.818987
              ],
              [
                106.244474,
                20.818908
              ],
              [
                106.244318,
                20.819458
              ],
              [
                106.244265,
                20.819524
              ],
              [
                106.244198,
                20.819551
              ],
              [
                106.24402,
                20.819571
              ],
              [
                106.244004,
                20.819523
              ],
              [
                106.243953,
                20.819458
              ],
              [
                106.243805,
                20.819297
              ],
              [
                106.243661,
                20.819104
              ],
              [
                106.243513,
                20.818992
              ],
              [
                106.243373,
                20.818933
              ],
              [
                106.243201,
                20.818904
              ],
              [
                106.242976,
                20.818894
              ],
              [
                106.242933,
                20.819014
              ],
              [
                106.242881,
                20.819086
              ],
              [
                106.242231,
                20.819696
              ],
              [
                106.242146,
                20.819744
              ],
              [
                106.242081,
                20.819815
              ],
              [
                106.242452,
                20.819901
              ],
              [
                106.24252,
                20.81996
              ],
              [
                106.242521,
                20.819982
              ],
              [
                106.242468,
                20.820166
              ],
              [
                106.242512,
                20.820196
              ],
              [
                106.242756,
                20.820361
              ],
              [
                106.242748,
                20.820377
              ],
              [
                106.242714,
                20.820443
              ],
              [
                106.242983,
                20.820685
              ],
              [
                106.242965,
                20.820714
              ],
              [
                106.242963,
                20.820719
              ],
              [
                106.242938,
                20.820785
              ],
              [
                106.242935,
                20.820791
              ],
              [
                106.242936,
                20.820799
              ],
              [
                106.242946,
                20.820877
              ],
              [
                106.243021,
                20.820981
              ],
              [
                106.243117,
                20.82107
              ],
              [
                106.243084,
                20.821178
              ],
              [
                106.24299,
                20.821501
              ],
              [
                106.243007,
                20.821595
              ],
              [
                106.242902,
                20.821706
              ],
              [
                106.243359,
                20.822176
              ],
              [
                106.243391,
                20.822191
              ],
              [
                106.244177,
                20.822965
              ],
              [
                106.244287,
                20.823073
              ],
              [
                106.244503,
                20.823269
              ],
              [
                106.244727,
                20.823471
              ],
              [
                106.245074,
                20.823785
              ],
              [
                106.245435,
                20.824103
              ],
              [
                106.246,
                20.824603
              ],
              [
                106.246917,
                20.825435
              ],
              [
                106.247157,
                20.825652
              ],
              [
                106.24882,
                20.827096
              ],
              [
                106.249195,
                20.82742
              ],
              [
                106.250466,
                20.828519
              ],
              [
                106.250983,
                20.828967
              ],
              [
                106.251246,
                20.829198
              ],
              [
                106.251757,
                20.829647
              ],
              [
                106.251771,
                20.829659
              ],
              [
                106.251776,
                20.829664
              ],
              [
                106.251872,
                20.829748
              ],
              [
                106.251872,
                20.829748
              ],
              [
                106.251881,
                20.829754
              ],
              [
                106.252445,
                20.830241
              ],
              [
                106.252836,
                20.830587
              ],
              [
                106.253334,
                20.831032
              ],
              [
                106.253958,
                20.831592
              ],
              [
                106.254456,
                20.832046
              ],
              [
                106.25488,
                20.832408
              ],
              [
                106.254938,
                20.83246
              ],
              [
                106.255521,
                20.832982
              ],
              [
                106.255573,
                20.833029
              ],
              [
                106.255478,
                20.833119
              ],
              [
                106.255244,
                20.833402
              ],
              [
                106.255159,
                20.833505
              ],
              [
                106.254874,
                20.833847
              ],
              [
                106.254744,
                20.834004
              ],
              [
                106.254584,
                20.834204
              ],
              [
                106.254182,
                20.834708
              ],
              [
                106.253955,
                20.834932
              ],
              [
                106.253886,
                20.834903
              ],
              [
                106.252355,
                20.83423
              ],
              [
                106.252346,
                20.834242
              ],
              [
                106.251872,
                20.834946
              ],
              [
                106.251872,
                20.834946
              ],
              [
                106.2511,
                20.836132
              ],
              [
                106.251077,
                20.836167
              ],
              [
                106.2509,
                20.836439
              ],
              [
                106.25036,
                20.837269
              ],
              [
                106.249922,
                20.837942
              ],
              [
                106.249793,
                20.83814
              ],
              [
                106.24972,
                20.838252
              ],
              [
                106.24964,
                20.838376
              ],
              [
                106.249367,
                20.838788
              ],
              [
                106.249364,
                20.838793
              ],
              [
                106.249041,
                20.839282
              ],
              [
                106.248327,
                20.840362
              ],
              [
                106.248108,
                20.840694
              ],
              [
                106.248081,
                20.840756
              ],
              [
                106.249404,
                20.840762
              ],
              [
                106.249656,
                20.840763
              ],
              [
                106.250315,
                20.840805
              ],
              [
                106.250842,
                20.840858
              ],
              [
                106.251133,
                20.840908
              ],
              [
                106.251366,
                20.840969
              ],
              [
                106.251695,
                20.841102
              ],
              [
                106.251872,
                20.841183
              ],
              [
                106.251872,
                20.841183
              ],
              [
                106.253227,
                20.841873
              ],
              [
                106.25468,
                20.842584
              ],
              [
                106.255168,
                20.842815
              ],
              [
                106.25541,
                20.842927
              ],
              [
                106.25583,
                20.843132
              ],
              [
                106.256153,
                20.843291
              ],
              [
                106.256229,
                20.84333
              ],
              [
                106.256188,
                20.843473
              ],
              [
                106.256168,
                20.843569
              ],
              [
                106.25619,
                20.843645
              ],
              [
                106.256232,
                20.843705
              ],
              [
                106.256285,
                20.843759
              ],
              [
                106.256385,
                20.843804
              ],
              [
                106.256538,
                20.843823
              ],
              [
                106.256915,
                20.843831
              ],
              [
                106.256966,
                20.843839
              ],
              [
                106.2571,
                20.84386
              ],
              [
                106.257361,
                20.843909
              ],
              [
                106.257462,
                20.843917
              ],
              [
                106.257529,
                20.843908
              ],
              [
                106.257586,
                20.843883
              ],
              [
                106.257649,
                20.84382
              ],
              [
                106.257726,
                20.843734
              ],
              [
                106.257744,
                20.843715
              ],
              [
                106.257788,
                20.843682
              ],
              [
                106.257826,
                20.843669
              ],
              [
                106.257867,
                20.843675
              ],
              [
                106.257925,
                20.843698
              ],
              [
                106.257992,
                20.843764
              ],
              [
                106.258056,
                20.843847
              ],
              [
                106.258064,
                20.843852
              ],
              [
                106.25812,
                20.843885
              ],
              [
                106.258174,
                20.8439
              ],
              [
                106.258241,
                20.843902
              ],
              [
                106.258244,
                20.843902
              ],
              [
                106.258308,
                20.843914
              ],
              [
                106.258327,
                20.843946
              ],
              [
                106.258334,
                20.844003
              ],
              [
                106.258309,
                20.844081
              ],
              [
                106.258217,
                20.844136
              ],
              [
                106.258072,
                20.844205
              ],
              [
                106.258064,
                20.844211
              ],
              [
                106.257996,
                20.84426
              ],
              [
                106.257977,
                20.844314
              ],
              [
                106.257994,
                20.844373
              ],
              [
                106.258039,
                20.844421
              ],
              [
                106.258112,
                20.844456
              ],
              [
                106.258383,
                20.844517
              ],
              [
                106.258761,
                20.844535
              ],
              [
                106.258897,
                20.844498
              ],
              [
                106.258947,
                20.844467
              ],
              [
                106.259248,
                20.844279
              ],
              [
                106.259324,
                20.844262
              ],
              [
                106.259328,
                20.844261
              ],
              [
                106.259328,
                20.844261
              ]
            ]
          ]
        ]
      },
      "properties": {
        "code": "11065",
        "name": "Trường Tân",
        "nameEn": "Truong Tan",
        "fullName": "Xã Trường Tân",
        "fullNameEn": "Truong Tan Commune",
        "codeName": "truong_tan",
        "postalCode": "03679",
        "postalCodePrefix": "",
        "gisServerId": "diaphanhanhchinhcapxa_2025.893",
        "areaKm2": 24.56
      }
    }
  ]
}