{
  "type": "FeatureCollection",
  "bbox": [
    106.192637,
    20.736369,
    106.287609,
    20.797608
  ],
  "features": [
    {
      "type": "Feature",
      "id": "11239",
      "bbox": [
        106.192637,
        20.736369,
        106.287609,
        20.797608
      ],
      "geometry": {
        "type": "MultiPolygon",
        "coordinates": [
          [
            [
              [
                106.240672,
                20.794348
              ],
              [
                106.240734,
                20.794255
              ],
              [
                106.240886,
                20.794339
              ],
              [
                106.241008,
                20.794412
              ],
              [
                106.241354,
                20.794618
              ],
              [
                106.241703,
                20.794826
              ],
              [
                106.242274,
                20.795157
              ],
              [
                106.242423,
                20.795251
              ],
              [
                106.242723,
                20.794825
              ],
              [
                106.242972,
                20.794545
              ],
              [
                106.243125,
                20.794397
              ],
              [
                106.243211,
                20.794314
              ],
              [
                106.243375,
                20.794115
              ],
              [
                106.243623,
                20.793821
              ],
              [
                106.243894,
                20.793508
              ],
              [
                106.244114,
                20.793234
              ],
              [
                106.244304,
                20.793078
              ],
              [
                106.248068,
                20.795357
              ],
              [
                106.248649,
                20.795534
              ],
              [
                106.249096,
                20.795579
              ],
              [
                106.249421,
                20.795462
              ],
              [
                106.250138,
                20.794873
              ],
              [
                106.250238,
                20.794633
              ],
              [
                106.250398,
                20.794317
              ],
              [
                106.250538,
                20.794124
              ],
              [
                106.250756,
                20.793934
              ],
              [
                106.251626,
                20.793173
              ],
              [
                106.251871,
                20.792943
              ],
              [
                106.251872,
                20.792942
              ],
              [
                106.252477,
                20.794135
              ],
              [
                106.253473,
                20.79351
              ],
              [
                106.253895,
                20.79393
              ],
              [
                106.25525,
                20.793301
              ],
              [
                106.255308,
                20.793274
              ],
              [
                106.255137,
                20.793033
              ],
              [
                106.254912,
                20.792698
              ],
              [
                106.254704,
                20.792382
              ],
              [
                106.254417,
                20.792071
              ],
              [
                106.254154,
                20.791747
              ],
              [
                106.254018,
                20.791502
              ],
              [
                106.254032,
                20.791375
              ],
              [
                106.254148,
                20.791187
              ],
              [
                106.254472,
                20.79061
              ],
              [
                106.254612,
                20.790362
              ],
              [
                106.25472,
                20.790176
              ],
              [
                106.254846,
                20.789958
              ],
              [
                106.254998,
                20.789696
              ],
              [
                106.255163,
                20.789412
              ],
              [
                106.255357,
                20.789077
              ],
              [
                106.255455,
                20.788907
              ],
              [
                106.255775,
                20.788356
              ],
              [
                106.255836,
                20.788254
              ],
              [
                106.255951,
                20.788065
              ],
              [
                106.256084,
                20.787846
              ],
              [
                106.256134,
                20.787794
              ],
              [
                106.256134,
                20.787793
              ],
              [
                106.256134,
                20.787793
              ],
              [
                106.256162,
                20.78777
              ],
              [
                106.256278,
                20.787672
              ],
              [
                106.25669,
                20.787241
              ],
              [
                106.256721,
                20.787209
              ],
              [
                106.256837,
                20.787088
              ],
              [
                106.257511,
                20.786386
              ],
              [
                106.257557,
                20.786339
              ],
              [
                106.257562,
                20.786333
              ],
              [
                106.258237,
                20.78561
              ],
              [
                106.258262,
                20.785583
              ],
              [
                106.258381,
                20.785458
              ],
              [
                106.258702,
                20.78512
              ],
              [
                106.258756,
                20.785063
              ],
              [
                106.258236,
                20.782984
              ],
              [
                106.258214,
                20.7829
              ],
              [
                106.258858,
                20.782813
              ],
              [
                106.259299,
                20.782763
              ],
              [
                106.259828,
                20.782698
              ],
              [
                106.26027,
                20.782645
              ],
              [
                106.260274,
                20.782452
              ],
              [
                106.260285,
                20.782072
              ],
              [
                106.260331,
                20.781422
              ],
              [
                106.260341,
                20.780925
              ],
              [
                106.260348,
                20.780757
              ],
              [
                106.260429,
                20.780039
              ],
              [
                106.260558,
                20.780061
              ],
              [
                106.261992,
                20.780209
              ],
              [
                106.262803,
                20.780284
              ],
              [
                106.263301,
                20.780331
              ],
              [
                106.26456,
                20.780455
              ],
              [
                106.264608,
                20.78046
              ],
              [
                106.264854,
                20.780484
              ],
              [
                106.2659,
                20.780591
              ],
              [
                106.265945,
                20.780596
              ],
              [
                106.267098,
                20.780716
              ],
              [
                106.268209,
                20.780823
              ],
              [
                106.268921,
                20.780892
              ],
              [
                106.26966,
                20.780965
              ],
              [
                106.270529,
                20.781063
              ],
              [
                106.270686,
                20.781674
              ],
              [
                106.270726,
                20.781851
              ],
              [
                106.270841,
                20.782359
              ],
              [
                106.270842,
                20.782363
              ],
              [
                106.270855,
                20.782423
              ],
              [
                106.270891,
                20.782483
              ],
              [
                106.27064,
                20.782755
              ],
              [
                106.27062,
                20.782848
              ],
              [
                106.270606,
                20.782926
              ],
              [
                106.270564,
                20.782989
              ],
              [
                106.270491,
                20.783039
              ],
              [
                106.270438,
                20.783026
              ],
              [
                106.270367,
                20.783024
              ],
              [
                106.270338,
                20.783078
              ],
              [
                106.270242,
                20.783178
              ],
              [
                106.270103,
                20.783444
              ],
              [
                106.270103,
                20.783478
              ],
              [
                106.270012,
                20.783755
              ],
              [
                106.269871,
                20.78411
              ],
              [
                106.26972,
                20.784516
              ],
              [
                106.269657,
                20.784667
              ],
              [
                106.269674,
                20.784703
              ],
              [
                106.269778,
                20.784921
              ],
              [
                106.270094,
                20.785431
              ],
              [
                106.270339,
                20.78585
              ],
              [
                106.270506,
                20.78616
              ],
              [
                106.270817,
                20.7867
              ],
              [
                106.270948,
                20.786915
              ],
              [
                106.271175,
                20.78733
              ],
              [
                106.27132,
                20.787596
              ],
              [
                106.271527,
                20.787962
              ],
              [
                106.271573,
                20.788044
              ],
              [
                106.271766,
                20.787949
              ],
              [
                106.271878,
                20.787896
              ],
              [
                106.272057,
                20.788175
              ],
              [
                106.272372,
                20.788136
              ],
              [
                106.272438,
                20.788395
              ],
              [
                106.272995,
                20.788103
              ],
              [
                106.273222,
                20.787993
              ],
              [
                106.273416,
                20.7879
              ],
              [
                106.273338,
                20.787736
              ],
              [
                106.27324,
                20.787523
              ],
              [
                106.273183,
                20.787403
              ],
              [
                106.273089,
                20.78723
              ],
              [
                106.27301,
                20.787034
              ],
              [
                106.272956,
                20.786891
              ],
              [
                106.272905,
                20.786711
              ],
              [
                106.272881,
                20.78662
              ],
              [
                106.272847,
                20.786455
              ],
              [
                106.272835,
                20.78637
              ],
              [
                106.272825,
                20.786293
              ],
              [
                106.272693,
                20.786233
              ],
              [
                106.272777,
                20.785747
              ],
              [
                106.273347,
                20.785758
              ],
              [
                106.273569,
                20.785078
              ],
              [
                106.273731,
                20.784981
              ],
              [
                106.273793,
                20.784773
              ],
              [
                106.27379,
                20.784656
              ],
              [
                106.273789,
                20.784558
              ],
              [
                106.273768,
                20.784385
              ],
              [
                106.27375,
                20.784316
              ],
              [
                106.273713,
                20.784241
              ],
              [
                106.273689,
                20.784218
              ],
              [
                106.273661,
                20.784203
              ],
              [
                106.273633,
                20.784203
              ],
              [
                106.273611,
                20.784212
              ],
              [
                106.273589,
                20.78422
              ],
              [
                106.273581,
                20.784208
              ],
              [
                106.273556,
                20.783998
              ],
              [
                106.273471,
                20.783877
              ],
              [
                106.27352,
                20.783815
              ],
              [
                106.273624,
                20.783687
              ],
              [
                106.273876,
                20.783601
              ],
              [
                106.273817,
                20.783379
              ],
              [
                106.273847,
                20.783378
              ],
              [
                106.273992,
                20.783323
              ],
              [
                106.274137,
                20.783269
              ],
              [
                106.274288,
                20.783193
              ],
              [
                106.274333,
                20.783171
              ],
              [
                106.274439,
                20.783118
              ],
              [
                106.274578,
                20.783021
              ],
              [
                106.274717,
                20.782923
              ],
              [
                106.27506,
                20.782675
              ],
              [
                106.275134,
                20.782624
              ],
              [
                106.275174,
                20.782596
              ],
              [
                106.275451,
                20.782638
              ],
              [
                106.275488,
                20.782646
              ],
              [
                106.275636,
                20.782583
              ],
              [
                106.275925,
                20.782437
              ],
              [
                106.276212,
                20.782291
              ],
              [
                106.276788,
                20.781997
              ],
              [
                106.277356,
                20.781696
              ],
              [
                106.278308,
                20.781197
              ],
              [
                106.278351,
                20.781264
              ],
              [
                106.278512,
                20.781512
              ],
              [
                106.278852,
                20.782036
              ],
              [
                106.278981,
                20.782227
              ],
              [
                106.279187,
                20.782533
              ],
              [
                106.27952,
                20.783032
              ],
              [
                106.279861,
                20.783565
              ],
              [
                106.279925,
                20.783666
              ],
              [
                106.280439,
                20.784482
              ],
              [
                106.280579,
                20.784685
              ],
              [
                106.280941,
                20.785252
              ],
              [
                106.281581,
                20.786229
              ],
              [
                106.281633,
                20.786298
              ],
              [
                106.281736,
                20.786383
              ],
              [
                106.281806,
                20.786441
              ],
              [
                106.282245,
                20.78615
              ],
              [
                106.28227,
                20.786133
              ],
              [
                106.282312,
                20.786105
              ],
              [
                106.282313,
                20.786106
              ],
              [
                106.282542,
                20.78625
              ],
              [
                106.282704,
                20.786186
              ],
              [
                106.282954,
                20.786086
              ],
              [
                106.283187,
                20.786321
              ],
              [
                106.283207,
                20.786313
              ],
              [
                106.283882,
                20.786043
              ],
              [
                106.284011,
                20.785927
              ],
              [
                106.283901,
                20.785733
              ],
              [
                106.283538,
                20.785871
              ],
              [
                106.283474,
                20.785896
              ],
              [
                106.283088,
                20.785597
              ],
              [
                106.283084,
                20.785594
              ],
              [
                106.283008,
                20.785535
              ],
              [
                106.283234,
                20.785385
              ],
              [
                106.283299,
                20.78545
              ],
              [
                106.283334,
                20.785486
              ],
              [
                106.283414,
                20.785567
              ],
              [
                106.283697,
                20.785431
              ],
              [
                106.283819,
                20.785373
              ],
              [
                106.284691,
                20.784957
              ],
              [
                106.284962,
                20.78501
              ],
              [
                106.285033,
                20.784943
              ],
              [
                106.285148,
                20.784835
              ],
              [
                106.285144,
                20.784784
              ],
              [
                106.285128,
                20.784576
              ],
              [
                106.285396,
                20.784214
              ],
              [
                106.285684,
                20.784089
              ],
              [
                106.285721,
                20.784187
              ],
              [
                106.286055,
                20.78405
              ],
              [
                106.286033,
                20.783999
              ],
              [
                106.28593,
                20.783761
              ],
              [
                106.286011,
                20.783749
              ],
              [
                106.286498,
                20.783674
              ],
              [
                106.286756,
                20.783634
              ],
              [
                106.286903,
                20.783611
              ],
              [
                106.286902,
                20.783541
              ],
              [
                106.286848,
                20.78353
              ],
              [
                106.286597,
                20.783479
              ],
              [
                106.286501,
                20.783349
              ],
              [
                106.286883,
                20.783107
              ],
              [
                106.287172,
                20.782916
              ],
              [
                106.28709,
                20.782833
              ],
              [
                106.287089,
                20.782832
              ],
              [
                106.286996,
                20.782738
              ],
              [
                106.286989,
                20.782732
              ],
              [
                106.286727,
                20.782469
              ],
              [
                106.286753,
                20.782434
              ],
              [
                106.286927,
                20.782201
              ],
              [
                106.287223,
                20.781803
              ],
              [
                106.287498,
                20.781846
              ],
              [
                106.287577,
                20.781511
              ],
              [
                106.287609,
                20.781375
              ],
              [
                106.287594,
                20.780864
              ],
              [
                106.287603,
                20.780825
              ],
              [
                106.287603,
                20.780824
              ],
              [
                106.287596,
                20.780763
              ],
              [
                106.287571,
                20.78069
              ],
              [
                106.287497,
                20.780631
              ],
              [
                106.287286,
                20.780389
              ],
              [
                106.287267,
                20.780368
              ],
              [
                106.287181,
                20.780269
              ],
              [
                106.286642,
                20.780443
              ],
              [
                106.286567,
                20.78044
              ],
              [
                106.286317,
                20.780359
              ],
              [
                106.286274,
                20.780332
              ],
              [
                106.286131,
                20.780234
              ],
              [
                106.285986,
                20.780165
              ],
              [
                106.285829,
                20.780073
              ],
              [
                106.285691,
                20.780038
              ],
              [
                106.28556,
                20.780065
              ],
              [
                106.285467,
                20.780096
              ],
              [
                106.285385,
                20.780123
              ],
              [
                106.284961,
                20.779408
              ],
              [
                106.28453,
                20.778674
              ],
              [
                106.284123,
                20.777962
              ],
              [
                106.283287,
                20.776506
              ],
              [
                106.283177,
                20.776308
              ],
              [
                106.283135,
                20.77623
              ],
              [
                106.283411,
                20.776017
              ],
              [
                106.283405,
                20.776012
              ],
              [
                106.283256,
                20.775876
              ],
              [
                106.283536,
                20.77563
              ],
              [
                106.28382,
                20.7754
              ],
              [
                106.284104,
                20.77517
              ],
              [
                106.284619,
                20.774781
              ],
              [
                106.284165,
                20.774403
              ],
              [
                106.283711,
                20.774026
              ],
              [
                106.283669,
                20.77399
              ],
              [
                106.28341,
                20.773773
              ],
              [
                106.28324,
                20.774368
              ],
              [
                106.28319,
                20.7745
              ],
              [
                106.283147,
                20.774626
              ],
              [
                106.282813,
                20.774643
              ],
              [
                106.282757,
                20.774646
              ],
              [
                106.282733,
                20.774647
              ],
              [
                106.282711,
                20.774547
              ],
              [
                106.282643,
                20.774127
              ],
              [
                106.282553,
                20.773598
              ],
              [
                106.282357,
                20.772509
              ],
              [
                106.282293,
                20.77213
              ],
              [
                106.282236,
                20.771772
              ],
              [
                106.282207,
                20.771579
              ],
              [
                106.282176,
                20.771386
              ],
              [
                106.282118,
                20.771026
              ],
              [
                106.282065,
                20.770669
              ],
              [
                106.282057,
                20.770626
              ],
              [
                106.282032,
                20.770486
              ],
              [
                106.281966,
                20.770105
              ],
              [
                106.281874,
                20.769631
              ],
              [
                106.281789,
                20.769204
              ],
              [
                106.281713,
                20.768817
              ],
              [
                106.281699,
                20.768748
              ],
              [
                106.281646,
                20.768761
              ],
              [
                106.281447,
                20.768763
              ],
              [
                106.281435,
                20.768733
              ],
              [
                106.281323,
                20.768467
              ],
              [
                106.281147,
                20.768088
              ],
              [
                106.280466,
                20.7681
              ],
              [
                106.279674,
                20.768133
              ],
              [
                106.278526,
                20.768191
              ],
              [
                106.277953,
                20.768216
              ],
              [
                106.277385,
                20.768245
              ],
              [
                106.276792,
                20.768291
              ],
              [
                106.276219,
                20.76834
              ],
              [
                106.275637,
                20.768388
              ],
              [
                106.275069,
                20.768438
              ],
              [
                106.274496,
                20.768486
              ],
              [
                106.273906,
                20.768523
              ],
              [
                106.273689,
                20.768558
              ],
              [
                106.273342,
                20.768588
              ],
              [
                106.272362,
                20.768671
              ],
              [
                106.271789,
                20.768727
              ],
              [
                106.271175,
                20.768757
              ],
              [
                106.270956,
                20.76877
              ],
              [
                106.270191,
                20.768805
              ],
              [
                106.269851,
                20.768835
              ],
              [
                106.269336,
                20.768898
              ],
              [
                106.268888,
                20.768973
              ],
              [
                106.268458,
                20.769081
              ],
              [
                106.268015,
                20.769231
              ],
              [
                106.267838,
                20.768801
              ],
              [
                106.267816,
                20.768715
              ],
              [
                106.267772,
                20.768576
              ],
              [
                106.267759,
                20.768534
              ],
              [
                106.267755,
                20.768502
              ],
              [
                106.26774,
                20.7684
              ],
              [
                106.26772,
                20.768226
              ],
              [
                106.267678,
                20.768068
              ],
              [
                106.267641,
                20.767932
              ],
              [
                106.267585,
                20.767726
              ],
              [
                106.267612,
                20.767691
              ],
              [
                106.267515,
                20.767299
              ],
              [
                106.267492,
                20.767209
              ],
              [
                106.26743,
                20.766879
              ],
              [
                106.26735,
                20.766539
              ],
              [
                106.267319,
                20.766402
              ],
              [
                106.267261,
                20.766101
              ],
              [
                106.267169,
                20.76562
              ],
              [
                106.267156,
                20.765555
              ],
              [
                106.267057,
                20.765094
              ],
              [
                106.267011,
                20.764877
              ],
              [
                106.266915,
                20.764421
              ],
              [
                106.266832,
                20.764024
              ],
              [
                106.266778,
                20.76377
              ],
              [
                106.266675,
                20.763245
              ],
              [
                106.266602,
                20.762879
              ],
              [
                106.266574,
                20.762736
              ],
              [
                106.266425,
                20.76204
              ],
              [
                106.266365,
                20.76176
              ],
              [
                106.26632,
                20.761552
              ],
              [
                106.266113,
                20.760602
              ],
              [
                106.26609,
                20.760495
              ],
              [
                106.266059,
                20.760336
              ],
              [
                106.266029,
                20.760182
              ],
              [
                106.266005,
                20.760055
              ],
              [
                106.265907,
                20.759554
              ],
              [
                106.265822,
                20.759194
              ],
              [
                106.265801,
                20.759104
              ],
              [
                106.265721,
                20.758763
              ],
              [
                106.265646,
                20.758447
              ],
              [
                106.265578,
                20.758132
              ],
              [
                106.26549,
                20.757724
              ],
              [
                106.26536,
                20.75712
              ],
              [
                106.265368,
                20.757114
              ],
              [
                106.265423,
                20.757071
              ],
              [
                106.265901,
                20.756982
              ],
              [
                106.266092,
                20.756946
              ],
              [
                106.266127,
                20.756939
              ],
              [
                106.266686,
                20.756815
              ],
              [
                106.266823,
                20.756785
              ],
              [
                106.266846,
                20.75678
              ],
              [
                106.266782,
                20.756743
              ],
              [
                106.266777,
                20.756735
              ],
              [
                106.265757,
                20.755541
              ],
              [
                106.265749,
                20.755526
              ],
              [
                106.265605,
                20.754905
              ],
              [
                106.2656,
                20.754888
              ],
              [
                106.264914,
                20.753206
              ],
              [
                106.264916,
                20.753203
              ],
              [
                106.264778,
                20.752915
              ],
              [
                106.264771,
                20.752898
              ],
              [
                106.264734,
                20.752787
              ],
              [
                106.26473,
                20.75277
              ],
              [
                106.264714,
                20.752635
              ],
              [
                106.264713,
                20.752617
              ],
              [
                106.26471,
                20.752488
              ],
              [
                106.26471,
                20.752478
              ],
              [
                106.265927,
                20.751425
              ],
              [
                106.265998,
                20.75136
              ],
              [
                106.266005,
                20.751355
              ],
              [
                106.265996,
                20.751342
              ],
              [
                106.266318,
                20.75105
              ],
              [
                106.266401,
                20.750975
              ],
              [
                106.266773,
                20.750637
              ],
              [
                106.266879,
                20.750541
              ],
              [
                106.267113,
                20.750329
              ],
              [
                106.26727,
                20.750187
              ],
              [
                106.267431,
                20.750041
              ],
              [
                106.267711,
                20.749788
              ],
              [
                106.267828,
                20.749682
              ],
              [
                106.267881,
                20.749635
              ],
              [
                106.268176,
                20.749376
              ],
              [
                106.268349,
                20.749224
              ],
              [
                106.268559,
                20.749039
              ],
              [
                106.268595,
                20.749008
              ],
              [
                106.269141,
                20.748557
              ],
              [
                106.269731,
                20.748047
              ],
              [
                106.269733,
                20.748033
              ],
              [
                106.269651,
                20.747895
              ],
              [
                106.269642,
                20.747879
              ],
              [
                106.26928,
                20.747208
              ],
              [
                106.268726,
                20.746191
              ],
              [
                106.268707,
                20.746158
              ],
              [
                106.268756,
                20.746144
              ],
              [
                106.269179,
                20.746034
              ],
              [
                106.269152,
                20.745945
              ],
              [
                106.269147,
                20.745946
              ],
              [
                106.268926,
                20.745333
              ],
              [
                106.268489,
                20.744024
              ],
              [
                106.268284,
                20.743404
              ],
              [
                106.268084,
                20.74278
              ],
              [
                106.267924,
                20.742268
              ],
              [
                106.267722,
                20.74166
              ],
              [
                106.267529,
                20.741066
              ],
              [
                106.267424,
                20.740734
              ],
              [
                106.267305,
                20.740373
              ],
              [
                106.267087,
                20.7397
              ],
              [
                106.266869,
                20.739026
              ],
              [
                106.266864,
                20.739009
              ],
              [
                106.266643,
                20.738345
              ],
              [
                106.266638,
                20.738328
              ],
              [
                106.26642,
                20.737661
              ],
              [
                106.266414,
                20.737643
              ],
              [
                106.266397,
                20.737596
              ],
              [
                106.266316,
                20.737356
              ],
              [
                106.265185,
                20.737674
              ],
              [
                106.26429,
                20.737947
              ],
              [
                106.262192,
                20.738511
              ],
              [
                106.260247,
                20.739094
              ],
              [
                106.260207,
                20.73902
              ],
              [
                106.260186,
                20.738953
              ],
              [
                106.260171,
                20.738903
              ],
              [
                106.260162,
                20.738875
              ],
              [
                106.260157,
                20.738858
              ],
              [
                106.260153,
                20.738841
              ],
              [
                106.260146,
                20.738815
              ],
              [
                106.260136,
                20.738771
              ],
              [
                106.259883,
                20.737678
              ],
              [
                106.259869,
                20.737616
              ],
              [
                106.259863,
                20.73759
              ],
              [
                106.25986,
                20.737572
              ],
              [
                106.259851,
                20.737528
              ],
              [
                106.259839,
                20.737457
              ],
              [
                106.259834,
                20.737453
              ],
              [
                106.259668,
                20.737466
              ],
              [
                106.259624,
                20.737469
              ],
              [
                106.259565,
                20.737471
              ],
              [
                106.259546,
                20.737472
              ],
              [
                106.258648,
                20.737528
              ],
              [
                106.25771,
                20.737575
              ],
              [
                106.257268,
                20.737604
              ],
              [
                106.254874,
                20.737725
              ],
              [
                106.25416,
                20.73765
              ],
              [
                106.253252,
                20.737553
              ],
              [
                106.251873,
                20.737423
              ],
              [
                106.251871,
                20.737423
              ],
              [
                106.251382,
                20.737377
              ],
              [
                106.250341,
                20.737285
              ],
              [
                106.249939,
                20.737254
              ],
              [
                106.249915,
                20.737252
              ],
              [
                106.249712,
                20.737231
              ],
              [
                106.249555,
                20.738388
              ],
              [
                106.249395,
                20.73829
              ],
              [
                106.24873,
                20.737854
              ],
              [
                106.248235,
                20.737519
              ],
              [
                106.247832,
                20.737253
              ],
              [
                106.247021,
                20.736727
              ],
              [
                106.246741,
                20.736535
              ],
              [
                106.246653,
                20.736477
              ],
              [
                106.246563,
                20.736436
              ],
              [
                106.24647,
                20.736405
              ],
              [
                106.246282,
                20.736369
              ],
              [
                106.245387,
                20.736912
              ],
              [
                106.245625,
                20.737083
              ],
              [
                106.245655,
                20.737104
              ],
              [
                106.245899,
                20.737279
              ],
              [
                106.246509,
                20.737716
              ],
              [
                106.246591,
                20.737775
              ],
              [
                106.247591,
                20.738475
              ],
              [
                106.247594,
                20.738477
              ],
              [
                106.247586,
                20.738486
              ],
              [
                106.246806,
                20.73968
              ],
              [
                106.247036,
                20.739774
              ],
              [
                106.247267,
                20.739869
              ],
              [
                106.247427,
                20.739923
              ],
              [
                106.247492,
                20.739968
              ],
              [
                106.247606,
                20.740076
              ],
              [
                106.247694,
                20.740158
              ],
              [
                106.247914,
                20.740364
              ],
              [
                106.247982,
                20.74041
              ],
              [
                106.248144,
                20.740443
              ],
              [
                106.248286,
                20.740475
              ],
              [
                106.248434,
                20.740521
              ],
              [
                106.248524,
                20.740518
              ],
              [
                106.248587,
                20.740511
              ],
              [
                106.248651,
                20.740503
              ],
              [
                106.248706,
                20.740517
              ],
              [
                106.248785,
                20.740555
              ],
              [
                106.248862,
                20.740623
              ],
              [
                106.248933,
                20.740706
              ],
              [
                106.248755,
                20.741344
              ],
              [
                106.248687,
                20.74131
              ],
              [
                106.248687,
                20.741307
              ],
              [
                106.248675,
                20.741292
              ],
              [
                106.248623,
                20.741259
              ],
              [
                106.248519,
                20.741207
              ],
              [
                106.248477,
                20.741197
              ],
              [
                106.248464,
                20.741197
              ],
              [
                106.24846,
                20.741197
              ],
              [
                106.248457,
                20.741197
              ],
              [
                106.248437,
                20.741203
              ],
              [
                106.248387,
                20.741305
              ],
              [
                106.248171,
                20.741741
              ],
              [
                106.248112,
                20.741713
              ],
              [
                106.247528,
                20.741441
              ],
              [
                106.247314,
                20.741839
              ],
              [
                106.247243,
                20.741971
              ],
              [
                106.247226,
                20.741999
              ],
              [
                106.247299,
                20.742074
              ],
              [
                106.247376,
                20.742154
              ],
              [
                106.247271,
                20.742286
              ],
              [
                106.247172,
                20.742408
              ],
              [
                106.24679,
                20.742838
              ],
              [
                106.24624,
                20.743457
              ],
              [
                106.246025,
                20.743699
              ],
              [
                106.245961,
                20.743771
              ],
              [
                106.24477,
                20.745112
              ],
              [
                106.244636,
                20.745273
              ],
              [
                106.244598,
                20.74532
              ],
              [
                106.2444,
                20.745559
              ],
              [
                106.2444,
                20.74559
              ],
              [
                106.244421,
                20.745648
              ],
              [
                106.244495,
                20.745731
              ],
              [
                106.244654,
                20.745863
              ],
              [
                106.24479,
                20.746044
              ],
              [
                106.244877,
                20.746146
              ],
              [
                106.24515,
                20.74641
              ],
              [
                106.245283,
                20.746561
              ],
              [
                106.245188,
                20.746629
              ],
              [
                106.245145,
                20.746674
              ],
              [
                106.244282,
                20.747442
              ],
              [
                106.244454,
                20.747585
              ],
              [
                106.244703,
                20.747791
              ],
              [
                106.245088,
                20.748119
              ],
              [
                106.245088,
                20.748119
              ],
              [
                106.245129,
                20.748155
              ],
              [
                106.245052,
                20.748214
              ],
              [
                106.244028,
                20.749009
              ],
              [
                106.242596,
                20.750083
              ],
              [
                106.242339,
                20.750275
              ],
              [
                106.242078,
                20.750471
              ],
              [
                106.243207,
                20.751365
              ],
              [
                106.243276,
                20.751422
              ],
              [
                106.243454,
                20.751568
              ],
              [
                106.243969,
                20.751991
              ],
              [
                106.243044,
                20.753147
              ],
              [
                106.243494,
                20.75354
              ],
              [
                106.242734,
                20.754388
              ],
              [
                106.242676,
                20.75435
              ],
              [
                106.24238,
                20.754153
              ],
              [
                106.24197,
                20.754125
              ],
              [
                106.241018,
                20.75354
              ],
              [
                106.240992,
                20.753524
              ],
              [
                106.240992,
                20.753524
              ],
              [
                106.238361,
                20.751917
              ],
              [
                106.236151,
                20.750528
              ],
              [
                106.236075,
                20.750502
              ],
              [
                106.235829,
                20.751466
              ],
              [
                106.233215,
                20.750714
              ],
              [
                106.233102,
                20.750984
              ],
              [
                106.232853,
                20.750861
              ],
              [
                106.232727,
                20.751149
              ],
              [
                106.232419,
                20.751
              ],
              [
                106.232259,
                20.75183
              ],
              [
                106.2307,
                20.751348
              ],
              [
                106.227525,
                20.750342
              ],
              [
                106.226351,
                20.74997
              ],
              [
                106.226306,
                20.75008
              ],
              [
                106.225482,
                20.752072
              ],
              [
                106.225284,
                20.751914
              ],
              [
                106.225147,
                20.751823
              ],
              [
                106.224146,
                20.751159
              ],
              [
                106.223948,
                20.751031
              ],
              [
                106.223319,
                20.752493
              ],
              [
                106.224574,
                20.752839
              ],
              [
                106.224571,
                20.752845
              ],
              [
                106.224554,
                20.752877
              ],
              [
                106.224482,
                20.753027
              ],
              [
                106.224432,
                20.753218
              ],
              [
                106.224146,
                20.754234
              ],
              [
                106.224093,
                20.754425
              ],
              [
                106.224077,
                20.754485
              ],
              [
                106.224087,
                20.754524
              ],
              [
                106.224318,
                20.754691
              ],
              [
                106.224442,
                20.754781
              ],
              [
                106.224445,
                20.754805
              ],
              [
                106.224436,
                20.754841
              ],
              [
                106.223946,
                20.755615
              ],
              [
                106.221875,
                20.754183
              ],
              [
                106.22183,
                20.754151
              ],
              [
                106.221586,
                20.754729
              ],
              [
                106.221539,
                20.754836
              ],
              [
                106.219679,
                20.753962
              ],
              [
                106.218949,
                20.753619
              ],
              [
                106.216798,
                20.752634
              ],
              [
                106.216359,
                20.752462
              ],
              [
                106.216353,
                20.752444
              ],
              [
                106.216344,
                20.752299
              ],
              [
                106.216647,
                20.752249
              ],
              [
                106.216908,
                20.751582
              ],
              [
                106.217218,
                20.750389
              ],
              [
                106.217156,
                20.750182
              ],
              [
                106.217086,
                20.750075
              ],
              [
                106.216803,
                20.749869
              ],
              [
                106.21588,
                20.749375
              ],
              [
                106.21548,
                20.750102
              ],
              [
                106.215272,
                20.750342
              ],
              [
                106.215096,
                20.750505
              ],
              [
                106.2149,
                20.750638
              ],
              [
                106.214646,
                20.750699
              ],
              [
                106.214158,
                20.750781
              ],
              [
                106.213637,
                20.750796
              ],
              [
                106.213345,
                20.750834
              ],
              [
                106.212888,
                20.750939
              ],
              [
                106.211421,
                20.751315
              ],
              [
                106.210593,
                20.751511
              ],
              [
                106.209717,
                20.751625
              ],
              [
                106.208607,
                20.751764
              ],
              [
                106.207679,
                20.751812
              ],
              [
                106.207031,
                20.751829
              ],
              [
                106.205818,
                20.751766
              ],
              [
                106.20515,
                20.751758
              ],
              [
                106.204471,
                20.751793
              ],
              [
                106.203849,
                20.751911
              ],
              [
                106.20352,
                20.752021
              ],
              [
                106.203336,
                20.752142
              ],
              [
                106.203078,
                20.752347
              ],
              [
                106.202422,
                20.752996
              ],
              [
                106.201879,
                20.753431
              ],
              [
                106.201304,
                20.753781
              ],
              [
                106.19971,
                20.754671
              ],
              [
                106.199438,
                20.754858
              ],
              [
                106.199217,
                20.755033
              ],
              [
                106.199016,
                20.755267
              ],
              [
                106.198204,
                20.756259
              ],
              [
                106.197236,
                20.75758
              ],
              [
                106.19691,
                20.758109
              ],
              [
                106.196772,
                20.758426
              ],
              [
                106.196574,
                20.759033
              ],
              [
                106.196003,
                20.760786
              ],
              [
                106.195798,
                20.761391
              ],
              [
                106.195592,
                20.761787
              ],
              [
                106.195258,
                20.762225
              ],
              [
                106.194798,
                20.762647
              ],
              [
                106.193913,
                20.763203
              ],
              [
                106.193705,
                20.763384
              ],
              [
                106.193604,
                20.763498
              ],
              [
                106.193573,
                20.763683
              ],
              [
                106.193581,
                20.763892
              ],
              [
                106.193654,
                20.764262
              ],
              [
                106.193656,
                20.764424
              ],
              [
                106.193651,
                20.764639
              ],
              [
                106.193582,
                20.764819
              ],
              [
                106.193458,
                20.765112
              ],
              [
                106.193156,
                20.765527
              ],
              [
                106.192941,
                20.76569
              ],
              [
                106.192637,
                20.765817
              ],
              [
                106.193051,
                20.76589
              ],
              [
                106.193457,
                20.765887
              ],
              [
                106.194076,
                20.765749
              ],
              [
                106.194776,
                20.765572
              ],
              [
                106.195031,
                20.765609
              ],
              [
                106.195265,
                20.765664
              ],
              [
                106.195633,
                20.765891
              ],
              [
                106.197816,
                20.768219
              ],
              [
                106.198901,
                20.769129
              ],
              [
                106.200332,
                20.770113
              ],
              [
                106.201833,
                20.770916
              ],
              [
                106.203169,
                20.77149
              ],
              [
                106.204771,
                20.772167
              ],
              [
                106.205791,
                20.772571
              ],
              [
                106.207136,
                20.772972
              ],
              [
                106.208317,
                20.773261
              ],
              [
                106.209355,
                20.773358
              ],
              [
                106.21021,
                20.773448
              ],
              [
                106.210851,
                20.77353
              ],
              [
                106.211645,
                20.773706
              ],
              [
                106.212623,
                20.773986
              ],
              [
                106.215986,
                20.774918
              ],
              [
                106.216212,
                20.774971
              ],
              [
                106.220243,
                20.77592
              ],
              [
                106.221497,
                20.776265
              ],
              [
                106.222231,
                20.776528
              ],
              [
                106.22244,
                20.776646
              ],
              [
                106.222295,
                20.776926
              ],
              [
                106.222034,
                20.777392
              ],
              [
                106.221563,
                20.778275
              ],
              [
                106.221241,
                20.778894
              ],
              [
                106.220918,
                20.779513
              ],
              [
                106.220026,
                20.781211
              ],
              [
                106.218655,
                20.783836
              ],
              [
                106.21825,
                20.784666
              ],
              [
                106.216877,
                20.787607
              ],
              [
                106.216972,
                20.78765
              ],
              [
                106.21944,
                20.788382
              ],
              [
                106.219705,
                20.788461
              ],
              [
                106.220218,
                20.788609
              ],
              [
                106.220501,
                20.78873
              ],
              [
                106.220572,
                20.78878
              ],
              [
                106.220636,
                20.788905
              ],
              [
                106.220714,
                20.789084
              ],
              [
                106.220826,
                20.789164
              ],
              [
                106.22221,
                20.78986
              ],
              [
                106.224309,
                20.790907
              ],
              [
                106.224436,
                20.790966
              ],
              [
                106.224475,
                20.790984
              ],
              [
                106.224437,
                20.791126
              ],
              [
                106.2243,
                20.791483
              ],
              [
                106.224006,
                20.792035
              ],
              [
                106.223506,
                20.79296
              ],
              [
                106.223868,
                20.793084
              ],
              [
                106.226594,
                20.794025
              ],
              [
                106.226643,
                20.794042
              ],
              [
                106.226678,
                20.794054
              ],
              [
                106.227323,
                20.794276
              ],
              [
                106.229084,
                20.794885
              ],
              [
                106.229263,
                20.794946
              ],
              [
                106.229781,
                20.795125
              ],
              [
                106.23218,
                20.795951
              ],
              [
                106.235183,
                20.796955
              ],
              [
                106.23503,
                20.797383
              ],
              [
                106.235077,
                20.7974
              ],
              [
                106.235537,
                20.797568
              ],
              [
                106.235792,
                20.797608
              ],
              [
                106.236078,
                20.797594
              ],
              [
                106.238002,
                20.796941
              ],
              [
                106.239073,
                20.796545
              ],
              [
                106.239265,
                20.796518
              ],
              [
                106.23932,
                20.79651
              ],
              [
                106.239382,
                20.7965
              ],
              [
                106.239517,
                20.796479
              ],
              [
                106.239637,
                20.796436
              ],
              [
                106.239722,
                20.796322
              ],
              [
                106.239869,
                20.79607
              ],
              [
                106.240074,
                20.795504
              ],
              [
                106.240096,
                20.795444
              ],
              [
                106.240199,
                20.795168
              ],
              [
                106.240264,
                20.794979
              ],
              [
                106.240339,
                20.794844
              ],
              [
                106.240627,
                20.794415
              ],
              [
                106.240672,
                20.794348
              ],
              [
                106.240672,
                20.794348
              ]
            ]
          ]
        ]
      },
      "properties": {
        "code": "11239",
        "name": "Thanh Miện",
        "nameEn": "Thanh Mien",
        "fullName": "Xã Thanh Miện",
        "fullNameEn": "Thanh Mien Commune",
        "codeName": "thanh_mien",
        "postalCode": "03756",
        "postalCodePrefix": "",
        "gisServerId": "diaphanhanhchinhcapxa_2025.892",
        "areaKm2": 33.47
      }
    }
  ]
}