{
  "type": "FeatureCollection",
  "bbox": [
    106.197829,
    20.810684,
    106.255573,
    20.865824
  ],
  "features": [
    {
      "type": "Feature",
      "id": "11242",
      "bbox": [
        106.197829,
        20.810684,
        106.255573,
        20.865824
      ],
      "geometry": {
        "type": "MultiPolygon",
        "coordinates": [
          [
            [
              [
                106.249404,
                20.840762
              ],
              [
                106.248081,
                20.840756
              ],
              [
                106.248108,
                20.840694
              ],
              [
                106.248327,
                20.840362
              ],
              [
                106.249041,
                20.839282
              ],
              [
                106.249364,
                20.838793
              ],
              [
                106.249367,
                20.838788
              ],
              [
                106.24964,
                20.838376
              ],
              [
                106.24972,
                20.838252
              ],
              [
                106.249793,
                20.83814
              ],
              [
                106.249922,
                20.837942
              ],
              [
                106.25036,
                20.837269
              ],
              [
                106.2509,
                20.836439
              ],
              [
                106.251077,
                20.836167
              ],
              [
                106.2511,
                20.836132
              ],
              [
                106.251872,
                20.834946
              ],
              [
                106.251872,
                20.834946
              ],
              [
                106.252346,
                20.834242
              ],
              [
                106.252355,
                20.83423
              ],
              [
                106.253886,
                20.834903
              ],
              [
                106.253955,
                20.834932
              ],
              [
                106.254182,
                20.834708
              ],
              [
                106.254584,
                20.834204
              ],
              [
                106.254744,
                20.834004
              ],
              [
                106.254874,
                20.833847
              ],
              [
                106.255159,
                20.833505
              ],
              [
                106.255244,
                20.833402
              ],
              [
                106.255478,
                20.833119
              ],
              [
                106.255573,
                20.833029
              ],
              [
                106.255521,
                20.832982
              ],
              [
                106.254938,
                20.83246
              ],
              [
                106.25488,
                20.832408
              ],
              [
                106.254456,
                20.832046
              ],
              [
                106.253958,
                20.831592
              ],
              [
                106.253334,
                20.831032
              ],
              [
                106.252836,
                20.830587
              ],
              [
                106.252445,
                20.830241
              ],
              [
                106.251881,
                20.829754
              ],
              [
                106.251872,
                20.829748
              ],
              [
                106.251872,
                20.829748
              ],
              [
                106.251776,
                20.829664
              ],
              [
                106.251771,
                20.829659
              ],
              [
                106.251757,
                20.829647
              ],
              [
                106.251246,
                20.829198
              ],
              [
                106.250983,
                20.828967
              ],
              [
                106.250466,
                20.828519
              ],
              [
                106.249195,
                20.82742
              ],
              [
                106.24882,
                20.827096
              ],
              [
                106.247157,
                20.825652
              ],
              [
                106.246917,
                20.825435
              ],
              [
                106.246,
                20.824603
              ],
              [
                106.245435,
                20.824103
              ],
              [
                106.245074,
                20.823785
              ],
              [
                106.244727,
                20.823471
              ],
              [
                106.244503,
                20.823269
              ],
              [
                106.244287,
                20.823073
              ],
              [
                106.244177,
                20.822965
              ],
              [
                106.243391,
                20.822191
              ],
              [
                106.243359,
                20.822176
              ],
              [
                106.242902,
                20.821706
              ],
              [
                106.243007,
                20.821595
              ],
              [
                106.24299,
                20.821501
              ],
              [
                106.243084,
                20.821178
              ],
              [
                106.243117,
                20.82107
              ],
              [
                106.243021,
                20.820981
              ],
              [
                106.242946,
                20.820877
              ],
              [
                106.242936,
                20.820799
              ],
              [
                106.242935,
                20.820791
              ],
              [
                106.242938,
                20.820785
              ],
              [
                106.242963,
                20.820719
              ],
              [
                106.242965,
                20.820714
              ],
              [
                106.242983,
                20.820685
              ],
              [
                106.242714,
                20.820443
              ],
              [
                106.242748,
                20.820377
              ],
              [
                106.242756,
                20.820361
              ],
              [
                106.242512,
                20.820196
              ],
              [
                106.242468,
                20.820166
              ],
              [
                106.242521,
                20.819982
              ],
              [
                106.24252,
                20.81996
              ],
              [
                106.242452,
                20.819901
              ],
              [
                106.242081,
                20.819815
              ],
              [
                106.242146,
                20.819744
              ],
              [
                106.242231,
                20.819696
              ],
              [
                106.242881,
                20.819086
              ],
              [
                106.242933,
                20.819014
              ],
              [
                106.242976,
                20.818894
              ],
              [
                106.243201,
                20.818904
              ],
              [
                106.243373,
                20.818933
              ],
              [
                106.243513,
                20.818992
              ],
              [
                106.243661,
                20.819104
              ],
              [
                106.243805,
                20.819297
              ],
              [
                106.243953,
                20.819458
              ],
              [
                106.244004,
                20.819523
              ],
              [
                106.24402,
                20.819571
              ],
              [
                106.244198,
                20.819551
              ],
              [
                106.244265,
                20.819524
              ],
              [
                106.244318,
                20.819458
              ],
              [
                106.244474,
                20.818908
              ],
              [
                106.244597,
                20.818987
              ],
              [
                106.244811,
                20.819081
              ],
              [
                106.24518,
                20.819264
              ],
              [
                106.246403,
                20.819647
              ],
              [
                106.246605,
                20.81971
              ],
              [
                106.246682,
                20.819742
              ],
              [
                106.247053,
                20.819894
              ],
              [
                106.247152,
                20.819934
              ],
              [
                106.247287,
                20.819994
              ],
              [
                106.24736,
                20.820005
              ],
              [
                106.247674,
                20.819966
              ],
              [
                106.247833,
                20.819946
              ],
              [
                106.247974,
                20.819924
              ],
              [
                106.248263,
                20.819964
              ],
              [
                106.248332,
                20.81996
              ],
              [
                106.248344,
                20.819937
              ],
              [
                106.24835,
                20.819914
              ],
              [
                106.248331,
                20.81965
              ],
              [
                106.248363,
                20.81952
              ],
              [
                106.248519,
                20.818993
              ],
              [
                106.248566,
                20.818764
              ],
              [
                106.248614,
                20.818535
              ],
              [
                106.248544,
                20.818542
              ],
              [
                106.248468,
                20.818517
              ],
              [
                106.248219,
                20.818528
              ],
              [
                106.248091,
                20.818462
              ],
              [
                106.248081,
                20.818437
              ],
              [
                106.24806,
                20.818386
              ],
              [
                106.247982,
                20.818162
              ],
              [
                106.247806,
                20.817833
              ],
              [
                106.247785,
                20.817709
              ],
              [
                106.247784,
                20.817618
              ],
              [
                106.247833,
                20.817534
              ],
              [
                106.247834,
                20.817532
              ],
              [
                106.247895,
                20.817493
              ],
              [
                106.248002,
                20.817478
              ],
              [
                106.248144,
                20.817477
              ],
              [
                106.248363,
                20.817466
              ],
              [
                106.248413,
                20.817432
              ],
              [
                106.248428,
                20.817379
              ],
              [
                106.248427,
                20.817241
              ],
              [
                106.248393,
                20.817148
              ],
              [
                106.248224,
                20.816688
              ],
              [
                106.248106,
                20.816306
              ],
              [
                106.248005,
                20.815977
              ],
              [
                106.247956,
                20.81559
              ],
              [
                106.24793,
                20.815528
              ],
              [
                106.247853,
                20.815505
              ],
              [
                106.247665,
                20.81552
              ],
              [
                106.247407,
                20.815604
              ],
              [
                106.247184,
                20.815675
              ],
              [
                106.247148,
                20.815687
              ],
              [
                106.246839,
                20.815823
              ],
              [
                106.246802,
                20.815854
              ],
              [
                106.246576,
                20.816045
              ],
              [
                106.246335,
                20.816414
              ],
              [
                106.246196,
                20.816717
              ],
              [
                106.246069,
                20.816842
              ],
              [
                106.245968,
                20.81689
              ],
              [
                106.245175,
                20.816911
              ],
              [
                106.245094,
                20.816887
              ],
              [
                106.245078,
                20.816825
              ],
              [
                106.245087,
                20.816725
              ],
              [
                106.24511,
                20.816656
              ],
              [
                106.245231,
                20.816291
              ],
              [
                106.245261,
                20.816202
              ],
              [
                106.245605,
                20.815686
              ],
              [
                106.245808,
                20.815381
              ],
              [
                106.245883,
                20.815203
              ],
              [
                106.245882,
                20.815098
              ],
              [
                106.24587,
                20.815024
              ],
              [
                106.245861,
                20.814969
              ],
              [
                106.245799,
                20.814857
              ],
              [
                106.245737,
                20.814746
              ],
              [
                106.24563,
                20.814675
              ],
              [
                106.245492,
                20.814623
              ],
              [
                106.245375,
                20.814638
              ],
              [
                106.245334,
                20.814652
              ],
              [
                106.245167,
                20.814707
              ],
              [
                106.24504,
                20.814721
              ],
              [
                106.24484,
                20.814726
              ],
              [
                106.24476,
                20.814711
              ],
              [
                106.244699,
                20.814664
              ],
              [
                106.244651,
                20.814575
              ],
              [
                106.24457,
                20.814435
              ],
              [
                106.244484,
                20.814325
              ],
              [
                106.244375,
                20.814224
              ],
              [
                106.244221,
                20.814145
              ],
              [
                106.2439,
                20.814027
              ],
              [
                106.243769,
                20.814018
              ],
              [
                106.243747,
                20.814017
              ],
              [
                106.243695,
                20.814027
              ],
              [
                106.243701,
                20.813961
              ],
              [
                106.243709,
                20.813865
              ],
              [
                106.243694,
                20.813833
              ],
              [
                106.243687,
                20.81383
              ],
              [
                106.24368,
                20.813677
              ],
              [
                106.243397,
                20.813603
              ],
              [
                106.243379,
                20.813751
              ],
              [
                106.24337,
                20.813831
              ],
              [
                106.243336,
                20.813889
              ],
              [
                106.243282,
                20.813904
              ],
              [
                106.243218,
                20.813904
              ],
              [
                106.242819,
                20.813818
              ],
              [
                106.242522,
                20.813741
              ],
              [
                106.24224,
                20.813689
              ],
              [
                106.242033,
                20.813633
              ],
              [
                106.2415,
                20.813505
              ],
              [
                106.241419,
                20.813556
              ],
              [
                106.24129,
                20.813597
              ],
              [
                106.241155,
                20.813627
              ],
              [
                106.241117,
                20.813651
              ],
              [
                106.241105,
                20.813658
              ],
              [
                106.241042,
                20.813754
              ],
              [
                106.24095,
                20.813977
              ],
              [
                106.240781,
                20.814281
              ],
              [
                106.24074,
                20.814354
              ],
              [
                106.240654,
                20.814261
              ],
              [
                106.240617,
                20.81418
              ],
              [
                106.24053,
                20.814128
              ],
              [
                106.240342,
                20.814058
              ],
              [
                106.24025,
                20.814068
              ],
              [
                106.2402,
                20.814085
              ],
              [
                106.240149,
                20.814102
              ],
              [
                106.240043,
                20.814204
              ],
              [
                106.239864,
                20.814317
              ],
              [
                106.23983,
                20.81434
              ],
              [
                106.239672,
                20.814421
              ],
              [
                106.239577,
                20.814442
              ],
              [
                106.239478,
                20.814443
              ],
              [
                106.239305,
                20.814413
              ],
              [
                106.23908,
                20.814344
              ],
              [
                106.238968,
                20.814294
              ],
              [
                106.238866,
                20.814202
              ],
              [
                106.238808,
                20.814095
              ],
              [
                106.238787,
                20.813904
              ],
              [
                106.238754,
                20.813794
              ],
              [
                106.238678,
                20.813696
              ],
              [
                106.23858,
                20.813621
              ],
              [
                106.238451,
                20.813536
              ],
              [
                106.238303,
                20.813475
              ],
              [
                106.238168,
                20.813455
              ],
              [
                106.238128,
                20.813445
              ],
              [
                106.238008,
                20.813417
              ],
              [
                106.237833,
                20.813382
              ],
              [
                106.237799,
                20.813363
              ],
              [
                106.237744,
                20.813332
              ],
              [
                106.237679,
                20.813264
              ],
              [
                106.237599,
                20.813115
              ],
              [
                106.237518,
                20.812909
              ],
              [
                106.237463,
                20.812844
              ],
              [
                106.23738,
                20.812827
              ],
              [
                106.23732,
                20.812824
              ],
              [
                106.237241,
                20.812834
              ],
              [
                106.237155,
                20.812867
              ],
              [
                106.237,
                20.812961
              ],
              [
                106.236886,
                20.813013
              ],
              [
                106.236832,
                20.813016
              ],
              [
                106.236803,
                20.812998
              ],
              [
                106.236757,
                20.812899
              ],
              [
                106.236728,
                20.812755
              ],
              [
                106.236721,
                20.812722
              ],
              [
                106.23674,
                20.812511
              ],
              [
                106.236753,
                20.812353
              ],
              [
                106.236733,
                20.812282
              ],
              [
                106.236704,
                20.812244
              ],
              [
                106.236681,
                20.812215
              ],
              [
                106.236554,
                20.812154
              ],
              [
                106.236283,
                20.812032
              ],
              [
                106.236206,
                20.811913
              ],
              [
                106.23619,
                20.811784
              ],
              [
                106.236199,
                20.811504
              ],
              [
                106.236201,
                20.811433
              ],
              [
                106.23621,
                20.811162
              ],
              [
                106.236205,
                20.811148
              ],
              [
                106.236181,
                20.811079
              ],
              [
                106.236153,
                20.810995
              ],
              [
                106.23602,
                20.810905
              ],
              [
                106.235954,
                20.810906
              ],
              [
                106.235837,
                20.810916
              ],
              [
                106.235715,
                20.810994
              ],
              [
                106.235298,
                20.81157
              ],
              [
                106.235232,
                20.811619
              ],
              [
                106.23508,
                20.811629
              ],
              [
                106.234703,
                20.811575
              ],
              [
                106.234566,
                20.81158
              ],
              [
                106.234526,
                20.81126
              ],
              [
                106.234387,
                20.811273
              ],
              [
                106.234219,
                20.811344
              ],
              [
                106.234052,
                20.811429
              ],
              [
                106.233844,
                20.811496
              ],
              [
                106.233819,
                20.811459
              ],
              [
                106.233635,
                20.811193
              ],
              [
                106.233575,
                20.811211
              ],
              [
                106.232662,
                20.811487
              ],
              [
                106.232157,
                20.811568
              ],
              [
                106.23158,
                20.81166
              ],
              [
                106.230874,
                20.811777
              ],
              [
                106.230834,
                20.811784
              ],
              [
                106.230696,
                20.811778
              ],
              [
                106.230574,
                20.811743
              ],
              [
                106.230352,
                20.811622
              ],
              [
                106.230001,
                20.81138
              ],
              [
                106.229766,
                20.811237
              ],
              [
                106.229675,
                20.811793
              ],
              [
                106.229601,
                20.812224
              ],
              [
                106.229537,
                20.812596
              ],
              [
                106.229518,
                20.812666
              ],
              [
                106.229448,
                20.812817
              ],
              [
                106.229296,
                20.812824
              ],
              [
                106.229282,
                20.812823
              ],
              [
                106.229229,
                20.812818
              ],
              [
                106.228819,
                20.812781
              ],
              [
                106.225552,
                20.812455
              ],
              [
                106.224693,
                20.812348
              ],
              [
                106.223388,
                20.812124
              ],
              [
                106.218812,
                20.811314
              ],
              [
                106.215406,
                20.810742
              ],
              [
                106.215061,
                20.810684
              ],
              [
                106.215017,
                20.810751
              ],
              [
                106.214927,
                20.810887
              ],
              [
                106.214638,
                20.811511
              ],
              [
                106.214437,
                20.812049
              ],
              [
                106.214388,
                20.812144
              ],
              [
                106.214215,
                20.812187
              ],
              [
                106.213991,
                20.812213
              ],
              [
                106.213848,
                20.81223
              ],
              [
                106.214388,
                20.81292
              ],
              [
                106.214326,
                20.813051
              ],
              [
                106.213064,
                20.815983
              ],
              [
                106.213012,
                20.816076
              ],
              [
                106.20991,
                20.814987
              ],
              [
                106.209861,
                20.815104
              ],
              [
                106.20898,
                20.817197
              ],
              [
                106.208304,
                20.817043
              ],
              [
                106.208244,
                20.817192
              ],
              [
                106.208025,
                20.817189
              ],
              [
                106.20802,
                20.817078
              ],
              [
                106.20756,
                20.817005
              ],
              [
                106.207525,
                20.81693
              ],
              [
                106.206553,
                20.817005
              ],
              [
                106.20648,
                20.817066
              ],
              [
                106.206197,
                20.817976
              ],
              [
                106.203793,
                20.817583
              ],
              [
                106.203106,
                20.817444
              ],
              [
                106.202004,
                20.81722
              ],
              [
                106.201121,
                20.817774
              ],
              [
                106.200214,
                20.816801
              ],
              [
                106.199912,
                20.816483
              ],
              [
                106.198534,
                20.819778
              ],
              [
                106.197829,
                20.819833
              ],
              [
                106.198137,
                20.820558
              ],
              [
                106.199004,
                20.821531
              ],
              [
                106.199153,
                20.821698
              ],
              [
                106.199159,
                20.821708
              ],
              [
                106.199173,
                20.82173
              ],
              [
                106.199478,
                20.821824
              ],
              [
                106.199834,
                20.822098
              ],
              [
                106.199788,
                20.824155
              ],
              [
                106.20066,
                20.824751
              ],
              [
                106.199279,
                20.826795
              ],
              [
                106.202108,
                20.828635
              ],
              [
                106.203247,
                20.829514
              ],
              [
                106.205101,
                20.833391
              ],
              [
                106.20543,
                20.835099
              ],
              [
                106.205821,
                20.836172
              ],
              [
                106.207047,
                20.837561
              ],
              [
                106.207992,
                20.838717
              ],
              [
                106.209608,
                20.839879
              ],
              [
                106.209614,
                20.839884
              ],
              [
                106.208457,
                20.841424
              ],
              [
                106.207854,
                20.84203
              ],
              [
                106.207389,
                20.842815
              ],
              [
                106.207427,
                20.842874
              ],
              [
                106.207273,
                20.843085
              ],
              [
                106.206854,
                20.843426
              ],
              [
                106.20673,
                20.843369
              ],
              [
                106.206576,
                20.843472
              ],
              [
                106.206699,
                20.843593
              ],
              [
                106.206653,
                20.843746
              ],
              [
                106.206841,
                20.84405
              ],
              [
                106.20646,
                20.844578
              ],
              [
                106.206286,
                20.844463
              ],
              [
                106.205991,
                20.844603
              ],
              [
                106.205821,
                20.844371
              ],
              [
                106.205701,
                20.844208
              ],
              [
                106.205601,
                20.844066
              ],
              [
                106.205366,
                20.844229
              ],
              [
                106.205219,
                20.844434
              ],
              [
                106.205279,
                20.844651
              ],
              [
                106.205287,
                20.84468
              ],
              [
                106.205116,
                20.844757
              ],
              [
                106.205109,
                20.844933
              ],
              [
                106.204886,
                20.845065
              ],
              [
                106.204154,
                20.845323
              ],
              [
                106.203946,
                20.845441
              ],
              [
                106.203366,
                20.845987
              ],
              [
                106.203434,
                20.846036
              ],
              [
                106.20319,
                20.846369
              ],
              [
                106.202889,
                20.846191
              ],
              [
                106.202796,
                20.846319
              ],
              [
                106.202455,
                20.846184
              ],
              [
                106.202246,
                20.846482
              ],
              [
                106.202166,
                20.846643
              ],
              [
                106.201632,
                20.846453
              ],
              [
                106.201556,
                20.846528
              ],
              [
                106.201394,
                20.846979
              ],
              [
                106.201307,
                20.847192
              ],
              [
                106.201026,
                20.847054
              ],
              [
                106.200528,
                20.84681
              ],
              [
                106.200123,
                20.847782
              ],
              [
                106.199962,
                20.848107
              ],
              [
                106.202666,
                20.849326
              ],
              [
                106.202712,
                20.849354
              ],
              [
                106.201693,
                20.850384
              ],
              [
                106.203222,
                20.852003
              ],
              [
                106.201813,
                20.853235
              ],
              [
                106.202019,
                20.853522
              ],
              [
                106.202107,
                20.853645
              ],
              [
                106.202275,
                20.853945
              ],
              [
                106.202471,
                20.85428
              ],
              [
                106.202641,
                20.854524
              ],
              [
                106.202778,
                20.8547
              ],
              [
                106.202935,
                20.855021
              ],
              [
                106.20294,
                20.855033
              ],
              [
                106.203188,
                20.855541
              ],
              [
                106.203242,
                20.855649
              ],
              [
                106.203373,
                20.855917
              ],
              [
                106.203419,
                20.856011
              ],
              [
                106.203482,
                20.856139
              ],
              [
                106.203491,
                20.856158
              ],
              [
                106.203538,
                20.856253
              ],
              [
                106.203667,
                20.856517
              ],
              [
                106.203706,
                20.856596
              ],
              [
                106.203746,
                20.856605
              ],
              [
                106.203918,
                20.856645
              ],
              [
                106.204129,
                20.856693
              ],
              [
                106.204197,
                20.856709
              ],
              [
                106.204051,
                20.857243
              ],
              [
                106.203988,
                20.857472
              ],
              [
                106.204047,
                20.857484
              ],
              [
                106.204211,
                20.857516
              ],
              [
                106.205078,
                20.857688
              ],
              [
                106.205077,
                20.857692
              ],
              [
                106.205057,
                20.857774
              ],
              [
                106.205064,
                20.857849
              ],
              [
                106.20509,
                20.857877
              ],
              [
                106.205219,
                20.858015
              ],
              [
                106.205244,
                20.858117
              ],
              [
                106.20525,
                20.85817
              ],
              [
                106.205372,
                20.858298
              ],
              [
                106.205402,
                20.858315
              ],
              [
                106.205461,
                20.858349
              ],
              [
                106.205548,
                20.858357
              ],
              [
                106.205576,
                20.858359
              ],
              [
                106.205696,
                20.858914
              ],
              [
                106.205686,
                20.859073
              ],
              [
                106.205683,
                20.859124
              ],
              [
                106.20567,
                20.859324
              ],
              [
                106.205695,
                20.85933
              ],
              [
                106.205536,
                20.859868
              ],
              [
                106.205762,
                20.859967
              ],
              [
                106.205767,
                20.860088
              ],
              [
                106.205806,
                20.860167
              ],
              [
                106.205911,
                20.860216
              ],
              [
                106.205912,
                20.860216
              ],
              [
                106.205947,
                20.860244
              ],
              [
                106.206106,
                20.860334
              ],
              [
                106.206053,
                20.860704
              ],
              [
                106.206677,
                20.860822
              ],
              [
                106.206687,
                20.860872
              ],
              [
                106.206786,
                20.861364
              ],
              [
                106.206566,
                20.861461
              ],
              [
                106.206565,
                20.861748
              ],
              [
                106.206492,
                20.861782
              ],
              [
                106.206247,
                20.861896
              ],
              [
                106.20621,
                20.861931
              ],
              [
                106.206291,
                20.862049
              ],
              [
                106.206406,
                20.862739
              ],
              [
                106.20667,
                20.862712
              ],
              [
                106.206693,
                20.863267
              ],
              [
                106.20676,
                20.863432
              ],
              [
                106.20658,
                20.863618
              ],
              [
                106.206792,
                20.863782
              ],
              [
                106.207034,
                20.863496
              ],
              [
                106.207647,
                20.862771
              ],
              [
                106.20932,
                20.860794
              ],
              [
                106.209426,
                20.860764
              ],
              [
                106.211522,
                20.861559
              ],
              [
                106.212748,
                20.862024
              ],
              [
                106.213215,
                20.862202
              ],
              [
                106.215423,
                20.863043
              ],
              [
                106.215902,
                20.863226
              ],
              [
                106.21641,
                20.86342
              ],
              [
                106.217829,
                20.86396
              ],
              [
                106.218008,
                20.864005
              ],
              [
                106.218048,
                20.864326
              ],
              [
                106.218065,
                20.864418
              ],
              [
                106.218111,
                20.864654
              ],
              [
                106.218119,
                20.864696
              ],
              [
                106.218566,
                20.864965
              ],
              [
                106.219702,
                20.865824
              ],
              [
                106.220533,
                20.864782
              ],
              [
                106.221752,
                20.865566
              ],
              [
                106.222023,
                20.865727
              ],
              [
                106.222077,
                20.865604
              ],
              [
                106.222426,
                20.864976
              ],
              [
                106.222426,
                20.864975
              ],
              [
                106.223856,
                20.862433
              ],
              [
                106.224802,
                20.863026
              ],
              [
                106.225323,
                20.86238
              ],
              [
                106.225412,
                20.862447
              ],
              [
                106.225867,
                20.862713
              ],
              [
                106.226028,
                20.862774
              ],
              [
                106.226097,
                20.862798
              ],
              [
                106.226132,
                20.86279
              ],
              [
                106.22637,
                20.862496
              ],
              [
                106.226974,
                20.862927
              ],
              [
                106.227,
                20.862874
              ],
              [
                106.227204,
                20.862458
              ],
              [
                106.227624,
                20.861499
              ],
              [
                106.227743,
                20.86141
              ],
              [
                106.228588,
                20.861473
              ],
              [
                106.23001,
                20.861577
              ],
              [
                106.230149,
                20.861587
              ],
              [
                106.231096,
                20.861885
              ],
              [
                106.231757,
                20.862109
              ],
              [
                106.231908,
                20.862158
              ],
              [
                106.231968,
                20.862125
              ],
              [
                106.231969,
                20.862124
              ],
              [
                106.231838,
                20.861821
              ],
              [
                106.231784,
                20.861706
              ],
              [
                106.231693,
                20.861511
              ],
              [
                106.231664,
                20.861451
              ],
              [
                106.231625,
                20.861366
              ],
              [
                106.231593,
                20.861298
              ],
              [
                106.231618,
                20.861239
              ],
              [
                106.231653,
                20.86116
              ],
              [
                106.231655,
                20.861154
              ],
              [
                106.23174,
                20.860958
              ],
              [
                106.231784,
                20.860857
              ],
              [
                106.23186,
                20.860808
              ],
              [
                106.231911,
                20.860675
              ],
              [
                106.232002,
                20.860438
              ],
              [
                106.232045,
                20.860326
              ],
              [
                106.232057,
                20.860295
              ],
              [
                106.232229,
                20.859847
              ],
              [
                106.23223,
                20.859845
              ],
              [
                106.232276,
                20.859726
              ],
              [
                106.232358,
                20.859514
              ],
              [
                106.232357,
                20.85943
              ],
              [
                106.232273,
                20.859373
              ],
              [
                106.232261,
                20.859365
              ],
              [
                106.231674,
                20.859148
              ],
              [
                106.230974,
                20.858998
              ],
              [
                106.230795,
                20.858951
              ],
              [
                106.230738,
                20.858898
              ],
              [
                106.230607,
                20.858573
              ],
              [
                106.230596,
                20.858545
              ],
              [
                106.23059,
                20.858531
              ],
              [
                106.230404,
                20.858066
              ],
              [
                106.230287,
                20.857776
              ],
              [
                106.230268,
                20.857729
              ],
              [
                106.230089,
                20.857283
              ],
              [
                106.230025,
                20.857254
              ],
              [
                106.22991,
                20.857231
              ],
              [
                106.22993,
                20.856976
              ],
              [
                106.229932,
                20.856958
              ],
              [
                106.230079,
                20.855048
              ],
              [
                106.230111,
                20.854645
              ],
              [
                106.230116,
                20.854573
              ],
              [
                106.230124,
                20.854515
              ],
              [
                106.230192,
                20.854378
              ],
              [
                106.230261,
                20.854242
              ],
              [
                106.230275,
                20.854214
              ],
              [
                106.230291,
                20.854183
              ],
              [
                106.230308,
                20.854149
              ],
              [
                106.230341,
                20.853465
              ],
              [
                106.230393,
                20.853364
              ],
              [
                106.230647,
                20.852867
              ],
              [
                106.230841,
                20.852546
              ],
              [
                106.231017,
                20.852235
              ],
              [
                106.231295,
                20.851918
              ],
              [
                106.231381,
                20.851806
              ],
              [
                106.231721,
                20.851406
              ],
              [
                106.232121,
                20.850874
              ],
              [
                106.231658,
                20.85055
              ],
              [
                106.232019,
                20.85007
              ],
              [
                106.23202,
                20.85007
              ],
              [
                106.232195,
                20.849836
              ],
              [
                106.232314,
                20.849678
              ],
              [
                106.232193,
                20.849591
              ],
              [
                106.231571,
                20.849142
              ],
              [
                106.231501,
                20.849097
              ],
              [
                106.232186,
                20.848692
              ],
              [
                106.232204,
                20.848681
              ],
              [
                106.23276,
                20.848353
              ],
              [
                106.233062,
                20.848179
              ],
              [
                106.232832,
                20.847874
              ],
              [
                106.232304,
                20.847173
              ],
              [
                106.233423,
                20.8459
              ],
              [
                106.234955,
                20.844329
              ],
              [
                106.235873,
                20.843382
              ],
              [
                106.23658,
                20.842648
              ],
              [
                106.23682,
                20.842901
              ],
              [
                106.237451,
                20.843568
              ],
              [
                106.239478,
                20.845685
              ],
              [
                106.242121,
                20.846111
              ],
              [
                106.242266,
                20.845359
              ],
              [
                106.242413,
                20.845175
              ],
              [
                106.242555,
                20.844997
              ],
              [
                106.242764,
                20.844733
              ],
              [
                106.243043,
                20.844383
              ],
              [
                106.24323,
                20.844147
              ],
              [
                106.243418,
                20.84391
              ],
              [
                106.244255,
                20.842902
              ],
              [
                106.244967,
                20.842044
              ],
              [
                106.245165,
                20.8418
              ],
              [
                106.245267,
                20.841674
              ],
              [
                106.245439,
                20.841808
              ],
              [
                106.24561,
                20.841939
              ],
              [
                106.245638,
                20.841961
              ],
              [
                106.246969,
                20.842993
              ],
              [
                106.247061,
                20.843064
              ],
              [
                106.247092,
                20.843114
              ],
              [
                106.247087,
                20.843143
              ],
              [
                106.246617,
                20.84394
              ],
              [
                106.246459,
                20.844208
              ],
              [
                106.246357,
                20.84438
              ],
              [
                106.246707,
                20.844417
              ],
              [
                106.24674,
                20.844493
              ],
              [
                106.248693,
                20.84472
              ],
              [
                106.248473,
                20.844526
              ],
              [
                106.248436,
                20.844483
              ],
              [
                106.2484,
                20.844442
              ],
              [
                106.248214,
                20.844267
              ],
              [
                106.248183,
                20.844181
              ],
              [
                106.248483,
                20.843395
              ],
              [
                106.248624,
                20.843025
              ],
              [
                106.249101,
                20.841743
              ],
              [
                106.249174,
                20.841449
              ],
              [
                106.249358,
                20.840889
              ],
              [
                106.249382,
                20.840823
              ],
              [
                106.249404,
                20.840762
              ],
              [
                106.249404,
                20.840762
              ]
            ]
          ]
        ]
      },
      "properties": {
        "code": "11242",
        "name": "Nguyễn Lương Bằng",
        "nameEn": "Nguyen Luong Bang",
        "fullName": "Xã Nguyễn Lương Bằng",
        "fullNameEn": "Nguyen Luong Bang Commune",
        "codeName": "nguyen_luong_bang",
        "postalCode": "03777",
        "postalCodePrefix": "",
        "gisServerId": "diaphanhanhchinhcapxa_2025.894",
        "areaKm2": 21.78
      }
    }
  ]
}