{
  "type": "FeatureCollection",
  "bbox": [
    106.168709,
    20.765572,
    106.245497,
    20.82099
  ],
  "features": [
    {
      "type": "Feature",
      "id": "11254",
      "bbox": [
        106.168709,
        20.765572,
        106.245497,
        20.82099
      ],
      "geometry": {
        "type": "MultiPolygon",
        "coordinates": [
          [
            [
              [
                106.179529,
                20.820789
              ],
              [
                106.180279,
                20.820657
              ],
              [
                106.182876,
                20.819744
              ],
              [
                106.186634,
                20.818449
              ],
              [
                106.186745,
                20.818409
              ],
              [
                106.186876,
                20.81839
              ],
              [
                106.187705,
                20.818517
              ],
              [
                106.189813,
                20.818838
              ],
              [
                106.189898,
                20.818851
              ],
              [
                106.191387,
                20.819091
              ],
              [
                106.191957,
                20.819187
              ],
              [
                106.194248,
                20.819574
              ],
              [
                106.194261,
                20.819576
              ],
              [
                106.194791,
                20.819685
              ],
              [
                106.196126,
                20.819958
              ],
              [
                106.1964,
                20.820013
              ],
              [
                106.197337,
                20.820201
              ],
              [
                106.197829,
                20.819833
              ],
              [
                106.198534,
                20.819778
              ],
              [
                106.199912,
                20.816483
              ],
              [
                106.200214,
                20.816801
              ],
              [
                106.201121,
                20.817774
              ],
              [
                106.202004,
                20.81722
              ],
              [
                106.203106,
                20.817444
              ],
              [
                106.203793,
                20.817583
              ],
              [
                106.206197,
                20.817976
              ],
              [
                106.20648,
                20.817066
              ],
              [
                106.206553,
                20.817005
              ],
              [
                106.207525,
                20.81693
              ],
              [
                106.20756,
                20.817005
              ],
              [
                106.20802,
                20.817078
              ],
              [
                106.208025,
                20.817189
              ],
              [
                106.208244,
                20.817192
              ],
              [
                106.208304,
                20.817043
              ],
              [
                106.20898,
                20.817197
              ],
              [
                106.209861,
                20.815104
              ],
              [
                106.20991,
                20.814987
              ],
              [
                106.213012,
                20.816076
              ],
              [
                106.213064,
                20.815983
              ],
              [
                106.214326,
                20.813051
              ],
              [
                106.214388,
                20.81292
              ],
              [
                106.213848,
                20.81223
              ],
              [
                106.213991,
                20.812213
              ],
              [
                106.214215,
                20.812187
              ],
              [
                106.214388,
                20.812144
              ],
              [
                106.214437,
                20.812049
              ],
              [
                106.214638,
                20.811511
              ],
              [
                106.214927,
                20.810887
              ],
              [
                106.215017,
                20.810751
              ],
              [
                106.215061,
                20.810684
              ],
              [
                106.215406,
                20.810742
              ],
              [
                106.218812,
                20.811314
              ],
              [
                106.223388,
                20.812124
              ],
              [
                106.224693,
                20.812348
              ],
              [
                106.225552,
                20.812455
              ],
              [
                106.228819,
                20.812781
              ],
              [
                106.229229,
                20.812818
              ],
              [
                106.229282,
                20.812823
              ],
              [
                106.229296,
                20.812824
              ],
              [
                106.229448,
                20.812817
              ],
              [
                106.229518,
                20.812666
              ],
              [
                106.229537,
                20.812596
              ],
              [
                106.229601,
                20.812224
              ],
              [
                106.229675,
                20.811793
              ],
              [
                106.229766,
                20.811237
              ],
              [
                106.230001,
                20.81138
              ],
              [
                106.230352,
                20.811622
              ],
              [
                106.230574,
                20.811743
              ],
              [
                106.230696,
                20.811778
              ],
              [
                106.230834,
                20.811784
              ],
              [
                106.230874,
                20.811777
              ],
              [
                106.23158,
                20.81166
              ],
              [
                106.232157,
                20.811568
              ],
              [
                106.232662,
                20.811487
              ],
              [
                106.233575,
                20.811211
              ],
              [
                106.233635,
                20.811193
              ],
              [
                106.233819,
                20.811459
              ],
              [
                106.233844,
                20.811496
              ],
              [
                106.234052,
                20.811429
              ],
              [
                106.234219,
                20.811344
              ],
              [
                106.234387,
                20.811273
              ],
              [
                106.234526,
                20.81126
              ],
              [
                106.234566,
                20.81158
              ],
              [
                106.234703,
                20.811575
              ],
              [
                106.23508,
                20.811629
              ],
              [
                106.235232,
                20.811619
              ],
              [
                106.235298,
                20.81157
              ],
              [
                106.235715,
                20.810994
              ],
              [
                106.235837,
                20.810916
              ],
              [
                106.235954,
                20.810906
              ],
              [
                106.23602,
                20.810905
              ],
              [
                106.236153,
                20.810995
              ],
              [
                106.236181,
                20.811079
              ],
              [
                106.236205,
                20.811148
              ],
              [
                106.23621,
                20.811162
              ],
              [
                106.236201,
                20.811433
              ],
              [
                106.236199,
                20.811504
              ],
              [
                106.23619,
                20.811784
              ],
              [
                106.236206,
                20.811913
              ],
              [
                106.236283,
                20.812032
              ],
              [
                106.236554,
                20.812154
              ],
              [
                106.236681,
                20.812215
              ],
              [
                106.236704,
                20.812244
              ],
              [
                106.236733,
                20.812282
              ],
              [
                106.236753,
                20.812353
              ],
              [
                106.23674,
                20.812511
              ],
              [
                106.236721,
                20.812722
              ],
              [
                106.236728,
                20.812755
              ],
              [
                106.236757,
                20.812899
              ],
              [
                106.236803,
                20.812998
              ],
              [
                106.236832,
                20.813016
              ],
              [
                106.236886,
                20.813013
              ],
              [
                106.237,
                20.812961
              ],
              [
                106.237155,
                20.812867
              ],
              [
                106.237241,
                20.812834
              ],
              [
                106.23732,
                20.812824
              ],
              [
                106.23738,
                20.812827
              ],
              [
                106.237463,
                20.812844
              ],
              [
                106.237518,
                20.812909
              ],
              [
                106.237599,
                20.813115
              ],
              [
                106.237679,
                20.813264
              ],
              [
                106.237744,
                20.813332
              ],
              [
                106.237799,
                20.813363
              ],
              [
                106.237833,
                20.813382
              ],
              [
                106.238008,
                20.813417
              ],
              [
                106.238128,
                20.813445
              ],
              [
                106.238168,
                20.813455
              ],
              [
                106.238303,
                20.813475
              ],
              [
                106.238451,
                20.813536
              ],
              [
                106.23858,
                20.813621
              ],
              [
                106.238678,
                20.813696
              ],
              [
                106.238754,
                20.813794
              ],
              [
                106.238787,
                20.813904
              ],
              [
                106.238808,
                20.814095
              ],
              [
                106.238866,
                20.814202
              ],
              [
                106.238968,
                20.814294
              ],
              [
                106.23908,
                20.814344
              ],
              [
                106.239305,
                20.814413
              ],
              [
                106.239478,
                20.814443
              ],
              [
                106.239577,
                20.814442
              ],
              [
                106.239672,
                20.814421
              ],
              [
                106.23983,
                20.81434
              ],
              [
                106.239864,
                20.814317
              ],
              [
                106.240043,
                20.814204
              ],
              [
                106.240149,
                20.814102
              ],
              [
                106.2402,
                20.814085
              ],
              [
                106.240124,
                20.813908
              ],
              [
                106.240108,
                20.813824
              ],
              [
                106.24011,
                20.81375
              ],
              [
                106.240167,
                20.81366
              ],
              [
                106.240259,
                20.813602
              ],
              [
                106.240369,
                20.813533
              ],
              [
                106.240445,
                20.813463
              ],
              [
                106.24052,
                20.813349
              ],
              [
                106.240565,
                20.813349
              ],
              [
                106.240577,
                20.813328
              ],
              [
                106.240737,
                20.813052
              ],
              [
                106.240881,
                20.812764
              ],
              [
                106.240956,
                20.812656
              ],
              [
                106.241036,
                20.812541
              ],
              [
                106.241376,
                20.812756
              ],
              [
                106.241399,
                20.812773
              ],
              [
                106.241503,
                20.812848
              ],
              [
                106.241531,
                20.812849
              ],
              [
                106.241571,
                20.812844
              ],
              [
                106.241632,
                20.812833
              ],
              [
                106.242047,
                20.812568
              ],
              [
                106.242138,
                20.812472
              ],
              [
                106.242546,
                20.812043
              ],
              [
                106.242667,
                20.811855
              ],
              [
                106.243097,
                20.811064
              ],
              [
                106.24433,
                20.808779
              ],
              [
                106.24434,
                20.808754
              ],
              [
                106.244696,
                20.807931
              ],
              [
                106.245471,
                20.806179
              ],
              [
                106.245497,
                20.806078
              ],
              [
                106.245458,
                20.805996
              ],
              [
                106.245373,
                20.805904
              ],
              [
                106.244758,
                20.805241
              ],
              [
                106.244427,
                20.804924
              ],
              [
                106.24421,
                20.80476
              ],
              [
                106.244128,
                20.804697
              ],
              [
                106.243084,
                20.803909
              ],
              [
                106.242463,
                20.803436
              ],
              [
                106.242306,
                20.803316
              ],
              [
                106.241983,
                20.80307
              ],
              [
                106.241973,
                20.803007
              ],
              [
                106.242524,
                20.802712
              ],
              [
                106.242446,
                20.802652
              ],
              [
                106.242194,
                20.802493
              ],
              [
                106.242044,
                20.802404
              ],
              [
                106.241932,
                20.802297
              ],
              [
                106.241781,
                20.802134
              ],
              [
                106.241739,
                20.802099
              ],
              [
                106.241528,
                20.801924
              ],
              [
                106.241413,
                20.801866
              ],
              [
                106.241286,
                20.801803
              ],
              [
                106.241152,
                20.801732
              ],
              [
                106.241033,
                20.801584
              ],
              [
                106.241007,
                20.801525
              ],
              [
                106.240745,
                20.800949
              ],
              [
                106.240668,
                20.800827
              ],
              [
                106.240601,
                20.800759
              ],
              [
                106.240574,
                20.800739
              ],
              [
                106.240514,
                20.800694
              ],
              [
                106.240469,
                20.800635
              ],
              [
                106.240441,
                20.800473
              ],
              [
                106.240406,
                20.800277
              ],
              [
                106.240385,
                20.799691
              ],
              [
                106.240381,
                20.799616
              ],
              [
                106.240362,
                20.799587
              ],
              [
                106.240322,
                20.799575
              ],
              [
                106.240302,
                20.799569
              ],
              [
                106.240238,
                20.799564
              ],
              [
                106.24013,
                20.799567
              ],
              [
                106.24,
                20.799571
              ],
              [
                106.239949,
                20.79956
              ],
              [
                106.239933,
                20.799536
              ],
              [
                106.239862,
                20.799226
              ],
              [
                106.239686,
                20.79845
              ],
              [
                106.23958,
                20.797967
              ],
              [
                106.239535,
                20.797863
              ],
              [
                106.239477,
                20.797764
              ],
              [
                106.239457,
                20.797663
              ],
              [
                106.239468,
                20.797511
              ],
              [
                106.239467,
                20.79731
              ],
              [
                106.239436,
                20.797054
              ],
              [
                106.239349,
                20.796707
              ],
              [
                106.239331,
                20.796633
              ],
              [
                106.23932,
                20.79651
              ],
              [
                106.239265,
                20.796518
              ],
              [
                106.239073,
                20.796545
              ],
              [
                106.238002,
                20.796941
              ],
              [
                106.236078,
                20.797594
              ],
              [
                106.235792,
                20.797608
              ],
              [
                106.235537,
                20.797568
              ],
              [
                106.235077,
                20.7974
              ],
              [
                106.23503,
                20.797383
              ],
              [
                106.235183,
                20.796955
              ],
              [
                106.23218,
                20.795951
              ],
              [
                106.229781,
                20.795125
              ],
              [
                106.229263,
                20.794946
              ],
              [
                106.229084,
                20.794885
              ],
              [
                106.227323,
                20.794276
              ],
              [
                106.226678,
                20.794054
              ],
              [
                106.226643,
                20.794042
              ],
              [
                106.226594,
                20.794025
              ],
              [
                106.223868,
                20.793084
              ],
              [
                106.223506,
                20.79296
              ],
              [
                106.224006,
                20.792035
              ],
              [
                106.2243,
                20.791483
              ],
              [
                106.224437,
                20.791126
              ],
              [
                106.224475,
                20.790984
              ],
              [
                106.224436,
                20.790966
              ],
              [
                106.224309,
                20.790907
              ],
              [
                106.22221,
                20.78986
              ],
              [
                106.220826,
                20.789164
              ],
              [
                106.220714,
                20.789084
              ],
              [
                106.220636,
                20.788905
              ],
              [
                106.220572,
                20.78878
              ],
              [
                106.220501,
                20.78873
              ],
              [
                106.220218,
                20.788609
              ],
              [
                106.219705,
                20.788461
              ],
              [
                106.21944,
                20.788382
              ],
              [
                106.216972,
                20.78765
              ],
              [
                106.216877,
                20.787607
              ],
              [
                106.21825,
                20.784666
              ],
              [
                106.218655,
                20.783836
              ],
              [
                106.220026,
                20.781211
              ],
              [
                106.220918,
                20.779513
              ],
              [
                106.221241,
                20.778894
              ],
              [
                106.221563,
                20.778275
              ],
              [
                106.222034,
                20.777392
              ],
              [
                106.222295,
                20.776926
              ],
              [
                106.22244,
                20.776646
              ],
              [
                106.222231,
                20.776528
              ],
              [
                106.221497,
                20.776265
              ],
              [
                106.220243,
                20.77592
              ],
              [
                106.216212,
                20.774971
              ],
              [
                106.215986,
                20.774918
              ],
              [
                106.212623,
                20.773986
              ],
              [
                106.211645,
                20.773706
              ],
              [
                106.210851,
                20.77353
              ],
              [
                106.21021,
                20.773448
              ],
              [
                106.209355,
                20.773358
              ],
              [
                106.208317,
                20.773261
              ],
              [
                106.207136,
                20.772972
              ],
              [
                106.205791,
                20.772571
              ],
              [
                106.204771,
                20.772167
              ],
              [
                106.203169,
                20.77149
              ],
              [
                106.201833,
                20.770916
              ],
              [
                106.200332,
                20.770113
              ],
              [
                106.198901,
                20.769129
              ],
              [
                106.197816,
                20.768219
              ],
              [
                106.195633,
                20.765891
              ],
              [
                106.195265,
                20.765664
              ],
              [
                106.195031,
                20.765609
              ],
              [
                106.194776,
                20.765572
              ],
              [
                106.194076,
                20.765749
              ],
              [
                106.193457,
                20.765887
              ],
              [
                106.193051,
                20.76589
              ],
              [
                106.192637,
                20.765817
              ],
              [
                106.192231,
                20.765856
              ],
              [
                106.190902,
                20.765776
              ],
              [
                106.190737,
                20.765777
              ],
              [
                106.190591,
                20.765796
              ],
              [
                106.190376,
                20.765857
              ],
              [
                106.190104,
                20.766056
              ],
              [
                106.189605,
                20.766484
              ],
              [
                106.189264,
                20.766665
              ],
              [
                106.188991,
                20.766763
              ],
              [
                106.188699,
                20.766795
              ],
              [
                106.188356,
                20.766797
              ],
              [
                106.187815,
                20.766705
              ],
              [
                106.187318,
                20.766495
              ],
              [
                106.187193,
                20.766801
              ],
              [
                106.187409,
                20.767004
              ],
              [
                106.187324,
                20.767138
              ],
              [
                106.187314,
                20.767186
              ],
              [
                106.18733,
                20.767243
              ],
              [
                106.187594,
                20.767534
              ],
              [
                106.187607,
                20.767547
              ],
              [
                106.18817,
                20.768069
              ],
              [
                106.188584,
                20.768454
              ],
              [
                106.188733,
                20.768591
              ],
              [
                106.188759,
                20.76862
              ],
              [
                106.188764,
                20.768701
              ],
              [
                106.18876,
                20.768759
              ],
              [
                106.188709,
                20.768802
              ],
              [
                106.188443,
                20.768946
              ],
              [
                106.18837,
                20.768907
              ],
              [
                106.188293,
                20.768908
              ],
              [
                106.188187,
                20.768959
              ],
              [
                106.187661,
                20.769255
              ],
              [
                106.187237,
                20.769476
              ],
              [
                106.186853,
                20.769679
              ],
              [
                106.186649,
                20.769855
              ],
              [
                106.186643,
                20.76986
              ],
              [
                106.186438,
                20.769988
              ],
              [
                106.186651,
                20.770224
              ],
              [
                106.186243,
                20.770527
              ],
              [
                106.186899,
                20.771382
              ],
              [
                106.187432,
                20.772179
              ],
              [
                106.187605,
                20.772437
              ],
              [
                106.187409,
                20.772585
              ],
              [
                106.187138,
                20.772788
              ],
              [
                106.187435,
                20.773152
              ],
              [
                106.187455,
                20.773226
              ],
              [
                106.187462,
                20.77324
              ],
              [
                106.187498,
                20.773309
              ],
              [
                106.187682,
                20.773511
              ],
              [
                106.187575,
                20.773589
              ],
              [
                106.18769,
                20.773695
              ],
              [
                106.187922,
                20.773952
              ],
              [
                106.187905,
                20.77398
              ],
              [
                106.187791,
                20.774055
              ],
              [
                106.187944,
                20.774199
              ],
              [
                106.188231,
                20.774451
              ],
              [
                106.18824,
                20.774459
              ],
              [
                106.187782,
                20.775326
              ],
              [
                106.187775,
                20.775338
              ],
              [
                106.187809,
                20.775399
              ],
              [
                106.188134,
                20.775986
              ],
              [
                106.186627,
                20.776717
              ],
              [
                106.185375,
                20.777324
              ],
              [
                106.185119,
                20.777448
              ],
              [
                106.185351,
                20.777563
              ],
              [
                106.185355,
                20.777565
              ],
              [
                106.185893,
                20.777937
              ],
              [
                106.185972,
                20.777991
              ],
              [
                106.186056,
                20.778058
              ],
              [
                106.185894,
                20.778398
              ],
              [
                106.185491,
                20.779191
              ],
              [
                106.184942,
                20.780422
              ],
              [
                106.184819,
                20.78069
              ],
              [
                106.184751,
                20.780839
              ],
              [
                106.185841,
                20.781997
              ],
              [
                106.186016,
                20.78218
              ],
              [
                106.186022,
                20.782186
              ],
              [
                106.186564,
                20.782753
              ],
              [
                106.187628,
                20.783222
              ],
              [
                106.18788,
                20.783333
              ],
              [
                106.187486,
                20.784092
              ],
              [
                106.187433,
                20.784193
              ],
              [
                106.188063,
                20.784469
              ],
              [
                106.188427,
                20.784628
              ],
              [
                106.188276,
                20.784938
              ],
              [
                106.188415,
                20.785026
              ],
              [
                106.188404,
                20.785153
              ],
              [
                106.188302,
                20.785466
              ],
              [
                106.188191,
                20.785633
              ],
              [
                106.188127,
                20.78573
              ],
              [
                106.188334,
                20.785836
              ],
              [
                106.188487,
                20.785914
              ],
              [
                106.188059,
                20.786848
              ],
              [
                106.187526,
                20.78663
              ],
              [
                106.187495,
                20.786678
              ],
              [
                106.186911,
                20.786424
              ],
              [
                106.186357,
                20.787546
              ],
              [
                106.186421,
                20.787588
              ],
              [
                106.186127,
                20.788189
              ],
              [
                106.185999,
                20.788452
              ],
              [
                106.186052,
                20.788533
              ],
              [
                106.18616,
                20.788699
              ],
              [
                106.186157,
                20.788742
              ],
              [
                106.185574,
                20.789701
              ],
              [
                106.184694,
                20.789303
              ],
              [
                106.184363,
                20.789814
              ],
              [
                106.184355,
                20.789827
              ],
              [
                106.183429,
                20.791254
              ],
              [
                106.183291,
                20.791468
              ],
              [
                106.184642,
                20.792334
              ],
              [
                106.184839,
                20.79246
              ],
              [
                106.184409,
                20.793052
              ],
              [
                106.184377,
                20.793096
              ],
              [
                106.183915,
                20.793731
              ],
              [
                106.183848,
                20.793824
              ],
              [
                106.183855,
                20.793826
              ],
              [
                106.184137,
                20.793928
              ],
              [
                106.186034,
                20.794709
              ],
              [
                106.186398,
                20.794875
              ],
              [
                106.186899,
                20.795142
              ],
              [
                106.187688,
                20.795619
              ],
              [
                106.187718,
                20.795644
              ],
              [
                106.184525,
                20.799349
              ],
              [
                106.184447,
                20.799283
              ],
              [
                106.184224,
                20.799124
              ],
              [
                106.182549,
                20.797932
              ],
              [
                106.182466,
                20.79801
              ],
              [
                106.17981,
                20.800477
              ],
              [
                106.179592,
                20.800679
              ],
              [
                106.179573,
                20.800697
              ],
              [
                106.179185,
                20.800305
              ],
              [
                106.177862,
                20.801261
              ],
              [
                106.177768,
                20.801331
              ],
              [
                106.177642,
                20.801426
              ],
              [
                106.17503,
                20.803387
              ],
              [
                106.174885,
                20.803496
              ],
              [
                106.174751,
                20.803466
              ],
              [
                106.174468,
                20.803404
              ],
              [
                106.174439,
                20.803482
              ],
              [
                106.172559,
                20.808417
              ],
              [
                106.172703,
                20.808427
              ],
              [
                106.172703,
                20.808427
              ],
              [
                106.172552,
                20.808814
              ],
              [
                106.172926,
                20.808844
              ],
              [
                106.172984,
                20.808849
              ],
              [
                106.172983,
                20.809437
              ],
              [
                106.172797,
                20.80953
              ],
              [
                106.172766,
                20.80982
              ],
              [
                106.172744,
                20.810777
              ],
              [
                106.17278,
                20.81092
              ],
              [
                106.172638,
                20.811104
              ],
              [
                106.172215,
                20.81117
              ],
              [
                106.171919,
                20.811216
              ],
              [
                106.172009,
                20.811657
              ],
              [
                106.172084,
                20.812029
              ],
              [
                106.171121,
                20.812219
              ],
              [
                106.17104,
                20.811865
              ],
              [
                106.17103,
                20.811869
              ],
              [
                106.170171,
                20.812158
              ],
              [
                106.168709,
                20.812646
              ],
              [
                106.168726,
                20.812736
              ],
              [
                106.168996,
                20.813646
              ],
              [
                106.169045,
                20.813687
              ],
              [
                106.169265,
                20.813617
              ],
              [
                106.171059,
                20.813111
              ],
              [
                106.171308,
                20.813042
              ],
              [
                106.171803,
                20.815221
              ],
              [
                106.171888,
                20.815595
              ],
              [
                106.172775,
                20.81532
              ],
              [
                106.17297,
                20.815814
              ],
              [
                106.173207,
                20.816528
              ],
              [
                106.17428,
                20.816239
              ],
              [
                106.174121,
                20.815681
              ],
              [
                106.17443,
                20.815646
              ],
              [
                106.174577,
                20.816125
              ],
              [
                106.175396,
                20.815887
              ],
              [
                106.175429,
                20.815885
              ],
              [
                106.175472,
                20.815882
              ],
              [
                106.175858,
                20.816843
              ],
              [
                106.176172,
                20.817607
              ],
              [
                106.176196,
                20.817688
              ],
              [
                106.176277,
                20.81766
              ],
              [
                106.176318,
                20.817726
              ],
              [
                106.176441,
                20.817925
              ],
              [
                106.176477,
                20.818415
              ],
              [
                106.177532,
                20.820658
              ],
              [
                106.177805,
                20.820524
              ],
              [
                106.178069,
                20.820822
              ],
              [
                106.178729,
                20.820505
              ],
              [
                106.178876,
                20.820803
              ],
              [
                106.178967,
                20.82099
              ],
              [
                106.17941,
                20.82082
              ],
              [
                106.179529,
                20.820789
              ],
              [
                106.179529,
                20.820789
              ]
            ]
          ]
        ]
      },
      "properties": {
        "code": "11254",
        "name": "Bắc Thanh Miện",
        "nameEn": "Bac Thanh Mien",
        "fullName": "Xã Bắc Thanh Miện",
        "fullNameEn": "Bac Thanh Mien Commune",
        "codeName": "bac_thanh_mien",
        "postalCode": "03775",
        "postalCodePrefix": "",
        "gisServerId": "diaphanhanhchinhcapxa_2025.898",
        "areaKm2": 25.27
      }
    }
  ]
}