{
  "type": "FeatureCollection",
  "bbox": [
    106.131184,
    20.762731,
    106.188764,
    20.841377
  ],
  "features": [
    {
      "type": "Feature",
      "id": "11257",
      "bbox": [
        106.131184,
        20.762731,
        106.188764,
        20.841377
      ],
      "geometry": {
        "type": "MultiPolygon",
        "coordinates": [
          [
            [
              [
                106.176651,
                20.84047
              ],
              [
                106.176704,
                20.837981
              ],
              [
                106.176703,
                20.837798
              ],
              [
                106.1767,
                20.837071
              ],
              [
                106.1767,
                20.836975
              ],
              [
                106.176691,
                20.835011
              ],
              [
                106.176688,
                20.834287
              ],
              [
                106.176683,
                20.833137
              ],
              [
                106.176679,
                20.83226
              ],
              [
                106.176697,
                20.832146
              ],
              [
                106.176718,
                20.832128
              ],
              [
                106.176717,
                20.831852
              ],
              [
                106.17674,
                20.831765
              ],
              [
                106.176898,
                20.831616
              ],
              [
                106.177085,
                20.831439
              ],
              [
                106.177244,
                20.831286
              ],
              [
                106.177513,
                20.831035
              ],
              [
                106.177634,
                20.830932
              ],
              [
                106.17603,
                20.829724
              ],
              [
                106.176449,
                20.82919
              ],
              [
                106.177671,
                20.827944
              ],
              [
                106.178167,
                20.82748
              ],
              [
                106.178691,
                20.82708
              ],
              [
                106.180259,
                20.825883
              ],
              [
                106.180349,
                20.825817
              ],
              [
                106.180726,
                20.82554
              ],
              [
                106.181166,
                20.825217
              ],
              [
                106.180653,
                20.824749
              ],
              [
                106.179649,
                20.823287
              ],
              [
                106.179613,
                20.823228
              ],
              [
                106.182213,
                20.822493
              ],
              [
                106.181847,
                20.822257
              ],
              [
                106.179595,
                20.820915
              ],
              [
                106.179529,
                20.820789
              ],
              [
                106.17941,
                20.82082
              ],
              [
                106.178967,
                20.82099
              ],
              [
                106.178876,
                20.820803
              ],
              [
                106.178729,
                20.820505
              ],
              [
                106.178069,
                20.820822
              ],
              [
                106.177805,
                20.820524
              ],
              [
                106.177532,
                20.820658
              ],
              [
                106.176477,
                20.818415
              ],
              [
                106.176441,
                20.817925
              ],
              [
                106.176318,
                20.817726
              ],
              [
                106.176277,
                20.81766
              ],
              [
                106.176196,
                20.817688
              ],
              [
                106.176172,
                20.817607
              ],
              [
                106.175858,
                20.816843
              ],
              [
                106.175472,
                20.815882
              ],
              [
                106.175429,
                20.815885
              ],
              [
                106.175396,
                20.815887
              ],
              [
                106.174577,
                20.816125
              ],
              [
                106.17443,
                20.815646
              ],
              [
                106.174121,
                20.815681
              ],
              [
                106.17428,
                20.816239
              ],
              [
                106.173207,
                20.816528
              ],
              [
                106.17297,
                20.815814
              ],
              [
                106.172775,
                20.81532
              ],
              [
                106.171888,
                20.815595
              ],
              [
                106.171803,
                20.815221
              ],
              [
                106.171308,
                20.813042
              ],
              [
                106.171059,
                20.813111
              ],
              [
                106.169265,
                20.813617
              ],
              [
                106.169045,
                20.813687
              ],
              [
                106.168996,
                20.813646
              ],
              [
                106.168726,
                20.812736
              ],
              [
                106.168709,
                20.812646
              ],
              [
                106.170171,
                20.812158
              ],
              [
                106.17103,
                20.811869
              ],
              [
                106.17104,
                20.811865
              ],
              [
                106.171121,
                20.812219
              ],
              [
                106.172084,
                20.812029
              ],
              [
                106.172009,
                20.811657
              ],
              [
                106.171919,
                20.811216
              ],
              [
                106.172215,
                20.81117
              ],
              [
                106.172638,
                20.811104
              ],
              [
                106.17278,
                20.81092
              ],
              [
                106.172744,
                20.810777
              ],
              [
                106.172766,
                20.80982
              ],
              [
                106.172797,
                20.80953
              ],
              [
                106.172983,
                20.809437
              ],
              [
                106.172984,
                20.808849
              ],
              [
                106.172926,
                20.808844
              ],
              [
                106.172552,
                20.808814
              ],
              [
                106.172703,
                20.808427
              ],
              [
                106.172703,
                20.808427
              ],
              [
                106.172559,
                20.808417
              ],
              [
                106.174439,
                20.803482
              ],
              [
                106.174468,
                20.803404
              ],
              [
                106.174751,
                20.803466
              ],
              [
                106.174885,
                20.803496
              ],
              [
                106.17503,
                20.803387
              ],
              [
                106.177642,
                20.801426
              ],
              [
                106.177768,
                20.801331
              ],
              [
                106.177862,
                20.801261
              ],
              [
                106.179185,
                20.800305
              ],
              [
                106.179573,
                20.800697
              ],
              [
                106.179592,
                20.800679
              ],
              [
                106.17981,
                20.800477
              ],
              [
                106.182466,
                20.79801
              ],
              [
                106.182549,
                20.797932
              ],
              [
                106.184224,
                20.799124
              ],
              [
                106.184447,
                20.799283
              ],
              [
                106.184525,
                20.799349
              ],
              [
                106.187718,
                20.795644
              ],
              [
                106.187688,
                20.795619
              ],
              [
                106.186899,
                20.795142
              ],
              [
                106.186398,
                20.794875
              ],
              [
                106.186034,
                20.794709
              ],
              [
                106.184137,
                20.793928
              ],
              [
                106.183855,
                20.793826
              ],
              [
                106.183848,
                20.793824
              ],
              [
                106.183915,
                20.793731
              ],
              [
                106.184377,
                20.793096
              ],
              [
                106.184409,
                20.793052
              ],
              [
                106.184839,
                20.79246
              ],
              [
                106.184642,
                20.792334
              ],
              [
                106.183291,
                20.791468
              ],
              [
                106.183429,
                20.791254
              ],
              [
                106.184355,
                20.789827
              ],
              [
                106.184363,
                20.789814
              ],
              [
                106.184694,
                20.789303
              ],
              [
                106.185574,
                20.789701
              ],
              [
                106.186157,
                20.788742
              ],
              [
                106.18616,
                20.788699
              ],
              [
                106.186052,
                20.788533
              ],
              [
                106.185999,
                20.788452
              ],
              [
                106.186127,
                20.788189
              ],
              [
                106.186421,
                20.787588
              ],
              [
                106.186357,
                20.787546
              ],
              [
                106.186911,
                20.786424
              ],
              [
                106.187495,
                20.786678
              ],
              [
                106.187526,
                20.78663
              ],
              [
                106.188059,
                20.786848
              ],
              [
                106.188487,
                20.785914
              ],
              [
                106.188334,
                20.785836
              ],
              [
                106.188127,
                20.78573
              ],
              [
                106.188191,
                20.785633
              ],
              [
                106.188302,
                20.785466
              ],
              [
                106.188404,
                20.785153
              ],
              [
                106.188415,
                20.785026
              ],
              [
                106.188276,
                20.784938
              ],
              [
                106.188427,
                20.784628
              ],
              [
                106.188063,
                20.784469
              ],
              [
                106.187433,
                20.784193
              ],
              [
                106.187486,
                20.784092
              ],
              [
                106.18788,
                20.783333
              ],
              [
                106.187628,
                20.783222
              ],
              [
                106.186564,
                20.782753
              ],
              [
                106.186022,
                20.782186
              ],
              [
                106.186016,
                20.78218
              ],
              [
                106.185841,
                20.781997
              ],
              [
                106.184751,
                20.780839
              ],
              [
                106.184819,
                20.78069
              ],
              [
                106.184942,
                20.780422
              ],
              [
                106.185491,
                20.779191
              ],
              [
                106.185894,
                20.778398
              ],
              [
                106.186056,
                20.778058
              ],
              [
                106.185972,
                20.777991
              ],
              [
                106.185893,
                20.777937
              ],
              [
                106.185355,
                20.777565
              ],
              [
                106.185351,
                20.777563
              ],
              [
                106.185119,
                20.777448
              ],
              [
                106.185375,
                20.777324
              ],
              [
                106.186627,
                20.776717
              ],
              [
                106.188134,
                20.775986
              ],
              [
                106.187809,
                20.775399
              ],
              [
                106.187775,
                20.775338
              ],
              [
                106.187782,
                20.775326
              ],
              [
                106.18824,
                20.774459
              ],
              [
                106.188231,
                20.774451
              ],
              [
                106.187944,
                20.774199
              ],
              [
                106.187791,
                20.774055
              ],
              [
                106.187905,
                20.77398
              ],
              [
                106.187922,
                20.773952
              ],
              [
                106.18769,
                20.773695
              ],
              [
                106.187575,
                20.773589
              ],
              [
                106.187682,
                20.773511
              ],
              [
                106.187498,
                20.773309
              ],
              [
                106.187462,
                20.77324
              ],
              [
                106.187455,
                20.773226
              ],
              [
                106.187435,
                20.773152
              ],
              [
                106.187138,
                20.772788
              ],
              [
                106.187409,
                20.772585
              ],
              [
                106.187605,
                20.772437
              ],
              [
                106.187432,
                20.772179
              ],
              [
                106.186899,
                20.771382
              ],
              [
                106.186243,
                20.770527
              ],
              [
                106.186651,
                20.770224
              ],
              [
                106.186438,
                20.769988
              ],
              [
                106.186643,
                20.76986
              ],
              [
                106.186649,
                20.769855
              ],
              [
                106.186853,
                20.769679
              ],
              [
                106.187237,
                20.769476
              ],
              [
                106.187661,
                20.769255
              ],
              [
                106.188187,
                20.768959
              ],
              [
                106.188293,
                20.768908
              ],
              [
                106.18837,
                20.768907
              ],
              [
                106.188443,
                20.768946
              ],
              [
                106.188709,
                20.768802
              ],
              [
                106.18876,
                20.768759
              ],
              [
                106.188764,
                20.768701
              ],
              [
                106.188759,
                20.76862
              ],
              [
                106.188733,
                20.768591
              ],
              [
                106.188584,
                20.768454
              ],
              [
                106.18817,
                20.768069
              ],
              [
                106.187607,
                20.767547
              ],
              [
                106.187594,
                20.767534
              ],
              [
                106.18733,
                20.767243
              ],
              [
                106.187314,
                20.767186
              ],
              [
                106.187324,
                20.767138
              ],
              [
                106.187409,
                20.767004
              ],
              [
                106.187193,
                20.766801
              ],
              [
                106.187318,
                20.766495
              ],
              [
                106.186776,
                20.766205
              ],
              [
                106.186436,
                20.765878
              ],
              [
                106.185819,
                20.764974
              ],
              [
                106.18502,
                20.763521
              ],
              [
                106.184783,
                20.763194
              ],
              [
                106.184495,
                20.762975
              ],
              [
                106.18408,
                20.762769
              ],
              [
                106.183597,
                20.762731
              ],
              [
                106.183178,
                20.762739
              ],
              [
                106.182543,
                20.762815
              ],
              [
                106.181795,
                20.762988
              ],
              [
                106.181484,
                20.763104
              ],
              [
                106.181276,
                20.763213
              ],
              [
                106.180768,
                20.763701
              ],
              [
                106.180683,
                20.763766
              ],
              [
                106.179698,
                20.764616
              ],
              [
                106.179039,
                20.765313
              ],
              [
                106.178842,
                20.76562
              ],
              [
                106.178642,
                20.766105
              ],
              [
                106.178506,
                20.766572
              ],
              [
                106.178409,
                20.767123
              ],
              [
                106.178278,
                20.767434
              ],
              [
                106.177951,
                20.767974
              ],
              [
                106.176982,
                20.769134
              ],
              [
                106.175584,
                20.770704
              ],
              [
                106.174614,
                20.771834
              ],
              [
                106.174426,
                20.772188
              ],
              [
                106.174351,
                20.772403
              ],
              [
                106.174321,
                20.772613
              ],
              [
                106.174323,
                20.772858
              ],
              [
                106.174382,
                20.77312
              ],
              [
                106.174544,
                20.77346
              ],
              [
                106.17475,
                20.773774
              ],
              [
                106.174967,
                20.773983
              ],
              [
                106.175836,
                20.774556
              ],
              [
                106.176053,
                20.77471
              ],
              [
                106.176194,
                20.774877
              ],
              [
                106.17631,
                20.775085
              ],
              [
                106.17635,
                20.775276
              ],
              [
                106.176326,
                20.775515
              ],
              [
                106.176078,
                20.776324
              ],
              [
                106.175815,
                20.77678
              ],
              [
                106.17557,
                20.777122
              ],
              [
                106.174868,
                20.777623
              ],
              [
                106.174558,
                20.777756
              ],
              [
                106.174266,
                20.777794
              ],
              [
                106.173891,
                20.777779
              ],
              [
                106.173553,
                20.77765
              ],
              [
                106.172416,
                20.776821
              ],
              [
                106.172212,
                20.776786
              ],
              [
                106.172034,
                20.776817
              ],
              [
                106.171927,
                20.776914
              ],
              [
                106.171776,
                20.777214
              ],
              [
                106.171423,
                20.778485
              ],
              [
                106.171261,
                20.778807
              ],
              [
                106.170893,
                20.779362
              ],
              [
                106.16976,
                20.78067
              ],
              [
                106.168299,
                20.782396
              ],
              [
                106.167573,
                20.783242
              ],
              [
                106.166261,
                20.784485
              ],
              [
                106.165887,
                20.78474
              ],
              [
                106.165532,
                20.784891
              ],
              [
                106.165238,
                20.784931
              ],
              [
                106.164912,
                20.784924
              ],
              [
                106.164195,
                20.784838
              ],
              [
                106.163619,
                20.784718
              ],
              [
                106.163003,
                20.78455
              ],
              [
                106.1623,
                20.784325
              ],
              [
                106.161702,
                20.784018
              ],
              [
                106.161396,
                20.783824
              ],
              [
                106.16114,
                20.783544
              ],
              [
                106.16098,
                20.783277
              ],
              [
                106.160633,
                20.782249
              ],
              [
                106.160596,
                20.78214
              ],
              [
                106.160404,
                20.781682
              ],
              [
                106.160212,
                20.781225
              ],
              [
                106.159989,
                20.780785
              ],
              [
                106.159745,
                20.78046
              ],
              [
                106.159457,
                20.780259
              ],
              [
                106.159068,
                20.780082
              ],
              [
                106.15854,
                20.779895
              ],
              [
                106.157859,
                20.779756
              ],
              [
                106.157058,
                20.779761
              ],
              [
                106.156455,
                20.779849
              ],
              [
                106.155935,
                20.779972
              ],
              [
                106.155225,
                20.780186
              ],
              [
                106.153977,
                20.780732
              ],
              [
                106.153382,
                20.781071
              ],
              [
                106.152839,
                20.781415
              ],
              [
                106.151708,
                20.782334
              ],
              [
                106.151604,
                20.782413
              ],
              [
                106.15108,
                20.782818
              ],
              [
                106.150161,
                20.783566
              ],
              [
                106.148765,
                20.784753
              ],
              [
                106.148096,
                20.785355
              ],
              [
                106.147813,
                20.785686
              ],
              [
                106.147266,
                20.786448
              ],
              [
                106.14694,
                20.787018
              ],
              [
                106.146533,
                20.787852
              ],
              [
                106.14614,
                20.788834
              ],
              [
                106.145821,
                20.789482
              ],
              [
                106.145136,
                20.790544
              ],
              [
                106.144199,
                20.791793
              ],
              [
                106.143846,
                20.792226
              ],
              [
                106.14358,
                20.792419
              ],
              [
                106.143118,
                20.792613
              ],
              [
                106.142763,
                20.792771
              ],
              [
                106.142593,
                20.792952
              ],
              [
                106.142468,
                20.793168
              ],
              [
                106.142286,
                20.793533
              ],
              [
                106.142156,
                20.793935
              ],
              [
                106.142082,
                20.794306
              ],
              [
                106.142078,
                20.794574
              ],
              [
                106.142117,
                20.795584
              ],
              [
                106.142126,
                20.79669
              ],
              [
                106.142101,
                20.797634
              ],
              [
                106.142038,
                20.797875
              ],
              [
                106.140888,
                20.797319
              ],
              [
                106.140378,
                20.79802
              ],
              [
                106.139164,
                20.799814
              ],
              [
                106.13827,
                20.801138
              ],
              [
                106.138079,
                20.801205
              ],
              [
                106.137743,
                20.801302
              ],
              [
                106.137391,
                20.801483
              ],
              [
                106.137031,
                20.801772
              ],
              [
                106.136655,
                20.802174
              ],
              [
                106.136279,
                20.802575
              ],
              [
                106.135777,
                20.803173
              ],
              [
                106.135386,
                20.80357
              ],
              [
                106.135083,
                20.803817
              ],
              [
                106.134482,
                20.804197
              ],
              [
                106.134254,
                20.804354
              ],
              [
                106.134058,
                20.804511
              ],
              [
                106.133589,
                20.804957
              ],
              [
                106.133446,
                20.805106
              ],
              [
                106.132808,
                20.805613
              ],
              [
                106.132467,
                20.805812
              ],
              [
                106.131738,
                20.806146
              ],
              [
                106.131511,
                20.80632
              ],
              [
                106.131372,
                20.806471
              ],
              [
                106.131234,
                20.806675
              ],
              [
                106.131184,
                20.806872
              ],
              [
                106.131198,
                20.807022
              ],
              [
                106.1313,
                20.80726
              ],
              [
                106.131462,
                20.807462
              ],
              [
                106.131718,
                20.807753
              ],
              [
                106.132161,
                20.80827
              ],
              [
                106.132689,
                20.808682
              ],
              [
                106.133648,
                20.809169
              ],
              [
                106.133961,
                20.809292
              ],
              [
                106.134171,
                20.809333
              ],
              [
                106.134406,
                20.809343
              ],
              [
                106.134717,
                20.809323
              ],
              [
                106.135403,
                20.809217
              ],
              [
                106.136089,
                20.809171
              ],
              [
                106.13661,
                20.809197
              ],
              [
                106.137005,
                20.809272
              ],
              [
                106.137648,
                20.809489
              ],
              [
                106.137897,
                20.809625
              ],
              [
                106.138076,
                20.809761
              ],
              [
                106.138269,
                20.810017
              ],
              [
                106.138462,
                20.810374
              ],
              [
                106.138624,
                20.810785
              ],
              [
                106.138905,
                20.811787
              ],
              [
                106.139029,
                20.812187
              ],
              [
                106.139203,
                20.81255
              ],
              [
                106.139873,
                20.813419
              ],
              [
                106.139959,
                20.813526
              ],
              [
                106.14024,
                20.813833
              ],
              [
                106.140486,
                20.814101
              ],
              [
                106.140615,
                20.814298
              ],
              [
                106.140688,
                20.814716
              ],
              [
                106.140705,
                20.815319
              ],
              [
                106.140697,
                20.816753
              ],
              [
                106.140693,
                20.817076
              ],
              [
                106.140644,
                20.817369
              ],
              [
                106.140295,
                20.818562
              ],
              [
                106.140671,
                20.818728
              ],
              [
                106.141942,
                20.81935
              ],
              [
                106.141033,
                20.821858
              ],
              [
                106.142228,
                20.822628
              ],
              [
                106.144457,
                20.824064
              ],
              [
                106.144552,
                20.824124
              ],
              [
                106.144881,
                20.824332
              ],
              [
                106.147757,
                20.826154
              ],
              [
                106.148679,
                20.826737
              ],
              [
                106.150426,
                20.827842
              ],
              [
                106.150652,
                20.827985
              ],
              [
                106.15069,
                20.828013
              ],
              [
                106.149962,
                20.828637
              ],
              [
                106.149955,
                20.828643
              ],
              [
                106.150246,
                20.828889
              ],
              [
                106.150628,
                20.829234
              ],
              [
                106.151111,
                20.828924
              ],
              [
                106.151599,
                20.82861
              ],
              [
                106.151742,
                20.828815
              ],
              [
                106.151848,
                20.828968
              ],
              [
                106.151898,
                20.82894
              ],
              [
                106.152247,
                20.828743
              ],
              [
                106.153377,
                20.829569
              ],
              [
                106.154852,
                20.828572
              ],
              [
                106.155786,
                20.828308
              ],
              [
                106.156709,
                20.828124
              ],
              [
                106.156973,
                20.828071
              ],
              [
                106.157031,
                20.82806
              ],
              [
                106.15816,
                20.827835
              ],
              [
                106.160309,
                20.827406
              ],
              [
                106.160483,
                20.827588
              ],
              [
                106.160507,
                20.827583
              ],
              [
                106.16279,
                20.83001
              ],
              [
                106.162949,
                20.830178
              ],
              [
                106.162144,
                20.831102
              ],
              [
                106.161996,
                20.831271
              ],
              [
                106.161914,
                20.831366
              ],
              [
                106.16203,
                20.831471
              ],
              [
                106.162243,
                20.831662
              ],
              [
                106.162279,
                20.831693
              ],
              [
                106.162295,
                20.831735
              ],
              [
                106.162279,
                20.831777
              ],
              [
                106.162191,
                20.831877
              ],
              [
                106.161977,
                20.832117
              ],
              [
                106.161971,
                20.832147
              ],
              [
                106.162032,
                20.832206
              ],
              [
                106.162363,
                20.832362
              ],
              [
                106.162395,
                20.83241
              ],
              [
                106.162402,
                20.832469
              ],
              [
                106.16229,
                20.833148
              ],
              [
                106.162293,
                20.833184
              ],
              [
                106.16224,
                20.83363
              ],
              [
                106.162215,
                20.833687
              ],
              [
                106.162041,
                20.834731
              ],
              [
                106.162023,
                20.834836
              ],
              [
                106.162043,
                20.834886
              ],
              [
                106.162062,
                20.834913
              ],
              [
                106.162164,
                20.834954
              ],
              [
                106.16275,
                20.835067
              ],
              [
                106.163319,
                20.835162
              ],
              [
                106.163279,
                20.835331
              ],
              [
                106.163249,
                20.835325
              ],
              [
                106.163179,
                20.835478
              ],
              [
                106.163145,
                20.835632
              ],
              [
                106.163119,
                20.836013
              ],
              [
                106.163058,
                20.836911
              ],
              [
                106.162994,
                20.837865
              ],
              [
                106.162964,
                20.838282
              ],
              [
                106.162758,
                20.841181
              ],
              [
                106.163673,
                20.841071
              ],
              [
                106.164807,
                20.840954
              ],
              [
                106.165963,
                20.840842
              ],
              [
                106.166982,
                20.840725
              ],
              [
                106.167423,
                20.840687
              ],
              [
                106.167912,
                20.840643
              ],
              [
                106.168877,
                20.840538
              ],
              [
                106.169362,
                20.840492
              ],
              [
                106.169846,
                20.840442
              ],
              [
                106.170325,
                20.840388
              ],
              [
                106.170809,
                20.840338
              ],
              [
                106.171293,
                20.840292
              ],
              [
                106.171778,
                20.840232
              ],
              [
                106.172272,
                20.840186
              ],
              [
                106.172767,
                20.840139
              ],
              [
                106.173261,
                20.840093
              ],
              [
                106.17352,
                20.840072
              ],
              [
                106.17368,
                20.840641
              ],
              [
                106.174259,
                20.841312
              ],
              [
                106.175091,
                20.841334
              ],
              [
                106.176718,
                20.841377
              ],
              [
                106.176651,
                20.84047
              ],
              [
                106.176651,
                20.84047
              ]
            ]
          ]
        ]
      },
      "properties": {
        "code": "11257",
        "name": "Hải Hưng",
        "nameEn": "Hai Hung",
        "fullName": "Xã Hải Hưng",
        "fullNameEn": "Hai Hung Commune",
        "codeName": "hai_hung",
        "postalCode": "03776",
        "postalCodePrefix": "",
        "gisServerId": "diaphanhanhchinhcapxa_2025.899",
        "areaKm2": 24.85
      }
    }
  ]
}