{
  "type": "FeatureCollection",
  "bbox": [
    106.211361,
    20.684183,
    106.269249,
    20.755615
  ],
  "features": [
    {
      "type": "Feature",
      "id": "11284",
      "bbox": [
        106.211361,
        20.684183,
        106.269249,
        20.755615
      ],
      "geometry": {
        "type": "MultiPolygon",
        "coordinates": [
          [
            [
              [
                106.224146,
                20.754234
              ],
              [
                106.224432,
                20.753218
              ],
              [
                106.224482,
                20.753027
              ],
              [
                106.224554,
                20.752877
              ],
              [
                106.224571,
                20.752845
              ],
              [
                106.224574,
                20.752839
              ],
              [
                106.223319,
                20.752493
              ],
              [
                106.223948,
                20.751031
              ],
              [
                106.224146,
                20.751159
              ],
              [
                106.225147,
                20.751823
              ],
              [
                106.225284,
                20.751914
              ],
              [
                106.225482,
                20.752072
              ],
              [
                106.226306,
                20.75008
              ],
              [
                106.226351,
                20.74997
              ],
              [
                106.227525,
                20.750342
              ],
              [
                106.2307,
                20.751348
              ],
              [
                106.232259,
                20.75183
              ],
              [
                106.232419,
                20.751
              ],
              [
                106.232727,
                20.751149
              ],
              [
                106.232853,
                20.750861
              ],
              [
                106.233102,
                20.750984
              ],
              [
                106.233215,
                20.750714
              ],
              [
                106.235829,
                20.751466
              ],
              [
                106.236075,
                20.750502
              ],
              [
                106.236151,
                20.750528
              ],
              [
                106.238361,
                20.751917
              ],
              [
                106.240992,
                20.753524
              ],
              [
                106.240992,
                20.753524
              ],
              [
                106.241018,
                20.75354
              ],
              [
                106.24197,
                20.754125
              ],
              [
                106.24238,
                20.754153
              ],
              [
                106.242676,
                20.75435
              ],
              [
                106.242734,
                20.754388
              ],
              [
                106.243494,
                20.75354
              ],
              [
                106.243044,
                20.753147
              ],
              [
                106.243969,
                20.751991
              ],
              [
                106.243454,
                20.751568
              ],
              [
                106.243276,
                20.751422
              ],
              [
                106.243207,
                20.751365
              ],
              [
                106.242078,
                20.750471
              ],
              [
                106.242339,
                20.750275
              ],
              [
                106.242596,
                20.750083
              ],
              [
                106.244028,
                20.749009
              ],
              [
                106.245052,
                20.748214
              ],
              [
                106.245129,
                20.748155
              ],
              [
                106.245088,
                20.748119
              ],
              [
                106.245088,
                20.748119
              ],
              [
                106.244703,
                20.747791
              ],
              [
                106.244454,
                20.747585
              ],
              [
                106.244282,
                20.747442
              ],
              [
                106.245145,
                20.746674
              ],
              [
                106.245188,
                20.746629
              ],
              [
                106.245283,
                20.746561
              ],
              [
                106.24515,
                20.74641
              ],
              [
                106.244877,
                20.746146
              ],
              [
                106.24479,
                20.746044
              ],
              [
                106.244654,
                20.745863
              ],
              [
                106.244495,
                20.745731
              ],
              [
                106.244421,
                20.745648
              ],
              [
                106.2444,
                20.74559
              ],
              [
                106.2444,
                20.745559
              ],
              [
                106.244598,
                20.74532
              ],
              [
                106.244636,
                20.745273
              ],
              [
                106.24477,
                20.745112
              ],
              [
                106.245961,
                20.743771
              ],
              [
                106.246025,
                20.743699
              ],
              [
                106.24624,
                20.743457
              ],
              [
                106.24679,
                20.742838
              ],
              [
                106.247172,
                20.742408
              ],
              [
                106.247271,
                20.742286
              ],
              [
                106.247376,
                20.742154
              ],
              [
                106.247299,
                20.742074
              ],
              [
                106.247226,
                20.741999
              ],
              [
                106.247243,
                20.741971
              ],
              [
                106.247314,
                20.741839
              ],
              [
                106.247528,
                20.741441
              ],
              [
                106.248112,
                20.741713
              ],
              [
                106.248171,
                20.741741
              ],
              [
                106.248387,
                20.741305
              ],
              [
                106.248437,
                20.741203
              ],
              [
                106.248457,
                20.741197
              ],
              [
                106.24846,
                20.741197
              ],
              [
                106.248464,
                20.741197
              ],
              [
                106.248477,
                20.741197
              ],
              [
                106.248519,
                20.741207
              ],
              [
                106.248623,
                20.741259
              ],
              [
                106.248675,
                20.741292
              ],
              [
                106.248687,
                20.741307
              ],
              [
                106.248687,
                20.74131
              ],
              [
                106.248755,
                20.741344
              ],
              [
                106.248933,
                20.740706
              ],
              [
                106.248862,
                20.740623
              ],
              [
                106.248785,
                20.740555
              ],
              [
                106.248706,
                20.740517
              ],
              [
                106.248651,
                20.740503
              ],
              [
                106.248587,
                20.740511
              ],
              [
                106.248524,
                20.740518
              ],
              [
                106.248434,
                20.740521
              ],
              [
                106.248286,
                20.740475
              ],
              [
                106.248144,
                20.740443
              ],
              [
                106.247982,
                20.74041
              ],
              [
                106.247914,
                20.740364
              ],
              [
                106.247694,
                20.740158
              ],
              [
                106.247606,
                20.740076
              ],
              [
                106.247492,
                20.739968
              ],
              [
                106.247427,
                20.739923
              ],
              [
                106.247267,
                20.739869
              ],
              [
                106.247036,
                20.739774
              ],
              [
                106.246806,
                20.73968
              ],
              [
                106.247586,
                20.738486
              ],
              [
                106.247594,
                20.738477
              ],
              [
                106.247591,
                20.738475
              ],
              [
                106.246591,
                20.737775
              ],
              [
                106.246509,
                20.737716
              ],
              [
                106.245899,
                20.737279
              ],
              [
                106.245655,
                20.737104
              ],
              [
                106.245625,
                20.737083
              ],
              [
                106.245387,
                20.736912
              ],
              [
                106.246282,
                20.736369
              ],
              [
                106.24647,
                20.736405
              ],
              [
                106.246563,
                20.736436
              ],
              [
                106.246653,
                20.736477
              ],
              [
                106.246741,
                20.736535
              ],
              [
                106.247021,
                20.736727
              ],
              [
                106.247832,
                20.737253
              ],
              [
                106.248235,
                20.737519
              ],
              [
                106.24873,
                20.737854
              ],
              [
                106.249395,
                20.73829
              ],
              [
                106.249555,
                20.738388
              ],
              [
                106.249712,
                20.737231
              ],
              [
                106.249915,
                20.737252
              ],
              [
                106.249939,
                20.737254
              ],
              [
                106.250341,
                20.737285
              ],
              [
                106.251382,
                20.737377
              ],
              [
                106.251871,
                20.737423
              ],
              [
                106.251873,
                20.737423
              ],
              [
                106.253252,
                20.737553
              ],
              [
                106.25416,
                20.73765
              ],
              [
                106.254874,
                20.737725
              ],
              [
                106.257268,
                20.737604
              ],
              [
                106.25771,
                20.737575
              ],
              [
                106.258648,
                20.737528
              ],
              [
                106.259546,
                20.737472
              ],
              [
                106.259565,
                20.737471
              ],
              [
                106.259624,
                20.737469
              ],
              [
                106.259668,
                20.737466
              ],
              [
                106.259834,
                20.737453
              ],
              [
                106.259839,
                20.737457
              ],
              [
                106.259851,
                20.737528
              ],
              [
                106.25986,
                20.737572
              ],
              [
                106.259863,
                20.73759
              ],
              [
                106.259869,
                20.737616
              ],
              [
                106.259883,
                20.737678
              ],
              [
                106.260136,
                20.738771
              ],
              [
                106.260146,
                20.738815
              ],
              [
                106.260153,
                20.738841
              ],
              [
                106.260157,
                20.738858
              ],
              [
                106.260162,
                20.738875
              ],
              [
                106.260171,
                20.738903
              ],
              [
                106.260186,
                20.738953
              ],
              [
                106.260207,
                20.73902
              ],
              [
                106.260247,
                20.739094
              ],
              [
                106.262192,
                20.738511
              ],
              [
                106.26429,
                20.737947
              ],
              [
                106.264242,
                20.737721
              ],
              [
                106.264064,
                20.736868
              ],
              [
                106.26406,
                20.736851
              ],
              [
                106.263926,
                20.736225
              ],
              [
                106.263801,
                20.735595
              ],
              [
                106.263663,
                20.734978
              ],
              [
                106.263469,
                20.734016
              ],
              [
                106.263465,
                20.733999
              ],
              [
                106.263347,
                20.733397
              ],
              [
                106.263206,
                20.732758
              ],
              [
                106.263202,
                20.73274
              ],
              [
                106.26308,
                20.732123
              ],
              [
                106.262939,
                20.731478
              ],
              [
                106.262797,
                20.730828
              ],
              [
                106.26266,
                20.730189
              ],
              [
                106.26253,
                20.729531
              ],
              [
                106.262427,
                20.729001
              ],
              [
                106.262305,
                20.72852
              ],
              [
                106.262355,
                20.728464
              ],
              [
                106.262361,
                20.728449
              ],
              [
                106.262359,
                20.728421
              ],
              [
                106.262408,
                20.727036
              ],
              [
                106.262409,
                20.727018
              ],
              [
                106.262442,
                20.725723
              ],
              [
                106.262487,
                20.724441
              ],
              [
                106.262547,
                20.723126
              ],
              [
                106.262548,
                20.723108
              ],
              [
                106.262637,
                20.720663
              ],
              [
                106.262508,
                20.720634
              ],
              [
                106.262361,
                20.720607
              ],
              [
                106.262231,
                20.720593
              ],
              [
                106.262006,
                20.720591
              ],
              [
                106.26185,
                20.72058
              ],
              [
                106.261784,
                20.720568
              ],
              [
                106.261748,
                20.720562
              ],
              [
                106.261852,
                20.720222
              ],
              [
                106.261852,
                20.720222
              ],
              [
                106.261852,
                20.720222
              ],
              [
                106.261894,
                20.720083
              ],
              [
                106.262318,
                20.718692
              ],
              [
                106.262334,
                20.71864
              ],
              [
                106.262341,
                20.718614
              ],
              [
                106.262353,
                20.718571
              ],
              [
                106.262411,
                20.718352
              ],
              [
                106.262534,
                20.71789
              ],
              [
                106.262575,
                20.717733
              ],
              [
                106.262582,
                20.717707
              ],
              [
                106.262587,
                20.71769
              ],
              [
                106.26259,
                20.717681
              ],
              [
                106.262593,
                20.717673
              ],
              [
                106.262596,
                20.717665
              ],
              [
                106.262603,
                20.717648
              ],
              [
                106.262611,
                20.717631
              ],
              [
                106.262618,
                20.717615
              ],
              [
                106.262675,
                20.717495
              ],
              [
                106.262719,
                20.717402
              ],
              [
                106.262804,
                20.717221
              ],
              [
                106.262812,
                20.717205
              ],
              [
                106.262816,
                20.717197
              ],
              [
                106.26282,
                20.717191
              ],
              [
                106.26282,
                20.717189
              ],
              [
                106.262825,
                20.717181
              ],
              [
                106.26283,
                20.717174
              ],
              [
                106.262835,
                20.717166
              ],
              [
                106.26284,
                20.717159
              ],
              [
                106.262851,
                20.717145
              ],
              [
                106.262863,
                20.717131
              ],
              [
                106.262875,
                20.717117
              ],
              [
                106.262946,
                20.717035
              ],
              [
                106.263041,
                20.716925
              ],
              [
                106.263059,
                20.716904
              ],
              [
                106.263071,
                20.716891
              ],
              [
                106.263077,
                20.716884
              ],
              [
                106.263084,
                20.716878
              ],
              [
                106.263097,
                20.716865
              ],
              [
                106.263117,
                20.716845
              ],
              [
                106.263255,
                20.716717
              ],
              [
                106.263404,
                20.716558
              ],
              [
                106.263416,
                20.716544
              ],
              [
                106.263665,
                20.716251
              ],
              [
                106.263763,
                20.716003
              ],
              [
                106.263903,
                20.715663
              ],
              [
                106.264101,
                20.715109
              ],
              [
                106.264321,
                20.71453
              ],
              [
                106.264483,
                20.71408
              ],
              [
                106.264486,
                20.714076
              ],
              [
                106.26453,
                20.714093
              ],
              [
                106.264548,
                20.714101
              ],
              [
                106.264869,
                20.714241
              ],
              [
                106.264883,
                20.714237
              ],
              [
                106.264911,
                20.714186
              ],
              [
                106.265083,
                20.71374
              ],
              [
                106.265438,
                20.712981
              ],
              [
                106.265523,
                20.712757
              ],
              [
                106.265529,
                20.71274
              ],
              [
                106.265599,
                20.712574
              ],
              [
                106.265607,
                20.712558
              ],
              [
                106.265641,
                20.7125
              ],
              [
                106.265653,
                20.712486
              ],
              [
                106.265731,
                20.712424
              ],
              [
                106.265747,
                20.712414
              ],
              [
                106.265788,
                20.712395
              ],
              [
                106.265797,
                20.712382
              ],
              [
                106.265897,
                20.712227
              ],
              [
                106.266372,
                20.7108
              ],
              [
                106.26644,
                20.710546
              ],
              [
                106.266486,
                20.710417
              ],
              [
                106.266539,
                20.710285
              ],
              [
                106.268153,
                20.709102
              ],
              [
                106.266721,
                20.708348
              ],
              [
                106.266758,
                20.708233
              ],
              [
                106.266792,
                20.708139
              ],
              [
                106.266856,
                20.707985
              ],
              [
                106.266913,
                20.707843
              ],
              [
                106.266992,
                20.707734
              ],
              [
                106.26703,
                20.707695
              ],
              [
                106.267044,
                20.707653
              ],
              [
                106.267035,
                20.707624
              ],
              [
                106.267023,
                20.707615
              ],
              [
                106.267013,
                20.707612
              ],
              [
                106.266758,
                20.707529
              ],
              [
                106.266249,
                20.707364
              ],
              [
                106.26599,
                20.707257
              ],
              [
                106.265896,
                20.707218
              ],
              [
                106.265851,
                20.707211
              ],
              [
                106.265813,
                20.707209
              ],
              [
                106.26577,
                20.707219
              ],
              [
                106.265695,
                20.707309
              ],
              [
                106.265658,
                20.707431
              ],
              [
                106.265623,
                20.707536
              ],
              [
                106.265561,
                20.707734
              ],
              [
                106.265509,
                20.707884
              ],
              [
                106.265469,
                20.707998
              ],
              [
                106.265334,
                20.708383
              ],
              [
                106.265246,
                20.708617
              ],
              [
                106.265158,
                20.708875
              ],
              [
                106.265028,
                20.709319
              ],
              [
                106.264994,
                20.709421
              ],
              [
                106.264896,
                20.709383
              ],
              [
                106.264818,
                20.709353
              ],
              [
                106.264791,
                20.709342
              ],
              [
                106.264774,
                20.709335
              ],
              [
                106.264766,
                20.709331
              ],
              [
                106.264757,
                20.709326
              ],
              [
                106.264749,
                20.709322
              ],
              [
                106.264733,
                20.709312
              ],
              [
                106.264717,
                20.709302
              ],
              [
                106.264664,
                20.709267
              ],
              [
                106.264663,
                20.709268
              ],
              [
                106.264569,
                20.709207
              ],
              [
                106.264385,
                20.709089
              ],
              [
                106.264161,
                20.708946
              ],
              [
                106.264121,
                20.708921
              ],
              [
                106.264098,
                20.708906
              ],
              [
                106.26405,
                20.708876
              ],
              [
                106.26387,
                20.708766
              ],
              [
                106.263491,
                20.708533
              ],
              [
                106.263474,
                20.708454
              ],
              [
                106.263492,
                20.708299
              ],
              [
                106.263529,
                20.708167
              ],
              [
                106.263575,
                20.70803
              ],
              [
                106.263656,
                20.707893
              ],
              [
                106.263751,
                20.707718
              ],
              [
                106.263761,
                20.707412
              ],
              [
                106.264477,
                20.707404
              ],
              [
                106.264571,
                20.706913
              ],
              [
                106.26469,
                20.706351
              ],
              [
                106.264699,
                20.706305
              ],
              [
                106.264735,
                20.706167
              ],
              [
                106.264737,
                20.706155
              ],
              [
                106.264743,
                20.70613
              ],
              [
                106.264763,
                20.706036
              ],
              [
                106.264775,
                20.705976
              ],
              [
                106.264863,
                20.705546
              ],
              [
                106.264868,
                20.70552
              ],
              [
                106.264872,
                20.705503
              ],
              [
                106.264875,
                20.705494
              ],
              [
                106.264877,
                20.705485
              ],
              [
                106.264882,
                20.705468
              ],
              [
                106.264892,
                20.705433
              ],
              [
                106.264977,
                20.705163
              ],
              [
                106.265053,
                20.704924
              ],
              [
                106.265153,
                20.704335
              ],
              [
                106.264914,
                20.704377
              ],
              [
                106.264406,
                20.704413
              ],
              [
                106.263879,
                20.704414
              ],
              [
                106.263131,
                20.704321
              ],
              [
                106.262406,
                20.704108
              ],
              [
                106.260737,
                20.703583
              ],
              [
                106.259615,
                20.703065
              ],
              [
                106.257587,
                20.702016
              ],
              [
                106.255712,
                20.701038
              ],
              [
                106.254615,
                20.700478
              ],
              [
                106.25433,
                20.700333
              ],
              [
                106.253748,
                20.700036
              ],
              [
                106.252713,
                20.699577
              ],
              [
                106.25187,
                20.699141
              ],
              [
                106.251658,
                20.699031
              ],
              [
                106.250554,
                20.698257
              ],
              [
                106.250208,
                20.697879
              ],
              [
                106.24972,
                20.697231
              ],
              [
                106.249382,
                20.696587
              ],
              [
                106.249273,
                20.696244
              ],
              [
                106.249192,
                20.695656
              ],
              [
                106.24922,
                20.695412
              ],
              [
                106.249368,
                20.694866
              ],
              [
                106.249668,
                20.694218
              ],
              [
                106.250818,
                20.692596
              ],
              [
                106.250927,
                20.692459
              ],
              [
                106.25187,
                20.691385
              ],
              [
                106.251872,
                20.691383
              ],
              [
                106.252838,
                20.69061
              ],
              [
                106.253607,
                20.690184
              ],
              [
                106.255044,
                20.689581
              ],
              [
                106.256586,
                20.689187
              ],
              [
                106.258432,
                20.688829
              ],
              [
                106.259479,
                20.68862
              ],
              [
                106.259739,
                20.688568
              ],
              [
                106.260319,
                20.688452
              ],
              [
                106.261496,
                20.68831
              ],
              [
                106.261833,
                20.688312
              ],
              [
                106.263527,
                20.688324
              ],
              [
                106.26555,
                20.688221
              ],
              [
                106.265774,
                20.68821
              ],
              [
                106.265966,
                20.6882
              ],
              [
                106.267061,
                20.687963
              ],
              [
                106.267831,
                20.68767
              ],
              [
                106.267949,
                20.687601
              ],
              [
                106.267965,
                20.687595
              ],
              [
                106.267983,
                20.687581
              ],
              [
                106.268357,
                20.687361
              ],
              [
                106.268799,
                20.686803
              ],
              [
                106.268822,
                20.686709
              ],
              [
                106.269035,
                20.685845
              ],
              [
                106.269084,
                20.685589
              ],
              [
                106.269146,
                20.685256
              ],
              [
                106.269249,
                20.684715
              ],
              [
                106.269192,
                20.684207
              ],
              [
                106.269189,
                20.684183
              ],
              [
                106.26746,
                20.684299
              ],
              [
                106.267408,
                20.684233
              ],
              [
                106.26733,
                20.684222
              ],
              [
                106.267325,
                20.684232
              ],
              [
                106.267006,
                20.684399
              ],
              [
                106.266773,
                20.684527
              ],
              [
                106.266737,
                20.684573
              ],
              [
                106.266683,
                20.684615
              ],
              [
                106.266383,
                20.68456
              ],
              [
                106.265656,
                20.68442
              ],
              [
                106.265421,
                20.684377
              ],
              [
                106.265284,
                20.684347
              ],
              [
                106.265145,
                20.684311
              ],
              [
                106.265111,
                20.684304
              ],
              [
                106.265065,
                20.684298
              ],
              [
                106.264961,
                20.684308
              ],
              [
                106.264588,
                20.684345
              ],
              [
                106.264465,
                20.68436
              ],
              [
                106.263841,
                20.684526
              ],
              [
                106.263214,
                20.684659
              ],
              [
                106.262709,
                20.684798
              ],
              [
                106.262679,
                20.684815
              ],
              [
                106.262646,
                20.684867
              ],
              [
                106.26258,
                20.684877
              ],
              [
                106.26226,
                20.684934
              ],
              [
                106.262074,
                20.684974
              ],
              [
                106.261677,
                20.6851
              ],
              [
                106.261537,
                20.685154
              ],
              [
                106.261512,
                20.685163
              ],
              [
                106.261295,
                20.685237
              ],
              [
                106.261169,
                20.685273
              ],
              [
                106.261158,
                20.685276
              ],
              [
                106.261065,
                20.685318
              ],
              [
                106.260645,
                20.685596
              ],
              [
                106.2603,
                20.685853
              ],
              [
                106.259932,
                20.686157
              ],
              [
                106.25959,
                20.686448
              ],
              [
                106.259198,
                20.686777
              ],
              [
                106.258659,
                20.687214
              ],
              [
                106.258242,
                20.687555
              ],
              [
                106.257915,
                20.687815
              ],
              [
                106.257878,
                20.687833
              ],
              [
                106.257849,
                20.687833
              ],
              [
                106.25782,
                20.687825
              ],
              [
                106.257755,
                20.687756
              ],
              [
                106.257558,
                20.687474
              ],
              [
                106.257326,
                20.687125
              ],
              [
                106.257093,
                20.6868
              ],
              [
                106.257001,
                20.68666
              ],
              [
                106.256593,
                20.686904
              ],
              [
                106.25601,
                20.687222
              ],
              [
                106.255593,
                20.687424
              ],
              [
                106.255174,
                20.68762
              ],
              [
                106.254958,
                20.687705
              ],
              [
                106.254882,
                20.687735
              ],
              [
                106.254771,
                20.68777
              ],
              [
                106.254737,
                20.687779
              ],
              [
                106.254645,
                20.687803
              ],
              [
                106.254522,
                20.687854
              ],
              [
                106.254419,
                20.687913
              ],
              [
                106.253411,
                20.686613
              ],
              [
                106.253109,
                20.68701
              ],
              [
                106.25187,
                20.686468
              ],
              [
                106.251481,
                20.686252
              ],
              [
                106.251445,
                20.686257
              ],
              [
                106.250352,
                20.686593
              ],
              [
                106.250178,
                20.686678
              ],
              [
                106.249903,
                20.686764
              ],
              [
                106.249875,
                20.686773
              ],
              [
                106.249637,
                20.686883
              ],
              [
                106.249586,
                20.686828
              ],
              [
                106.248888,
                20.686292
              ],
              [
                106.248551,
                20.686648
              ],
              [
                106.248345,
                20.686952
              ],
              [
                106.248664,
                20.687186
              ],
              [
                106.247971,
                20.688135
              ],
              [
                106.248113,
                20.688568
              ],
              [
                106.248255,
                20.688943
              ],
              [
                106.247594,
                20.689316
              ],
              [
                106.246464,
                20.689961
              ],
              [
                106.24641,
                20.69001
              ],
              [
                106.246436,
                20.690096
              ],
              [
                106.246437,
                20.690203
              ],
              [
                106.246409,
                20.690272
              ],
              [
                106.2464,
                20.690347
              ],
              [
                106.246401,
                20.690362
              ],
              [
                106.246408,
                20.690502
              ],
              [
                106.246432,
                20.69057
              ],
              [
                106.246518,
                20.690815
              ],
              [
                106.246539,
                20.690895
              ],
              [
                106.246592,
                20.691096
              ],
              [
                106.246597,
                20.691113
              ],
              [
                106.246646,
                20.69128
              ],
              [
                106.246652,
                20.691382
              ],
              [
                106.246653,
                20.691394
              ],
              [
                106.246638,
                20.691472
              ],
              [
                106.246632,
                20.69149
              ],
              [
                106.246622,
                20.691517
              ],
              [
                106.246633,
                20.691636
              ],
              [
                106.246646,
                20.691738
              ],
              [
                106.246628,
                20.691795
              ],
              [
                106.246768,
                20.692132
              ],
              [
                106.246762,
                20.692141
              ],
              [
                106.246731,
                20.692193
              ],
              [
                106.24669,
                20.692264
              ],
              [
                106.24664,
                20.692428
              ],
              [
                106.246648,
                20.692605
              ],
              [
                106.246649,
                20.6927
              ],
              [
                106.246618,
                20.692787
              ],
              [
                106.24652,
                20.692812
              ],
              [
                106.246518,
                20.692812
              ],
              [
                106.24633,
                20.692844
              ],
              [
                106.245992,
                20.692908
              ],
              [
                106.245781,
                20.692948
              ],
              [
                106.245714,
                20.692954
              ],
              [
                106.245702,
                20.693087
              ],
              [
                106.245647,
                20.693325
              ],
              [
                106.24558,
                20.693564
              ],
              [
                106.245047,
                20.693482
              ],
              [
                106.244958,
                20.693844
              ],
              [
                106.244915,
                20.694098
              ],
              [
                106.244862,
                20.694362
              ],
              [
                106.244822,
                20.69456
              ],
              [
                106.244721,
                20.694873
              ],
              [
                106.244603,
                20.695106
              ],
              [
                106.2445,
                20.695247
              ],
              [
                106.244314,
                20.695418
              ],
              [
                106.243956,
                20.695749
              ],
              [
                106.243269,
                20.696258
              ],
              [
                106.242862,
                20.696546
              ],
              [
                106.242492,
                20.696796
              ],
              [
                106.242465,
                20.696819
              ],
              [
                106.242434,
                20.696845
              ],
              [
                106.241683,
                20.697462
              ],
              [
                106.240072,
                20.698513
              ],
              [
                106.237906,
                20.699967
              ],
              [
                106.236554,
                20.700955
              ],
              [
                106.234808,
                20.702232
              ],
              [
                106.233807,
                20.702911
              ],
              [
                106.232864,
                20.703321
              ],
              [
                106.23148,
                20.703839
              ],
              [
                106.230901,
                20.704082
              ],
              [
                106.230698,
                20.704145
              ],
              [
                106.230496,
                20.704208
              ],
              [
                106.229481,
                20.704403
              ],
              [
                106.228812,
                20.704495
              ],
              [
                106.228375,
                20.704626
              ],
              [
                106.228156,
                20.704726
              ],
              [
                106.227895,
                20.704925
              ],
              [
                106.227882,
                20.704935
              ],
              [
                106.227822,
                20.705011
              ],
              [
                106.227655,
                20.705223
              ],
              [
                106.227611,
                20.705294
              ],
              [
                106.22756,
                20.70539
              ],
              [
                106.227476,
                20.705626
              ],
              [
                106.227203,
                20.706254
              ],
              [
                106.227097,
                20.70647
              ],
              [
                106.22701,
                20.706713
              ],
              [
                106.226866,
                20.706989
              ],
              [
                106.226463,
                20.707738
              ],
              [
                106.226334,
                20.707994
              ],
              [
                106.226259,
                20.708185
              ],
              [
                106.225975,
                20.708916
              ],
              [
                106.225969,
                20.708932
              ],
              [
                106.225639,
                20.709769
              ],
              [
                106.22529,
                20.710496
              ],
              [
                106.224931,
                20.711315
              ],
              [
                106.224777,
                20.711918
              ],
              [
                106.224597,
                20.71271
              ],
              [
                106.224519,
                20.71344
              ],
              [
                106.22448,
                20.714383
              ],
              [
                106.224439,
                20.71528
              ],
              [
                106.22445,
                20.716126
              ],
              [
                106.224439,
                20.716501
              ],
              [
                106.224379,
                20.71684
              ],
              [
                106.224301,
                20.717078
              ],
              [
                106.224159,
                20.717381
              ],
              [
                106.223912,
                20.717746
              ],
              [
                106.223693,
                20.718033
              ],
              [
                106.223216,
                20.71865
              ],
              [
                106.222757,
                20.719166
              ],
              [
                106.22219,
                20.719675
              ],
              [
                106.221846,
                20.720062
              ],
              [
                106.221372,
                20.720597
              ],
              [
                106.220796,
                20.721286
              ],
              [
                106.220452,
                20.721788
              ],
              [
                106.220106,
                20.722324
              ],
              [
                106.219915,
                20.722899
              ],
              [
                106.219858,
                20.723082
              ],
              [
                106.219821,
                20.723176
              ],
              [
                106.219712,
                20.723581
              ],
              [
                106.219495,
                20.724109
              ],
              [
                106.21933,
                20.724418
              ],
              [
                106.218932,
                20.72482
              ],
              [
                106.218394,
                20.725278
              ],
              [
                106.217927,
                20.725595
              ],
              [
                106.21709,
                20.726079
              ],
              [
                106.216898,
                20.726252
              ],
              [
                106.216759,
                20.726382
              ],
              [
                106.216656,
                20.726448
              ],
              [
                106.216543,
                20.726485
              ],
              [
                106.21543,
                20.726965
              ],
              [
                106.214658,
                20.727298
              ],
              [
                106.214381,
                20.727417
              ],
              [
                106.21409,
                20.727543
              ],
              [
                106.213413,
                20.727971
              ],
              [
                106.213148,
                20.728235
              ],
              [
                106.213147,
                20.728236
              ],
              [
                106.213145,
                20.728239
              ],
              [
                106.213077,
                20.728314
              ],
              [
                106.212866,
                20.728546
              ],
              [
                106.212797,
                20.728633
              ],
              [
                106.212681,
                20.728782
              ],
              [
                106.212599,
                20.728895
              ],
              [
                106.212306,
                20.729301
              ],
              [
                106.212171,
                20.729559
              ],
              [
                106.211965,
                20.729952
              ],
              [
                106.2119,
                20.730074
              ],
              [
                106.211552,
                20.730813
              ],
              [
                106.211415,
                20.731065
              ],
              [
                106.211361,
                20.731266
              ],
              [
                106.211367,
                20.731357
              ],
              [
                106.211401,
                20.731497
              ],
              [
                106.211409,
                20.73154
              ],
              [
                106.211444,
                20.731635
              ],
              [
                106.211535,
                20.731722
              ],
              [
                106.211696,
                20.731823
              ],
              [
                106.211958,
                20.731938
              ],
              [
                106.212307,
                20.732062
              ],
              [
                106.212715,
                20.732258
              ],
              [
                106.213323,
                20.732598
              ],
              [
                106.213718,
                20.732714
              ],
              [
                106.214043,
                20.732767
              ],
              [
                106.214427,
                20.732755
              ],
              [
                106.215277,
                20.732608
              ],
              [
                106.216143,
                20.732518
              ],
              [
                106.217053,
                20.732367
              ],
              [
                106.21794,
                20.732194
              ],
              [
                106.218283,
                20.732202
              ],
              [
                106.218403,
                20.732205
              ],
              [
                106.218525,
                20.732247
              ],
              [
                106.218547,
                20.73227
              ],
              [
                106.218567,
                20.732319
              ],
              [
                106.218692,
                20.732764
              ],
              [
                106.218717,
                20.733043
              ],
              [
                106.218721,
                20.733164
              ],
              [
                106.218739,
                20.733752
              ],
              [
                106.218837,
                20.734365
              ],
              [
                106.218871,
                20.734967
              ],
              [
                106.218882,
                20.735288
              ],
              [
                106.218927,
                20.735602
              ],
              [
                106.21904,
                20.7363
              ],
              [
                106.219045,
                20.736728
              ],
              [
                106.21905,
                20.737194
              ],
              [
                106.219027,
                20.73769
              ],
              [
                106.219026,
                20.737754
              ],
              [
                106.218805,
                20.739234
              ],
              [
                106.218675,
                20.740172
              ],
              [
                106.218458,
                20.740943
              ],
              [
                106.218127,
                20.742179
              ],
              [
                106.217386,
                20.744202
              ],
              [
                106.217013,
                20.745261
              ],
              [
                106.216877,
                20.745946
              ],
              [
                106.216859,
                20.746223
              ],
              [
                106.21686,
                20.746459
              ],
              [
                106.216962,
                20.746995
              ],
              [
                106.216943,
                20.747306
              ],
              [
                106.216886,
                20.747467
              ],
              [
                106.216744,
                20.747775
              ],
              [
                106.21645,
                20.74819
              ],
              [
                106.216172,
                20.748731
              ],
              [
                106.216128,
                20.748829
              ],
              [
                106.21611,
                20.748897
              ],
              [
                106.216076,
                20.749016
              ],
              [
                106.21588,
                20.749375
              ],
              [
                106.216803,
                20.749869
              ],
              [
                106.217086,
                20.750075
              ],
              [
                106.217156,
                20.750182
              ],
              [
                106.217218,
                20.750389
              ],
              [
                106.216908,
                20.751582
              ],
              [
                106.216647,
                20.752249
              ],
              [
                106.216344,
                20.752299
              ],
              [
                106.216353,
                20.752444
              ],
              [
                106.216359,
                20.752462
              ],
              [
                106.216798,
                20.752634
              ],
              [
                106.218949,
                20.753619
              ],
              [
                106.219679,
                20.753962
              ],
              [
                106.221539,
                20.754836
              ],
              [
                106.221586,
                20.754729
              ],
              [
                106.22183,
                20.754151
              ],
              [
                106.221875,
                20.754183
              ],
              [
                106.223946,
                20.755615
              ],
              [
                106.224436,
                20.754841
              ],
              [
                106.224445,
                20.754805
              ],
              [
                106.224442,
                20.754781
              ],
              [
                106.224318,
                20.754691
              ],
              [
                106.224087,
                20.754524
              ],
              [
                106.224077,
                20.754485
              ],
              [
                106.224093,
                20.754425
              ],
              [
                106.224146,
                20.754234
              ],
              [
                106.224146,
                20.754234
              ]
            ]
          ]
        ]
      },
      "properties": {
        "code": "11284",
        "name": "Nam Thanh Miện",
        "nameEn": "Nam Thanh Mien",
        "fullName": "Xã Nam Thanh Miện",
        "fullNameEn": "Nam Thanh Mien Commune",
        "codeName": "nam_thanh_mien",
        "postalCode": "03778",
        "postalCodePrefix": "",
        "gisServerId": "diaphanhanhchinhcapxa_2025.884",
        "areaKm2": 23.99
      }
    }
  ]
}