{
  "type": "FeatureCollection",
  "bbox": [
    106.622496,
    20.85298,
    106.689023,
    20.881749
  ],
  "features": [
    {
      "type": "Feature",
      "id": "11311",
      "bbox": [
        106.622496,
        20.85298,
        106.689023,
        20.881749
      ],
      "geometry": {
        "type": "MultiPolygon",
        "coordinates": [
          [
            [
              [
                106.628834,
                20.880846
              ],
              [
                106.62896,
                20.880841
              ],
              [
                106.629441,
                20.880841
              ],
              [
                106.630785,
                20.880839
              ],
              [
                106.631392,
                20.880839
              ],
              [
                106.632584,
                20.880838
              ],
              [
                106.633388,
                20.880837
              ],
              [
                106.633802,
                20.880836
              ],
              [
                106.635302,
                20.880733
              ],
              [
                106.636156,
                20.880674
              ],
              [
                106.637425,
                20.880587
              ],
              [
                106.637653,
                20.880582
              ],
              [
                106.638803,
                20.880616
              ],
              [
                106.643183,
                20.880744
              ],
              [
                106.644454,
                20.880781
              ],
              [
                106.644484,
                20.880782
              ],
              [
                106.645769,
                20.880811
              ],
              [
                106.645888,
                20.880814
              ],
              [
                106.646897,
                20.880836
              ],
              [
                106.648291,
                20.880868
              ],
              [
                106.649685,
                20.880899
              ],
              [
                106.650059,
                20.880908
              ],
              [
                106.650307,
                20.880913
              ],
              [
                106.650314,
                20.880913
              ],
              [
                106.650566,
                20.880919
              ],
              [
                106.6508,
                20.880924
              ],
              [
                106.650871,
                20.880926
              ],
              [
                106.65125,
                20.880935
              ],
              [
                106.651448,
                20.880939
              ],
              [
                106.651763,
                20.880921
              ],
              [
                106.651763,
                20.880921
              ],
              [
                106.653227,
                20.880837
              ],
              [
                106.654096,
                20.880787
              ],
              [
                106.654096,
                20.880787
              ],
              [
                106.655124,
                20.880597
              ],
              [
                106.655377,
                20.88055
              ],
              [
                106.655377,
                20.88055
              ],
              [
                106.656024,
                20.88043
              ],
              [
                106.656024,
                20.88043
              ],
              [
                106.656813,
                20.88022
              ],
              [
                106.656813,
                20.88022
              ],
              [
                106.656996,
                20.88017
              ],
              [
                106.656996,
                20.88017
              ],
              [
                106.65892,
                20.879657
              ],
              [
                106.65892,
                20.879657
              ],
              [
                106.659435,
                20.87942
              ],
              [
                106.659435,
                20.87942
              ],
              [
                106.661409,
                20.878514
              ],
              [
                106.661409,
                20.878514
              ],
              [
                106.662034,
                20.878228
              ],
              [
                106.662034,
                20.878227
              ],
              [
                106.662184,
                20.878158
              ],
              [
                106.662184,
                20.878158
              ],
              [
                106.662321,
                20.878096
              ],
              [
                106.662321,
                20.878096
              ],
              [
                106.663383,
                20.877593
              ],
              [
                106.663383,
                20.877593
              ],
              [
                106.664948,
                20.876851
              ],
              [
                106.664948,
                20.876851
              ],
              [
                106.664963,
                20.876844
              ],
              [
                106.664979,
                20.876837
              ],
              [
                106.664979,
                20.876837
              ],
              [
                106.665844,
                20.876313
              ],
              [
                106.665844,
                20.876313
              ],
              [
                106.666183,
                20.876108
              ],
              [
                106.666183,
                20.876108
              ],
              [
                106.666223,
                20.876084
              ],
              [
                106.666223,
                20.876084
              ],
              [
                106.666261,
                20.876061
              ],
              [
                106.667275,
                20.875447
              ],
              [
                106.667275,
                20.875447
              ],
              [
                106.66756,
                20.875275
              ],
              [
                106.66756,
                20.875274
              ],
              [
                106.667614,
                20.875242
              ],
              [
                106.667614,
                20.875241
              ],
              [
                106.668507,
                20.874632
              ],
              [
                106.668508,
                20.874632
              ],
              [
                106.669257,
                20.874129
              ],
              [
                106.669257,
                20.874129
              ],
              [
                106.669443,
                20.874004
              ],
              [
                106.669443,
                20.874004
              ],
              [
                106.669604,
                20.873896
              ],
              [
                106.669604,
                20.873896
              ],
              [
                106.670587,
                20.87312
              ],
              [
                106.670587,
                20.87312
              ],
              [
                106.672633,
                20.87094
              ],
              [
                106.672633,
                20.87094
              ],
              [
                106.674022,
                20.869614
              ],
              [
                106.674022,
                20.869614
              ],
              [
                106.675295,
                20.868856
              ],
              [
                106.675295,
                20.868856
              ],
              [
                106.676854,
                20.868058
              ],
              [
                106.676854,
                20.868058
              ],
              [
                106.67831,
                20.867648
              ],
              [
                106.678596,
                20.867567
              ],
              [
                106.678596,
                20.867567
              ],
              [
                106.679601,
                20.867385
              ],
              [
                106.681227,
                20.867466
              ],
              [
                106.68126,
                20.867468
              ],
              [
                106.681285,
                20.867469
              ],
              [
                106.681381,
                20.867477
              ],
              [
                106.681535,
                20.86749
              ],
              [
                106.682812,
                20.867598
              ],
              [
                106.683317,
                20.867682
              ],
              [
                106.684264,
                20.867841
              ],
              [
                106.685502,
                20.868198
              ],
              [
                106.685601,
                20.864964
              ],
              [
                106.686289,
                20.865097
              ],
              [
                106.686626,
                20.865162
              ],
              [
                106.687174,
                20.865268
              ],
              [
                106.687721,
                20.865374
              ],
              [
                106.688171,
                20.865448
              ],
              [
                106.688981,
                20.86558
              ],
              [
                106.68902,
                20.864064
              ],
              [
                106.689021,
                20.863588
              ],
              [
                106.689023,
                20.862919
              ],
              [
                106.689014,
                20.86215
              ],
              [
                106.689014,
                20.86209
              ],
              [
                106.688962,
                20.861819
              ],
              [
                106.688888,
                20.861524
              ],
              [
                106.688815,
                20.861353
              ],
              [
                106.688731,
                20.861153
              ],
              [
                106.688707,
                20.861105
              ],
              [
                106.68855,
                20.860784
              ],
              [
                106.68793,
                20.859781
              ],
              [
                106.687489,
                20.859369
              ],
              [
                106.686603,
                20.858543
              ],
              [
                106.68594,
                20.857962
              ],
              [
                106.685811,
                20.857869
              ],
              [
                106.685773,
                20.857842
              ],
              [
                106.685116,
                20.857368
              ],
              [
                106.684309,
                20.856933
              ],
              [
                106.684063,
                20.856801
              ],
              [
                106.683907,
                20.856717
              ],
              [
                106.682427,
                20.856144
              ],
              [
                106.681773,
                20.856038
              ],
              [
                106.681721,
                20.85603
              ],
              [
                106.68162,
                20.856009
              ],
              [
                106.681463,
                20.855977
              ],
              [
                106.68018,
                20.855714
              ],
              [
                106.679917,
                20.855661
              ],
              [
                106.679302,
                20.855536
              ],
              [
                106.678977,
                20.855471
              ],
              [
                106.67834,
                20.855342
              ],
              [
                106.67824,
                20.85572
              ],
              [
                106.678107,
                20.855691
              ],
              [
                106.677991,
                20.855669
              ],
              [
                106.676292,
                20.855352
              ],
              [
                106.67526,
                20.85516
              ],
              [
                106.6747,
                20.855063
              ],
              [
                106.674564,
                20.855033
              ],
              [
                106.674564,
                20.855033
              ],
              [
                106.673458,
                20.854801
              ],
              [
                106.672435,
                20.854605
              ],
              [
                106.67203,
                20.854551
              ],
              [
                106.671884,
                20.854545
              ],
              [
                106.671406,
                20.854523
              ],
              [
                106.670674,
                20.854518
              ],
              [
                106.670392,
                20.854524
              ],
              [
                106.670376,
                20.854524
              ],
              [
                106.670293,
                20.85457
              ],
              [
                106.670209,
                20.854615
              ],
              [
                106.669856,
                20.854805
              ],
              [
                106.669405,
                20.855031
              ],
              [
                106.669301,
                20.855085
              ],
              [
                106.669032,
                20.855226
              ],
              [
                106.668824,
                20.855059
              ],
              [
                106.668509,
                20.854808
              ],
              [
                106.668087,
                20.854484
              ],
              [
                106.667694,
                20.854191
              ],
              [
                106.667374,
                20.853982
              ],
              [
                106.666917,
                20.853731
              ],
              [
                106.66652,
                20.853544
              ],
              [
                106.666519,
                20.853543
              ],
              [
                106.666466,
                20.853525
              ],
              [
                106.665531,
                20.853261
              ],
              [
                106.664505,
                20.853082
              ],
              [
                106.663924,
                20.85301
              ],
              [
                106.663752,
                20.85298
              ],
              [
                106.663681,
                20.85299
              ],
              [
                106.663483,
                20.853018
              ],
              [
                106.663069,
                20.853146
              ],
              [
                106.662552,
                20.853295
              ],
              [
                106.662243,
                20.853408
              ],
              [
                106.662057,
                20.853483
              ],
              [
                106.661855,
                20.853598
              ],
              [
                106.661489,
                20.853821
              ],
              [
                106.661222,
                20.853993
              ],
              [
                106.661052,
                20.854111
              ],
              [
                106.660832,
                20.85432
              ],
              [
                106.660593,
                20.854556
              ],
              [
                106.660525,
                20.854638
              ],
              [
                106.660469,
                20.854711
              ],
              [
                106.659858,
                20.855542
              ],
              [
                106.659717,
                20.855916
              ],
              [
                106.65966,
                20.85624
              ],
              [
                106.659717,
                20.856547
              ],
              [
                106.659958,
                20.857018
              ],
              [
                106.660338,
                20.857545
              ],
              [
                106.66051,
                20.857902
              ],
              [
                106.660745,
                20.858495
              ],
              [
                106.660874,
                20.859096
              ],
              [
                106.661004,
                20.859869
              ],
              [
                106.660946,
                20.860171
              ],
              [
                106.660835,
                20.860473
              ],
              [
                106.660595,
                20.860841
              ],
              [
                106.660241,
                20.86126
              ],
              [
                106.659758,
                20.861681
              ],
              [
                106.659109,
                20.861962
              ],
              [
                106.658677,
                20.86201
              ],
              [
                106.658453,
                20.862042
              ],
              [
                106.657902,
                20.862062
              ],
              [
                106.657276,
                20.862102
              ],
              [
                106.656538,
                20.862111
              ],
              [
                106.656204,
                20.862083
              ],
              [
                106.655738,
                20.86199
              ],
              [
                106.655257,
                20.861846
              ],
              [
                106.654992,
                20.861734
              ],
              [
                106.654781,
                20.861633
              ],
              [
                106.654322,
                20.861395
              ],
              [
                106.653859,
                20.861147
              ],
              [
                106.653479,
                20.860935
              ],
              [
                106.653394,
                20.860903
              ],
              [
                106.653085,
                20.860779
              ],
              [
                106.652773,
                20.860661
              ],
              [
                106.652596,
                20.860592
              ],
              [
                106.652283,
                20.860509
              ],
              [
                106.65196,
                20.860433
              ],
              [
                106.651763,
                20.860387
              ],
              [
                106.651437,
                20.860314
              ],
              [
                106.650659,
                20.860086
              ],
              [
                106.650607,
                20.860076
              ],
              [
                106.650509,
                20.860056
              ],
              [
                106.650485,
                20.86005
              ],
              [
                106.650365,
                20.860017
              ],
              [
                106.650105,
                20.859947
              ],
              [
                106.649788,
                20.859871
              ],
              [
                106.649554,
                20.859821
              ],
              [
                106.649353,
                20.859772
              ],
              [
                106.649272,
                20.859739
              ],
              [
                106.649146,
                20.859728
              ],
              [
                106.648935,
                20.859736
              ],
              [
                106.648812,
                20.859761
              ],
              [
                106.648706,
                20.859789
              ],
              [
                106.648443,
                20.859973
              ],
              [
                106.648053,
                20.86045
              ],
              [
                106.647499,
                20.861193
              ],
              [
                106.647039,
                20.861766
              ],
              [
                106.646912,
                20.861935
              ],
              [
                106.646712,
                20.862167
              ],
              [
                106.646629,
                20.862275
              ],
              [
                106.646519,
                20.862416
              ],
              [
                106.646416,
                20.862503
              ],
              [
                106.646258,
                20.862635
              ],
              [
                106.645922,
                20.862914
              ],
              [
                106.645585,
                20.863187
              ],
              [
                106.64527,
                20.863448
              ],
              [
                106.645074,
                20.863616
              ],
              [
                106.644834,
                20.863784
              ],
              [
                106.644587,
                20.863942
              ],
              [
                106.644347,
                20.864091
              ],
              [
                106.64407,
                20.864214
              ],
              [
                106.643814,
                20.864337
              ],
              [
                106.64341,
                20.864462
              ],
              [
                106.642884,
                20.864611
              ],
              [
                106.642481,
                20.864711
              ],
              [
                106.642021,
                20.864806
              ],
              [
                106.641475,
                20.864834
              ],
              [
                106.641175,
                20.864851
              ],
              [
                106.640831,
                20.864835
              ],
              [
                106.640518,
                20.864807
              ],
              [
                106.640266,
                20.864761
              ],
              [
                106.640059,
                20.864708
              ],
              [
                106.639845,
                20.864632
              ],
              [
                106.639495,
                20.864514
              ],
              [
                106.639129,
                20.864373
              ],
              [
                106.638921,
                20.864304
              ],
              [
                106.638534,
                20.864179
              ],
              [
                106.63813,
                20.864042
              ],
              [
                106.63767,
                20.8639
              ],
              [
                106.637288,
                20.863804
              ],
              [
                106.636564,
                20.863678
              ],
              [
                106.63572,
                20.863609
              ],
              [
                106.634946,
                20.863578
              ],
              [
                106.634205,
                20.863691
              ],
              [
                106.633232,
                20.863987
              ],
              [
                106.632494,
                20.864443
              ],
              [
                106.63203,
                20.86482
              ],
              [
                106.631426,
                20.865371
              ],
              [
                106.630926,
                20.866131
              ],
              [
                106.630379,
                20.867341
              ],
              [
                106.630103,
                20.868146
              ],
              [
                106.62985,
                20.868634
              ],
              [
                106.629757,
                20.868766
              ],
              [
                106.629453,
                20.869171
              ],
              [
                106.628999,
                20.869687
              ],
              [
                106.628727,
                20.869979
              ],
              [
                106.628476,
                20.870218
              ],
              [
                106.62825,
                20.870402
              ],
              [
                106.628085,
                20.870538
              ],
              [
                106.627848,
                20.870738
              ],
              [
                106.627704,
                20.870836
              ],
              [
                106.627471,
                20.870956
              ],
              [
                106.626946,
                20.871206
              ],
              [
                106.626872,
                20.871235
              ],
              [
                106.626791,
                20.871251
              ],
              [
                106.626686,
                20.871296
              ],
              [
                106.626463,
                20.871369
              ],
              [
                106.625577,
                20.871734
              ],
              [
                106.624439,
                20.87208
              ],
              [
                106.624015,
                20.872172
              ],
              [
                106.623508,
                20.872265
              ],
              [
                106.623326,
                20.872292
              ],
              [
                106.623381,
                20.872945
              ],
              [
                106.62287,
                20.872994
              ],
              [
                106.622671,
                20.873012
              ],
              [
                106.622632,
                20.873016
              ],
              [
                106.622616,
                20.873384
              ],
              [
                106.622648,
                20.873872
              ],
              [
                106.622685,
                20.874005
              ],
              [
                106.622685,
                20.874005
              ],
              [
                106.622745,
                20.874241
              ],
              [
                106.6232,
                20.874076
              ],
              [
                106.623199,
                20.874083
              ],
              [
                106.623062,
                20.874958
              ],
              [
                106.622917,
                20.875869
              ],
              [
                106.622879,
                20.876183
              ],
              [
                106.622843,
                20.876483
              ],
              [
                106.622777,
                20.877088
              ],
              [
                106.622662,
                20.878222
              ],
              [
                106.622584,
                20.879079
              ],
              [
                106.622517,
                20.879831
              ],
              [
                106.62251,
                20.879913
              ],
              [
                106.622505,
                20.880003
              ],
              [
                106.622496,
                20.880186
              ],
              [
                106.622497,
                20.880218
              ],
              [
                106.622499,
                20.880328
              ],
              [
                106.622511,
                20.880664
              ],
              [
                106.622582,
                20.880812
              ],
              [
                106.622807,
                20.88111
              ],
              [
                106.62329,
                20.881749
              ],
              [
                106.62341,
                20.881706
              ],
              [
                106.623413,
                20.881705
              ],
              [
                106.625168,
                20.881238
              ],
              [
                106.626209,
                20.881049
              ],
              [
                106.626872,
                20.880916
              ],
              [
                106.626872,
                20.880916
              ],
              [
                106.626872,
                20.880916
              ],
              [
                106.626897,
                20.880915
              ],
              [
                106.628626,
                20.880853
              ],
              [
                106.628834,
                20.880846
              ],
              [
                106.628834,
                20.880846
              ]
            ]
          ]
        ]
      },
      "properties": {
        "code": "11311",
        "name": "Hồng Bàng",
        "nameEn": "Hong Bang",
        "fullName": "Phường Hồng Bàng",
        "fullNameEn": "Hong Bang Ward",
        "codeName": "hong_bang",
        "postalCode": "04117",
        "postalCodePrefix": "",
        "gisServerId": "diaphanhanhchinhcapxa_2025.929",
        "areaKm2": 12.11
      }
    }
  ]
}