{
  "type": "FeatureCollection",
  "bbox": [
    106.670293,
    20.819678,
    106.696501,
    20.856009
  ],
  "features": [
    {
      "type": "Feature",
      "id": "11383",
      "bbox": [
        106.670293,
        20.819678,
        106.696501,
        20.856009
      ],
      "geometry": {
        "type": "MultiPolygon",
        "coordinates": [
          [
            [
              [
                106.696304,
                20.827422
              ],
              [
                106.696178,
                20.827243
              ],
              [
                106.696008,
                20.82694
              ],
              [
                106.695711,
                20.826224
              ],
              [
                106.695484,
                20.824637
              ],
              [
                106.695422,
                20.823963
              ],
              [
                106.695299,
                20.822584
              ],
              [
                106.694987,
                20.820983
              ],
              [
                106.694837,
                20.820483
              ],
              [
                106.694619,
                20.819678
              ],
              [
                106.692211,
                20.822275
              ],
              [
                106.689293,
                20.824997
              ],
              [
                106.689022,
                20.825193
              ],
              [
                106.68872,
                20.825475
              ],
              [
                106.688584,
                20.82561
              ],
              [
                106.687669,
                20.826387
              ],
              [
                106.686829,
                20.827102
              ],
              [
                106.686237,
                20.827604
              ],
              [
                106.685252,
                20.828454
              ],
              [
                106.685148,
                20.828584
              ],
              [
                106.685074,
                20.828708
              ],
              [
                106.684752,
                20.829204
              ],
              [
                106.684312,
                20.829935
              ],
              [
                106.684154,
                20.83029
              ],
              [
                106.683906,
                20.830904
              ],
              [
                106.683752,
                20.831404
              ],
              [
                106.683548,
                20.832311
              ],
              [
                106.683425,
                20.833054
              ],
              [
                106.68335,
                20.833636
              ],
              [
                106.683189,
                20.834634
              ],
              [
                106.683141,
                20.834631
              ],
              [
                106.683048,
                20.834626
              ],
              [
                106.68297,
                20.834621
              ],
              [
                106.682385,
                20.834578
              ],
              [
                106.682222,
                20.834566
              ],
              [
                106.679942,
                20.834444
              ],
              [
                106.678858,
                20.834361
              ],
              [
                106.678558,
                20.834337
              ],
              [
                106.677931,
                20.834289
              ],
              [
                106.677166,
                20.834231
              ],
              [
                106.677066,
                20.834223
              ],
              [
                106.677052,
                20.834281
              ],
              [
                106.677016,
                20.8344
              ],
              [
                106.676992,
                20.834463
              ],
              [
                106.676967,
                20.834527
              ],
              [
                106.676939,
                20.834595
              ],
              [
                106.676897,
                20.834691
              ],
              [
                106.676811,
                20.834889
              ],
              [
                106.676674,
                20.835209
              ],
              [
                106.676538,
                20.835527
              ],
              [
                106.676423,
                20.835794
              ],
              [
                106.676302,
                20.836077
              ],
              [
                106.676166,
                20.836397
              ],
              [
                106.676055,
                20.836658
              ],
              [
                106.675971,
                20.836856
              ],
              [
                106.675896,
                20.837038
              ],
              [
                106.675863,
                20.837117
              ],
              [
                106.675825,
                20.837208
              ],
              [
                106.675774,
                20.837332
              ],
              [
                106.675753,
                20.837384
              ],
              [
                106.675748,
                20.837398
              ],
              [
                106.675744,
                20.83741
              ],
              [
                106.675736,
                20.837436
              ],
              [
                106.675724,
                20.837474
              ],
              [
                106.675717,
                20.837502
              ],
              [
                106.675718,
                20.837526
              ],
              [
                106.675726,
                20.837558
              ],
              [
                106.675741,
                20.837587
              ],
              [
                106.675753,
                20.837604
              ],
              [
                106.675762,
                20.837613
              ],
              [
                106.675768,
                20.837616
              ],
              [
                106.675889,
                20.837652
              ],
              [
                106.67603,
                20.837718
              ],
              [
                106.675961,
                20.837778
              ],
              [
                106.675814,
                20.837774
              ],
              [
                106.67563,
                20.837758
              ],
              [
                106.675477,
                20.837765
              ],
              [
                106.675364,
                20.837886
              ],
              [
                106.675152,
                20.838201
              ],
              [
                106.675107,
                20.838258
              ],
              [
                106.674677,
                20.838908
              ],
              [
                106.674524,
                20.839194
              ],
              [
                106.675315,
                20.839321
              ],
              [
                106.67532,
                20.839545
              ],
              [
                106.675474,
                20.840122
              ],
              [
                106.675499,
                20.840222
              ],
              [
                106.675719,
                20.841118
              ],
              [
                106.675817,
                20.842011
              ],
              [
                106.675827,
                20.842164
              ],
              [
                106.67583,
                20.84237
              ],
              [
                106.675745,
                20.842542
              ],
              [
                106.675404,
                20.842923
              ],
              [
                106.675258,
                20.843073
              ],
              [
                106.674124,
                20.844039
              ],
              [
                106.672906,
                20.844597
              ],
              [
                106.671668,
                20.844675
              ],
              [
                106.670831,
                20.845137
              ],
              [
                106.67197,
                20.846511
              ],
              [
                106.671227,
                20.849398
              ],
              [
                106.671059,
                20.850174
              ],
              [
                106.670976,
                20.850552
              ],
              [
                106.67085,
                20.851125
              ],
              [
                106.670293,
                20.85457
              ],
              [
                106.670376,
                20.854524
              ],
              [
                106.670392,
                20.854524
              ],
              [
                106.670674,
                20.854518
              ],
              [
                106.671406,
                20.854523
              ],
              [
                106.671884,
                20.854545
              ],
              [
                106.67203,
                20.854551
              ],
              [
                106.672435,
                20.854605
              ],
              [
                106.673458,
                20.854801
              ],
              [
                106.674564,
                20.855033
              ],
              [
                106.674564,
                20.855033
              ],
              [
                106.6747,
                20.855063
              ],
              [
                106.67526,
                20.85516
              ],
              [
                106.676292,
                20.855352
              ],
              [
                106.677991,
                20.855669
              ],
              [
                106.678107,
                20.855691
              ],
              [
                106.67824,
                20.85572
              ],
              [
                106.67834,
                20.855342
              ],
              [
                106.678977,
                20.855471
              ],
              [
                106.679302,
                20.855536
              ],
              [
                106.679917,
                20.855661
              ],
              [
                106.68018,
                20.855714
              ],
              [
                106.681463,
                20.855977
              ],
              [
                106.68162,
                20.856009
              ],
              [
                106.681688,
                20.855915
              ],
              [
                106.681961,
                20.855538
              ],
              [
                106.682229,
                20.855302
              ],
              [
                106.68228,
                20.855257
              ],
              [
                106.682776,
                20.85482
              ],
              [
                106.68282,
                20.854781
              ],
              [
                106.683422,
                20.85425
              ],
              [
                106.683903,
                20.853858
              ],
              [
                106.684935,
                20.853016
              ],
              [
                106.685967,
                20.852175
              ],
              [
                106.686709,
                20.85157
              ],
              [
                106.686786,
                20.851507
              ],
              [
                106.687432,
                20.85098
              ],
              [
                106.687571,
                20.850867
              ],
              [
                106.687941,
                20.850565
              ],
              [
                106.688091,
                20.850443
              ],
              [
                106.688477,
                20.850127
              ],
              [
                106.689305,
                20.849452
              ],
              [
                106.689534,
                20.849257
              ],
              [
                106.690172,
                20.848725
              ],
              [
                106.690387,
                20.848311
              ],
              [
                106.690946,
                20.847176
              ],
              [
                106.69133,
                20.84639
              ],
              [
                106.691365,
                20.84632
              ],
              [
                106.691582,
                20.845858
              ],
              [
                106.691609,
                20.8458
              ],
              [
                106.691645,
                20.845723
              ],
              [
                106.691679,
                20.845651
              ],
              [
                106.691914,
                20.845151
              ],
              [
                106.69261,
                20.843672
              ],
              [
                106.692682,
                20.843518
              ],
              [
                106.692815,
                20.843236
              ],
              [
                106.692848,
                20.843165
              ],
              [
                106.693011,
                20.842819
              ],
              [
                106.693158,
                20.842507
              ],
              [
                106.693488,
                20.841805
              ],
              [
                106.693681,
                20.841395
              ],
              [
                106.693978,
                20.840762
              ],
              [
                106.694029,
                20.840654
              ],
              [
                106.694048,
                20.840614
              ],
              [
                106.694048,
                20.840614
              ],
              [
                106.694078,
                20.840546
              ],
              [
                106.694175,
                20.840342
              ],
              [
                106.694504,
                20.839649
              ],
              [
                106.6951,
                20.838332
              ],
              [
                106.695975,
                20.836433
              ],
              [
                106.696115,
                20.836128
              ],
              [
                106.696501,
                20.83529
              ],
              [
                106.696376,
                20.835219
              ],
              [
                106.696296,
                20.835173
              ],
              [
                106.695792,
                20.834125
              ],
              [
                106.695655,
                20.833816
              ],
              [
                106.695459,
                20.83334
              ],
              [
                106.695231,
                20.832792
              ],
              [
                106.69517,
                20.832494
              ],
              [
                106.695069,
                20.831933
              ],
              [
                106.694944,
                20.831833
              ],
              [
                106.694818,
                20.831733
              ],
              [
                106.694606,
                20.831502
              ],
              [
                106.694225,
                20.83112
              ],
              [
                106.694664,
                20.830183
              ],
              [
                106.694748,
                20.830147
              ],
              [
                106.694892,
                20.830122
              ],
              [
                106.694853,
                20.830021
              ],
              [
                106.69481,
                20.829679
              ],
              [
                106.694797,
                20.829627
              ],
              [
                106.694715,
                20.829164
              ],
              [
                106.694715,
                20.829125
              ],
              [
                106.694725,
                20.82909
              ],
              [
                106.694753,
                20.829048
              ],
              [
                106.694964,
                20.828838
              ],
              [
                106.695142,
                20.828662
              ],
              [
                106.695283,
                20.828472
              ],
              [
                106.695619,
                20.828018
              ],
              [
                106.695752,
                20.82785
              ],
              [
                106.695858,
                20.827756
              ],
              [
                106.695903,
                20.827717
              ],
              [
                106.69615,
                20.827521
              ],
              [
                106.696304,
                20.827422
              ],
              [
                106.696304,
                20.827422
              ]
            ]
          ]
        ]
      },
      "properties": {
        "code": "11383",
        "name": "Lê Chân",
        "nameEn": "Le Chan",
        "fullName": "Phường Lê Chân",
        "fullNameEn": "Le Chan Ward",
        "codeName": "le_chan",
        "postalCode": "04721",
        "postalCodePrefix": "",
        "gisServerId": "diaphanhanhchinhcapxa_2025.932",
        "areaKm2": 5.65
      }
    }
  ]
}