{
  "type": "FeatureCollection",
  "bbox": [
    106.698851,
    20.774151,
    106.779066,
    20.848158
  ],
  "features": [
    {
      "type": "Feature",
      "id": "11413",
      "bbox": [
        106.698851,
        20.774151,
        106.779066,
        20.848158
      ],
      "geometry": {
        "type": "MultiPolygon",
        "coordinates": [
          [
            [
              [
                106.776728,
                20.793239
              ],
              [
                106.776728,
                20.793239
              ],
              [
                106.7767,
                20.793225
              ],
              [
                106.77639,
                20.793067
              ],
              [
                106.776594,
                20.792699
              ],
              [
                106.776882,
                20.792119
              ],
              [
                106.777279,
                20.791314
              ],
              [
                106.777501,
                20.790732
              ],
              [
                106.777652,
                20.790037
              ],
              [
                106.777692,
                20.789691
              ],
              [
                106.777744,
                20.789248
              ],
              [
                106.777755,
                20.788041
              ],
              [
                106.777711,
                20.787539
              ],
              [
                106.777703,
                20.787348
              ],
              [
                106.777656,
                20.787187
              ],
              [
                106.777579,
                20.787075
              ],
              [
                106.777521,
                20.787034
              ],
              [
                106.777362,
                20.787023
              ],
              [
                106.777153,
                20.787049
              ],
              [
                106.776735,
                20.787179
              ],
              [
                106.776172,
                20.78743
              ],
              [
                106.775462,
                20.787812
              ],
              [
                106.77543,
                20.787809
              ],
              [
                106.775384,
                20.787808
              ],
              [
                106.775293,
                20.787628
              ],
              [
                106.775203,
                20.787449
              ],
              [
                106.775064,
                20.787072
              ],
              [
                106.774987,
                20.786528
              ],
              [
                106.775034,
                20.785664
              ],
              [
                106.775039,
                20.784881
              ],
              [
                106.774762,
                20.784126
              ],
              [
                106.774307,
                20.783865
              ],
              [
                106.773672,
                20.783912
              ],
              [
                106.77266,
                20.784347
              ],
              [
                106.771916,
                20.784727
              ],
              [
                106.771156,
                20.784947
              ],
              [
                106.770732,
                20.784912
              ],
              [
                106.770405,
                20.784809
              ],
              [
                106.769922,
                20.784508
              ],
              [
                106.769336,
                20.783917
              ],
              [
                106.76889,
                20.783244
              ],
              [
                106.768305,
                20.782732
              ],
              [
                106.767808,
                20.782458
              ],
              [
                106.767454,
                20.782395
              ],
              [
                106.76697,
                20.782121
              ],
              [
                106.766428,
                20.781636
              ],
              [
                106.7657,
                20.781006
              ],
              [
                106.76559,
                20.780874
              ],
              [
                106.765457,
                20.780716
              ],
              [
                106.765271,
                20.780384
              ],
              [
                106.765169,
                20.780201
              ],
              [
                106.764699,
                20.779874
              ],
              [
                106.764484,
                20.779862
              ],
              [
                106.764275,
                20.779851
              ],
              [
                106.764149,
                20.779893
              ],
              [
                106.763722,
                20.77945
              ],
              [
                106.76341,
                20.779127
              ],
              [
                106.763278,
                20.77899
              ],
              [
                106.763146,
                20.778853
              ],
              [
                106.76329,
                20.778612
              ],
              [
                106.76326,
                20.778511
              ],
              [
                106.763071,
                20.778364
              ],
              [
                106.762627,
                20.778185
              ],
              [
                106.762395,
                20.778126
              ],
              [
                106.760078,
                20.777542
              ],
              [
                106.759902,
                20.777502
              ],
              [
                106.758957,
                20.77729
              ],
              [
                106.758718,
                20.777278
              ],
              [
                106.75851,
                20.777281
              ],
              [
                106.758353,
                20.77733
              ],
              [
                106.758235,
                20.777422
              ],
              [
                106.758246,
                20.776998
              ],
              [
                106.758276,
                20.775821
              ],
              [
                106.75187,
                20.77469
              ],
              [
                106.75187,
                20.77469
              ],
              [
                106.750915,
                20.774577
              ],
              [
                106.749429,
                20.774401
              ],
              [
                106.748897,
                20.774348
              ],
              [
                106.748621,
                20.774321
              ],
              [
                106.748015,
                20.774262
              ],
              [
                106.745747,
                20.774161
              ],
              [
                106.744822,
                20.774151
              ],
              [
                106.743562,
                20.774221
              ],
              [
                106.742517,
                20.774356
              ],
              [
                106.741148,
                20.774714
              ],
              [
                106.740237,
                20.775039
              ],
              [
                106.739469,
                20.775381
              ],
              [
                106.738478,
                20.775869
              ],
              [
                106.737469,
                20.776482
              ],
              [
                106.736642,
                20.777083
              ],
              [
                106.735948,
                20.777692
              ],
              [
                106.735536,
                20.778107
              ],
              [
                106.735184,
                20.778503
              ],
              [
                106.734865,
                20.778905
              ],
              [
                106.734846,
                20.77893
              ],
              [
                106.734734,
                20.779071
              ],
              [
                106.734662,
                20.779194
              ],
              [
                106.734345,
                20.779735
              ],
              [
                106.734107,
                20.780301
              ],
              [
                106.733931,
                20.780886
              ],
              [
                106.733707,
                20.781711
              ],
              [
                106.733581,
                20.782295
              ],
              [
                106.733476,
                20.78286
              ],
              [
                106.733453,
                20.783558
              ],
              [
                106.733505,
                20.784533
              ],
              [
                106.733637,
                20.786291
              ],
              [
                106.733733,
                20.787571
              ],
              [
                106.733773,
                20.788459
              ],
              [
                106.733765,
                20.789492
              ],
              [
                106.733706,
                20.790601
              ],
              [
                106.733614,
                20.791434
              ],
              [
                106.733461,
                20.792229
              ],
              [
                106.733284,
                20.792776
              ],
              [
                106.732909,
                20.793745
              ],
              [
                106.732382,
                20.794783
              ],
              [
                106.732033,
                20.79536
              ],
              [
                106.731491,
                20.796025
              ],
              [
                106.730797,
                20.796682
              ],
              [
                106.730091,
                20.797196
              ],
              [
                106.729162,
                20.797702
              ],
              [
                106.728282,
                20.798132
              ],
              [
                106.727635,
                20.798387
              ],
              [
                106.726763,
                20.798615
              ],
              [
                106.725728,
                20.798817
              ],
              [
                106.72454,
                20.798925
              ],
              [
                106.722761,
                20.798971
              ],
              [
                106.721603,
                20.799021
              ],
              [
                106.720436,
                20.799157
              ],
              [
                106.719148,
                20.799485
              ],
              [
                106.718086,
                20.799833
              ],
              [
                106.717912,
                20.79989
              ],
              [
                106.717002,
                20.800272
              ],
              [
                106.716608,
                20.800481
              ],
              [
                106.716213,
                20.800691
              ],
              [
                106.715316,
                20.801331
              ],
              [
                106.714681,
                20.801786
              ],
              [
                106.713543,
                20.802782
              ],
              [
                106.712023,
                20.804164
              ],
              [
                106.710926,
                20.805141
              ],
              [
                106.710029,
                20.80581
              ],
              [
                106.709726,
                20.805991
              ],
              [
                106.709443,
                20.80616
              ],
              [
                106.707735,
                20.807056
              ],
              [
                106.706795,
                20.807553
              ],
              [
                106.705847,
                20.808174
              ],
              [
                106.705191,
                20.808659
              ],
              [
                106.704547,
                20.80921
              ],
              [
                106.703883,
                20.809886
              ],
              [
                106.703573,
                20.81031
              ],
              [
                106.703344,
                20.810713
              ],
              [
                106.703215,
                20.811021
              ],
              [
                106.703049,
                20.811663
              ],
              [
                106.702925,
                20.812362
              ],
              [
                106.702785,
                20.813482
              ],
              [
                106.702714,
                20.8144
              ],
              [
                106.702709,
                20.81484
              ],
              [
                106.702764,
                20.815212
              ],
              [
                106.702891,
                20.815718
              ],
              [
                106.703061,
                20.816356
              ],
              [
                106.703475,
                20.81792
              ],
              [
                106.703476,
                20.817922
              ],
              [
                106.703521,
                20.818164
              ],
              [
                106.703531,
                20.818216
              ],
              [
                106.703789,
                20.81959
              ],
              [
                106.703911,
                20.820535
              ],
              [
                106.703938,
                20.82108
              ],
              [
                106.703874,
                20.822094
              ],
              [
                106.703736,
                20.823331
              ],
              [
                106.70322,
                20.824588
              ],
              [
                106.702888,
                20.825236
              ],
              [
                106.702177,
                20.826307
              ],
              [
                106.701598,
                20.826959
              ],
              [
                106.700633,
                20.827554
              ],
              [
                106.699532,
                20.827975
              ],
              [
                106.699651,
                20.828418
              ],
              [
                106.699676,
                20.828516
              ],
              [
                106.699676,
                20.828516
              ],
              [
                106.699708,
                20.828648
              ],
              [
                106.699736,
                20.828781
              ],
              [
                106.699851,
                20.829314
              ],
              [
                106.699807,
                20.829448
              ],
              [
                106.699556,
                20.829723
              ],
              [
                106.699523,
                20.829752
              ],
              [
                106.699225,
                20.830019
              ],
              [
                106.698851,
                20.830579
              ],
              [
                106.698972,
                20.830654
              ],
              [
                106.699445,
                20.830946
              ],
              [
                106.699588,
                20.831049
              ],
              [
                106.699804,
                20.831205
              ],
              [
                106.700151,
                20.83153
              ],
              [
                106.700293,
                20.83178
              ],
              [
                106.70043,
                20.832071
              ],
              [
                106.70057,
                20.832251
              ],
              [
                106.700759,
                20.832492
              ],
              [
                106.701219,
                20.832726
              ],
              [
                106.701801,
                20.833049
              ],
              [
                106.7021,
                20.833157
              ],
              [
                106.701827,
                20.833945
              ],
              [
                106.702076,
                20.834012
              ],
              [
                106.701926,
                20.834563
              ],
              [
                106.702255,
                20.835356
              ],
              [
                106.702087,
                20.835793
              ],
              [
                106.701767,
                20.835752
              ],
              [
                106.701607,
                20.83625
              ],
              [
                106.701678,
                20.836274
              ],
              [
                106.70294,
                20.836697
              ],
              [
                106.703101,
                20.836751
              ],
              [
                106.703389,
                20.836828
              ],
              [
                106.703376,
                20.836963
              ],
              [
                106.703278,
                20.837456
              ],
              [
                106.703699,
                20.837932
              ],
              [
                106.703808,
                20.838069
              ],
              [
                106.704022,
                20.838579
              ],
              [
                106.704242,
                20.838992
              ],
              [
                106.704413,
                20.839193
              ],
              [
                106.704518,
                20.839257
              ],
              [
                106.704786,
                20.839255
              ],
              [
                106.704958,
                20.839554
              ],
              [
                106.705148,
                20.839519
              ],
              [
                106.705497,
                20.840219
              ],
              [
                106.705386,
                20.840306
              ],
              [
                106.705628,
                20.840673
              ],
              [
                106.705791,
                20.84059
              ],
              [
                106.705963,
                20.840849
              ],
              [
                106.706092,
                20.840799
              ],
              [
                106.70629,
                20.841106
              ],
              [
                106.706076,
                20.841283
              ],
              [
                106.706192,
                20.841545
              ],
              [
                106.705856,
                20.841708
              ],
              [
                106.705927,
                20.84191
              ],
              [
                106.705742,
                20.842002
              ],
              [
                106.706038,
                20.842552
              ],
              [
                106.706115,
                20.84286
              ],
              [
                106.706128,
                20.843075
              ],
              [
                106.706259,
                20.843111
              ],
              [
                106.706799,
                20.843269
              ],
              [
                106.707056,
                20.843343
              ],
              [
                106.70746,
                20.843476
              ],
              [
                106.708023,
                20.843674
              ],
              [
                106.709385,
                20.844154
              ],
              [
                106.710867,
                20.844674
              ],
              [
                106.71145,
                20.844879
              ],
              [
                106.712171,
                20.845132
              ],
              [
                106.71317,
                20.84547
              ],
              [
                106.713657,
                20.845645
              ],
              [
                106.714269,
                20.845864
              ],
              [
                106.714885,
                20.84607
              ],
              [
                106.715425,
                20.846261
              ],
              [
                106.715896,
                20.846439
              ],
              [
                106.716043,
                20.846512
              ],
              [
                106.716724,
                20.846845
              ],
              [
                106.716728,
                20.846847
              ],
              [
                106.720879,
                20.848158
              ],
              [
                106.721099,
                20.847794
              ],
              [
                106.721303,
                20.847358
              ],
              [
                106.721414,
                20.847121
              ],
              [
                106.721493,
                20.846976
              ],
              [
                106.72174,
                20.846548
              ],
              [
                106.721998,
                20.846194
              ],
              [
                106.722155,
                20.846038
              ],
              [
                106.722303,
                20.845929
              ],
              [
                106.722332,
                20.845913
              ],
              [
                106.722375,
                20.845786
              ],
              [
                106.722435,
                20.845735
              ],
              [
                106.722484,
                20.845718
              ],
              [
                106.722743,
                20.845628
              ],
              [
                106.72345,
                20.845431
              ],
              [
                106.72375,
                20.84535
              ],
              [
                106.724279,
                20.845207
              ],
              [
                106.725932,
                20.844746
              ],
              [
                106.726644,
                20.844551
              ],
              [
                106.726776,
                20.844515
              ],
              [
                106.727985,
                20.844159
              ],
              [
                106.72846,
                20.844019
              ],
              [
                106.729057,
                20.843843
              ],
              [
                106.729122,
                20.843825
              ],
              [
                106.729334,
                20.843764
              ],
              [
                106.729549,
                20.843703
              ],
              [
                106.729992,
                20.843576
              ],
              [
                106.730535,
                20.843421
              ],
              [
                106.730592,
                20.843405
              ],
              [
                106.731079,
                20.843271
              ],
              [
                106.731296,
                20.8432
              ],
              [
                106.731466,
                20.84312
              ],
              [
                106.731629,
                20.843025
              ],
              [
                106.731852,
                20.842858
              ],
              [
                106.73209,
                20.84263
              ],
              [
                106.732369,
                20.842361
              ],
              [
                106.732792,
                20.841977
              ],
              [
                106.733275,
                20.841521
              ],
              [
                106.733693,
                20.841129
              ],
              [
                106.733822,
                20.840981
              ],
              [
                106.733885,
                20.840909
              ],
              [
                106.734013,
                20.840735
              ],
              [
                106.734162,
                20.840411
              ],
              [
                106.734389,
                20.839928
              ],
              [
                106.734612,
                20.839424
              ],
              [
                106.734644,
                20.83933
              ],
              [
                106.734646,
                20.839323
              ],
              [
                106.734654,
                20.839228
              ],
              [
                106.734653,
                20.839105
              ],
              [
                106.734617,
                20.838892
              ],
              [
                106.734592,
                20.83867
              ],
              [
                106.734533,
                20.838427
              ],
              [
                106.734449,
                20.838179
              ],
              [
                106.734397,
                20.838061
              ],
              [
                106.734304,
                20.837908
              ],
              [
                106.734056,
                20.837569
              ],
              [
                106.733942,
                20.837398
              ],
              [
                106.733883,
                20.837313
              ],
              [
                106.733851,
                20.837246
              ],
              [
                106.733825,
                20.837165
              ],
              [
                106.733803,
                20.837058
              ],
              [
                106.733797,
                20.836929
              ],
              [
                106.733802,
                20.836646
              ],
              [
                106.733803,
                20.836594
              ],
              [
                106.733847,
                20.835953
              ],
              [
                106.733893,
                20.835334
              ],
              [
                106.733929,
                20.834896
              ],
              [
                106.733968,
                20.83431
              ],
              [
                106.734002,
                20.833987
              ],
              [
                106.734033,
                20.83381
              ],
              [
                106.734079,
                20.833611
              ],
              [
                106.734135,
                20.833355
              ],
              [
                106.734251,
                20.832857
              ],
              [
                106.734345,
                20.832435
              ],
              [
                106.734413,
                20.832169
              ],
              [
                106.73444,
                20.832021
              ],
              [
                106.734467,
                20.831772
              ],
              [
                106.734472,
                20.831521
              ],
              [
                106.734472,
                20.831503
              ],
              [
                106.73447,
                20.831308
              ],
              [
                106.73447,
                20.831304
              ],
              [
                106.734465,
                20.831105
              ],
              [
                106.734465,
                20.831102
              ],
              [
                106.734463,
                20.831042
              ],
              [
                106.734468,
                20.830985
              ],
              [
                106.734473,
                20.830941
              ],
              [
                106.734478,
                20.830896
              ],
              [
                106.734482,
                20.830859
              ],
              [
                106.734485,
                20.830834
              ],
              [
                106.734489,
                20.830808
              ],
              [
                106.734498,
                20.830769
              ],
              [
                106.73451,
                20.830722
              ],
              [
                106.734522,
                20.830673
              ],
              [
                106.734534,
                20.830626
              ],
              [
                106.734546,
                20.830581
              ],
              [
                106.734557,
                20.830538
              ],
              [
                106.73457,
                20.830495
              ],
              [
                106.734583,
                20.83045
              ],
              [
                106.734599,
                20.830403
              ],
              [
                106.734616,
                20.830355
              ],
              [
                106.734633,
                20.830308
              ],
              [
                106.734651,
                20.830261
              ],
              [
                106.734671,
                20.830216
              ],
              [
                106.734691,
                20.830174
              ],
              [
                106.73471,
                20.830133
              ],
              [
                106.734727,
                20.830098
              ],
              [
                106.73474,
                20.83007
              ],
              [
                106.734751,
                20.830047
              ],
              [
                106.734761,
                20.830024
              ],
              [
                106.73477,
                20.829999
              ],
              [
                106.734778,
                20.829972
              ],
              [
                106.734784,
                20.829944
              ],
              [
                106.73479,
                20.829914
              ],
              [
                106.734797,
                20.82988
              ],
              [
                106.734804,
                20.829839
              ],
              [
                106.734811,
                20.829794
              ],
              [
                106.734818,
                20.829747
              ],
              [
                106.734824,
                20.829698
              ],
              [
                106.734827,
                20.829647
              ],
              [
                106.734829,
                20.829595
              ],
              [
                106.73483,
                20.829545
              ],
              [
                106.734832,
                20.829501
              ],
              [
                106.734834,
                20.829462
              ],
              [
                106.734837,
                20.829425
              ],
              [
                106.73484,
                20.82939
              ],
              [
                106.734842,
                20.829353
              ],
              [
                106.734846,
                20.829306
              ],
              [
                106.734849,
                20.829248
              ],
              [
                106.734851,
                20.829168
              ],
              [
                106.734853,
                20.829075
              ],
              [
                106.734855,
                20.828983
              ],
              [
                106.734857,
                20.828906
              ],
              [
                106.734857,
                20.828881
              ],
              [
                106.734858,
                20.828857
              ],
              [
                106.734859,
                20.828826
              ],
              [
                106.73486,
                20.828796
              ],
              [
                106.734863,
                20.828753
              ],
              [
                106.73487,
                20.828689
              ],
              [
                106.734878,
                20.828614
              ],
              [
                106.734887,
                20.828536
              ],
              [
                106.734894,
                20.828464
              ],
              [
                106.734899,
                20.828399
              ],
              [
                106.734902,
                20.82834
              ],
              [
                106.734904,
                20.82828
              ],
              [
                106.734905,
                20.828213
              ],
              [
                106.734906,
                20.828134
              ],
              [
                106.734906,
                20.828049
              ],
              [
                106.734907,
                20.827964
              ],
              [
                106.734908,
                20.827888
              ],
              [
                106.73491,
                20.827826
              ],
              [
                106.734914,
                20.827774
              ],
              [
                106.734917,
                20.827724
              ],
              [
                106.734923,
                20.827668
              ],
              [
                106.734931,
                20.827606
              ],
              [
                106.73494,
                20.827541
              ],
              [
                106.73495,
                20.827476
              ],
              [
                106.734961,
                20.82741
              ],
              [
                106.734975,
                20.827346
              ],
              [
                106.734989,
                20.827283
              ],
              [
                106.735003,
                20.827224
              ],
              [
                106.735015,
                20.827176
              ],
              [
                106.735023,
                20.827144
              ],
              [
                106.735026,
                20.827135
              ],
              [
                106.735036,
                20.827103
              ],
              [
                106.735059,
                20.82703
              ],
              [
                106.735088,
                20.826939
              ],
              [
                106.735119,
                20.826844
              ],
              [
                106.735147,
                20.82675
              ],
              [
                106.735174,
                20.82666
              ],
              [
                106.735199,
                20.82657
              ],
              [
                106.735225,
                20.826481
              ],
              [
                106.735249,
                20.826395
              ],
              [
                106.735273,
                20.826314
              ],
              [
                106.735295,
                20.826236
              ],
              [
                106.735318,
                20.826159
              ],
              [
                106.735342,
                20.826082
              ],
              [
                106.735367,
                20.826009
              ],
              [
                106.735393,
                20.825937
              ],
              [
                106.735419,
                20.825866
              ],
              [
                106.735445,
                20.825797
              ],
              [
                106.735471,
                20.825733
              ],
              [
                106.735498,
                20.825671
              ],
              [
                106.735525,
                20.825611
              ],
              [
                106.735554,
                20.825556
              ],
              [
                106.735584,
                20.82551
              ],
              [
                106.735614,
                20.82547
              ],
              [
                106.735646,
                20.825431
              ],
              [
                106.735684,
                20.825388
              ],
              [
                106.735737,
                20.825336
              ],
              [
                106.7358,
                20.825276
              ],
              [
                106.735862,
                20.825217
              ],
              [
                106.735924,
                20.825159
              ],
              [
                106.735983,
                20.825103
              ],
              [
                106.736031,
                20.825058
              ],
              [
                106.736072,
                20.825019
              ],
              [
                106.736112,
                20.824982
              ],
              [
                106.736167,
                20.824932
              ],
              [
                106.736237,
                20.824869
              ],
              [
                106.736306,
                20.824807
              ],
              [
                106.736381,
                20.82474
              ],
              [
                106.736468,
                20.824663
              ],
              [
                106.736553,
                20.824589
              ],
              [
                106.736637,
                20.824519
              ],
              [
                106.736722,
                20.82445
              ],
              [
                106.736806,
                20.824382
              ],
              [
                106.736881,
                20.824321
              ],
              [
                106.736941,
                20.824273
              ],
              [
                106.736989,
                20.824235
              ],
              [
                106.73702,
                20.824209
              ],
              [
                106.737093,
                20.824151
              ],
              [
                106.737107,
                20.824123
              ],
              [
                106.737115,
                20.824109
              ],
              [
                106.737122,
                20.824094
              ],
              [
                106.737137,
                20.824066
              ],
              [
                106.737136,
                20.824022
              ],
              [
                106.737136,
                20.824007
              ],
              [
                106.737135,
                20.823982
              ],
              [
                106.737132,
                20.823948
              ],
              [
                106.737124,
                20.823909
              ],
              [
                106.737114,
                20.823866
              ],
              [
                106.737104,
                20.823824
              ],
              [
                106.737087,
                20.82378
              ],
              [
                106.737116,
                20.823623
              ],
              [
                106.737786,
                20.823521
              ],
              [
                106.738247,
                20.823417
              ],
              [
                106.738364,
                20.823391
              ],
              [
                106.739049,
                20.823251
              ],
              [
                106.740424,
                20.822971
              ],
              [
                106.740926,
                20.822874
              ],
              [
                106.747242,
                20.821629
              ],
              [
                106.747765,
                20.82153
              ],
              [
                106.747867,
                20.821553
              ],
              [
                106.748076,
                20.821637
              ],
              [
                106.748077,
                20.821638
              ],
              [
                106.748766,
                20.822172
              ],
              [
                106.748873,
                20.822248
              ],
              [
                106.748927,
                20.822281
              ],
              [
                106.748972,
                20.822313
              ],
              [
                106.749061,
                20.822379
              ],
              [
                106.749096,
                20.822405
              ],
              [
                106.749474,
                20.822585
              ],
              [
                106.749482,
                20.822587
              ],
              [
                106.749691,
                20.822645
              ],
              [
                106.749723,
                20.822654
              ],
              [
                106.749921,
                20.822766
              ],
              [
                106.750035,
                20.822818
              ],
              [
                106.750739,
                20.82283
              ],
              [
                106.751269,
                20.822791
              ],
              [
                106.75148,
                20.822791
              ],
              [
                106.751765,
                20.822836
              ],
              [
                106.751871,
                20.822884
              ],
              [
                106.752112,
                20.822995
              ],
              [
                106.753064,
                20.823539
              ],
              [
                106.753495,
                20.82387
              ],
              [
                106.753793,
                20.824112
              ],
              [
                106.754202,
                20.824443
              ],
              [
                106.757656,
                20.82505
              ],
              [
                106.759042,
                20.822041
              ],
              [
                106.760394,
                20.820585
              ],
              [
                106.779066,
                20.805136
              ],
              [
                106.771459,
                20.804319
              ],
              [
                106.768315,
                20.804338
              ],
              [
                106.769085,
                20.803391
              ],
              [
                106.769959,
                20.8025
              ],
              [
                106.770238,
                20.802217
              ],
              [
                106.770892,
                20.801393
              ],
              [
                106.771793,
                20.800187
              ],
              [
                106.772446,
                20.799291
              ],
              [
                106.773917,
                20.797275
              ],
              [
                106.774697,
                20.796228
              ],
              [
                106.776081,
                20.794284
              ],
              [
                106.776728,
                20.793239
              ],
              [
                106.776728,
                20.793239
              ],
              [
                106.776728,
                20.793239
              ]
            ]
          ]
        ]
      },
      "properties": {
        "code": "11413",
        "name": "Hải An",
        "nameEn": "Hai An",
        "fullName": "Phường Hải An",
        "fullNameEn": "Hai An Ward",
        "codeName": "hai_an",
        "postalCode": "04814",
        "postalCodePrefix": "",
        "gisServerId": "diaphanhanhchinhcapxa_2025.933",
        "areaKm2": 39.99
      }
    }
  ]
}