{
  "type": "FeatureCollection",
  "bbox": [
    106.675692,
    20.923044,
    106.770528,
    21.005406
  ],
  "features": [
    {
      "type": "Feature",
      "id": "11473",
      "bbox": [
        106.675692,
        20.923044,
        106.770528,
        21.005406
      ],
      "geometry": {
        "type": "MultiPolygon",
        "coordinates": [
          [
            [
              [
                106.724665,
                20.996779
              ],
              [
                106.725264,
                20.996754
              ],
              [
                106.725577,
                20.996786
              ],
              [
                106.72665,
                20.997292
              ],
              [
                106.727241,
                20.997598
              ],
              [
                106.727437,
                20.997668
              ],
              [
                106.728216,
                20.997948
              ],
              [
                106.729266,
                20.998153
              ],
              [
                106.729907,
                20.998187
              ],
              [
                106.730964,
                20.998244
              ],
              [
                106.731516,
                20.998274
              ],
              [
                106.735501,
                20.998209
              ],
              [
                106.740405,
                20.997991
              ],
              [
                106.742674,
                20.997584
              ],
              [
                106.744023,
                20.997222
              ],
              [
                106.7477,
                20.995796
              ],
              [
                106.751428,
                20.993879
              ],
              [
                106.751873,
                20.993595
              ],
              [
                106.754812,
                20.991769
              ],
              [
                106.75519,
                20.991493
              ],
              [
                106.757824,
                20.989787
              ],
              [
                106.758861,
                20.989115
              ],
              [
                106.75906,
                20.98892
              ],
              [
                106.760448,
                20.987557
              ],
              [
                106.760474,
                20.987537
              ],
              [
                106.761901,
                20.986011
              ],
              [
                106.761998,
                20.985867
              ],
              [
                106.763204,
                20.984421
              ],
              [
                106.763229,
                20.98439
              ],
              [
                106.763697,
                20.983741
              ],
              [
                106.763811,
                20.983543
              ],
              [
                106.764185,
                20.982893
              ],
              [
                106.766235,
                20.979621
              ],
              [
                106.76748,
                20.976921
              ],
              [
                106.768082,
                20.973731
              ],
              [
                106.768308,
                20.97245
              ],
              [
                106.768507,
                20.971323
              ],
              [
                106.768536,
                20.97116
              ],
              [
                106.768551,
                20.971032
              ],
              [
                106.768595,
                20.970656
              ],
              [
                106.769369,
                20.964125
              ],
              [
                106.769888,
                20.959603
              ],
              [
                106.770116,
                20.956231
              ],
              [
                106.770345,
                20.953038
              ],
              [
                106.770423,
                20.950139
              ],
              [
                106.770435,
                20.949708
              ],
              [
                106.770451,
                20.949094
              ],
              [
                106.770516,
                20.943176
              ],
              [
                106.770528,
                20.942027
              ],
              [
                106.766018,
                20.943664
              ],
              [
                106.755096,
                20.946956
              ],
              [
                106.751871,
                20.94774
              ],
              [
                106.750201,
                20.948134
              ],
              [
                106.749146,
                20.948463
              ],
              [
                106.748369,
                20.948592
              ],
              [
                106.746994,
                20.948594
              ],
              [
                106.744163,
                20.948472
              ],
              [
                106.744126,
                20.946615
              ],
              [
                106.744118,
                20.946247
              ],
              [
                106.744097,
                20.946026
              ],
              [
                106.744075,
                20.945601
              ],
              [
                106.744066,
                20.945442
              ],
              [
                106.744017,
                20.944638
              ],
              [
                106.744009,
                20.944501
              ],
              [
                106.744004,
                20.944453
              ],
              [
                106.743931,
                20.943689
              ],
              [
                106.743907,
                20.943442
              ],
              [
                106.74388,
                20.943122
              ],
              [
                106.743839,
                20.94265
              ],
              [
                106.743834,
                20.942591
              ],
              [
                106.743747,
                20.941678
              ],
              [
                106.74368,
                20.940897
              ],
              [
                106.743605,
                20.940898
              ],
              [
                106.741737,
                20.940941
              ],
              [
                106.741667,
                20.940944
              ],
              [
                106.741128,
                20.940982
              ],
              [
                106.740969,
                20.940992
              ],
              [
                106.740902,
                20.940924
              ],
              [
                106.740683,
                20.939857
              ],
              [
                106.740478,
                20.938947
              ],
              [
                106.740355,
                20.939
              ],
              [
                106.740249,
                20.938983
              ],
              [
                106.740093,
                20.93884
              ],
              [
                106.739281,
                20.938123
              ],
              [
                106.738123,
                20.937304
              ],
              [
                106.737072,
                20.936502
              ],
              [
                106.736861,
                20.936318
              ],
              [
                106.736646,
                20.936106
              ],
              [
                106.73645,
                20.93587
              ],
              [
                106.736272,
                20.935534
              ],
              [
                106.736045,
                20.935169
              ],
              [
                106.735937,
                20.93526
              ],
              [
                106.735461,
                20.935437
              ],
              [
                106.734917,
                20.935595
              ],
              [
                106.73484,
                20.935618
              ],
              [
                106.734692,
                20.935157
              ],
              [
                106.734584,
                20.934804
              ],
              [
                106.734455,
                20.934075
              ],
              [
                106.73438,
                20.933512
              ],
              [
                106.734401,
                20.933333
              ],
              [
                106.734281,
                20.933369
              ],
              [
                106.733994,
                20.933453
              ],
              [
                106.733658,
                20.933579
              ],
              [
                106.733567,
                20.933644
              ],
              [
                106.733069,
                20.933859
              ],
              [
                106.733028,
                20.933853
              ],
              [
                106.732808,
                20.93394
              ],
              [
                106.732623,
                20.934073
              ],
              [
                106.732596,
                20.934085
              ],
              [
                106.732566,
                20.933724
              ],
              [
                106.732532,
                20.933292
              ],
              [
                106.732498,
                20.933129
              ],
              [
                106.732414,
                20.932938
              ],
              [
                106.73199,
                20.932283
              ],
              [
                106.731819,
                20.931985
              ],
              [
                106.731803,
                20.931972
              ],
              [
                106.731682,
                20.932004
              ],
              [
                106.731477,
                20.932013
              ],
              [
                106.731344,
                20.932029
              ],
              [
                106.730987,
                20.932138
              ],
              [
                106.73046,
                20.932286
              ],
              [
                106.729909,
                20.932483
              ],
              [
                106.729484,
                20.932631
              ],
              [
                106.728632,
                20.93288
              ],
              [
                106.728607,
                20.932888
              ],
              [
                106.728563,
                20.932824
              ],
              [
                106.728463,
                20.932675
              ],
              [
                106.728407,
                20.932544
              ],
              [
                106.728366,
                20.93237
              ],
              [
                106.728325,
                20.932186
              ],
              [
                106.728306,
                20.931884
              ],
              [
                106.728335,
                20.931621
              ],
              [
                106.728374,
                20.931357
              ],
              [
                106.728452,
                20.931057
              ],
              [
                106.728476,
                20.930928
              ],
              [
                106.728363,
                20.930532
              ],
              [
                106.728327,
                20.930404
              ],
              [
                106.728325,
                20.930398
              ],
              [
                106.728084,
                20.930383
              ],
              [
                106.727835,
                20.930322
              ],
              [
                106.727746,
                20.9303
              ],
              [
                106.727281,
                20.930189
              ],
              [
                106.72727,
                20.930188
              ],
              [
                106.727242,
                20.930187
              ],
              [
                106.727207,
                20.930188
              ],
              [
                106.727137,
                20.930184
              ],
              [
                106.726969,
                20.930162
              ],
              [
                106.72696,
                20.930146
              ],
              [
                106.726933,
                20.93011
              ],
              [
                106.726883,
                20.930047
              ],
              [
                106.726819,
                20.929959
              ],
              [
                106.72679,
                20.929919
              ],
              [
                106.726681,
                20.929809
              ],
              [
                106.72652,
                20.929578
              ],
              [
                106.726475,
                20.929467
              ],
              [
                106.726344,
                20.929145
              ],
              [
                106.726195,
                20.9287
              ],
              [
                106.726086,
                20.928374
              ],
              [
                106.725986,
                20.927996
              ],
              [
                106.725921,
                20.92776
              ],
              [
                106.725742,
                20.927115
              ],
              [
                106.725637,
                20.926723
              ],
              [
                106.725566,
                20.926456
              ],
              [
                106.725508,
                20.92624
              ],
              [
                106.725443,
                20.926089
              ],
              [
                106.725209,
                20.925551
              ],
              [
                106.725182,
                20.92549
              ],
              [
                106.725161,
                20.925454
              ],
              [
                106.725053,
                20.925266
              ],
              [
                106.724754,
                20.924749
              ],
              [
                106.72475,
                20.924742
              ],
              [
                106.724742,
                20.924722
              ],
              [
                106.724542,
                20.92422
              ],
              [
                106.724506,
                20.924036
              ],
              [
                106.724492,
                20.923969
              ],
              [
                106.723613,
                20.923725
              ],
              [
                106.723491,
                20.923684
              ],
              [
                106.723241,
                20.923564
              ],
              [
                106.722953,
                20.923424
              ],
              [
                106.722068,
                20.923044
              ],
              [
                106.722068,
                20.923044
              ],
              [
                106.722062,
                20.923051
              ],
              [
                106.721468,
                20.923796
              ],
              [
                106.720951,
                20.92446
              ],
              [
                106.720492,
                20.925039
              ],
              [
                106.719944,
                20.925752
              ],
              [
                106.719841,
                20.92587
              ],
              [
                106.719436,
                20.926548
              ],
              [
                106.719121,
                20.927054
              ],
              [
                106.71909,
                20.927117
              ],
              [
                106.719084,
                20.927119
              ],
              [
                106.718822,
                20.927577
              ],
              [
                106.7187,
                20.927578
              ],
              [
                106.718415,
                20.927607
              ],
              [
                106.717968,
                20.927602
              ],
              [
                106.717927,
                20.927612
              ],
              [
                106.717925,
                20.927617
              ],
              [
                106.717892,
                20.927706
              ],
              [
                106.717619,
                20.928507
              ],
              [
                106.71749,
                20.928774
              ],
              [
                106.71764,
                20.928832
              ],
              [
                106.717815,
                20.92896
              ],
              [
                106.717848,
                20.928965
              ],
              [
                106.718125,
                20.9291
              ],
              [
                106.71791,
                20.929626
              ],
              [
                106.717777,
                20.930007
              ],
              [
                106.717481,
                20.93069
              ],
              [
                106.716956,
                20.93192
              ],
              [
                106.716762,
                20.93247
              ],
              [
                106.716722,
                20.932584
              ],
              [
                106.71656,
                20.93308
              ],
              [
                106.71623,
                20.933095
              ],
              [
                106.716182,
                20.933284
              ],
              [
                106.716146,
                20.933427
              ],
              [
                106.716156,
                20.933638
              ],
              [
                106.716126,
                20.93375
              ],
              [
                106.715816,
                20.934388
              ],
              [
                106.715878,
                20.934392
              ],
              [
                106.715965,
                20.934433
              ],
              [
                106.715875,
                20.934626
              ],
              [
                106.715085,
                20.936502
              ],
              [
                106.715072,
                20.936529
              ],
              [
                106.715055,
                20.936567
              ],
              [
                106.715296,
                20.936659
              ],
              [
                106.714971,
                20.937934
              ],
              [
                106.714765,
                20.938743
              ],
              [
                106.714396,
                20.940343
              ],
              [
                106.71437,
                20.940718
              ],
              [
                106.714368,
                20.940738
              ],
              [
                106.714361,
                20.940848
              ],
              [
                106.71434,
                20.941144
              ],
              [
                106.713811,
                20.941164
              ],
              [
                106.713237,
                20.941164
              ],
              [
                106.712654,
                20.941165
              ],
              [
                106.712637,
                20.941205
              ],
              [
                106.71259,
                20.941532
              ],
              [
                106.712365,
                20.944537
              ],
              [
                106.712179,
                20.944543
              ],
              [
                106.711657,
                20.944618
              ],
              [
                106.711191,
                20.944748
              ],
              [
                106.710824,
                20.944904
              ],
              [
                106.710509,
                20.945014
              ],
              [
                106.709723,
                20.945258
              ],
              [
                106.709351,
                20.94535
              ],
              [
                106.709163,
                20.945386
              ],
              [
                106.709051,
                20.945385
              ],
              [
                106.708947,
                20.945363
              ],
              [
                106.708607,
                20.945371
              ],
              [
                106.708718,
                20.945685
              ],
              [
                106.708738,
                20.945815
              ],
              [
                106.70881,
                20.945939
              ],
              [
                106.708897,
                20.94607
              ],
              [
                106.708969,
                20.94618
              ],
              [
                106.709172,
                20.947181
              ],
              [
                106.709285,
                20.947859
              ],
              [
                106.709288,
                20.949147
              ],
              [
                106.709308,
                20.949192
              ],
              [
                106.70928,
                20.949482
              ],
              [
                106.709153,
                20.95081
              ],
              [
                106.708631,
                20.950747
              ],
              [
                106.707328,
                20.950701
              ],
              [
                106.705402,
                20.950741
              ],
              [
                106.703397,
                20.950872
              ],
              [
                106.701372,
                20.95113
              ],
              [
                106.698314,
                20.951507
              ],
              [
                106.696386,
                20.951766
              ],
              [
                106.694772,
                20.952113
              ],
              [
                106.693451,
                20.952471
              ],
              [
                106.692413,
                20.952844
              ],
              [
                106.691081,
                20.953431
              ],
              [
                106.688665,
                20.955036
              ],
              [
                106.688551,
                20.956231
              ],
              [
                106.688582,
                20.956476
              ],
              [
                106.688646,
                20.957546
              ],
              [
                106.688612,
                20.959233
              ],
              [
                106.68861,
                20.959324
              ],
              [
                106.688539,
                20.960565
              ],
              [
                106.688417,
                20.960999
              ],
              [
                106.688403,
                20.961048
              ],
              [
                106.68837,
                20.961084
              ],
              [
                106.688155,
                20.96132
              ],
              [
                106.687894,
                20.961584
              ],
              [
                106.687267,
                20.962082
              ],
              [
                106.686733,
                20.962463
              ],
              [
                106.685652,
                20.963299
              ],
              [
                106.685249,
                20.963662
              ],
              [
                106.684456,
                20.964376
              ],
              [
                106.684116,
                20.964737
              ],
              [
                106.683923,
                20.965105
              ],
              [
                106.683858,
                20.965229
              ],
              [
                106.683755,
                20.965462
              ],
              [
                106.683683,
                20.965625
              ],
              [
                106.683329,
                20.966432
              ],
              [
                106.683284,
                20.966534
              ],
              [
                106.682965,
                20.967308
              ],
              [
                106.68281,
                20.967636
              ],
              [
                106.682721,
                20.967799
              ],
              [
                106.682689,
                20.967858
              ],
              [
                106.682581,
                20.968012
              ],
              [
                106.682517,
                20.968096
              ],
              [
                106.682434,
                20.968204
              ],
              [
                106.682382,
                20.968262
              ],
              [
                106.682045,
                20.968635
              ],
              [
                106.681893,
                20.968802
              ],
              [
                106.681168,
                20.969597
              ],
              [
                106.680951,
                20.96985
              ],
              [
                106.680818,
                20.970003
              ],
              [
                106.680807,
                20.970016
              ],
              [
                106.680538,
                20.970406
              ],
              [
                106.680322,
                20.970863
              ],
              [
                106.680305,
                20.970919
              ],
              [
                106.680227,
                20.971179
              ],
              [
                106.68016,
                20.971425
              ],
              [
                106.68014,
                20.971613
              ],
              [
                106.680139,
                20.971623
              ],
              [
                106.680128,
                20.971849
              ],
              [
                106.680149,
                20.972238
              ],
              [
                106.680151,
                20.972265
              ],
              [
                106.680244,
                20.972828
              ],
              [
                106.680245,
                20.972832
              ],
              [
                106.680307,
                20.973181
              ],
              [
                106.680539,
                20.974483
              ],
              [
                106.680583,
                20.97473
              ],
              [
                106.680581,
                20.974776
              ],
              [
                106.680587,
                20.974859
              ],
              [
                106.680591,
                20.974915
              ],
              [
                106.68059,
                20.974942
              ],
              [
                106.680589,
                20.974961
              ],
              [
                106.680589,
                20.974994
              ],
              [
                106.680589,
                20.975061
              ],
              [
                106.680589,
                20.975151
              ],
              [
                106.680591,
                20.975236
              ],
              [
                106.680594,
                20.975319
              ],
              [
                106.680598,
                20.975407
              ],
              [
                106.680602,
                20.975487
              ],
              [
                106.680605,
                20.975555
              ],
              [
                106.680605,
                20.975611
              ],
              [
                106.680603,
                20.975668
              ],
              [
                106.680599,
                20.975737
              ],
              [
                106.68059,
                20.975801
              ],
              [
                106.680588,
                20.975808
              ],
              [
                106.680572,
                20.975864
              ],
              [
                106.680114,
                20.976745
              ],
              [
                106.679907,
                20.976982
              ],
              [
                106.679778,
                20.977129
              ],
              [
                106.679677,
                20.977244
              ],
              [
                106.679538,
                20.97735
              ],
              [
                106.679396,
                20.977459
              ],
              [
                106.679115,
                20.977674
              ],
              [
                106.679018,
                20.977748
              ],
              [
                106.679015,
                20.977752
              ],
              [
                106.678976,
                20.977794
              ],
              [
                106.678968,
                20.9778
              ],
              [
                106.678775,
                20.977966
              ],
              [
                106.678681,
                20.978046
              ],
              [
                106.678652,
                20.978101
              ],
              [
                106.67865,
                20.978106
              ],
              [
                106.678609,
                20.978181
              ],
              [
                106.678872,
                20.97875
              ],
              [
                106.678947,
                20.978913
              ],
              [
                106.678948,
                20.978915
              ],
              [
                106.679016,
                20.979061
              ],
              [
                106.679217,
                20.979467
              ],
              [
                106.679222,
                20.979479
              ],
              [
                106.679249,
                20.979533
              ],
              [
                106.679254,
                20.979543
              ],
              [
                106.679276,
                20.979587
              ],
              [
                106.679277,
                20.979589
              ],
              [
                106.679323,
                20.979687
              ],
              [
                106.679372,
                20.979791
              ],
              [
                106.679419,
                20.979884
              ],
              [
                106.679446,
                20.979937
              ],
              [
                106.679475,
                20.979995
              ],
              [
                106.67955,
                20.980142
              ],
              [
                106.679592,
                20.980227
              ],
              [
                106.679629,
                20.980302
              ],
              [
                106.679665,
                20.98037
              ],
              [
                106.679669,
                20.980377
              ],
              [
                106.679677,
                20.980392
              ],
              [
                106.679717,
                20.980475
              ],
              [
                106.679764,
                20.980567
              ],
              [
                106.679811,
                20.980654
              ],
              [
                106.67989,
                20.980821
              ],
              [
                106.679938,
                20.980919
              ],
              [
                106.679977,
                20.981001
              ],
              [
                106.680018,
                20.981085
              ],
              [
                106.680068,
                20.981187
              ],
              [
                106.680102,
                20.981256
              ],
              [
                106.680149,
                20.981353
              ],
              [
                106.680158,
                20.981371
              ],
              [
                106.680369,
                20.981793
              ],
              [
                106.680476,
                20.982009
              ],
              [
                106.680496,
                20.982048
              ],
              [
                106.680588,
                20.982224
              ],
              [
                106.68063,
                20.982307
              ],
              [
                106.680719,
                20.982485
              ],
              [
                106.680722,
                20.982491
              ],
              [
                106.680772,
                20.982586
              ],
              [
                106.680827,
                20.982695
              ],
              [
                106.680864,
                20.982768
              ],
              [
                106.680896,
                20.982831
              ],
              [
                106.680928,
                20.9829
              ],
              [
                106.680954,
                20.982951
              ],
              [
                106.680986,
                20.983008
              ],
              [
                106.681017,
                20.98307
              ],
              [
                106.681091,
                20.983236
              ],
              [
                106.681129,
                20.983312
              ],
              [
                106.681253,
                20.983571
              ],
              [
                106.681348,
                20.983774
              ],
              [
                106.681393,
                20.983866
              ],
              [
                106.681453,
                20.983988
              ],
              [
                106.681484,
                20.984057
              ],
              [
                106.681527,
                20.984151
              ],
              [
                106.681529,
                20.984155
              ],
              [
                106.681556,
                20.984207
              ],
              [
                106.681588,
                20.984281
              ],
              [
                106.681638,
                20.984369
              ],
              [
                106.681689,
                20.984472
              ],
              [
                106.681722,
                20.984532
              ],
              [
                106.681753,
                20.984592
              ],
              [
                106.681788,
                20.984663
              ],
              [
                106.681821,
                20.984724
              ],
              [
                106.681848,
                20.98478
              ],
              [
                106.681858,
                20.984801
              ],
              [
                106.68209,
                20.985247
              ],
              [
                106.682164,
                20.985389
              ],
              [
                106.682166,
                20.985393
              ],
              [
                106.682241,
                20.985533
              ],
              [
                106.68228,
                20.985606
              ],
              [
                106.682322,
                20.985686
              ],
              [
                106.682886,
                20.986833
              ],
              [
                106.68291,
                20.986879
              ],
              [
                106.683058,
                20.987173
              ],
              [
                106.683258,
                20.987568
              ],
              [
                106.683269,
                20.987589
              ],
              [
                106.683488,
                20.988022
              ],
              [
                106.683509,
                20.988061
              ],
              [
                106.683527,
                20.988099
              ],
              [
                106.68377,
                20.988578
              ],
              [
                106.683968,
                20.988965
              ],
              [
                106.684055,
                20.989134
              ],
              [
                106.684069,
                20.989161
              ],
              [
                106.684089,
                20.9892
              ],
              [
                106.684117,
                20.989252
              ],
              [
                106.684134,
                20.989268
              ],
              [
                106.683252,
                20.990187
              ],
              [
                106.682926,
                20.990555
              ],
              [
                106.682169,
                20.991408
              ],
              [
                106.682045,
                20.991543
              ],
              [
                106.681743,
                20.991871
              ],
              [
                106.681327,
                20.99195
              ],
              [
                106.680509,
                20.992246
              ],
              [
                106.680406,
                20.992277
              ],
              [
                106.680187,
                20.992331
              ],
              [
                106.679887,
                20.992434
              ],
              [
                106.679754,
                20.992501
              ],
              [
                106.679595,
                20.992544
              ],
              [
                106.679442,
                20.992549
              ],
              [
                106.679138,
                20.992466
              ],
              [
                106.67888,
                20.992401
              ],
              [
                106.678757,
                20.992389
              ],
              [
                106.678608,
                20.992375
              ],
              [
                106.67831,
                20.992378
              ],
              [
                106.678054,
                20.992434
              ],
              [
                106.677978,
                20.99245
              ],
              [
                106.677715,
                20.992493
              ],
              [
                106.677393,
                20.992584
              ],
              [
                106.677134,
                20.992599
              ],
              [
                106.677035,
                20.992592
              ],
              [
                106.676846,
                20.992525
              ],
              [
                106.676519,
                20.992458
              ],
              [
                106.676181,
                20.99243
              ],
              [
                106.675768,
                20.992531
              ],
              [
                106.675692,
                20.99255
              ],
              [
                106.675883,
                20.992759
              ],
              [
                106.675971,
                20.992856
              ],
              [
                106.676168,
                20.993061
              ],
              [
                106.676488,
                20.993395
              ],
              [
                106.676762,
                20.993654
              ],
              [
                106.678293,
                20.995216
              ],
              [
                106.678603,
                20.995519
              ],
              [
                106.679492,
                20.996386
              ],
              [
                106.679872,
                20.99677
              ],
              [
                106.67999,
                20.996888
              ],
              [
                106.68007,
                20.996968
              ],
              [
                106.680138,
                20.997036
              ],
              [
                106.680517,
                20.997461
              ],
              [
                106.68061,
                20.997575
              ],
              [
                106.68113,
                20.9981
              ],
              [
                106.68114,
                20.99811
              ],
              [
                106.681382,
                20.998346
              ],
              [
                106.681456,
                20.998417
              ],
              [
                106.68203,
                20.998966
              ],
              [
                106.682046,
                20.998982
              ],
              [
                106.682066,
                20.999003
              ],
              [
                106.682067,
                20.999003
              ],
              [
                106.682142,
                20.999078
              ],
              [
                106.682425,
                20.99936
              ],
              [
                106.682841,
                20.999773
              ],
              [
                106.683521,
                21.000509
              ],
              [
                106.683626,
                21.000622
              ],
              [
                106.68364,
                21.000637
              ],
              [
                106.684014,
                21.001047
              ],
              [
                106.68426,
                21.001348
              ],
              [
                106.684555,
                21.001771
              ],
              [
                106.68473,
                21.002076
              ],
              [
                106.684845,
                21.002269
              ],
              [
                106.685115,
                21.002882
              ],
              [
                106.685218,
                21.003213
              ],
              [
                106.685239,
                21.003267
              ],
              [
                106.685303,
                21.00343
              ],
              [
                106.685515,
                21.003973
              ],
              [
                106.685595,
                21.004176
              ],
              [
                106.685781,
                21.004652
              ],
              [
                106.685942,
                21.005064
              ],
              [
                106.686051,
                21.005342
              ],
              [
                106.686076,
                21.005406
              ],
              [
                106.686801,
                21.005136
              ],
              [
                106.687974,
                21.004823
              ],
              [
                106.689368,
                21.004573
              ],
              [
                106.693407,
                21.003638
              ],
              [
                106.697716,
                21.002416
              ],
              [
                106.700906,
                21.001265
              ],
              [
                106.701408,
                21.001158
              ],
              [
                106.702918,
                21.000767
              ],
              [
                106.703945,
                21.000478
              ],
              [
                106.705841,
                20.999915
              ],
              [
                106.706694,
                20.999661
              ],
              [
                106.709008,
                20.999162
              ],
              [
                106.709562,
                20.99908
              ],
              [
                106.709645,
                20.999072
              ],
              [
                106.709646,
                20.999072
              ],
              [
                106.710377,
                20.999006
              ],
              [
                106.710769,
                20.99897
              ],
              [
                106.711548,
                20.998832
              ],
              [
                106.714591,
                20.998292
              ],
              [
                106.715528,
                20.998177
              ],
              [
                106.716817,
                20.998018
              ],
              [
                106.716817,
                20.998018
              ],
              [
                106.717088,
                20.997984
              ],
              [
                106.717539,
                20.997901
              ],
              [
                106.718701,
                20.997686
              ],
              [
                106.719302,
                20.997561
              ],
              [
                106.719918,
                20.997425
              ],
              [
                106.720017,
                20.997403
              ],
              [
                106.7203,
                20.99734
              ],
              [
                106.721629,
                20.997077
              ],
              [
                106.722309,
                20.996983
              ],
              [
                106.72272,
                20.996927
              ],
              [
                106.723426,
                20.996829
              ],
              [
                106.723602,
                20.996822
              ],
              [
                106.72409,
                20.996803
              ],
              [
                106.724378,
                20.996791
              ],
              [
                106.724665,
                20.996779
              ],
              [
                106.724665,
                20.996779
              ]
            ]
          ]
        ]
      },
      "properties": {
        "code": "11473",
        "name": "Bạch Đằng",
        "nameEn": "Bach Dang",
        "fullName": "Phường Bạch Đằng",
        "fullNameEn": "Bach Dang Ward",
        "codeName": "bach_dang",
        "postalCode": "04318",
        "postalCodePrefix": "",
        "gisServerId": "diaphanhanhchinhcapxa_2025.922",
        "areaKm2": 53.49
      }
    }
  ]
}