{
  "type": "FeatureCollection",
  "bbox": [
    106.621734,
    20.927717,
    106.688665,
    21.019527
  ],
  "features": [
    {
      "type": "Feature",
      "id": "11488",
      "bbox": [
        106.621734,
        20.927717,
        106.688665,
        21.019527
      ],
      "geometry": {
        "type": "MultiPolygon",
        "coordinates": [
          [
            [
              [
                106.674381,
                21.010939
              ],
              [
                106.676641,
                21.010071
              ],
              [
                106.680672,
                21.008119
              ],
              [
                106.681166,
                21.007871
              ],
              [
                106.686076,
                21.005406
              ],
              [
                106.686051,
                21.005342
              ],
              [
                106.685942,
                21.005064
              ],
              [
                106.685781,
                21.004652
              ],
              [
                106.685595,
                21.004176
              ],
              [
                106.685515,
                21.003973
              ],
              [
                106.685303,
                21.00343
              ],
              [
                106.685239,
                21.003267
              ],
              [
                106.685218,
                21.003213
              ],
              [
                106.685115,
                21.002882
              ],
              [
                106.684845,
                21.002269
              ],
              [
                106.68473,
                21.002076
              ],
              [
                106.684555,
                21.001771
              ],
              [
                106.68426,
                21.001348
              ],
              [
                106.684014,
                21.001047
              ],
              [
                106.68364,
                21.000637
              ],
              [
                106.683626,
                21.000622
              ],
              [
                106.683521,
                21.000509
              ],
              [
                106.682841,
                20.999773
              ],
              [
                106.682425,
                20.99936
              ],
              [
                106.682142,
                20.999078
              ],
              [
                106.682067,
                20.999003
              ],
              [
                106.682066,
                20.999003
              ],
              [
                106.682046,
                20.998982
              ],
              [
                106.68203,
                20.998966
              ],
              [
                106.681456,
                20.998417
              ],
              [
                106.681382,
                20.998346
              ],
              [
                106.68114,
                20.99811
              ],
              [
                106.68113,
                20.9981
              ],
              [
                106.68061,
                20.997575
              ],
              [
                106.680517,
                20.997461
              ],
              [
                106.680138,
                20.997036
              ],
              [
                106.68007,
                20.996968
              ],
              [
                106.67999,
                20.996888
              ],
              [
                106.679872,
                20.99677
              ],
              [
                106.679492,
                20.996386
              ],
              [
                106.678603,
                20.995519
              ],
              [
                106.678293,
                20.995216
              ],
              [
                106.676762,
                20.993654
              ],
              [
                106.676488,
                20.993395
              ],
              [
                106.676168,
                20.993061
              ],
              [
                106.675971,
                20.992856
              ],
              [
                106.675883,
                20.992759
              ],
              [
                106.675692,
                20.99255
              ],
              [
                106.675768,
                20.992531
              ],
              [
                106.676181,
                20.99243
              ],
              [
                106.676519,
                20.992458
              ],
              [
                106.676846,
                20.992525
              ],
              [
                106.677035,
                20.992592
              ],
              [
                106.677134,
                20.992599
              ],
              [
                106.677393,
                20.992584
              ],
              [
                106.677715,
                20.992493
              ],
              [
                106.677978,
                20.99245
              ],
              [
                106.678054,
                20.992434
              ],
              [
                106.67831,
                20.992378
              ],
              [
                106.678608,
                20.992375
              ],
              [
                106.678757,
                20.992389
              ],
              [
                106.67888,
                20.992401
              ],
              [
                106.679138,
                20.992466
              ],
              [
                106.679442,
                20.992549
              ],
              [
                106.679595,
                20.992544
              ],
              [
                106.679754,
                20.992501
              ],
              [
                106.679887,
                20.992434
              ],
              [
                106.680187,
                20.992331
              ],
              [
                106.680406,
                20.992277
              ],
              [
                106.680509,
                20.992246
              ],
              [
                106.681327,
                20.99195
              ],
              [
                106.681743,
                20.991871
              ],
              [
                106.682045,
                20.991543
              ],
              [
                106.682169,
                20.991408
              ],
              [
                106.682926,
                20.990555
              ],
              [
                106.683252,
                20.990187
              ],
              [
                106.684134,
                20.989268
              ],
              [
                106.684117,
                20.989252
              ],
              [
                106.684089,
                20.9892
              ],
              [
                106.684069,
                20.989161
              ],
              [
                106.684055,
                20.989134
              ],
              [
                106.683968,
                20.988965
              ],
              [
                106.68377,
                20.988578
              ],
              [
                106.683527,
                20.988099
              ],
              [
                106.683509,
                20.988061
              ],
              [
                106.683488,
                20.988022
              ],
              [
                106.683269,
                20.987589
              ],
              [
                106.683258,
                20.987568
              ],
              [
                106.683058,
                20.987173
              ],
              [
                106.68291,
                20.986879
              ],
              [
                106.682886,
                20.986833
              ],
              [
                106.682322,
                20.985686
              ],
              [
                106.68228,
                20.985606
              ],
              [
                106.682241,
                20.985533
              ],
              [
                106.682166,
                20.985393
              ],
              [
                106.682164,
                20.985389
              ],
              [
                106.68209,
                20.985247
              ],
              [
                106.681858,
                20.984801
              ],
              [
                106.681848,
                20.98478
              ],
              [
                106.681821,
                20.984724
              ],
              [
                106.681788,
                20.984663
              ],
              [
                106.681753,
                20.984592
              ],
              [
                106.681722,
                20.984532
              ],
              [
                106.681689,
                20.984472
              ],
              [
                106.681638,
                20.984369
              ],
              [
                106.681588,
                20.984281
              ],
              [
                106.681556,
                20.984207
              ],
              [
                106.681529,
                20.984155
              ],
              [
                106.681527,
                20.984151
              ],
              [
                106.681484,
                20.984057
              ],
              [
                106.681453,
                20.983988
              ],
              [
                106.681393,
                20.983866
              ],
              [
                106.681348,
                20.983774
              ],
              [
                106.681253,
                20.983571
              ],
              [
                106.681129,
                20.983312
              ],
              [
                106.681091,
                20.983236
              ],
              [
                106.681017,
                20.98307
              ],
              [
                106.680986,
                20.983008
              ],
              [
                106.680954,
                20.982951
              ],
              [
                106.680928,
                20.9829
              ],
              [
                106.680896,
                20.982831
              ],
              [
                106.680864,
                20.982768
              ],
              [
                106.680827,
                20.982695
              ],
              [
                106.680772,
                20.982586
              ],
              [
                106.680722,
                20.982491
              ],
              [
                106.680719,
                20.982485
              ],
              [
                106.68063,
                20.982307
              ],
              [
                106.680588,
                20.982224
              ],
              [
                106.680496,
                20.982048
              ],
              [
                106.680476,
                20.982009
              ],
              [
                106.680369,
                20.981793
              ],
              [
                106.680158,
                20.981371
              ],
              [
                106.680149,
                20.981353
              ],
              [
                106.680102,
                20.981256
              ],
              [
                106.680068,
                20.981187
              ],
              [
                106.680018,
                20.981085
              ],
              [
                106.679977,
                20.981001
              ],
              [
                106.679938,
                20.980919
              ],
              [
                106.67989,
                20.980821
              ],
              [
                106.679811,
                20.980654
              ],
              [
                106.679764,
                20.980567
              ],
              [
                106.679717,
                20.980475
              ],
              [
                106.679677,
                20.980392
              ],
              [
                106.679669,
                20.980377
              ],
              [
                106.679665,
                20.98037
              ],
              [
                106.679629,
                20.980302
              ],
              [
                106.679592,
                20.980227
              ],
              [
                106.67955,
                20.980142
              ],
              [
                106.679475,
                20.979995
              ],
              [
                106.679446,
                20.979937
              ],
              [
                106.679419,
                20.979884
              ],
              [
                106.679372,
                20.979791
              ],
              [
                106.679323,
                20.979687
              ],
              [
                106.679277,
                20.979589
              ],
              [
                106.679276,
                20.979587
              ],
              [
                106.679254,
                20.979543
              ],
              [
                106.679249,
                20.979533
              ],
              [
                106.679222,
                20.979479
              ],
              [
                106.679217,
                20.979467
              ],
              [
                106.679016,
                20.979061
              ],
              [
                106.678948,
                20.978915
              ],
              [
                106.678947,
                20.978913
              ],
              [
                106.678872,
                20.97875
              ],
              [
                106.678609,
                20.978181
              ],
              [
                106.67865,
                20.978106
              ],
              [
                106.678652,
                20.978101
              ],
              [
                106.678681,
                20.978046
              ],
              [
                106.678775,
                20.977966
              ],
              [
                106.678968,
                20.9778
              ],
              [
                106.678976,
                20.977794
              ],
              [
                106.679015,
                20.977752
              ],
              [
                106.679018,
                20.977748
              ],
              [
                106.679115,
                20.977674
              ],
              [
                106.679396,
                20.977459
              ],
              [
                106.679538,
                20.97735
              ],
              [
                106.679677,
                20.977244
              ],
              [
                106.679778,
                20.977129
              ],
              [
                106.679907,
                20.976982
              ],
              [
                106.680114,
                20.976745
              ],
              [
                106.680572,
                20.975864
              ],
              [
                106.680588,
                20.975808
              ],
              [
                106.68059,
                20.975801
              ],
              [
                106.680599,
                20.975737
              ],
              [
                106.680603,
                20.975668
              ],
              [
                106.680605,
                20.975611
              ],
              [
                106.680605,
                20.975555
              ],
              [
                106.680602,
                20.975487
              ],
              [
                106.680598,
                20.975407
              ],
              [
                106.680594,
                20.975319
              ],
              [
                106.680591,
                20.975236
              ],
              [
                106.680589,
                20.975151
              ],
              [
                106.680589,
                20.975061
              ],
              [
                106.680589,
                20.974994
              ],
              [
                106.680589,
                20.974961
              ],
              [
                106.68059,
                20.974942
              ],
              [
                106.680591,
                20.974915
              ],
              [
                106.680587,
                20.974859
              ],
              [
                106.680581,
                20.974776
              ],
              [
                106.680583,
                20.97473
              ],
              [
                106.680539,
                20.974483
              ],
              [
                106.680307,
                20.973181
              ],
              [
                106.680245,
                20.972832
              ],
              [
                106.680244,
                20.972828
              ],
              [
                106.680151,
                20.972265
              ],
              [
                106.680149,
                20.972238
              ],
              [
                106.680128,
                20.971849
              ],
              [
                106.680139,
                20.971623
              ],
              [
                106.68014,
                20.971613
              ],
              [
                106.68016,
                20.971425
              ],
              [
                106.680227,
                20.971179
              ],
              [
                106.680305,
                20.970919
              ],
              [
                106.680322,
                20.970863
              ],
              [
                106.680538,
                20.970406
              ],
              [
                106.680807,
                20.970016
              ],
              [
                106.680818,
                20.970003
              ],
              [
                106.680951,
                20.96985
              ],
              [
                106.681168,
                20.969597
              ],
              [
                106.681893,
                20.968802
              ],
              [
                106.682045,
                20.968635
              ],
              [
                106.682382,
                20.968262
              ],
              [
                106.682434,
                20.968204
              ],
              [
                106.682517,
                20.968096
              ],
              [
                106.682581,
                20.968012
              ],
              [
                106.682689,
                20.967858
              ],
              [
                106.682721,
                20.967799
              ],
              [
                106.68281,
                20.967636
              ],
              [
                106.682965,
                20.967308
              ],
              [
                106.683284,
                20.966534
              ],
              [
                106.683329,
                20.966432
              ],
              [
                106.683683,
                20.965625
              ],
              [
                106.683755,
                20.965462
              ],
              [
                106.683858,
                20.965229
              ],
              [
                106.683923,
                20.965105
              ],
              [
                106.684116,
                20.964737
              ],
              [
                106.684456,
                20.964376
              ],
              [
                106.685249,
                20.963662
              ],
              [
                106.685652,
                20.963299
              ],
              [
                106.686733,
                20.962463
              ],
              [
                106.687267,
                20.962082
              ],
              [
                106.687894,
                20.961584
              ],
              [
                106.688155,
                20.96132
              ],
              [
                106.68837,
                20.961084
              ],
              [
                106.688403,
                20.961048
              ],
              [
                106.688417,
                20.960999
              ],
              [
                106.688539,
                20.960565
              ],
              [
                106.68861,
                20.959324
              ],
              [
                106.688612,
                20.959233
              ],
              [
                106.688646,
                20.957546
              ],
              [
                106.688582,
                20.956476
              ],
              [
                106.688551,
                20.956231
              ],
              [
                106.688665,
                20.955036
              ],
              [
                106.688404,
                20.955175
              ],
              [
                106.688343,
                20.955207
              ],
              [
                106.688104,
                20.955339
              ],
              [
                106.687985,
                20.955409
              ],
              [
                106.687922,
                20.955446
              ],
              [
                106.687876,
                20.95547
              ],
              [
                106.68781,
                20.955501
              ],
              [
                106.687644,
                20.955578
              ],
              [
                106.687387,
                20.955698
              ],
              [
                106.687183,
                20.955792
              ],
              [
                106.687033,
                20.95586
              ],
              [
                106.686904,
                20.955917
              ],
              [
                106.686813,
                20.955955
              ],
              [
                106.686751,
                20.95598
              ],
              [
                106.686696,
                20.956009
              ],
              [
                106.686596,
                20.95606
              ],
              [
                106.686412,
                20.956146
              ],
              [
                106.686175,
                20.956252
              ],
              [
                106.685932,
                20.956359
              ],
              [
                106.685722,
                20.956448
              ],
              [
                106.685588,
                20.956503
              ],
              [
                106.685525,
                20.956529
              ],
              [
                106.685469,
                20.956551
              ],
              [
                106.685372,
                20.956587
              ],
              [
                106.685268,
                20.956622
              ],
              [
                106.685172,
                20.956667
              ],
              [
                106.684406,
                20.956899
              ],
              [
                106.683518,
                20.957141
              ],
              [
                106.682126,
                20.957443
              ],
              [
                106.680577,
                20.957752
              ],
              [
                106.679173,
                20.957935
              ],
              [
                106.678331,
                20.95801
              ],
              [
                106.678113,
                20.958029
              ],
              [
                106.677632,
                20.958031
              ],
              [
                106.676914,
                20.95806
              ],
              [
                106.675982,
                20.958015
              ],
              [
                106.675231,
                20.957908
              ],
              [
                106.67515,
                20.957897
              ],
              [
                106.674962,
                20.957873
              ],
              [
                106.674154,
                20.957721
              ],
              [
                106.673652,
                20.957652
              ],
              [
                106.672408,
                20.957576
              ],
              [
                106.671318,
                20.957637
              ],
              [
                106.671079,
                20.957651
              ],
              [
                106.67023,
                20.957728
              ],
              [
                106.670409,
                20.956116
              ],
              [
                106.670519,
                20.955114
              ],
              [
                106.670573,
                20.955052
              ],
              [
                106.670582,
                20.954962
              ],
              [
                106.670706,
                20.954783
              ],
              [
                106.670964,
                20.954599
              ],
              [
                106.671088,
                20.954463
              ],
              [
                106.67113,
                20.954342
              ],
              [
                106.671143,
                20.954167
              ],
              [
                106.671157,
                20.953937
              ],
              [
                106.671229,
                20.95367
              ],
              [
                106.671383,
                20.953337
              ],
              [
                106.671485,
                20.953085
              ],
              [
                106.671498,
                20.953058
              ],
              [
                106.67159,
                20.952861
              ],
              [
                106.671637,
                20.952739
              ],
              [
                106.671664,
                20.952753
              ],
              [
                106.671764,
                20.952759
              ],
              [
                106.672168,
                20.952741
              ],
              [
                106.672385,
                20.95271
              ],
              [
                106.672432,
                20.952704
              ],
              [
                106.672353,
                20.952455
              ],
              [
                106.67232,
                20.952255
              ],
              [
                106.672309,
                20.95205
              ],
              [
                106.672323,
                20.951889
              ],
              [
                106.672369,
                20.951662
              ],
              [
                106.672511,
                20.951194
              ],
              [
                106.672575,
                20.951122
              ],
              [
                106.672796,
                20.950968
              ],
              [
                106.672993,
                20.95083
              ],
              [
                106.673212,
                20.950711
              ],
              [
                106.673363,
                20.950629
              ],
              [
                106.673645,
                20.950475
              ],
              [
                106.673906,
                20.950333
              ],
              [
                106.674204,
                20.950171
              ],
              [
                106.674712,
                20.949922
              ],
              [
                106.675117,
                20.949724
              ],
              [
                106.67534,
                20.949606
              ],
              [
                106.675384,
                20.949565
              ],
              [
                106.675381,
                20.949497
              ],
              [
                106.675281,
                20.949232
              ],
              [
                106.675257,
                20.949169
              ],
              [
                106.67526,
                20.949113
              ],
              [
                106.6753,
                20.948964
              ],
              [
                106.675206,
                20.948749
              ],
              [
                106.675081,
                20.94864
              ],
              [
                106.674727,
                20.948329
              ],
              [
                106.674438,
                20.948091
              ],
              [
                106.674008,
                20.947748
              ],
              [
                106.673901,
                20.947637
              ],
              [
                106.673855,
                20.947572
              ],
              [
                106.673849,
                20.947563
              ],
              [
                106.673831,
                20.947479
              ],
              [
                106.673832,
                20.947412
              ],
              [
                106.673825,
                20.946453
              ],
              [
                106.673832,
                20.946257
              ],
              [
                106.673816,
                20.945959
              ],
              [
                106.673799,
                20.945763
              ],
              [
                106.673793,
                20.945339
              ],
              [
                106.673786,
                20.945261
              ],
              [
                106.673781,
                20.945186
              ],
              [
                106.673771,
                20.945068
              ],
              [
                106.673757,
                20.944891
              ],
              [
                106.673687,
                20.944696
              ],
              [
                106.67357,
                20.944492
              ],
              [
                106.673327,
                20.944219
              ],
              [
                106.673182,
                20.944093
              ],
              [
                106.672805,
                20.943766
              ],
              [
                106.672706,
                20.943698
              ],
              [
                106.672706,
                20.943698
              ],
              [
                106.673119,
                20.943201
              ],
              [
                106.673854,
                20.942315
              ],
              [
                106.673558,
                20.941759
              ],
              [
                106.673343,
                20.941354
              ],
              [
                106.673285,
                20.941059
              ],
              [
                106.673227,
                20.940729
              ],
              [
                106.673108,
                20.940501
              ],
              [
                106.672616,
                20.940044
              ],
              [
                106.672315,
                20.939826
              ],
              [
                106.672019,
                20.93957
              ],
              [
                106.671003,
                20.938186
              ],
              [
                106.670903,
                20.938166
              ],
              [
                106.670289,
                20.93804
              ],
              [
                106.667333,
                20.937436
              ],
              [
                106.667259,
                20.937292
              ],
              [
                106.667126,
                20.93715
              ],
              [
                106.666968,
                20.937031
              ],
              [
                106.666802,
                20.936943
              ],
              [
                106.666668,
                20.936872
              ],
              [
                106.666343,
                20.936767
              ],
              [
                106.666017,
                20.936655
              ],
              [
                106.665801,
                20.936575
              ],
              [
                106.6653,
                20.936399
              ],
              [
                106.664896,
                20.936254
              ],
              [
                106.664766,
                20.936215
              ],
              [
                106.664681,
                20.936146
              ],
              [
                106.664605,
                20.936103
              ],
              [
                106.664578,
                20.936044
              ],
              [
                106.664567,
                20.935828
              ],
              [
                106.664568,
                20.93515
              ],
              [
                106.664567,
                20.93476
              ],
              [
                106.664584,
                20.934354
              ],
              [
                106.664626,
                20.933886
              ],
              [
                106.664666,
                20.933792
              ],
              [
                106.664763,
                20.93364
              ],
              [
                106.664843,
                20.933452
              ],
              [
                106.664888,
                20.933347
              ],
              [
                106.664947,
                20.933069
              ],
              [
                106.665022,
                20.932706
              ],
              [
                106.665101,
                20.932486
              ],
              [
                106.66524,
                20.931775
              ],
              [
                106.664754,
                20.931675
              ],
              [
                106.664049,
                20.931472
              ],
              [
                106.663723,
                20.93136
              ],
              [
                106.663528,
                20.931294
              ],
              [
                106.662971,
                20.930927
              ],
              [
                106.662351,
                20.930604
              ],
              [
                106.661343,
                20.930111
              ],
              [
                106.661277,
                20.92986
              ],
              [
                106.661252,
                20.929669
              ],
              [
                106.661155,
                20.929323
              ],
              [
                106.660933,
                20.929123
              ],
              [
                106.66025,
                20.928532
              ],
              [
                106.659906,
                20.92808
              ],
              [
                106.657611,
                20.927717
              ],
              [
                106.655494,
                20.928769
              ],
              [
                106.655481,
                20.929022
              ],
              [
                106.65542,
                20.929263
              ],
              [
                106.655303,
                20.929548
              ],
              [
                106.65521,
                20.929713
              ],
              [
                106.654608,
                20.930246
              ],
              [
                106.653729,
                20.930948
              ],
              [
                106.652967,
                20.931459
              ],
              [
                106.652228,
                20.932012
              ],
              [
                106.651926,
                20.932332
              ],
              [
                106.651717,
                20.932696
              ],
              [
                106.651366,
                20.93336
              ],
              [
                106.650991,
                20.934195
              ],
              [
                106.650686,
                20.934946
              ],
              [
                106.650497,
                20.935525
              ],
              [
                106.649928,
                20.937395
              ],
              [
                106.649497,
                20.939019
              ],
              [
                106.649234,
                20.939361
              ],
              [
                106.649183,
                20.939429
              ],
              [
                106.648663,
                20.939691
              ],
              [
                106.648038,
                20.939881
              ],
              [
                106.64674,
                20.94005
              ],
              [
                106.644798,
                20.940168
              ],
              [
                106.644289,
                20.940189
              ],
              [
                106.643291,
                20.94034
              ],
              [
                106.642382,
                20.940491
              ],
              [
                106.642172,
                20.940557
              ],
              [
                106.641865,
                20.940619
              ],
              [
                106.641568,
                20.940764
              ],
              [
                106.64143,
                20.940814
              ],
              [
                106.641018,
                20.941037
              ],
              [
                106.640711,
                20.941215
              ],
              [
                106.640363,
                20.941453
              ],
              [
                106.640129,
                20.941617
              ],
              [
                106.639982,
                20.941797
              ],
              [
                106.639876,
                20.941969
              ],
              [
                106.639746,
                20.942201
              ],
              [
                106.63968,
                20.942359
              ],
              [
                106.639654,
                20.942494
              ],
              [
                106.639645,
                20.942622
              ],
              [
                106.639644,
                20.942818
              ],
              [
                106.639657,
                20.943142
              ],
              [
                106.63967,
                20.943481
              ],
              [
                106.639683,
                20.943827
              ],
              [
                106.639674,
                20.944066
              ],
              [
                106.639538,
                20.945086
              ],
              [
                106.639484,
                20.945324
              ],
              [
                106.639318,
                20.94594
              ],
              [
                106.63921,
                20.946353
              ],
              [
                106.639159,
                20.946593
              ],
              [
                106.639149,
                20.946872
              ],
              [
                106.639146,
                20.94718
              ],
              [
                106.639167,
                20.947534
              ],
              [
                106.639213,
                20.947753
              ],
              [
                106.6393,
                20.947919
              ],
              [
                106.639395,
                20.948033
              ],
              [
                106.639595,
                20.9482
              ],
              [
                106.639835,
                20.948368
              ],
              [
                106.640074,
                20.948581
              ],
              [
                106.640249,
                20.94877
              ],
              [
                106.64092,
                20.950078
              ],
              [
                106.641062,
                20.950418
              ],
              [
                106.64121,
                20.950931
              ],
              [
                106.641219,
                20.951253
              ],
              [
                106.641213,
                20.951556
              ],
              [
                106.641142,
                20.951893
              ],
              [
                106.641058,
                20.952102
              ],
              [
                106.640999,
                20.952208
              ],
              [
                106.640747,
                20.952478
              ],
              [
                106.639527,
                20.953387
              ],
              [
                106.638261,
                20.95427
              ],
              [
                106.638014,
                20.954431
              ],
              [
                106.637688,
                20.954644
              ],
              [
                106.636705,
                20.955395
              ],
              [
                106.635902,
                20.956061
              ],
              [
                106.635677,
                20.956269
              ],
              [
                106.635513,
                20.956434
              ],
              [
                106.635037,
                20.956913
              ],
              [
                106.634487,
                20.957391
              ],
              [
                106.634314,
                20.9575
              ],
              [
                106.634128,
                20.957616
              ],
              [
                106.634265,
                20.9578
              ],
              [
                106.634301,
                20.957943
              ],
              [
                106.634333,
                20.95807
              ],
              [
                106.63456,
                20.958567
              ],
              [
                106.634707,
                20.958892
              ],
              [
                106.634943,
                20.959359
              ],
              [
                106.635068,
                20.959539
              ],
              [
                106.635117,
                20.959584
              ],
              [
                106.635161,
                20.959601
              ],
              [
                106.635165,
                20.959602
              ],
              [
                106.635215,
                20.959589
              ],
              [
                106.635231,
                20.959579
              ],
              [
                106.635497,
                20.959405
              ],
              [
                106.635599,
                20.959338
              ],
              [
                106.635624,
                20.95933
              ],
              [
                106.63574,
                20.959295
              ],
              [
                106.636091,
                20.95926
              ],
              [
                106.636223,
                20.959272
              ],
              [
                106.636333,
                20.959312
              ],
              [
                106.636502,
                20.959423
              ],
              [
                106.636535,
                20.959501
              ],
              [
                106.636537,
                20.959576
              ],
              [
                106.636492,
                20.959651
              ],
              [
                106.636408,
                20.95976
              ],
              [
                106.63638,
                20.959831
              ],
              [
                106.636393,
                20.959872
              ],
              [
                106.636675,
                20.960152
              ],
              [
                106.636789,
                20.960296
              ],
              [
                106.636851,
                20.960374
              ],
              [
                106.636991,
                20.960594
              ],
              [
                106.637004,
                20.960618
              ],
              [
                106.637095,
                20.960788
              ],
              [
                106.637182,
                20.960949
              ],
              [
                106.637185,
                20.960954
              ],
              [
                106.637193,
                20.960951
              ],
              [
                106.637287,
                20.961109
              ],
              [
                106.637372,
                20.961239
              ],
              [
                106.637572,
                20.961478
              ],
              [
                106.637824,
                20.96194
              ],
              [
                106.637971,
                20.962204
              ],
              [
                106.638176,
                20.96257
              ],
              [
                106.638228,
                20.962648
              ],
              [
                106.63834,
                20.962817
              ],
              [
                106.638413,
                20.962945
              ],
              [
                106.638604,
                20.96325
              ],
              [
                106.63863,
                20.963353
              ],
              [
                106.638632,
                20.963385
              ],
              [
                106.63865,
                20.963664
              ],
              [
                106.638509,
                20.96378
              ],
              [
                106.638309,
                20.963847
              ],
              [
                106.637888,
                20.963892
              ],
              [
                106.637822,
                20.963909
              ],
              [
                106.637425,
                20.963969
              ],
              [
                106.637257,
                20.964023
              ],
              [
                106.637085,
                20.964111
              ],
              [
                106.63687,
                20.964246
              ],
              [
                106.636838,
                20.964266
              ],
              [
                106.636661,
                20.964402
              ],
              [
                106.636363,
                20.964572
              ],
              [
                106.635978,
                20.964714
              ],
              [
                106.635212,
                20.964938
              ],
              [
                106.635137,
                20.964969
              ],
              [
                106.634426,
                20.965417
              ],
              [
                106.634195,
                20.965705
              ],
              [
                106.634053,
                20.965975
              ],
              [
                106.633912,
                20.966833
              ],
              [
                106.633809,
                20.967446
              ],
              [
                106.63374,
                20.967853
              ],
              [
                106.633677,
                20.969761
              ],
              [
                106.633769,
                20.970542
              ],
              [
                106.634103,
                20.971069
              ],
              [
                106.634545,
                20.971724
              ],
              [
                106.636084,
                20.972807
              ],
              [
                106.636147,
                20.972771
              ],
              [
                106.636503,
                20.972568
              ],
              [
                106.636384,
                20.972683
              ],
              [
                106.636342,
                20.972723
              ],
              [
                106.636208,
                20.972834
              ],
              [
                106.63615,
                20.97288
              ],
              [
                106.634648,
                20.974075
              ],
              [
                106.634247,
                20.974677
              ],
              [
                106.63408,
                20.975205
              ],
              [
                106.634048,
                20.975233
              ],
              [
                106.633992,
                20.975279
              ],
              [
                106.63398,
                20.975284
              ],
              [
                106.633966,
                20.97529
              ],
              [
                106.633953,
                20.975297
              ],
              [
                106.633942,
                20.975305
              ],
              [
                106.633934,
                20.975311
              ],
              [
                106.633928,
                20.975316
              ],
              [
                106.633923,
                20.975321
              ],
              [
                106.633918,
                20.975325
              ],
              [
                106.63391,
                20.975332
              ],
              [
                106.633909,
                20.975332
              ],
              [
                106.6339,
                20.975339
              ],
              [
                106.633888,
                20.975349
              ],
              [
                106.633869,
                20.975365
              ],
              [
                106.633829,
                20.975408
              ],
              [
                106.633758,
                20.975467
              ],
              [
                106.633649,
                20.975474
              ],
              [
                106.633484,
                20.975437
              ],
              [
                106.633314,
                20.975448
              ],
              [
                106.6332,
                20.975514
              ],
              [
                106.633145,
                20.97557
              ],
              [
                106.633107,
                20.975615
              ],
              [
                106.633053,
                20.975678
              ],
              [
                106.632996,
                20.975753
              ],
              [
                106.632953,
                20.97583
              ],
              [
                106.632921,
                20.975897
              ],
              [
                106.632891,
                20.975956
              ],
              [
                106.632858,
                20.976016
              ],
              [
                106.632825,
                20.976075
              ],
              [
                106.632797,
                20.976128
              ],
              [
                106.632777,
                20.976168
              ],
              [
                106.632756,
                20.976215
              ],
              [
                106.632719,
                20.976299
              ],
              [
                106.632677,
                20.97641
              ],
              [
                106.632643,
                20.976524
              ],
              [
                106.632617,
                20.976615
              ],
              [
                106.632596,
                20.976672
              ],
              [
                106.632563,
                20.976734
              ],
              [
                106.632518,
                20.97682
              ],
              [
                106.632479,
                20.976895
              ],
              [
                106.632446,
                20.976962
              ],
              [
                106.632414,
                20.977021
              ],
              [
                106.632384,
                20.97708
              ],
              [
                106.632355,
                20.977156
              ],
              [
                106.632325,
                20.977252
              ],
              [
                106.632297,
                20.977358
              ],
              [
                106.632269,
                20.97746
              ],
              [
                106.632238,
                20.977552
              ],
              [
                106.632206,
                20.977636
              ],
              [
                106.632173,
                20.977723
              ],
              [
                106.63214,
                20.977825
              ],
              [
                106.632099,
                20.977965
              ],
              [
                106.632044,
                20.97817
              ],
              [
                106.631977,
                20.978436
              ],
              [
                106.631911,
                20.978703
              ],
              [
                106.631844,
                20.978978
              ],
              [
                106.631773,
                20.979285
              ],
              [
                106.631706,
                20.979595
              ],
              [
                106.631641,
                20.979896
              ],
              [
                106.631578,
                20.98019
              ],
              [
                106.631515,
                20.980472
              ],
              [
                106.631454,
                20.980732
              ],
              [
                106.631392,
                20.980983
              ],
              [
                106.631331,
                20.981216
              ],
              [
                106.63128,
                20.981396
              ],
              [
                106.63123,
                20.981566
              ],
              [
                106.63118,
                20.981739
              ],
              [
                106.631141,
                20.981854
              ],
              [
                106.631108,
                20.981937
              ],
              [
                106.631074,
                20.982026
              ],
              [
                106.631046,
                20.982087
              ],
              [
                106.631015,
                20.982132
              ],
              [
                106.63097,
                20.982193
              ],
              [
                106.630923,
                20.982253
              ],
              [
                106.630887,
                20.982291
              ],
              [
                106.630864,
                20.982314
              ],
              [
                106.630849,
                20.982334
              ],
              [
                106.630837,
                20.982357
              ],
              [
                106.630821,
                20.98239
              ],
              [
                106.63079,
                20.982456
              ],
              [
                106.630733,
                20.982578
              ],
              [
                106.630664,
                20.982735
              ],
              [
                106.630601,
                20.982888
              ],
              [
                106.630553,
                20.983004
              ],
              [
                106.630522,
                20.983089
              ],
              [
                106.630507,
                20.983149
              ],
              [
                106.6305,
                20.983191
              ],
              [
                106.630482,
                20.983252
              ],
              [
                106.63045,
                20.983343
              ],
              [
                106.630423,
                20.983414
              ],
              [
                106.630398,
                20.98348
              ],
              [
                106.630358,
                20.983577
              ],
              [
                106.630308,
                20.98369
              ],
              [
                106.630256,
                20.983804
              ],
              [
                106.630202,
                20.98391
              ],
              [
                106.630143,
                20.984024
              ],
              [
                106.630083,
                20.984156
              ],
              [
                106.630059,
                20.984219
              ],
              [
                106.630036,
                20.984278
              ],
              [
                106.630005,
                20.984362
              ],
              [
                106.630005,
                20.984364
              ],
              [
                106.629984,
                20.98442
              ],
              [
                106.629955,
                20.984487
              ],
              [
                106.629906,
                20.984586
              ],
              [
                106.629857,
                20.984675
              ],
              [
                106.629817,
                20.98474
              ],
              [
                106.629785,
                20.984799
              ],
              [
                106.629753,
                20.984869
              ],
              [
                106.6297,
                20.984991
              ],
              [
                106.629622,
                20.985167
              ],
              [
                106.629538,
                20.985359
              ],
              [
                106.629432,
                20.985598
              ],
              [
                106.629382,
                20.985709
              ],
              [
                106.629343,
                20.985794
              ],
              [
                106.628352,
                20.988047
              ],
              [
                106.627243,
                20.991049
              ],
              [
                106.626899,
                20.992013
              ],
              [
                106.626873,
                20.992084
              ],
              [
                106.626873,
                20.992085
              ],
              [
                106.626475,
                20.993197
              ],
              [
                106.626246,
                20.994026
              ],
              [
                106.62588,
                20.994672
              ],
              [
                106.624729,
                20.99622
              ],
              [
                106.622989,
                20.998516
              ],
              [
                106.622745,
                20.999005
              ],
              [
                106.622496,
                20.999366
              ],
              [
                106.622274,
                20.999726
              ],
              [
                106.622188,
                20.999939
              ],
              [
                106.622088,
                21.000185
              ],
              [
                106.622031,
                21.000478
              ],
              [
                106.622044,
                21.000864
              ],
              [
                106.622127,
                21.001883
              ],
              [
                106.622272,
                21.004168
              ],
              [
                106.622398,
                21.006323
              ],
              [
                106.622166,
                21.006348
              ],
              [
                106.621953,
                21.006414
              ],
              [
                106.621827,
                21.006489
              ],
              [
                106.621774,
                21.006586
              ],
              [
                106.621734,
                21.006819
              ],
              [
                106.621773,
                21.007096
              ],
              [
                106.621837,
                21.007435
              ],
              [
                106.621949,
                21.007717
              ],
              [
                106.622045,
                21.007889
              ],
              [
                106.62212,
                21.007965
              ],
              [
                106.622266,
                21.008054
              ],
              [
                106.622399,
                21.008098
              ],
              [
                106.622545,
                21.008171
              ],
              [
                106.622606,
                21.008255
              ],
              [
                106.622686,
                21.008401
              ],
              [
                106.622845,
                21.009176
              ],
              [
                106.622982,
                21.01008
              ],
              [
                106.623104,
                21.010674
              ],
              [
                106.623199,
                21.011041
              ],
              [
                106.62355,
                21.012385
              ],
              [
                106.62355,
                21.012385
              ],
              [
                106.624972,
                21.01186
              ],
              [
                106.626873,
                21.011547
              ],
              [
                106.626873,
                21.011547
              ],
              [
                106.626875,
                21.011546
              ],
              [
                106.62876,
                21.011379
              ],
              [
                106.631772,
                21.011436
              ],
              [
                106.633778,
                21.011494
              ],
              [
                106.634001,
                21.011516
              ],
              [
                106.635137,
                21.011629
              ],
              [
                106.636662,
                21.011903
              ],
              [
                106.637852,
                21.012167
              ],
              [
                106.638551,
                21.012428
              ],
              [
                106.638587,
                21.012443
              ],
              [
                106.639352,
                21.01277
              ],
              [
                106.640355,
                21.013343
              ],
              [
                106.64128,
                21.01404
              ],
              [
                106.641898,
                21.014632
              ],
              [
                106.642643,
                21.015559
              ],
              [
                106.643472,
                21.016777
              ],
              [
                106.644309,
                21.017808
              ],
              [
                106.644896,
                21.018317
              ],
              [
                106.645423,
                21.018646
              ],
              [
                106.64578,
                21.018787
              ],
              [
                106.646137,
                21.018928
              ],
              [
                106.647134,
                21.019182
              ],
              [
                106.647283,
                21.01922
              ],
              [
                106.647545,
                21.019286
              ],
              [
                106.648666,
                21.019438
              ],
              [
                106.649948,
                21.019483
              ],
              [
                106.650905,
                21.019527
              ],
              [
                106.652282,
                21.01944
              ],
              [
                106.652282,
                21.01944
              ],
              [
                106.652282,
                21.01944
              ],
              [
                106.652821,
                21.019246
              ],
              [
                106.652834,
                21.019243
              ],
              [
                106.652952,
                21.019217
              ],
              [
                106.655695,
                21.018158
              ],
              [
                106.655705,
                21.018154
              ],
              [
                106.65653,
                21.017837
              ],
              [
                106.658534,
                21.017065
              ],
              [
                106.668499,
                21.013226
              ],
              [
                106.672505,
                21.011661
              ],
              [
                106.672658,
                21.011601
              ],
              [
                106.674381,
                21.010939
              ],
              [
                106.674381,
                21.010939
              ]
            ]
          ]
        ]
      },
      "properties": {
        "code": "11488",
        "name": "Lưu Kiếm",
        "nameEn": "Luu Kiem",
        "fullName": "Phường Lưu Kiếm",
        "fullNameEn": "Luu Kiem Ward",
        "codeName": "luu_kiem",
        "postalCode": "04330",
        "postalCodePrefix": "",
        "gisServerId": "diaphanhanhchinhcapxa_2025.921",
        "areaKm2": 42.17
      }
    }
  ]
}