{
  "type": "FeatureCollection",
  "bbox": [
    106.587664,
    20.919396,
    106.642031,
    20.985794
  ],
  "features": [
    {
      "type": "Feature",
      "id": "11506",
      "bbox": [
        106.587664,
        20.919396,
        106.642031,
        20.985794
      ],
      "geometry": {
        "type": "MultiPolygon",
        "coordinates": [
          [
            [
              [
                106.641865,
                20.940619
              ],
              [
                106.642031,
                20.939767
              ],
              [
                106.641193,
                20.938222
              ],
              [
                106.640483,
                20.936783
              ],
              [
                106.640905,
                20.935547
              ],
              [
                106.640383,
                20.934005
              ],
              [
                106.641057,
                20.933575
              ],
              [
                106.641547,
                20.932951
              ],
              [
                106.639779,
                20.931327
              ],
              [
                106.638857,
                20.932367
              ],
              [
                106.63561,
                20.935097
              ],
              [
                106.635543,
                20.934988
              ],
              [
                106.635508,
                20.934929
              ],
              [
                106.635492,
                20.934903
              ],
              [
                106.635443,
                20.934823
              ],
              [
                106.634971,
                20.934074
              ],
              [
                106.634344,
                20.933122
              ],
              [
                106.633811,
                20.932256
              ],
              [
                106.633278,
                20.93139
              ],
              [
                106.63321,
                20.931279
              ],
              [
                106.633069,
                20.931047
              ],
              [
                106.632357,
                20.929877
              ],
              [
                106.632087,
                20.929441
              ],
              [
                106.631573,
                20.928647
              ],
              [
                106.631507,
                20.928579
              ],
              [
                106.63134,
                20.928408
              ],
              [
                106.630989,
                20.928188
              ],
              [
                106.630859,
                20.928087
              ],
              [
                106.630759,
                20.928025
              ],
              [
                106.630591,
                20.92792
              ],
              [
                106.630435,
                20.927821
              ],
              [
                106.630288,
                20.927727
              ],
              [
                106.630144,
                20.927633
              ],
              [
                106.630003,
                20.927541
              ],
              [
                106.629879,
                20.927459
              ],
              [
                106.629784,
                20.927395
              ],
              [
                106.629698,
                20.927336
              ],
              [
                106.629615,
                20.927281
              ],
              [
                106.629559,
                20.927244
              ],
              [
                106.629504,
                20.92721
              ],
              [
                106.629413,
                20.927153
              ],
              [
                106.629297,
                20.92708
              ],
              [
                106.629184,
                20.92701
              ],
              [
                106.62908,
                20.92695
              ],
              [
                106.628978,
                20.926893
              ],
              [
                106.628872,
                20.926835
              ],
              [
                106.62875,
                20.926772
              ],
              [
                106.628617,
                20.926707
              ],
              [
                106.628499,
                20.926653
              ],
              [
                106.628383,
                20.9266
              ],
              [
                106.628306,
                20.926566
              ],
              [
                106.628099,
                20.926495
              ],
              [
                106.627803,
                20.92639
              ],
              [
                106.627724,
                20.926355
              ],
              [
                106.627575,
                20.926289
              ],
              [
                106.627547,
                20.926276
              ],
              [
                106.627392,
                20.926146
              ],
              [
                106.627248,
                20.926002
              ],
              [
                106.626924,
                20.925637
              ],
              [
                106.626871,
                20.925563
              ],
              [
                106.625746,
                20.924285
              ],
              [
                106.625667,
                20.924199
              ],
              [
                106.625258,
                20.923755
              ],
              [
                106.625082,
                20.923545
              ],
              [
                106.625032,
                20.92358
              ],
              [
                106.624846,
                20.923707
              ],
              [
                106.624726,
                20.923799
              ],
              [
                106.623578,
                20.92455
              ],
              [
                106.62258,
                20.922981
              ],
              [
                106.621908,
                20.922019
              ],
              [
                106.621009,
                20.920826
              ],
              [
                106.620723,
                20.920447
              ],
              [
                106.620635,
                20.920331
              ],
              [
                106.620088,
                20.919607
              ],
              [
                106.619926,
                20.919396
              ],
              [
                106.619338,
                20.919781
              ],
              [
                106.618351,
                20.920412
              ],
              [
                106.617045,
                20.921073
              ],
              [
                106.616568,
                20.921225
              ],
              [
                106.614819,
                20.921721
              ],
              [
                106.613448,
                20.921949
              ],
              [
                106.610583,
                20.922306
              ],
              [
                106.606984,
                20.922641
              ],
              [
                106.604682,
                20.922877
              ],
              [
                106.603783,
                20.923029
              ],
              [
                106.602946,
                20.923252
              ],
              [
                106.602659,
                20.923513
              ],
              [
                106.602296,
                20.923803
              ],
              [
                106.60192,
                20.924323
              ],
              [
                106.601793,
                20.92464
              ],
              [
                106.601667,
                20.924956
              ],
              [
                106.601568,
                20.92566
              ],
              [
                106.601577,
                20.926549
              ],
              [
                106.601645,
                20.927199
              ],
              [
                106.601696,
                20.927695
              ],
              [
                106.602008,
                20.929803
              ],
              [
                106.602403,
                20.932421
              ],
              [
                106.602425,
                20.9345
              ],
              [
                106.60217,
                20.936338
              ],
              [
                106.601772,
                20.937732
              ],
              [
                106.600564,
                20.939895
              ],
              [
                106.599651,
                20.941349
              ],
              [
                106.598417,
                20.942568
              ],
              [
                106.597571,
                20.943185
              ],
              [
                106.596017,
                20.94418
              ],
              [
                106.593515,
                20.945745
              ],
              [
                106.591275,
                20.946587
              ],
              [
                106.591623,
                20.947346
              ],
              [
                106.591744,
                20.947634
              ],
              [
                106.591831,
                20.947841
              ],
              [
                106.591877,
                20.948357
              ],
              [
                106.59208,
                20.949259
              ],
              [
                106.592282,
                20.949935
              ],
              [
                106.592596,
                20.95108
              ],
              [
                106.59275,
                20.951878
              ],
              [
                106.592507,
                20.953162
              ],
              [
                106.591942,
                20.954096
              ],
              [
                106.591004,
                20.955293
              ],
              [
                106.58967,
                20.95667
              ],
              [
                106.587944,
                20.957941
              ],
              [
                106.587664,
                20.958169
              ],
              [
                106.587868,
                20.95833
              ],
              [
                106.588215,
                20.958593
              ],
              [
                106.588438,
                20.958806
              ],
              [
                106.588649,
                20.959028
              ],
              [
                106.588721,
                20.959083
              ],
              [
                106.588864,
                20.959129
              ],
              [
                106.589076,
                20.959197
              ],
              [
                106.58923,
                20.959276
              ],
              [
                106.589473,
                20.959427
              ],
              [
                106.589712,
                20.959591
              ],
              [
                106.58978,
                20.959637
              ],
              [
                106.589693,
                20.959772
              ],
              [
                106.589853,
                20.959921
              ],
              [
                106.589933,
                20.959995
              ],
              [
                106.590431,
                20.960458
              ],
              [
                106.590315,
                20.960621
              ],
              [
                106.590059,
                20.960935
              ],
              [
                106.58971,
                20.961229
              ],
              [
                106.589389,
                20.961499
              ],
              [
                106.588765,
                20.962045
              ],
              [
                106.588549,
                20.962234
              ],
              [
                106.588327,
                20.962422
              ],
              [
                106.589625,
                20.965368
              ],
              [
                106.590849,
                20.964387
              ],
              [
                106.590937,
                20.964553
              ],
              [
                106.591978,
                20.964106
              ],
              [
                106.592721,
                20.965573
              ],
              [
                106.593836,
                20.965185
              ],
              [
                106.593798,
                20.965745
              ],
              [
                106.594749,
                20.965697
              ],
              [
                106.594844,
                20.965893
              ],
              [
                106.594953,
                20.966159
              ],
              [
                106.595043,
                20.966562
              ],
              [
                106.595255,
                20.96691
              ],
              [
                106.595527,
                20.967266
              ],
              [
                106.595773,
                20.967517
              ],
              [
                106.596644,
                20.968152
              ],
              [
                106.597403,
                20.968713
              ],
              [
                106.597957,
                20.969185
              ],
              [
                106.598434,
                20.969631
              ],
              [
                106.598868,
                20.970085
              ],
              [
                106.599148,
                20.970449
              ],
              [
                106.599418,
                20.970999
              ],
              [
                106.599627,
                20.971612
              ],
              [
                106.59981,
                20.972257
              ],
              [
                106.599924,
                20.972861
              ],
              [
                106.600024,
                20.97328
              ],
              [
                106.600125,
                20.974367
              ],
              [
                106.600281,
                20.975173
              ],
              [
                106.600548,
                20.975742
              ],
              [
                106.600691,
                20.976014
              ],
              [
                106.600713,
                20.976111
              ],
              [
                106.600696,
                20.976232
              ],
              [
                106.600554,
                20.976803
              ],
              [
                106.600487,
                20.977049
              ],
              [
                106.600414,
                20.977459
              ],
              [
                106.600405,
                20.977523
              ],
              [
                106.600908,
                20.977502
              ],
              [
                106.601493,
                20.977457
              ],
              [
                106.601754,
                20.977446
              ],
              [
                106.601961,
                20.977453
              ],
              [
                106.602267,
                20.977495
              ],
              [
                106.603175,
                20.977678
              ],
              [
                106.604259,
                20.977897
              ],
              [
                106.605748,
                20.978206
              ],
              [
                106.607848,
                20.978631
              ],
              [
                106.60915,
                20.978921
              ],
              [
                106.609146,
                20.979193
              ],
              [
                106.609178,
                20.979404
              ],
              [
                106.609271,
                20.979663
              ],
              [
                106.609432,
                20.979955
              ],
              [
                106.60968,
                20.980175
              ],
              [
                106.609894,
                20.980298
              ],
              [
                106.610136,
                20.980324
              ],
              [
                106.610343,
                20.980326
              ],
              [
                106.610904,
                20.980201
              ],
              [
                106.611457,
                20.980084
              ],
              [
                106.612196,
                20.979985
              ],
              [
                106.612312,
                20.979952
              ],
              [
                106.61237,
                20.979897
              ],
              [
                106.61246,
                20.979592
              ],
              [
                106.613794,
                20.979868
              ],
              [
                106.615155,
                20.980162
              ],
              [
                106.615211,
                20.980013
              ],
              [
                106.615212,
                20.979968
              ],
              [
                106.615232,
                20.979913
              ],
              [
                106.61535,
                20.979841
              ],
              [
                106.61542,
                20.97981
              ],
              [
                106.615425,
                20.979796
              ],
              [
                106.615434,
                20.979773
              ],
              [
                106.615417,
                20.97971
              ],
              [
                106.615262,
                20.97947
              ],
              [
                106.614947,
                20.979078
              ],
              [
                106.614937,
                20.979059
              ],
              [
                106.614869,
                20.978928
              ],
              [
                106.6148,
                20.978794
              ],
              [
                106.61474,
                20.978679
              ],
              [
                106.614717,
                20.978633
              ],
              [
                106.614702,
                20.978593
              ],
              [
                106.614664,
                20.97849
              ],
              [
                106.614642,
                20.978346
              ],
              [
                106.614641,
                20.978267
              ],
              [
                106.614651,
                20.978214
              ],
              [
                106.614666,
                20.978148
              ],
              [
                106.614682,
                20.978118
              ],
              [
                106.614719,
                20.978074
              ],
              [
                106.61482,
                20.977984
              ],
              [
                106.614931,
                20.977911
              ],
              [
                106.615105,
                20.977814
              ],
              [
                106.615223,
                20.977761
              ],
              [
                106.615309,
                20.977727
              ],
              [
                106.615378,
                20.977717
              ],
              [
                106.61555,
                20.977693
              ],
              [
                106.615891,
                20.977613
              ],
              [
                106.616118,
                20.977559
              ],
              [
                106.616366,
                20.977492
              ],
              [
                106.616832,
                20.977318
              ],
              [
                106.616968,
                20.977278
              ],
              [
                106.617067,
                20.977257
              ],
              [
                106.617104,
                20.977262
              ],
              [
                106.617156,
                20.97729
              ],
              [
                106.617263,
                20.97737
              ],
              [
                106.61733,
                20.97742
              ],
              [
                106.61737,
                20.97745
              ],
              [
                106.617421,
                20.977484
              ],
              [
                106.617505,
                20.97754
              ],
              [
                106.617535,
                20.97756
              ],
              [
                106.617538,
                20.977562
              ],
              [
                106.617679,
                20.977674
              ],
              [
                106.617787,
                20.977741
              ],
              [
                106.617852,
                20.977762
              ],
              [
                106.617945,
                20.97777
              ],
              [
                106.61805,
                20.977768
              ],
              [
                106.618168,
                20.977765
              ],
              [
                106.618313,
                20.97774
              ],
              [
                106.618455,
                20.977688
              ],
              [
                106.618586,
                20.977621
              ],
              [
                106.618645,
                20.977576
              ],
              [
                106.618699,
                20.977506
              ],
              [
                106.618731,
                20.977384
              ],
              [
                106.618727,
                20.977225
              ],
              [
                106.618712,
                20.977163
              ],
              [
                106.618673,
                20.977001
              ],
              [
                106.618667,
                20.976917
              ],
              [
                106.618677,
                20.976839
              ],
              [
                106.618706,
                20.976783
              ],
              [
                106.618753,
                20.976725
              ],
              [
                106.618892,
                20.97662
              ],
              [
                106.619027,
                20.976524
              ],
              [
                106.619125,
                20.976458
              ],
              [
                106.619217,
                20.976435
              ],
              [
                106.619251,
                20.976432
              ],
              [
                106.619321,
                20.976427
              ],
              [
                106.619402,
                20.976425
              ],
              [
                106.619465,
                20.976536
              ],
              [
                106.619844,
                20.977193
              ],
              [
                106.619849,
                20.977199
              ],
              [
                106.620218,
                20.977709
              ],
              [
                106.620545,
                20.97816
              ],
              [
                106.620789,
                20.978472
              ],
              [
                106.62081,
                20.978499
              ],
              [
                106.621125,
                20.978901
              ],
              [
                106.621152,
                20.978956
              ],
              [
                106.621174,
                20.979
              ],
              [
                106.62123,
                20.979114
              ],
              [
                106.620739,
                20.98095
              ],
              [
                106.62069,
                20.981154
              ],
              [
                106.620645,
                20.98134
              ],
              [
                106.622654,
                20.981632
              ],
              [
                106.624999,
                20.98203
              ],
              [
                106.625137,
                20.98221
              ],
              [
                106.626873,
                20.984477
              ],
              [
                106.626873,
                20.984477
              ],
              [
                106.626873,
                20.984478
              ],
              [
                106.626899,
                20.98452
              ],
              [
                106.626976,
                20.984649
              ],
              [
                106.627202,
                20.984928
              ],
              [
                106.627388,
                20.985149
              ],
              [
                106.627508,
                20.985248
              ],
              [
                106.627632,
                20.985312
              ],
              [
                106.627769,
                20.985372
              ],
              [
                106.627998,
                20.985452
              ],
              [
                106.628506,
                20.985577
              ],
              [
                106.629311,
                20.985775
              ],
              [
                106.629343,
                20.985794
              ],
              [
                106.629382,
                20.985709
              ],
              [
                106.629432,
                20.985598
              ],
              [
                106.629538,
                20.985359
              ],
              [
                106.629622,
                20.985167
              ],
              [
                106.6297,
                20.984991
              ],
              [
                106.629753,
                20.984869
              ],
              [
                106.629785,
                20.984799
              ],
              [
                106.629817,
                20.98474
              ],
              [
                106.629857,
                20.984675
              ],
              [
                106.629906,
                20.984586
              ],
              [
                106.629955,
                20.984487
              ],
              [
                106.629984,
                20.98442
              ],
              [
                106.630005,
                20.984364
              ],
              [
                106.630005,
                20.984362
              ],
              [
                106.630036,
                20.984278
              ],
              [
                106.630059,
                20.984219
              ],
              [
                106.630083,
                20.984156
              ],
              [
                106.630143,
                20.984024
              ],
              [
                106.630202,
                20.98391
              ],
              [
                106.630256,
                20.983804
              ],
              [
                106.630308,
                20.98369
              ],
              [
                106.630358,
                20.983577
              ],
              [
                106.630398,
                20.98348
              ],
              [
                106.630423,
                20.983414
              ],
              [
                106.63045,
                20.983343
              ],
              [
                106.630482,
                20.983252
              ],
              [
                106.6305,
                20.983191
              ],
              [
                106.630507,
                20.983149
              ],
              [
                106.630522,
                20.983089
              ],
              [
                106.630553,
                20.983004
              ],
              [
                106.630601,
                20.982888
              ],
              [
                106.630664,
                20.982735
              ],
              [
                106.630733,
                20.982578
              ],
              [
                106.63079,
                20.982456
              ],
              [
                106.630821,
                20.98239
              ],
              [
                106.630837,
                20.982357
              ],
              [
                106.630849,
                20.982334
              ],
              [
                106.630864,
                20.982314
              ],
              [
                106.630887,
                20.982291
              ],
              [
                106.630923,
                20.982253
              ],
              [
                106.63097,
                20.982193
              ],
              [
                106.631015,
                20.982132
              ],
              [
                106.631046,
                20.982087
              ],
              [
                106.631074,
                20.982026
              ],
              [
                106.631108,
                20.981937
              ],
              [
                106.631141,
                20.981854
              ],
              [
                106.63118,
                20.981739
              ],
              [
                106.63123,
                20.981566
              ],
              [
                106.63128,
                20.981396
              ],
              [
                106.631331,
                20.981216
              ],
              [
                106.631392,
                20.980983
              ],
              [
                106.631454,
                20.980732
              ],
              [
                106.631515,
                20.980472
              ],
              [
                106.631578,
                20.98019
              ],
              [
                106.631641,
                20.979896
              ],
              [
                106.631706,
                20.979595
              ],
              [
                106.631773,
                20.979285
              ],
              [
                106.631844,
                20.978978
              ],
              [
                106.631911,
                20.978703
              ],
              [
                106.631977,
                20.978436
              ],
              [
                106.632044,
                20.97817
              ],
              [
                106.632099,
                20.977965
              ],
              [
                106.63214,
                20.977825
              ],
              [
                106.632173,
                20.977723
              ],
              [
                106.632206,
                20.977636
              ],
              [
                106.632238,
                20.977552
              ],
              [
                106.632269,
                20.97746
              ],
              [
                106.632297,
                20.977358
              ],
              [
                106.632325,
                20.977252
              ],
              [
                106.632355,
                20.977156
              ],
              [
                106.632384,
                20.97708
              ],
              [
                106.632414,
                20.977021
              ],
              [
                106.632446,
                20.976962
              ],
              [
                106.632479,
                20.976895
              ],
              [
                106.632518,
                20.97682
              ],
              [
                106.632563,
                20.976734
              ],
              [
                106.632596,
                20.976672
              ],
              [
                106.632617,
                20.976615
              ],
              [
                106.632643,
                20.976524
              ],
              [
                106.632677,
                20.97641
              ],
              [
                106.632719,
                20.976299
              ],
              [
                106.632756,
                20.976215
              ],
              [
                106.632777,
                20.976168
              ],
              [
                106.632797,
                20.976128
              ],
              [
                106.632825,
                20.976075
              ],
              [
                106.632858,
                20.976016
              ],
              [
                106.632891,
                20.975956
              ],
              [
                106.632921,
                20.975897
              ],
              [
                106.632953,
                20.97583
              ],
              [
                106.632996,
                20.975753
              ],
              [
                106.633053,
                20.975678
              ],
              [
                106.633107,
                20.975615
              ],
              [
                106.633145,
                20.97557
              ],
              [
                106.6332,
                20.975514
              ],
              [
                106.633314,
                20.975448
              ],
              [
                106.633484,
                20.975437
              ],
              [
                106.633649,
                20.975474
              ],
              [
                106.633758,
                20.975467
              ],
              [
                106.633829,
                20.975408
              ],
              [
                106.633869,
                20.975365
              ],
              [
                106.633888,
                20.975349
              ],
              [
                106.6339,
                20.975339
              ],
              [
                106.633909,
                20.975332
              ],
              [
                106.63391,
                20.975332
              ],
              [
                106.633918,
                20.975325
              ],
              [
                106.633923,
                20.975321
              ],
              [
                106.633928,
                20.975316
              ],
              [
                106.633934,
                20.975311
              ],
              [
                106.633942,
                20.975305
              ],
              [
                106.633953,
                20.975297
              ],
              [
                106.633966,
                20.97529
              ],
              [
                106.63398,
                20.975284
              ],
              [
                106.633992,
                20.975279
              ],
              [
                106.634048,
                20.975233
              ],
              [
                106.63408,
                20.975205
              ],
              [
                106.634247,
                20.974677
              ],
              [
                106.634648,
                20.974075
              ],
              [
                106.63615,
                20.97288
              ],
              [
                106.636208,
                20.972834
              ],
              [
                106.636342,
                20.972723
              ],
              [
                106.636384,
                20.972683
              ],
              [
                106.636503,
                20.972568
              ],
              [
                106.636147,
                20.972771
              ],
              [
                106.636084,
                20.972807
              ],
              [
                106.634545,
                20.971724
              ],
              [
                106.634103,
                20.971069
              ],
              [
                106.633769,
                20.970542
              ],
              [
                106.633677,
                20.969761
              ],
              [
                106.63374,
                20.967853
              ],
              [
                106.633809,
                20.967446
              ],
              [
                106.633912,
                20.966833
              ],
              [
                106.634053,
                20.965975
              ],
              [
                106.634195,
                20.965705
              ],
              [
                106.634426,
                20.965417
              ],
              [
                106.635137,
                20.964969
              ],
              [
                106.635212,
                20.964938
              ],
              [
                106.635978,
                20.964714
              ],
              [
                106.636363,
                20.964572
              ],
              [
                106.636661,
                20.964402
              ],
              [
                106.636838,
                20.964266
              ],
              [
                106.63687,
                20.964246
              ],
              [
                106.637085,
                20.964111
              ],
              [
                106.637257,
                20.964023
              ],
              [
                106.637425,
                20.963969
              ],
              [
                106.637822,
                20.963909
              ],
              [
                106.637888,
                20.963892
              ],
              [
                106.638309,
                20.963847
              ],
              [
                106.638509,
                20.96378
              ],
              [
                106.63865,
                20.963664
              ],
              [
                106.638632,
                20.963385
              ],
              [
                106.63863,
                20.963353
              ],
              [
                106.638604,
                20.96325
              ],
              [
                106.638413,
                20.962945
              ],
              [
                106.63834,
                20.962817
              ],
              [
                106.638228,
                20.962648
              ],
              [
                106.638176,
                20.96257
              ],
              [
                106.637971,
                20.962204
              ],
              [
                106.637824,
                20.96194
              ],
              [
                106.637572,
                20.961478
              ],
              [
                106.637372,
                20.961239
              ],
              [
                106.637287,
                20.961109
              ],
              [
                106.637193,
                20.960951
              ],
              [
                106.637185,
                20.960954
              ],
              [
                106.637182,
                20.960949
              ],
              [
                106.637095,
                20.960788
              ],
              [
                106.637004,
                20.960618
              ],
              [
                106.636991,
                20.960594
              ],
              [
                106.636851,
                20.960374
              ],
              [
                106.636789,
                20.960296
              ],
              [
                106.636675,
                20.960152
              ],
              [
                106.636393,
                20.959872
              ],
              [
                106.63638,
                20.959831
              ],
              [
                106.636408,
                20.95976
              ],
              [
                106.636492,
                20.959651
              ],
              [
                106.636537,
                20.959576
              ],
              [
                106.636535,
                20.959501
              ],
              [
                106.636502,
                20.959423
              ],
              [
                106.636333,
                20.959312
              ],
              [
                106.636223,
                20.959272
              ],
              [
                106.636091,
                20.95926
              ],
              [
                106.63574,
                20.959295
              ],
              [
                106.635624,
                20.95933
              ],
              [
                106.635599,
                20.959338
              ],
              [
                106.635497,
                20.959405
              ],
              [
                106.635231,
                20.959579
              ],
              [
                106.635215,
                20.959589
              ],
              [
                106.635165,
                20.959602
              ],
              [
                106.635161,
                20.959601
              ],
              [
                106.635117,
                20.959584
              ],
              [
                106.635068,
                20.959539
              ],
              [
                106.634943,
                20.959359
              ],
              [
                106.634707,
                20.958892
              ],
              [
                106.63456,
                20.958567
              ],
              [
                106.634333,
                20.95807
              ],
              [
                106.634301,
                20.957943
              ],
              [
                106.634265,
                20.9578
              ],
              [
                106.634128,
                20.957616
              ],
              [
                106.634314,
                20.9575
              ],
              [
                106.634487,
                20.957391
              ],
              [
                106.635037,
                20.956913
              ],
              [
                106.635513,
                20.956434
              ],
              [
                106.635677,
                20.956269
              ],
              [
                106.635902,
                20.956061
              ],
              [
                106.636705,
                20.955395
              ],
              [
                106.637688,
                20.954644
              ],
              [
                106.638014,
                20.954431
              ],
              [
                106.638261,
                20.95427
              ],
              [
                106.639527,
                20.953387
              ],
              [
                106.640747,
                20.952478
              ],
              [
                106.640999,
                20.952208
              ],
              [
                106.641058,
                20.952102
              ],
              [
                106.641142,
                20.951893
              ],
              [
                106.641213,
                20.951556
              ],
              [
                106.641219,
                20.951253
              ],
              [
                106.64121,
                20.950931
              ],
              [
                106.641062,
                20.950418
              ],
              [
                106.64092,
                20.950078
              ],
              [
                106.640249,
                20.94877
              ],
              [
                106.640074,
                20.948581
              ],
              [
                106.639835,
                20.948368
              ],
              [
                106.639595,
                20.9482
              ],
              [
                106.639395,
                20.948033
              ],
              [
                106.6393,
                20.947919
              ],
              [
                106.639213,
                20.947753
              ],
              [
                106.639167,
                20.947534
              ],
              [
                106.639146,
                20.94718
              ],
              [
                106.639149,
                20.946872
              ],
              [
                106.639159,
                20.946593
              ],
              [
                106.63921,
                20.946353
              ],
              [
                106.639318,
                20.94594
              ],
              [
                106.639484,
                20.945324
              ],
              [
                106.639538,
                20.945086
              ],
              [
                106.639674,
                20.944066
              ],
              [
                106.639683,
                20.943827
              ],
              [
                106.63967,
                20.943481
              ],
              [
                106.639657,
                20.943142
              ],
              [
                106.639644,
                20.942818
              ],
              [
                106.639645,
                20.942622
              ],
              [
                106.639654,
                20.942494
              ],
              [
                106.63968,
                20.942359
              ],
              [
                106.639746,
                20.942201
              ],
              [
                106.639876,
                20.941969
              ],
              [
                106.639982,
                20.941797
              ],
              [
                106.640129,
                20.941617
              ],
              [
                106.640363,
                20.941453
              ],
              [
                106.640711,
                20.941215
              ],
              [
                106.641018,
                20.941037
              ],
              [
                106.64143,
                20.940814
              ],
              [
                106.641568,
                20.940764
              ],
              [
                106.641865,
                20.940619
              ],
              [
                106.641865,
                20.940619
              ]
            ]
          ]
        ]
      },
      "properties": {
        "code": "11506",
        "name": "Lê Ích Mộc",
        "nameEn": "Le Ich Moc",
        "fullName": "Phường Lê Ích Mộc",
        "fullNameEn": "Le Ich Moc Ward",
        "codeName": "le_ich_moc",
        "postalCode": "04346",
        "postalCodePrefix": "",
        "gisServerId": "diaphanhanhchinhcapxa_2025.944",
        "areaKm2": 27.04
      }
    }
  ]
}