{
  "type": "FeatureCollection",
  "bbox": [
    106.554574,
    20.958169,
    106.629343,
    21.020544
  ],
  "features": [
    {
      "type": "Feature",
      "id": "11503",
      "bbox": [
        106.554574,
        20.958169,
        106.629343,
        21.020544
      ],
      "geometry": {
        "type": "MultiPolygon",
        "coordinates": [
          [
            [
              [
                106.618986,
                21.016495
              ],
              [
                106.61992,
                21.015664
              ],
              [
                106.620622,
                21.014943
              ],
              [
                106.621563,
                21.013976
              ],
              [
                106.621771,
                21.013762
              ],
              [
                106.622093,
                21.013432
              ],
              [
                106.62236,
                21.013205
              ],
              [
                106.622726,
                21.012893
              ],
              [
                106.623001,
                21.012659
              ],
              [
                106.623034,
                21.012645
              ],
              [
                106.62305,
                21.012632
              ],
              [
                106.623191,
                21.012563
              ],
              [
                106.62355,
                21.012385
              ],
              [
                106.623199,
                21.011041
              ],
              [
                106.623104,
                21.010674
              ],
              [
                106.622982,
                21.01008
              ],
              [
                106.622845,
                21.009176
              ],
              [
                106.622686,
                21.008401
              ],
              [
                106.622606,
                21.008255
              ],
              [
                106.622545,
                21.008171
              ],
              [
                106.622399,
                21.008098
              ],
              [
                106.622266,
                21.008054
              ],
              [
                106.62212,
                21.007965
              ],
              [
                106.622045,
                21.007889
              ],
              [
                106.621949,
                21.007717
              ],
              [
                106.621837,
                21.007435
              ],
              [
                106.621773,
                21.007096
              ],
              [
                106.621734,
                21.006819
              ],
              [
                106.621774,
                21.006586
              ],
              [
                106.621827,
                21.006489
              ],
              [
                106.621953,
                21.006414
              ],
              [
                106.622166,
                21.006348
              ],
              [
                106.622398,
                21.006323
              ],
              [
                106.622272,
                21.004168
              ],
              [
                106.622127,
                21.001883
              ],
              [
                106.622044,
                21.000864
              ],
              [
                106.622031,
                21.000478
              ],
              [
                106.622088,
                21.000185
              ],
              [
                106.622188,
                20.999939
              ],
              [
                106.622274,
                20.999726
              ],
              [
                106.622496,
                20.999366
              ],
              [
                106.622745,
                20.999005
              ],
              [
                106.622989,
                20.998516
              ],
              [
                106.624729,
                20.99622
              ],
              [
                106.62588,
                20.994672
              ],
              [
                106.626246,
                20.994026
              ],
              [
                106.626475,
                20.993197
              ],
              [
                106.626873,
                20.992085
              ],
              [
                106.626873,
                20.992084
              ],
              [
                106.626899,
                20.992013
              ],
              [
                106.627243,
                20.991049
              ],
              [
                106.628352,
                20.988047
              ],
              [
                106.629343,
                20.985794
              ],
              [
                106.629311,
                20.985775
              ],
              [
                106.628506,
                20.985577
              ],
              [
                106.627998,
                20.985452
              ],
              [
                106.627769,
                20.985372
              ],
              [
                106.627632,
                20.985312
              ],
              [
                106.627508,
                20.985248
              ],
              [
                106.627388,
                20.985149
              ],
              [
                106.627202,
                20.984928
              ],
              [
                106.626976,
                20.984649
              ],
              [
                106.626899,
                20.98452
              ],
              [
                106.626873,
                20.984478
              ],
              [
                106.626873,
                20.984477
              ],
              [
                106.626873,
                20.984477
              ],
              [
                106.625137,
                20.98221
              ],
              [
                106.624999,
                20.98203
              ],
              [
                106.622654,
                20.981632
              ],
              [
                106.620645,
                20.98134
              ],
              [
                106.62069,
                20.981154
              ],
              [
                106.620739,
                20.98095
              ],
              [
                106.62123,
                20.979114
              ],
              [
                106.621174,
                20.979
              ],
              [
                106.621152,
                20.978956
              ],
              [
                106.621125,
                20.978901
              ],
              [
                106.62081,
                20.978499
              ],
              [
                106.620789,
                20.978472
              ],
              [
                106.620545,
                20.97816
              ],
              [
                106.620218,
                20.977709
              ],
              [
                106.619849,
                20.977199
              ],
              [
                106.619844,
                20.977193
              ],
              [
                106.619465,
                20.976536
              ],
              [
                106.619402,
                20.976425
              ],
              [
                106.619321,
                20.976427
              ],
              [
                106.619251,
                20.976432
              ],
              [
                106.619217,
                20.976435
              ],
              [
                106.619125,
                20.976458
              ],
              [
                106.619027,
                20.976524
              ],
              [
                106.618892,
                20.97662
              ],
              [
                106.618753,
                20.976725
              ],
              [
                106.618706,
                20.976783
              ],
              [
                106.618677,
                20.976839
              ],
              [
                106.618667,
                20.976917
              ],
              [
                106.618673,
                20.977001
              ],
              [
                106.618712,
                20.977163
              ],
              [
                106.618727,
                20.977225
              ],
              [
                106.618731,
                20.977384
              ],
              [
                106.618699,
                20.977506
              ],
              [
                106.618645,
                20.977576
              ],
              [
                106.618586,
                20.977621
              ],
              [
                106.618455,
                20.977688
              ],
              [
                106.618313,
                20.97774
              ],
              [
                106.618168,
                20.977765
              ],
              [
                106.61805,
                20.977768
              ],
              [
                106.617945,
                20.97777
              ],
              [
                106.617852,
                20.977762
              ],
              [
                106.617787,
                20.977741
              ],
              [
                106.617679,
                20.977674
              ],
              [
                106.617538,
                20.977562
              ],
              [
                106.617535,
                20.97756
              ],
              [
                106.617505,
                20.97754
              ],
              [
                106.617421,
                20.977484
              ],
              [
                106.61737,
                20.97745
              ],
              [
                106.61733,
                20.97742
              ],
              [
                106.617263,
                20.97737
              ],
              [
                106.617156,
                20.97729
              ],
              [
                106.617104,
                20.977262
              ],
              [
                106.617067,
                20.977257
              ],
              [
                106.616968,
                20.977278
              ],
              [
                106.616832,
                20.977318
              ],
              [
                106.616366,
                20.977492
              ],
              [
                106.616118,
                20.977559
              ],
              [
                106.615891,
                20.977613
              ],
              [
                106.61555,
                20.977693
              ],
              [
                106.615378,
                20.977717
              ],
              [
                106.615309,
                20.977727
              ],
              [
                106.615223,
                20.977761
              ],
              [
                106.615105,
                20.977814
              ],
              [
                106.614931,
                20.977911
              ],
              [
                106.61482,
                20.977984
              ],
              [
                106.614719,
                20.978074
              ],
              [
                106.614682,
                20.978118
              ],
              [
                106.614666,
                20.978148
              ],
              [
                106.614651,
                20.978214
              ],
              [
                106.614641,
                20.978267
              ],
              [
                106.614642,
                20.978346
              ],
              [
                106.614664,
                20.97849
              ],
              [
                106.614702,
                20.978593
              ],
              [
                106.614717,
                20.978633
              ],
              [
                106.61474,
                20.978679
              ],
              [
                106.6148,
                20.978794
              ],
              [
                106.614869,
                20.978928
              ],
              [
                106.614937,
                20.979059
              ],
              [
                106.614947,
                20.979078
              ],
              [
                106.615262,
                20.97947
              ],
              [
                106.615417,
                20.97971
              ],
              [
                106.615434,
                20.979773
              ],
              [
                106.615425,
                20.979796
              ],
              [
                106.61542,
                20.97981
              ],
              [
                106.61535,
                20.979841
              ],
              [
                106.615232,
                20.979913
              ],
              [
                106.615212,
                20.979968
              ],
              [
                106.615211,
                20.980013
              ],
              [
                106.615155,
                20.980162
              ],
              [
                106.613794,
                20.979868
              ],
              [
                106.61246,
                20.979592
              ],
              [
                106.61237,
                20.979897
              ],
              [
                106.612312,
                20.979952
              ],
              [
                106.612196,
                20.979985
              ],
              [
                106.611457,
                20.980084
              ],
              [
                106.610904,
                20.980201
              ],
              [
                106.610343,
                20.980326
              ],
              [
                106.610136,
                20.980324
              ],
              [
                106.609894,
                20.980298
              ],
              [
                106.60968,
                20.980175
              ],
              [
                106.609432,
                20.979955
              ],
              [
                106.609271,
                20.979663
              ],
              [
                106.609178,
                20.979404
              ],
              [
                106.609146,
                20.979193
              ],
              [
                106.60915,
                20.978921
              ],
              [
                106.607848,
                20.978631
              ],
              [
                106.605748,
                20.978206
              ],
              [
                106.604259,
                20.977897
              ],
              [
                106.603175,
                20.977678
              ],
              [
                106.602267,
                20.977495
              ],
              [
                106.601961,
                20.977453
              ],
              [
                106.601754,
                20.977446
              ],
              [
                106.601493,
                20.977457
              ],
              [
                106.600908,
                20.977502
              ],
              [
                106.600405,
                20.977523
              ],
              [
                106.600414,
                20.977459
              ],
              [
                106.600487,
                20.977049
              ],
              [
                106.600554,
                20.976803
              ],
              [
                106.600696,
                20.976232
              ],
              [
                106.600713,
                20.976111
              ],
              [
                106.600691,
                20.976014
              ],
              [
                106.600548,
                20.975742
              ],
              [
                106.600281,
                20.975173
              ],
              [
                106.600125,
                20.974367
              ],
              [
                106.600024,
                20.97328
              ],
              [
                106.599924,
                20.972861
              ],
              [
                106.59981,
                20.972257
              ],
              [
                106.599627,
                20.971612
              ],
              [
                106.599418,
                20.970999
              ],
              [
                106.599148,
                20.970449
              ],
              [
                106.598868,
                20.970085
              ],
              [
                106.598434,
                20.969631
              ],
              [
                106.597957,
                20.969185
              ],
              [
                106.597403,
                20.968713
              ],
              [
                106.596644,
                20.968152
              ],
              [
                106.595773,
                20.967517
              ],
              [
                106.595527,
                20.967266
              ],
              [
                106.595255,
                20.96691
              ],
              [
                106.595043,
                20.966562
              ],
              [
                106.594953,
                20.966159
              ],
              [
                106.594844,
                20.965893
              ],
              [
                106.594749,
                20.965697
              ],
              [
                106.593798,
                20.965745
              ],
              [
                106.593836,
                20.965185
              ],
              [
                106.592721,
                20.965573
              ],
              [
                106.591978,
                20.964106
              ],
              [
                106.590937,
                20.964553
              ],
              [
                106.590849,
                20.964387
              ],
              [
                106.589625,
                20.965368
              ],
              [
                106.588327,
                20.962422
              ],
              [
                106.588549,
                20.962234
              ],
              [
                106.588765,
                20.962045
              ],
              [
                106.589389,
                20.961499
              ],
              [
                106.58971,
                20.961229
              ],
              [
                106.590059,
                20.960935
              ],
              [
                106.590315,
                20.960621
              ],
              [
                106.590431,
                20.960458
              ],
              [
                106.589933,
                20.959995
              ],
              [
                106.589853,
                20.959921
              ],
              [
                106.589693,
                20.959772
              ],
              [
                106.58978,
                20.959637
              ],
              [
                106.589712,
                20.959591
              ],
              [
                106.589473,
                20.959427
              ],
              [
                106.58923,
                20.959276
              ],
              [
                106.589076,
                20.959197
              ],
              [
                106.588864,
                20.959129
              ],
              [
                106.588721,
                20.959083
              ],
              [
                106.588649,
                20.959028
              ],
              [
                106.588438,
                20.958806
              ],
              [
                106.588215,
                20.958593
              ],
              [
                106.587868,
                20.95833
              ],
              [
                106.587664,
                20.958169
              ],
              [
                106.587384,
                20.958396
              ],
              [
                106.587197,
                20.958548
              ],
              [
                106.586799,
                20.958871
              ],
              [
                106.586144,
                20.9596
              ],
              [
                106.585534,
                20.960412
              ],
              [
                106.58515,
                20.961776
              ],
              [
                106.584789,
                20.963161
              ],
              [
                106.584685,
                20.964406
              ],
              [
                106.58483,
                20.966244
              ],
              [
                106.585201,
                20.968717
              ],
              [
                106.585218,
                20.968947
              ],
              [
                106.585324,
                20.970331
              ],
              [
                106.585518,
                20.971945
              ],
              [
                106.585558,
                20.972558
              ],
              [
                106.58532,
                20.973311
              ],
              [
                106.584711,
                20.973979
              ],
              [
                106.583848,
                20.974523
              ],
              [
                106.582848,
                20.974944
              ],
              [
                106.581268,
                20.975228
              ],
              [
                106.580969,
                20.975282
              ],
              [
                106.580898,
                20.975295
              ],
              [
                106.578089,
                20.975761
              ],
              [
                106.575999,
                20.976234
              ],
              [
                106.573907,
                20.97689
              ],
              [
                106.571723,
                20.977505
              ],
              [
                106.570003,
                20.978
              ],
              [
                106.568608,
                20.97856
              ],
              [
                106.567793,
                20.978941
              ],
              [
                106.56665,
                20.979687
              ],
              [
                106.56574,
                20.980353
              ],
              [
                106.564373,
                20.982054
              ],
              [
                106.564302,
                20.982211
              ],
              [
                106.564212,
                20.982457
              ],
              [
                106.563851,
                20.983645
              ],
              [
                106.563641,
                20.984209
              ],
              [
                106.563607,
                20.984408
              ],
              [
                106.563556,
                20.984592
              ],
              [
                106.56347,
                20.984906
              ],
              [
                106.563376,
                20.985245
              ],
              [
                106.563263,
                20.985471
              ],
              [
                106.563072,
                20.986146
              ],
              [
                106.562975,
                20.986307
              ],
              [
                106.562904,
                20.986424
              ],
              [
                106.562779,
                20.986538
              ],
              [
                106.562387,
                20.986965
              ],
              [
                106.561948,
                20.987328
              ],
              [
                106.561628,
                20.987578
              ],
              [
                106.561081,
                20.987859
              ],
              [
                106.560797,
                20.988033
              ],
              [
                106.559634,
                20.988694
              ],
              [
                106.558815,
                20.989247
              ],
              [
                106.558275,
                20.989677
              ],
              [
                106.557461,
                20.990234
              ],
              [
                106.557037,
                20.990635
              ],
              [
                106.556711,
                20.991039
              ],
              [
                106.556066,
                20.992135
              ],
              [
                106.555767,
                20.992754
              ],
              [
                106.555607,
                20.993071
              ],
              [
                106.555246,
                20.993984
              ],
              [
                106.555079,
                20.994465
              ],
              [
                106.554928,
                20.994902
              ],
              [
                106.554827,
                20.995292
              ],
              [
                106.554813,
                20.995349
              ],
              [
                106.554738,
                20.996224
              ],
              [
                106.554731,
                20.996277
              ],
              [
                106.554714,
                20.996403
              ],
              [
                106.554574,
                20.998422
              ],
              [
                106.554589,
                20.998589
              ],
              [
                106.554628,
                20.999004
              ],
              [
                106.554631,
                20.999015
              ],
              [
                106.554639,
                20.999046
              ],
              [
                106.555121,
                21.000873
              ],
              [
                106.555227,
                21.001311
              ],
              [
                106.555272,
                21.001497
              ],
              [
                106.55549,
                21.001954
              ],
              [
                106.55552,
                21.002017
              ],
              [
                106.555917,
                21.002545
              ],
              [
                106.555917,
                21.002545
              ],
              [
                106.55612,
                21.002797
              ],
              [
                106.556171,
                21.00286
              ],
              [
                106.556502,
                21.003294
              ],
              [
                106.556505,
                21.003299
              ],
              [
                106.556668,
                21.003623
              ],
              [
                106.556724,
                21.003734
              ],
              [
                106.556736,
                21.003775
              ],
              [
                106.556875,
                21.004256
              ],
              [
                106.55689,
                21.004309
              ],
              [
                106.557015,
                21.004797
              ],
              [
                106.557084,
                21.005067
              ],
              [
                106.557126,
                21.005223
              ],
              [
                106.557206,
                21.005523
              ],
              [
                106.557514,
                21.006421
              ],
              [
                106.557739,
                21.006967
              ],
              [
                106.557754,
                21.007004
              ],
              [
                106.558003,
                21.007405
              ],
              [
                106.558439,
                21.007793
              ],
              [
                106.559179,
                21.008275
              ],
              [
                106.559903,
                21.008649
              ],
              [
                106.561573,
                21.009512
              ],
              [
                106.561576,
                21.009514
              ],
              [
                106.56158,
                21.009516
              ],
              [
                106.561643,
                21.009548
              ],
              [
                106.561643,
                21.009548
              ],
              [
                106.562094,
                21.009888
              ],
              [
                106.562743,
                21.010453
              ],
              [
                106.563176,
                21.011007
              ],
              [
                106.5632,
                21.011038
              ],
              [
                106.563422,
                21.01139
              ],
              [
                106.563453,
                21.011439
              ],
              [
                106.563633,
                21.012007
              ],
              [
                106.563903,
                21.013395
              ],
              [
                106.563903,
                21.013395
              ],
              [
                106.564003,
                21.014284
              ],
              [
                106.563994,
                21.01483
              ],
              [
                106.563985,
                21.015332
              ],
              [
                106.563985,
                21.015376
              ],
              [
                106.56402,
                21.016002
              ],
              [
                106.564052,
                21.016552
              ],
              [
                106.564109,
                21.016939
              ],
              [
                106.564112,
                21.016968
              ],
              [
                106.564127,
                21.017089
              ],
              [
                106.564144,
                21.017207
              ],
              [
                106.564166,
                21.017327
              ],
              [
                106.564199,
                21.017482
              ],
              [
                106.564241,
                21.017663
              ],
              [
                106.564283,
                21.017829
              ],
              [
                106.564326,
                21.017989
              ],
              [
                106.564372,
                21.018152
              ],
              [
                106.564409,
                21.018275
              ],
              [
                106.564434,
                21.018348
              ],
              [
                106.564464,
                21.018414
              ],
              [
                106.56448,
                21.018445
              ],
              [
                106.564513,
                21.018508
              ],
              [
                106.564574,
                21.018623
              ],
              [
                106.564636,
                21.018739
              ],
              [
                106.564694,
                21.018842
              ],
              [
                106.564746,
                21.01892
              ],
              [
                106.564798,
                21.018985
              ],
              [
                106.564856,
                21.019042
              ],
              [
                106.564915,
                21.019092
              ],
              [
                106.564973,
                21.019132
              ],
              [
                106.565035,
                21.019164
              ],
              [
                106.565101,
                21.019193
              ],
              [
                106.565129,
                21.019204
              ],
              [
                106.565175,
                21.019223
              ],
              [
                106.565248,
                21.019254
              ],
              [
                106.565321,
                21.019282
              ],
              [
                106.565378,
                21.019302
              ],
              [
                106.565391,
                21.019306
              ],
              [
                106.565425,
                21.019312
              ],
              [
                106.565561,
                21.019316
              ],
              [
                106.565713,
                21.019321
              ],
              [
                106.565747,
                21.019312
              ],
              [
                106.565796,
                21.019301
              ],
              [
                106.565849,
                21.01929
              ],
              [
                106.565902,
                21.019281
              ],
              [
                106.565956,
                21.019272
              ],
              [
                106.566011,
                21.01926
              ],
              [
                106.566066,
                21.019248
              ],
              [
                106.566115,
                21.019236
              ],
              [
                106.566155,
                21.019225
              ],
              [
                106.566189,
                21.019214
              ],
              [
                106.566223,
                21.019203
              ],
              [
                106.566261,
                21.019195
              ],
              [
                106.566278,
                21.019191
              ],
              [
                106.566294,
                21.019187
              ],
              [
                106.566326,
                21.019178
              ],
              [
                106.566363,
                21.01916
              ],
              [
                106.566488,
                21.019078
              ],
              [
                106.566502,
                21.019069
              ],
              [
                106.566563,
                21.019027
              ],
              [
                106.566682,
                21.018929
              ],
              [
                106.56672,
                21.018881
              ],
              [
                106.566765,
                21.018821
              ],
              [
                106.566812,
                21.018758
              ],
              [
                106.566857,
                21.0187
              ],
              [
                106.566906,
                21.018637
              ],
              [
                106.566949,
                21.01858
              ],
              [
                106.566993,
                21.018522
              ],
              [
                106.567037,
                21.018468
              ],
              [
                106.567079,
                21.018417
              ],
              [
                106.567114,
                21.018377
              ],
              [
                106.567142,
                21.018348
              ],
              [
                106.567163,
                21.018325
              ],
              [
                106.567182,
                21.018299
              ],
              [
                106.567199,
                21.018266
              ],
              [
                106.567218,
                21.018227
              ],
              [
                106.56724,
                21.018177
              ],
              [
                106.567269,
                21.01811
              ],
              [
                106.567281,
                21.018079
              ],
              [
                106.567284,
                21.018075
              ],
              [
                106.567738,
                21.017274
              ],
              [
                106.567805,
                21.017036
              ],
              [
                106.568272,
                21.015373
              ],
              [
                106.568395,
                21.014703
              ],
              [
                106.568608,
                21.0139
              ],
              [
                106.568833,
                21.013388
              ],
              [
                106.569214,
                21.012882
              ],
              [
                106.569247,
                21.012835
              ],
              [
                106.569329,
                21.012717
              ],
              [
                106.56941,
                21.012605
              ],
              [
                106.56948,
                21.012511
              ],
              [
                106.569537,
                21.012437
              ],
              [
                106.569586,
                21.012379
              ],
              [
                106.56963,
                21.012332
              ],
              [
                106.569673,
                21.012285
              ],
              [
                106.569722,
                21.012235
              ],
              [
                106.569788,
                21.012172
              ],
              [
                106.569869,
                21.012097
              ],
              [
                106.569935,
                21.012037
              ],
              [
                106.569982,
                21.011996
              ],
              [
                106.570023,
                21.011965
              ],
              [
                106.570045,
                21.011949
              ],
              [
                106.570066,
                21.011934
              ],
              [
                106.57013,
                21.011885
              ],
              [
                106.570228,
                21.011808
              ],
              [
                106.570342,
                21.01172
              ],
              [
                106.57046,
                21.011634
              ],
              [
                106.570576,
                21.011549
              ],
              [
                106.57064,
                21.011503
              ],
              [
                106.570934,
                21.011312
              ],
              [
                106.571611,
                21.011004
              ],
              [
                106.571638,
                21.010998
              ],
              [
                106.571791,
                21.010969
              ],
              [
                106.572216,
                21.010888
              ],
              [
                106.572904,
                21.010772
              ],
              [
                106.572969,
                21.010767
              ],
              [
                106.573021,
                21.010763
              ],
              [
                106.573209,
                21.010749
              ],
              [
                106.573351,
                21.010738
              ],
              [
                106.573779,
                21.010796
              ],
              [
                106.574139,
                21.010875
              ],
              [
                106.574522,
                21.011037
              ],
              [
                106.574926,
                21.011204
              ],
              [
                106.574971,
                21.011238
              ],
              [
                106.575004,
                21.011263
              ],
              [
                106.57504,
                21.011288
              ],
              [
                106.575097,
                21.01133
              ],
              [
                106.575176,
                21.011392
              ],
              [
                106.575261,
                21.011461
              ],
              [
                106.575339,
                21.011526
              ],
              [
                106.575371,
                21.011554
              ],
              [
                106.575538,
                21.011744
              ],
              [
                106.575716,
                21.012049
              ],
              [
                106.57572,
                21.012054
              ],
              [
                106.575749,
                21.012092
              ],
              [
                106.575787,
                21.012139
              ],
              [
                106.575827,
                21.012186
              ],
              [
                106.575864,
                21.01223
              ],
              [
                106.576079,
                21.012563
              ],
              [
                106.576694,
                21.013815
              ],
              [
                106.576722,
                21.013871
              ],
              [
                106.57731,
                21.014832
              ],
              [
                106.577322,
                21.014848
              ],
              [
                106.577578,
                21.015217
              ],
              [
                106.577785,
                21.015514
              ],
              [
                106.577865,
                21.015583
              ],
              [
                106.577886,
                21.015608
              ],
              [
                106.577938,
                21.015668
              ],
              [
                106.577975,
                21.015711
              ],
              [
                106.578018,
                21.015752
              ],
              [
                106.57808,
                21.015808
              ],
              [
                106.578153,
                21.015874
              ],
              [
                106.578214,
                21.015928
              ],
              [
                106.578255,
                21.015963
              ],
              [
                106.578289,
                21.015992
              ],
              [
                106.578333,
                21.016026
              ],
              [
                106.578384,
                21.016065
              ],
              [
                106.578437,
                21.016106
              ],
              [
                106.578491,
                21.016149
              ],
              [
                106.578544,
                21.016193
              ],
              [
                106.578594,
                21.016233
              ],
              [
                106.578636,
                21.016263
              ],
              [
                106.578667,
                21.016283
              ],
              [
                106.578672,
                21.016287
              ],
              [
                106.578704,
                21.016308
              ],
              [
                106.57873,
                21.016325
              ],
              [
                106.578751,
                21.016341
              ],
              [
                106.578777,
                21.016357
              ],
              [
                106.578813,
                21.016378
              ],
              [
                106.578857,
                21.016401
              ],
              [
                106.578903,
                21.016425
              ],
              [
                106.57895,
                21.016448
              ],
              [
                106.578999,
                21.01647
              ],
              [
                106.579047,
                21.01649
              ],
              [
                106.579095,
                21.016506
              ],
              [
                106.57914,
                21.01652
              ],
              [
                106.579178,
                21.01653
              ],
              [
                106.579211,
                21.016538
              ],
              [
                106.579248,
                21.016546
              ],
              [
                106.579299,
                21.016557
              ],
              [
                106.579363,
                21.016569
              ],
              [
                106.57943,
                21.01658
              ],
              [
                106.579498,
                21.016591
              ],
              [
                106.579566,
                21.016601
              ],
              [
                106.579634,
                21.01661
              ],
              [
                106.579701,
                21.016619
              ],
              [
                106.579768,
                21.016626
              ],
              [
                106.579832,
                21.016633
              ],
              [
                106.579895,
                21.016637
              ],
              [
                106.579959,
                21.01664
              ],
              [
                106.57999,
                21.016641
              ],
              [
                106.58008,
                21.016655
              ],
              [
                106.580611,
                21.016632
              ],
              [
                106.580826,
                21.016611
              ],
              [
                106.58087,
                21.016607
              ],
              [
                106.581225,
                21.016572
              ],
              [
                106.581938,
                21.016469
              ],
              [
                106.582525,
                21.01637
              ],
              [
                106.583023,
                21.016276
              ],
              [
                106.583645,
                21.016159
              ],
              [
                106.584923,
                21.01586
              ],
              [
                106.585015,
                21.01584
              ],
              [
                106.586111,
                21.015523
              ],
              [
                106.587102,
                21.015215
              ],
              [
                106.588295,
                21.014845
              ],
              [
                106.588357,
                21.014835
              ],
              [
                106.58914,
                21.014705
              ],
              [
                106.58934,
                21.014672
              ],
              [
                106.589884,
                21.014715
              ],
              [
                106.590123,
                21.014733
              ],
              [
                106.590572,
                21.014866
              ],
              [
                106.590815,
                21.014939
              ],
              [
                106.591511,
                21.015483
              ],
              [
                106.59168,
                21.015703
              ],
              [
                106.591938,
                21.016102
              ],
              [
                106.592074,
                21.01626
              ],
              [
                106.592232,
                21.016443
              ],
              [
                106.592412,
                21.01664
              ],
              [
                106.5925,
                21.016737
              ],
              [
                106.592762,
                21.016931
              ],
              [
                106.593448,
                21.017292
              ],
              [
                106.593806,
                21.017509
              ],
              [
                106.593901,
                21.017552
              ],
              [
                106.594296,
                21.017733
              ],
              [
                106.5943,
                21.017734
              ],
              [
                106.59434,
                21.017746
              ],
              [
                106.59439,
                21.017762
              ],
              [
                106.594444,
                21.017779
              ],
              [
                106.594513,
                21.017798
              ],
              [
                106.594595,
                21.017819
              ],
              [
                106.594675,
                21.01784
              ],
              [
                106.594757,
                21.01786
              ],
              [
                106.594847,
                21.017878
              ],
              [
                106.594942,
                21.017893
              ],
              [
                106.595037,
                21.017908
              ],
              [
                106.595119,
                21.017917
              ],
              [
                106.595196,
                21.017926
              ],
              [
                106.595279,
                21.017937
              ],
              [
                106.595358,
                21.017944
              ],
              [
                106.595441,
                21.017944
              ],
              [
                106.595538,
                21.017939
              ],
              [
                106.59563,
                21.017933
              ],
              [
                106.595643,
                21.017932
              ],
              [
                106.595762,
                21.01792
              ],
              [
                106.595892,
                21.017902
              ],
              [
                106.596032,
                21.017877
              ],
              [
                106.596162,
                21.017849
              ],
              [
                106.596249,
                21.017826
              ],
              [
                106.596305,
                21.017806
              ],
              [
                106.596349,
                21.017784
              ],
              [
                106.596388,
                21.01776
              ],
              [
                106.596398,
                21.017754
              ],
              [
                106.596432,
                21.017734
              ],
              [
                106.596503,
                21.017704
              ],
              [
                106.596603,
                21.01767
              ],
              [
                106.596702,
                21.017635
              ],
              [
                106.59682,
                21.017593
              ],
              [
                106.596958,
                21.017546
              ],
              [
                106.59706,
                21.017512
              ],
              [
                106.597114,
                21.017494
              ],
              [
                106.597186,
                21.017471
              ],
              [
                106.597335,
                21.017423
              ],
              [
                106.59754,
                21.017358
              ],
              [
                106.597754,
                21.017289
              ],
              [
                106.597944,
                21.017228
              ],
              [
                106.598108,
                21.017175
              ],
              [
                106.59826,
                21.017122
              ],
              [
                106.598386,
                21.017079
              ],
              [
                106.598487,
                21.017047
              ],
              [
                106.598582,
                21.017021
              ],
              [
                106.598677,
                21.016995
              ],
              [
                106.598777,
                21.016966
              ],
              [
                106.598889,
                21.016935
              ],
              [
                106.599005,
                21.016907
              ],
              [
                106.599101,
                21.016883
              ],
              [
                106.59918,
                21.016863
              ],
              [
                106.599263,
                21.016844
              ],
              [
                106.599348,
                21.016822
              ],
              [
                106.599454,
                21.016795
              ],
              [
                106.599582,
                21.016765
              ],
              [
                106.59971,
                21.016736
              ],
              [
                106.599819,
                21.016712
              ],
              [
                106.599887,
                21.016697
              ],
              [
                106.599928,
                21.016687
              ],
              [
                106.599965,
                21.016677
              ],
              [
                106.600017,
                21.016665
              ],
              [
                106.600107,
                21.016648
              ],
              [
                106.600229,
                21.016629
              ],
              [
                106.600356,
                21.016608
              ],
              [
                106.600492,
                21.016588
              ],
              [
                106.600638,
                21.01657
              ],
              [
                106.600763,
                21.016556
              ],
              [
                106.600855,
                21.016547
              ],
              [
                106.600933,
                21.016539
              ],
              [
                106.601017,
                21.016529
              ],
              [
                106.601102,
                21.01652
              ],
              [
                106.601118,
                21.016518
              ],
              [
                106.601382,
                21.016506
              ],
              [
                106.601833,
                21.016486
              ],
              [
                106.601884,
                21.016487
              ],
              [
                106.601968,
                21.016494
              ],
              [
                106.602048,
                21.016504
              ],
              [
                106.602125,
                21.016514
              ],
              [
                106.602202,
                21.016524
              ],
              [
                106.602279,
                21.016535
              ],
              [
                106.60236,
                21.016546
              ],
              [
                106.602445,
                21.016558
              ],
              [
                106.60253,
                21.016569
              ],
              [
                106.602611,
                21.016581
              ],
              [
                106.602678,
                21.016594
              ],
              [
                106.602734,
                21.016608
              ],
              [
                106.602738,
                21.016609
              ],
              [
                106.602804,
                21.016627
              ],
              [
                106.602891,
                21.01665
              ],
              [
                106.602971,
                21.016673
              ],
              [
                106.603048,
                21.016694
              ],
              [
                106.603129,
                21.016716
              ],
              [
                106.603195,
                21.016734
              ],
              [
                106.603243,
                21.01675
              ],
              [
                106.603302,
                21.016768
              ],
              [
                106.603384,
                21.016794
              ],
              [
                106.603475,
                21.016829
              ],
              [
                106.603568,
                21.016866
              ],
              [
                106.603665,
                21.0169
              ],
              [
                106.603761,
                21.016933
              ],
              [
                106.603855,
                21.016966
              ],
              [
                106.603949,
                21.016999
              ],
              [
                106.604041,
                21.017033
              ],
              [
                106.604132,
                21.017071
              ],
              [
                106.604228,
                21.017114
              ],
              [
                106.604335,
                21.017158
              ],
              [
                106.604446,
                21.017202
              ],
              [
                106.604554,
                21.017246
              ],
              [
                106.604647,
                21.017286
              ],
              [
                106.604728,
                21.017323
              ],
              [
                106.604807,
                21.01736
              ],
              [
                106.604823,
                21.017368
              ],
              [
                106.605156,
                21.017495
              ],
              [
                106.606553,
                21.018159
              ],
              [
                106.608607,
                21.019135
              ],
              [
                106.609068,
                21.019354
              ],
              [
                106.610131,
                21.019881
              ],
              [
                106.610644,
                21.020135
              ],
              [
                106.611287,
                21.020486
              ],
              [
                106.611393,
                21.020544
              ],
              [
                106.611588,
                21.020528
              ],
              [
                106.611876,
                21.020453
              ],
              [
                106.612326,
                21.020228
              ],
              [
                106.613004,
                21.019982
              ],
              [
                106.613518,
                21.01984
              ],
              [
                106.613977,
                21.019764
              ],
              [
                106.614549,
                21.019538
              ],
              [
                106.61547,
                21.019089
              ],
              [
                106.616038,
                21.018772
              ],
              [
                106.616462,
                21.018535
              ],
              [
                106.617623,
                21.017616
              ],
              [
                106.618986,
                21.016495
              ],
              [
                106.618986,
                21.016495
              ]
            ]
          ]
        ]
      },
      "properties": {
        "code": "11503",
        "name": "Việt Khê",
        "nameEn": "Viet Khe",
        "fullName": "Xã Việt Khê",
        "fullNameEn": "Viet Khe Commune",
        "codeName": "viet_khe",
        "postalCode": "04343",
        "postalCodePrefix": "",
        "gisServerId": "diaphanhanhchinhcapxa_2025.945",
        "areaKm2": 30.98
      }
    }
  ]
}