{
  "type": "FeatureCollection",
  "bbox": [
    106.664567,
    20.904254,
    106.723754,
    20.95806
  ],
  "features": [
    {
      "type": "Feature",
      "id": "11533",
      "bbox": [
        106.664567,
        20.904254,
        106.723754,
        20.95806
      ],
      "geometry": {
        "type": "MultiPolygon",
        "coordinates": [
          [
            [
              [
                106.688665,
                20.955036
              ],
              [
                106.691081,
                20.953431
              ],
              [
                106.692413,
                20.952844
              ],
              [
                106.693451,
                20.952471
              ],
              [
                106.694772,
                20.952113
              ],
              [
                106.696386,
                20.951766
              ],
              [
                106.698314,
                20.951507
              ],
              [
                106.701372,
                20.95113
              ],
              [
                106.703397,
                20.950872
              ],
              [
                106.705402,
                20.950741
              ],
              [
                106.707328,
                20.950701
              ],
              [
                106.708631,
                20.950747
              ],
              [
                106.709153,
                20.95081
              ],
              [
                106.70928,
                20.949482
              ],
              [
                106.709308,
                20.949192
              ],
              [
                106.709288,
                20.949147
              ],
              [
                106.709285,
                20.947859
              ],
              [
                106.709172,
                20.947181
              ],
              [
                106.708969,
                20.94618
              ],
              [
                106.708897,
                20.94607
              ],
              [
                106.70881,
                20.945939
              ],
              [
                106.708738,
                20.945815
              ],
              [
                106.708718,
                20.945685
              ],
              [
                106.708607,
                20.945371
              ],
              [
                106.708947,
                20.945363
              ],
              [
                106.709051,
                20.945385
              ],
              [
                106.709163,
                20.945386
              ],
              [
                106.709351,
                20.94535
              ],
              [
                106.709723,
                20.945258
              ],
              [
                106.710509,
                20.945014
              ],
              [
                106.710824,
                20.944904
              ],
              [
                106.711191,
                20.944748
              ],
              [
                106.711657,
                20.944618
              ],
              [
                106.712179,
                20.944543
              ],
              [
                106.712365,
                20.944537
              ],
              [
                106.71259,
                20.941532
              ],
              [
                106.712637,
                20.941205
              ],
              [
                106.712654,
                20.941165
              ],
              [
                106.713237,
                20.941164
              ],
              [
                106.713811,
                20.941164
              ],
              [
                106.71434,
                20.941144
              ],
              [
                106.714361,
                20.940848
              ],
              [
                106.714368,
                20.940738
              ],
              [
                106.71437,
                20.940718
              ],
              [
                106.714396,
                20.940343
              ],
              [
                106.714765,
                20.938743
              ],
              [
                106.714971,
                20.937934
              ],
              [
                106.715296,
                20.936659
              ],
              [
                106.715055,
                20.936567
              ],
              [
                106.715072,
                20.936529
              ],
              [
                106.715085,
                20.936502
              ],
              [
                106.715875,
                20.934626
              ],
              [
                106.715965,
                20.934433
              ],
              [
                106.715878,
                20.934392
              ],
              [
                106.715816,
                20.934388
              ],
              [
                106.716126,
                20.93375
              ],
              [
                106.716156,
                20.933638
              ],
              [
                106.716146,
                20.933427
              ],
              [
                106.716182,
                20.933284
              ],
              [
                106.71623,
                20.933095
              ],
              [
                106.71656,
                20.93308
              ],
              [
                106.716722,
                20.932584
              ],
              [
                106.716762,
                20.93247
              ],
              [
                106.716956,
                20.93192
              ],
              [
                106.717481,
                20.93069
              ],
              [
                106.717777,
                20.930007
              ],
              [
                106.71791,
                20.929626
              ],
              [
                106.718125,
                20.9291
              ],
              [
                106.717848,
                20.928965
              ],
              [
                106.717815,
                20.92896
              ],
              [
                106.71764,
                20.928832
              ],
              [
                106.71749,
                20.928774
              ],
              [
                106.717619,
                20.928507
              ],
              [
                106.717892,
                20.927706
              ],
              [
                106.717925,
                20.927617
              ],
              [
                106.717927,
                20.927612
              ],
              [
                106.717968,
                20.927602
              ],
              [
                106.718415,
                20.927607
              ],
              [
                106.7187,
                20.927578
              ],
              [
                106.718822,
                20.927577
              ],
              [
                106.719084,
                20.927119
              ],
              [
                106.71909,
                20.927117
              ],
              [
                106.719121,
                20.927054
              ],
              [
                106.719436,
                20.926548
              ],
              [
                106.719841,
                20.92587
              ],
              [
                106.719944,
                20.925752
              ],
              [
                106.720492,
                20.925039
              ],
              [
                106.720951,
                20.92446
              ],
              [
                106.721468,
                20.923796
              ],
              [
                106.722062,
                20.923051
              ],
              [
                106.722068,
                20.923044
              ],
              [
                106.722335,
                20.922709
              ],
              [
                106.723178,
                20.921666
              ],
              [
                106.723547,
                20.921198
              ],
              [
                106.723483,
                20.921186
              ],
              [
                106.723481,
                20.921177
              ],
              [
                106.722966,
                20.920926
              ],
              [
                106.722873,
                20.920874
              ],
              [
                106.722837,
                20.920832
              ],
              [
                106.722853,
                20.920693
              ],
              [
                106.723122,
                20.919845
              ],
              [
                106.723132,
                20.919775
              ],
              [
                106.723105,
                20.919751
              ],
              [
                106.722933,
                20.919707
              ],
              [
                106.722275,
                20.919535
              ],
              [
                106.721668,
                20.919375
              ],
              [
                106.721672,
                20.919311
              ],
              [
                106.721646,
                20.919279
              ],
              [
                106.721663,
                20.919221
              ],
              [
                106.721721,
                20.919222
              ],
              [
                106.72181,
                20.918931
              ],
              [
                106.72176,
                20.918913
              ],
              [
                106.721874,
                20.91868
              ],
              [
                106.721887,
                20.918636
              ],
              [
                106.721986,
                20.918497
              ],
              [
                106.721993,
                20.918497
              ],
              [
                106.722004,
                20.91848
              ],
              [
                106.722092,
                20.918313
              ],
              [
                106.722132,
                20.918232
              ],
              [
                106.722126,
                20.91822
              ],
              [
                106.722115,
                20.918216
              ],
              [
                106.722105,
                20.918166
              ],
              [
                106.722033,
                20.91814
              ],
              [
                106.721673,
                20.918013
              ],
              [
                106.722087,
                20.917084
              ],
              [
                106.722294,
                20.916727
              ],
              [
                106.722322,
                20.916729
              ],
              [
                106.722374,
                20.916707
              ],
              [
                106.722575,
                20.916098
              ],
              [
                106.722586,
                20.916064
              ],
              [
                106.722819,
                20.915536
              ],
              [
                106.722907,
                20.915327
              ],
              [
                106.722957,
                20.915209
              ],
              [
                106.723754,
                20.9129
              ],
              [
                106.722923,
                20.912751
              ],
              [
                106.722927,
                20.911868
              ],
              [
                106.720068,
                20.910474
              ],
              [
                106.72066,
                20.907933
              ],
              [
                106.720971,
                20.906596
              ],
              [
                106.721411,
                20.904708
              ],
              [
                106.720126,
                20.904254
              ],
              [
                106.71778,
                20.904265
              ],
              [
                106.717216,
                20.904268
              ],
              [
                106.715863,
                20.904277
              ],
              [
                106.714675,
                20.904285
              ],
              [
                106.714254,
                20.904287
              ],
              [
                106.71425,
                20.904287
              ],
              [
                106.713404,
                20.904291
              ],
              [
                106.712811,
                20.904294
              ],
              [
                106.711667,
                20.904299
              ],
              [
                106.71134,
                20.904301
              ],
              [
                106.710753,
                20.904314
              ],
              [
                106.707621,
                20.904334
              ],
              [
                106.706799,
                20.90434
              ],
              [
                106.70616,
                20.904345
              ],
              [
                106.703529,
                20.90435
              ],
              [
                106.703474,
                20.904351
              ],
              [
                106.703218,
                20.904353
              ],
              [
                106.702437,
                20.904358
              ],
              [
                106.701933,
                20.904362
              ],
              [
                106.699396,
                20.904366
              ],
              [
                106.697525,
                20.904385
              ],
              [
                106.697315,
                20.904388
              ],
              [
                106.697143,
                20.904388
              ],
              [
                106.695876,
                20.904389
              ],
              [
                106.69557,
                20.904389
              ],
              [
                106.69553,
                20.90457
              ],
              [
                106.695306,
                20.905581
              ],
              [
                106.69525,
                20.906215
              ],
              [
                106.695132,
                20.906653
              ],
              [
                106.69509,
                20.906812
              ],
              [
                106.695067,
                20.906898
              ],
              [
                106.694896,
                20.907545
              ],
              [
                106.694675,
                20.908216
              ],
              [
                106.694614,
                20.908468
              ],
              [
                106.694615,
                20.908583
              ],
              [
                106.694618,
                20.908838
              ],
              [
                106.69471,
                20.909136
              ],
              [
                106.695135,
                20.909622
              ],
              [
                106.69533,
                20.909978
              ],
              [
                106.695347,
                20.910384
              ],
              [
                106.695165,
                20.911139
              ],
              [
                106.695028,
                20.911415
              ],
              [
                106.694894,
                20.911907
              ],
              [
                106.694923,
                20.912193
              ],
              [
                106.695066,
                20.91249
              ],
              [
                106.695365,
                20.913073
              ],
              [
                106.695675,
                20.9135
              ],
              [
                106.696038,
                20.914082
              ],
              [
                106.696247,
                20.91457
              ],
              [
                106.696332,
                20.915297
              ],
              [
                106.696264,
                20.916147
              ],
              [
                106.695985,
                20.917321
              ],
              [
                106.695756,
                20.918423
              ],
              [
                106.695572,
                20.919082
              ],
              [
                106.695274,
                20.919718
              ],
              [
                106.695053,
                20.920413
              ],
              [
                106.694959,
                20.921119
              ],
              [
                106.694951,
                20.921454
              ],
              [
                106.69502,
                20.921967
              ],
              [
                106.695038,
                20.922421
              ],
              [
                106.694931,
                20.923115
              ],
              [
                106.694809,
                20.923546
              ],
              [
                106.694609,
                20.923883
              ],
              [
                106.694421,
                20.924088
              ],
              [
                106.694041,
                20.924295
              ],
              [
                106.693611,
                20.924466
              ],
              [
                106.693281,
                20.924565
              ],
              [
                106.693029,
                20.924723
              ],
              [
                106.692879,
                20.924976
              ],
              [
                106.692768,
                20.925158
              ],
              [
                106.692865,
                20.926051
              ],
              [
                106.69287,
                20.926422
              ],
              [
                106.692979,
                20.926838
              ],
              [
                106.693126,
                20.927375
              ],
              [
                106.693192,
                20.928163
              ],
              [
                106.693248,
                20.928642
              ],
              [
                106.69325,
                20.929197
              ],
              [
                106.692785,
                20.929083
              ],
              [
                106.691926,
                20.92884
              ],
              [
                106.690942,
                20.928548
              ],
              [
                106.69091,
                20.928527
              ],
              [
                106.690872,
                20.928502
              ],
              [
                106.690461,
                20.928234
              ],
              [
                106.690269,
                20.928163
              ],
              [
                106.690041,
                20.928094
              ],
              [
                106.689319,
                20.927877
              ],
              [
                106.688603,
                20.927665
              ],
              [
                106.688449,
                20.927621
              ],
              [
                106.68796,
                20.928288
              ],
              [
                106.688351,
                20.92919
              ],
              [
                106.687918,
                20.929638
              ],
              [
                106.687881,
                20.929602
              ],
              [
                106.687827,
                20.92957
              ],
              [
                106.687761,
                20.929564
              ],
              [
                106.687698,
                20.929534
              ],
              [
                106.687629,
                20.929501
              ],
              [
                106.687487,
                20.929425
              ],
              [
                106.687194,
                20.929325
              ],
              [
                106.686774,
                20.929217
              ],
              [
                106.685665,
                20.928942
              ],
              [
                106.685382,
                20.928866
              ],
              [
                106.685214,
                20.928821
              ],
              [
                106.68493,
                20.928745
              ],
              [
                106.684899,
                20.928744
              ],
              [
                106.684888,
                20.928744
              ],
              [
                106.684969,
                20.928404
              ],
              [
                106.685051,
                20.928061
              ],
              [
                106.68507,
                20.927981
              ],
              [
                106.685085,
                20.927872
              ],
              [
                106.685104,
                20.927731
              ],
              [
                106.685089,
                20.927667
              ],
              [
                106.685067,
                20.927654
              ],
              [
                106.684967,
                20.927599
              ],
              [
                106.684602,
                20.927409
              ],
              [
                106.684305,
                20.927255
              ],
              [
                106.684275,
                20.927239
              ],
              [
                106.684193,
                20.927347
              ],
              [
                106.684057,
                20.927445
              ],
              [
                106.68373,
                20.927577
              ],
              [
                106.683629,
                20.927601
              ],
              [
                106.683579,
                20.92757
              ],
              [
                106.683552,
                20.927585
              ],
              [
                106.683353,
                20.927749
              ],
              [
                106.683048,
                20.92803
              ],
              [
                106.682982,
                20.928067
              ],
              [
                106.682922,
                20.928062
              ],
              [
                106.682835,
                20.928036
              ],
              [
                106.682815,
                20.928026
              ],
              [
                106.68237,
                20.927804
              ],
              [
                106.682182,
                20.927701
              ],
              [
                106.682178,
                20.927705
              ],
              [
                106.681841,
                20.928312
              ],
              [
                106.681734,
                20.92829
              ],
              [
                106.681728,
                20.928288
              ],
              [
                106.681563,
                20.928538
              ],
              [
                106.681266,
                20.929206
              ],
              [
                106.680978,
                20.929132
              ],
              [
                106.680629,
                20.929896
              ],
              [
                106.68028,
                20.93066
              ],
              [
                106.681407,
                20.930923
              ],
              [
                106.680786,
                20.932247
              ],
              [
                106.680549,
                20.933285
              ],
              [
                106.679548,
                20.932221
              ],
              [
                106.678396,
                20.93183
              ],
              [
                106.678392,
                20.931828
              ],
              [
                106.678372,
                20.931939
              ],
              [
                106.678186,
                20.931895
              ],
              [
                106.678046,
                20.931869
              ],
              [
                106.677951,
                20.932056
              ],
              [
                106.677658,
                20.932029
              ],
              [
                106.6776,
                20.93211
              ],
              [
                106.677543,
                20.932191
              ],
              [
                106.677378,
                20.932741
              ],
              [
                106.677148,
                20.93275
              ],
              [
                106.676837,
                20.932762
              ],
              [
                106.676844,
                20.932899
              ],
              [
                106.676847,
                20.932968
              ],
              [
                106.676853,
                20.933109
              ],
              [
                106.676856,
                20.933157
              ],
              [
                106.6767,
                20.933302
              ],
              [
                106.676683,
                20.933317
              ],
              [
                106.676567,
                20.933363
              ],
              [
                106.676381,
                20.933377
              ],
              [
                106.675992,
                20.933374
              ],
              [
                106.67562,
                20.933309
              ],
              [
                106.675205,
                20.933229
              ],
              [
                106.675002,
                20.933201
              ],
              [
                106.674821,
                20.933215
              ],
              [
                106.674561,
                20.933252
              ],
              [
                106.674363,
                20.933338
              ],
              [
                106.674209,
                20.933434
              ],
              [
                106.67411,
                20.933506
              ],
              [
                106.673994,
                20.933531
              ],
              [
                106.673868,
                20.93353
              ],
              [
                106.673688,
                20.933487
              ],
              [
                106.673475,
                20.933377
              ],
              [
                106.67329,
                20.933304
              ],
              [
                106.673082,
                20.933236
              ],
              [
                106.673134,
                20.93316
              ],
              [
                106.673223,
                20.933097
              ],
              [
                106.673305,
                20.933001
              ],
              [
                106.673422,
                20.932881
              ],
              [
                106.67345,
                20.932746
              ],
              [
                106.67337,
                20.932611
              ],
              [
                106.672508,
                20.931582
              ],
              [
                106.672391,
                20.93142
              ],
              [
                106.672274,
                20.931342
              ],
              [
                106.672193,
                20.931299
              ],
              [
                106.671966,
                20.931297
              ],
              [
                106.671711,
                20.931321
              ],
              [
                106.671366,
                20.931352
              ],
              [
                106.670744,
                20.93142
              ],
              [
                106.670246,
                20.931506
              ],
              [
                106.669911,
                20.931552
              ],
              [
                106.669717,
                20.931549
              ],
              [
                106.669321,
                20.931548
              ],
              [
                106.668974,
                20.931518
              ],
              [
                106.668659,
                20.931502
              ],
              [
                106.668363,
                20.931476
              ],
              [
                106.668063,
                20.931451
              ],
              [
                106.667584,
                20.931436
              ],
              [
                106.667345,
                20.931443
              ],
              [
                106.667,
                20.931504
              ],
              [
                106.666787,
                20.931544
              ],
              [
                106.666248,
                20.931631
              ],
              [
                106.666045,
                20.931662
              ],
              [
                106.666038,
                20.931661
              ],
              [
                106.665882,
                20.931649
              ],
              [
                106.665699,
                20.93167
              ],
              [
                106.665359,
                20.931742
              ],
              [
                106.66524,
                20.931775
              ],
              [
                106.665101,
                20.932486
              ],
              [
                106.665022,
                20.932706
              ],
              [
                106.664947,
                20.933069
              ],
              [
                106.664888,
                20.933347
              ],
              [
                106.664843,
                20.933452
              ],
              [
                106.664763,
                20.93364
              ],
              [
                106.664666,
                20.933792
              ],
              [
                106.664626,
                20.933886
              ],
              [
                106.664584,
                20.934354
              ],
              [
                106.664567,
                20.93476
              ],
              [
                106.664568,
                20.93515
              ],
              [
                106.664567,
                20.935828
              ],
              [
                106.664578,
                20.936044
              ],
              [
                106.664605,
                20.936103
              ],
              [
                106.664681,
                20.936146
              ],
              [
                106.664766,
                20.936215
              ],
              [
                106.664896,
                20.936254
              ],
              [
                106.6653,
                20.936399
              ],
              [
                106.665801,
                20.936575
              ],
              [
                106.666017,
                20.936655
              ],
              [
                106.666343,
                20.936767
              ],
              [
                106.666668,
                20.936872
              ],
              [
                106.666802,
                20.936943
              ],
              [
                106.666968,
                20.937031
              ],
              [
                106.667126,
                20.93715
              ],
              [
                106.667259,
                20.937292
              ],
              [
                106.667333,
                20.937436
              ],
              [
                106.670289,
                20.93804
              ],
              [
                106.670903,
                20.938166
              ],
              [
                106.671003,
                20.938186
              ],
              [
                106.672019,
                20.93957
              ],
              [
                106.672315,
                20.939826
              ],
              [
                106.672616,
                20.940044
              ],
              [
                106.673108,
                20.940501
              ],
              [
                106.673227,
                20.940729
              ],
              [
                106.673285,
                20.941059
              ],
              [
                106.673343,
                20.941354
              ],
              [
                106.673558,
                20.941759
              ],
              [
                106.673854,
                20.942315
              ],
              [
                106.673119,
                20.943201
              ],
              [
                106.672706,
                20.943698
              ],
              [
                106.672706,
                20.943698
              ],
              [
                106.672805,
                20.943766
              ],
              [
                106.673182,
                20.944093
              ],
              [
                106.673327,
                20.944219
              ],
              [
                106.67357,
                20.944492
              ],
              [
                106.673687,
                20.944696
              ],
              [
                106.673757,
                20.944891
              ],
              [
                106.673771,
                20.945068
              ],
              [
                106.673781,
                20.945186
              ],
              [
                106.673786,
                20.945261
              ],
              [
                106.673793,
                20.945339
              ],
              [
                106.673799,
                20.945763
              ],
              [
                106.673816,
                20.945959
              ],
              [
                106.673832,
                20.946257
              ],
              [
                106.673825,
                20.946453
              ],
              [
                106.673832,
                20.947412
              ],
              [
                106.673831,
                20.947479
              ],
              [
                106.673849,
                20.947563
              ],
              [
                106.673855,
                20.947572
              ],
              [
                106.673901,
                20.947637
              ],
              [
                106.674008,
                20.947748
              ],
              [
                106.674438,
                20.948091
              ],
              [
                106.674727,
                20.948329
              ],
              [
                106.675081,
                20.94864
              ],
              [
                106.675206,
                20.948749
              ],
              [
                106.6753,
                20.948964
              ],
              [
                106.67526,
                20.949113
              ],
              [
                106.675257,
                20.949169
              ],
              [
                106.675281,
                20.949232
              ],
              [
                106.675381,
                20.949497
              ],
              [
                106.675384,
                20.949565
              ],
              [
                106.67534,
                20.949606
              ],
              [
                106.675117,
                20.949724
              ],
              [
                106.674712,
                20.949922
              ],
              [
                106.674204,
                20.950171
              ],
              [
                106.673906,
                20.950333
              ],
              [
                106.673645,
                20.950475
              ],
              [
                106.673363,
                20.950629
              ],
              [
                106.673212,
                20.950711
              ],
              [
                106.672993,
                20.95083
              ],
              [
                106.672796,
                20.950968
              ],
              [
                106.672575,
                20.951122
              ],
              [
                106.672511,
                20.951194
              ],
              [
                106.672369,
                20.951662
              ],
              [
                106.672323,
                20.951889
              ],
              [
                106.672309,
                20.95205
              ],
              [
                106.67232,
                20.952255
              ],
              [
                106.672353,
                20.952455
              ],
              [
                106.672432,
                20.952704
              ],
              [
                106.672385,
                20.95271
              ],
              [
                106.672168,
                20.952741
              ],
              [
                106.671764,
                20.952759
              ],
              [
                106.671664,
                20.952753
              ],
              [
                106.671637,
                20.952739
              ],
              [
                106.67159,
                20.952861
              ],
              [
                106.671498,
                20.953058
              ],
              [
                106.671485,
                20.953085
              ],
              [
                106.671383,
                20.953337
              ],
              [
                106.671229,
                20.95367
              ],
              [
                106.671157,
                20.953937
              ],
              [
                106.671143,
                20.954167
              ],
              [
                106.67113,
                20.954342
              ],
              [
                106.671088,
                20.954463
              ],
              [
                106.670964,
                20.954599
              ],
              [
                106.670706,
                20.954783
              ],
              [
                106.670582,
                20.954962
              ],
              [
                106.670573,
                20.955052
              ],
              [
                106.670519,
                20.955114
              ],
              [
                106.670409,
                20.956116
              ],
              [
                106.67023,
                20.957728
              ],
              [
                106.671079,
                20.957651
              ],
              [
                106.671318,
                20.957637
              ],
              [
                106.672408,
                20.957576
              ],
              [
                106.673652,
                20.957652
              ],
              [
                106.674154,
                20.957721
              ],
              [
                106.674962,
                20.957873
              ],
              [
                106.67515,
                20.957897
              ],
              [
                106.675231,
                20.957908
              ],
              [
                106.675982,
                20.958015
              ],
              [
                106.676914,
                20.95806
              ],
              [
                106.677632,
                20.958031
              ],
              [
                106.678113,
                20.958029
              ],
              [
                106.678331,
                20.95801
              ],
              [
                106.679173,
                20.957935
              ],
              [
                106.680577,
                20.957752
              ],
              [
                106.682126,
                20.957443
              ],
              [
                106.683518,
                20.957141
              ],
              [
                106.684406,
                20.956899
              ],
              [
                106.685172,
                20.956667
              ],
              [
                106.685268,
                20.956622
              ],
              [
                106.685372,
                20.956587
              ],
              [
                106.685469,
                20.956551
              ],
              [
                106.685525,
                20.956529
              ],
              [
                106.685588,
                20.956503
              ],
              [
                106.685722,
                20.956448
              ],
              [
                106.685932,
                20.956359
              ],
              [
                106.686175,
                20.956252
              ],
              [
                106.686412,
                20.956146
              ],
              [
                106.686596,
                20.95606
              ],
              [
                106.686696,
                20.956009
              ],
              [
                106.686751,
                20.95598
              ],
              [
                106.686813,
                20.955955
              ],
              [
                106.686904,
                20.955917
              ],
              [
                106.687033,
                20.95586
              ],
              [
                106.687183,
                20.955792
              ],
              [
                106.687387,
                20.955698
              ],
              [
                106.687644,
                20.955578
              ],
              [
                106.68781,
                20.955501
              ],
              [
                106.687876,
                20.95547
              ],
              [
                106.687922,
                20.955446
              ],
              [
                106.687985,
                20.955409
              ],
              [
                106.688104,
                20.955339
              ],
              [
                106.688343,
                20.955207
              ],
              [
                106.688404,
                20.955175
              ],
              [
                106.688665,
                20.955036
              ],
              [
                106.688665,
                20.955036
              ]
            ]
          ]
        ]
      },
      "properties": {
        "code": "11533",
        "name": "Hoà Bình",
        "nameEn": "Hoa Binh",
        "fullName": "Phường Hoà Bình",
        "fullNameEn": "Hoa Binh Ward",
        "codeName": "hoa_binh",
        "postalCode": "04308",
        "postalCodePrefix": "",
        "gisServerId": "diaphanhanhchinhcapxa_2025.923",
        "areaKm2": 19.47
      }
    }
  ]
}