{
  "type": "FeatureCollection",
  "bbox": [
    106.720068,
    20.874613,
    106.770956,
    20.948594
  ],
  "features": [
    {
      "type": "Feature",
      "id": "11542",
      "bbox": [
        106.720068,
        20.874613,
        106.770956,
        20.948594
      ],
      "geometry": {
        "type": "MultiPolygon",
        "coordinates": [
          [
            [
              [
                106.770534,
                20.94148
              ],
              [
                106.770561,
                20.938983
              ],
              [
                106.770885,
                20.937295
              ],
              [
                106.770925,
                20.935223
              ],
              [
                106.770956,
                20.933602
              ],
              [
                106.770792,
                20.925789
              ],
              [
                106.770889,
                20.922439
              ],
              [
                106.770944,
                20.919273
              ],
              [
                106.770913,
                20.917713
              ],
              [
                106.770913,
                20.9174
              ],
              [
                106.770913,
                20.916683
              ],
              [
                106.770896,
                20.916575
              ],
              [
                106.770497,
                20.913998
              ],
              [
                106.769853,
                20.911209
              ],
              [
                106.769792,
                20.910949
              ],
              [
                106.769372,
                20.90917
              ],
              [
                106.768703,
                20.907421
              ],
              [
                106.768641,
                20.907326
              ],
              [
                106.768589,
                20.907245
              ],
              [
                106.768369,
                20.906908
              ],
              [
                106.767702,
                20.905884
              ],
              [
                106.767223,
                20.904984
              ],
              [
                106.766432,
                20.903688
              ],
              [
                106.763808,
                20.899907
              ],
              [
                106.761236,
                20.89658
              ],
              [
                106.761197,
                20.896536
              ],
              [
                106.76083,
                20.89611
              ],
              [
                106.759421,
                20.89448
              ],
              [
                106.758128,
                20.893019
              ],
              [
                106.757915,
                20.892778
              ],
              [
                106.757514,
                20.892324
              ],
              [
                106.756891,
                20.891384
              ],
              [
                106.755434,
                20.889279
              ],
              [
                106.754317,
                20.887616
              ],
              [
                106.75364,
                20.886286
              ],
              [
                106.753169,
                20.884543
              ],
              [
                106.752956,
                20.883114
              ],
              [
                106.752865,
                20.881256
              ],
              [
                106.753061,
                20.878492
              ],
              [
                106.753072,
                20.87835
              ],
              [
                106.751871,
                20.878611
              ],
              [
                106.750833,
                20.87896
              ],
              [
                106.749605,
                20.879097
              ],
              [
                106.749483,
                20.879109
              ],
              [
                106.749395,
                20.879123
              ],
              [
                106.749351,
                20.879134
              ],
              [
                106.749309,
                20.879137
              ],
              [
                106.74924,
                20.879134
              ],
              [
                106.749155,
                20.879129
              ],
              [
                106.749066,
                20.879127
              ],
              [
                106.748953,
                20.879118
              ],
              [
                106.748827,
                20.879102
              ],
              [
                106.748741,
                20.879091
              ],
              [
                106.748672,
                20.879084
              ],
              [
                106.748559,
                20.879068
              ],
              [
                106.748407,
                20.879044
              ],
              [
                106.748264,
                20.879021
              ],
              [
                106.748116,
                20.878994
              ],
              [
                106.747947,
                20.878959
              ],
              [
                106.747791,
                20.878925
              ],
              [
                106.747631,
                20.878887
              ],
              [
                106.747455,
                20.878844
              ],
              [
                106.747316,
                20.878808
              ],
              [
                106.747232,
                20.878783
              ],
              [
                106.747166,
                20.878757
              ],
              [
                106.747072,
                20.878713
              ],
              [
                106.746934,
                20.878649
              ],
              [
                106.746788,
                20.878583
              ],
              [
                106.746634,
                20.878512
              ],
              [
                106.746454,
                20.878422
              ],
              [
                106.746265,
                20.87832
              ],
              [
                106.746083,
                20.878215
              ],
              [
                106.745899,
                20.878107
              ],
              [
                106.745696,
                20.877982
              ],
              [
                106.745454,
                20.877823
              ],
              [
                106.745194,
                20.877645
              ],
              [
                106.744991,
                20.87751
              ],
              [
                106.744882,
                20.877442
              ],
              [
                106.744822,
                20.877401
              ],
              [
                106.744743,
                20.877337
              ],
              [
                106.744597,
                20.877216
              ],
              [
                106.744404,
                20.877058
              ],
              [
                106.74424,
                20.876922
              ],
              [
                106.744113,
                20.876813
              ],
              [
                106.743974,
                20.876697
              ],
              [
                106.743822,
                20.87657
              ],
              [
                106.743698,
                20.876467
              ],
              [
                106.743567,
                20.876361
              ],
              [
                106.74338,
                20.876213
              ],
              [
                106.743172,
                20.876055
              ],
              [
                106.74301,
                20.875937
              ],
              [
                106.74293,
                20.875878
              ],
              [
                106.742903,
                20.875855
              ],
              [
                106.742893,
                20.875842
              ],
              [
                106.742878,
                20.875823
              ],
              [
                106.74282,
                20.875772
              ],
              [
                106.74269,
                20.875669
              ],
              [
                106.742533,
                20.875534
              ],
              [
                106.742386,
                20.875419
              ],
              [
                106.74226,
                20.875362
              ],
              [
                106.74218,
                20.875341
              ],
              [
                106.742109,
                20.875313
              ],
              [
                106.742019,
                20.875267
              ],
              [
                106.741944,
                20.875229
              ],
              [
                106.741849,
                20.875186
              ],
              [
                106.74169,
                20.875111
              ],
              [
                106.741521,
                20.875029
              ],
              [
                106.74137,
                20.874959
              ],
              [
                106.741223,
                20.874895
              ],
              [
                106.741112,
                20.874844
              ],
              [
                106.741033,
                20.874796
              ],
              [
                106.740958,
                20.874753
              ],
              [
                106.740884,
                20.874745
              ],
              [
                106.74082,
                20.874748
              ],
              [
                106.740737,
                20.874738
              ],
              [
                106.740614,
                20.87472
              ],
              [
                106.740558,
                20.874711
              ],
              [
                106.740555,
                20.874711
              ],
              [
                106.740468,
                20.874698
              ],
              [
                106.740319,
                20.874677
              ],
              [
                106.740178,
                20.874656
              ],
              [
                106.74006,
                20.874642
              ],
              [
                106.739968,
                20.874634
              ],
              [
                106.73988,
                20.874627
              ],
              [
                106.739786,
                20.874622
              ],
              [
                106.739697,
                20.874619
              ],
              [
                106.739614,
                20.87462
              ],
              [
                106.739534,
                20.87462
              ],
              [
                106.73946,
                20.874621
              ],
              [
                106.739388,
                20.874625
              ],
              [
                106.739311,
                20.874631
              ],
              [
                106.739237,
                20.874637
              ],
              [
                106.73917,
                20.874642
              ],
              [
                106.739128,
                20.874641
              ],
              [
                106.739096,
                20.874636
              ],
              [
                106.739065,
                20.874631
              ],
              [
                106.738955,
                20.874613
              ],
              [
                106.73876,
                20.874669
              ],
              [
                106.738688,
                20.874688
              ],
              [
                106.738579,
                20.874718
              ],
              [
                106.738472,
                20.87475
              ],
              [
                106.738377,
                20.874783
              ],
              [
                106.738293,
                20.874813
              ],
              [
                106.73821,
                20.874844
              ],
              [
                106.738122,
                20.87488
              ],
              [
                106.738036,
                20.874919
              ],
              [
                106.73795,
                20.87496
              ],
              [
                106.737866,
                20.875001
              ],
              [
                106.737784,
                20.875043
              ],
              [
                106.737703,
                20.875091
              ],
              [
                106.737622,
                20.875144
              ],
              [
                106.737549,
                20.875193
              ],
              [
                106.737475,
                20.875246
              ],
              [
                106.737391,
                20.875308
              ],
              [
                106.73731,
                20.87537
              ],
              [
                106.737231,
                20.875436
              ],
              [
                106.737155,
                20.875506
              ],
              [
                106.737084,
                20.875572
              ],
              [
                106.737025,
                20.875633
              ],
              [
                106.736973,
                20.875692
              ],
              [
                106.736934,
                20.87574
              ],
              [
                106.736907,
                20.875778
              ],
              [
                106.736883,
                20.875823
              ],
              [
                106.73685,
                20.875888
              ],
              [
                106.73681,
                20.875964
              ],
              [
                106.736769,
                20.87604
              ],
              [
                106.73673,
                20.876112
              ],
              [
                106.736697,
                20.87618
              ],
              [
                106.736665,
                20.876251
              ],
              [
                106.736626,
                20.87633
              ],
              [
                106.736585,
                20.876414
              ],
              [
                106.736545,
                20.876499
              ],
              [
                106.736507,
                20.876584
              ],
              [
                106.736469,
                20.876679
              ],
              [
                106.736428,
                20.876782
              ],
              [
                106.736391,
                20.876879
              ],
              [
                106.736355,
                20.876976
              ],
              [
                106.736317,
                20.877077
              ],
              [
                106.736286,
                20.877166
              ],
              [
                106.736265,
                20.877238
              ],
              [
                106.73625,
                20.877302
              ],
              [
                106.736238,
                20.877364
              ],
              [
                106.736223,
                20.877439
              ],
              [
                106.736203,
                20.87753
              ],
              [
                106.736187,
                20.877619
              ],
              [
                106.736171,
                20.877709
              ],
              [
                106.736153,
                20.877806
              ],
              [
                106.736143,
                20.877887
              ],
              [
                106.73614,
                20.87794
              ],
              [
                106.736141,
                20.877985
              ],
              [
                106.736143,
                20.878037
              ],
              [
                106.736147,
                20.878089
              ],
              [
                106.736152,
                20.878132
              ],
              [
                106.736155,
                20.87817
              ],
              [
                106.736155,
                20.878204
              ],
              [
                106.736154,
                20.878243
              ],
              [
                106.736156,
                20.87834
              ],
              [
                106.736156,
                20.878352
              ],
              [
                106.736163,
                20.87859
              ],
              [
                106.736175,
                20.878908
              ],
              [
                106.736187,
                20.879237
              ],
              [
                106.736197,
                20.879542
              ],
              [
                106.736201,
                20.879808
              ],
              [
                106.736201,
                20.880054
              ],
              [
                106.736199,
                20.880298
              ],
              [
                106.736195,
                20.880546
              ],
              [
                106.736191,
                20.880773
              ],
              [
                106.736187,
                20.880954
              ],
              [
                106.736181,
                20.881133
              ],
              [
                106.736169,
                20.881341
              ],
              [
                106.736151,
                20.881516
              ],
              [
                106.736136,
                20.881609
              ],
              [
                106.736124,
                20.881668
              ],
              [
                106.736108,
                20.881761
              ],
              [
                106.73609,
                20.881884
              ],
              [
                106.736079,
                20.881974
              ],
              [
                106.736074,
                20.88203
              ],
              [
                106.73607,
                20.882076
              ],
              [
                106.736065,
                20.88212
              ],
              [
                106.736062,
                20.882159
              ],
              [
                106.736058,
                20.882198
              ],
              [
                106.736052,
                20.882235
              ],
              [
                106.736043,
                20.882269
              ],
              [
                106.736034,
                20.882302
              ],
              [
                106.736022,
                20.882354
              ],
              [
                106.736009,
                20.882424
              ],
              [
                106.736002,
                20.882479
              ],
              [
                106.735995,
                20.882542
              ],
              [
                106.735978,
                20.882655
              ],
              [
                106.735935,
                20.882793
              ],
              [
                106.735868,
                20.882901
              ],
              [
                106.735821,
                20.882961
              ],
              [
                106.735791,
                20.883021
              ],
              [
                106.735761,
                20.883102
              ],
              [
                106.735745,
                20.883163
              ],
              [
                106.735745,
                20.88322
              ],
              [
                106.735734,
                20.883302
              ],
              [
                106.735694,
                20.883378
              ],
              [
                106.735643,
                20.883461
              ],
              [
                106.735574,
                20.883596
              ],
              [
                106.735487,
                20.883758
              ],
              [
                106.735406,
                20.883904
              ],
              [
                106.735323,
                20.884047
              ],
              [
                106.73523,
                20.884198
              ],
              [
                106.735153,
                20.88432
              ],
              [
                106.735109,
                20.884398
              ],
              [
                106.735073,
                20.884465
              ],
              [
                106.735035,
                20.884523
              ],
              [
                106.734637,
                20.884838
              ],
              [
                106.734637,
                20.884838
              ],
              [
                106.733853,
                20.885402
              ],
              [
                106.733853,
                20.885402
              ],
              [
                106.733238,
                20.885733
              ],
              [
                106.733238,
                20.885733
              ],
              [
                106.732655,
                20.885976
              ],
              [
                106.732655,
                20.885976
              ],
              [
                106.732114,
                20.886053
              ],
              [
                106.731168,
                20.886139
              ],
              [
                106.730812,
                20.886114
              ],
              [
                106.730244,
                20.885966
              ],
              [
                106.729642,
                20.88573
              ],
              [
                106.728678,
                20.885174
              ],
              [
                106.727863,
                20.884427
              ],
              [
                106.727681,
                20.884899
              ],
              [
                106.727574,
                20.885178
              ],
              [
                106.727553,
                20.885227
              ],
              [
                106.727553,
                20.885226
              ],
              [
                106.727422,
                20.885133
              ],
              [
                106.727332,
                20.885372
              ],
              [
                106.727005,
                20.886238
              ],
              [
                106.726956,
                20.886278
              ],
              [
                106.726815,
                20.886299
              ],
              [
                106.72668,
                20.88633
              ],
              [
                106.72668,
                20.88633
              ],
              [
                106.726621,
                20.886464
              ],
              [
                106.726619,
                20.886468
              ],
              [
                106.726962,
                20.887162
              ],
              [
                106.726185,
                20.8874
              ],
              [
                106.726185,
                20.8874
              ],
              [
                106.726125,
                20.887418
              ],
              [
                106.726298,
                20.887636
              ],
              [
                106.726438,
                20.887829
              ],
              [
                106.727051,
                20.888719
              ],
              [
                106.727546,
                20.889371
              ],
              [
                106.727696,
                20.889573
              ],
              [
                106.728142,
                20.88953
              ],
              [
                106.72816,
                20.88981
              ],
              [
                106.728212,
                20.8903
              ],
              [
                106.728206,
                20.890387
              ],
              [
                106.728013,
                20.890325
              ],
              [
                106.727858,
                20.890274
              ],
              [
                106.727286,
                20.890087
              ],
              [
                106.727193,
                20.890056
              ],
              [
                106.727077,
                20.890018
              ],
              [
                106.727067,
                20.890015
              ],
              [
                106.726805,
                20.890579
              ],
              [
                106.72678,
                20.890611
              ],
              [
                106.726758,
                20.890631
              ],
              [
                106.726758,
                20.890631
              ],
              [
                106.726729,
                20.89066
              ],
              [
                106.726705,
                20.890684
              ],
              [
                106.726685,
                20.890708
              ],
              [
                106.726658,
                20.890769
              ],
              [
                106.72665,
                20.890794
              ],
              [
                106.726635,
                20.890846
              ],
              [
                106.726628,
                20.89087
              ],
              [
                106.726617,
                20.890903
              ],
              [
                106.7266,
                20.890948
              ],
              [
                106.726578,
                20.891009
              ],
              [
                106.726537,
                20.8911
              ],
              [
                106.726487,
                20.891201
              ],
              [
                106.726436,
                20.891303
              ],
              [
                106.726388,
                20.891396
              ],
              [
                106.726346,
                20.891463
              ],
              [
                106.726308,
                20.891512
              ],
              [
                106.726307,
                20.891512
              ],
              [
                106.726268,
                20.891557
              ],
              [
                106.726221,
                20.891605
              ],
              [
                106.726221,
                20.891605
              ],
              [
                106.726161,
                20.891657
              ],
              [
                106.726161,
                20.891657
              ],
              [
                106.726094,
                20.891712
              ],
              [
                106.726094,
                20.891712
              ],
              [
                106.726027,
                20.891765
              ],
              [
                106.726027,
                20.891765
              ],
              [
                106.725961,
                20.891814
              ],
              [
                106.725961,
                20.891814
              ],
              [
                106.725897,
                20.891856
              ],
              [
                106.725897,
                20.891856
              ],
              [
                106.725832,
                20.891897
              ],
              [
                106.725832,
                20.891897
              ],
              [
                106.72577,
                20.89193
              ],
              [
                106.72577,
                20.89193
              ],
              [
                106.725707,
                20.891961
              ],
              [
                106.725707,
                20.891961
              ],
              [
                106.725443,
                20.892185
              ],
              [
                106.725332,
                20.892246
              ],
              [
                106.725332,
                20.892246
              ],
              [
                106.724925,
                20.892471
              ],
              [
                106.724925,
                20.892472
              ],
              [
                106.724397,
                20.892673
              ],
              [
                106.724396,
                20.892673
              ],
              [
                106.724005,
                20.892785
              ],
              [
                106.723994,
                20.892828
              ],
              [
                106.723964,
                20.892891
              ],
              [
                106.723932,
                20.89296
              ],
              [
                106.72393,
                20.892971
              ],
              [
                106.724196,
                20.89325
              ],
              [
                106.724377,
                20.893379
              ],
              [
                106.724441,
                20.893443
              ],
              [
                106.724557,
                20.893615
              ],
              [
                106.724671,
                20.893895
              ],
              [
                106.724745,
                20.894254
              ],
              [
                106.724745,
                20.894254
              ],
              [
                106.724156,
                20.89455
              ],
              [
                106.724156,
                20.89455
              ],
              [
                106.724094,
                20.894578
              ],
              [
                106.724094,
                20.894578
              ],
              [
                106.723292,
                20.894953
              ],
              [
                106.723292,
                20.894953
              ],
              [
                106.722486,
                20.89533
              ],
              [
                106.722423,
                20.895362
              ],
              [
                106.722423,
                20.895362
              ],
              [
                106.721893,
                20.89563
              ],
              [
                106.721893,
                20.89563
              ],
              [
                106.721856,
                20.895648
              ],
              [
                106.721568,
                20.895766
              ],
              [
                106.721234,
                20.895938
              ],
              [
                106.721234,
                20.895938
              ],
              [
                106.721189,
                20.895996
              ],
              [
                106.72115,
                20.896143
              ],
              [
                106.721035,
                20.896571
              ],
              [
                106.720911,
                20.897027
              ],
              [
                106.720874,
                20.897164
              ],
              [
                106.720852,
                20.897193
              ],
              [
                106.720852,
                20.897193
              ],
              [
                106.720956,
                20.897247
              ],
              [
                106.721282,
                20.897494
              ],
              [
                106.721617,
                20.897787
              ],
              [
                106.72182,
                20.897964
              ],
              [
                106.722267,
                20.898396
              ],
              [
                106.722573,
                20.898684
              ],
              [
                106.722608,
                20.898723
              ],
              [
                106.722852,
                20.898996
              ],
              [
                106.723029,
                20.899267
              ],
              [
                106.723184,
                20.899564
              ],
              [
                106.723228,
                20.899647
              ],
              [
                106.723345,
                20.899871
              ],
              [
                106.723499,
                20.900204
              ],
              [
                106.723792,
                20.900872
              ],
              [
                106.723858,
                20.901024
              ],
              [
                106.723688,
                20.901126
              ],
              [
                106.722986,
                20.901725
              ],
              [
                106.722363,
                20.902319
              ],
              [
                106.722363,
                20.902319
              ],
              [
                106.721736,
                20.902885
              ],
              [
                106.721736,
                20.902885
              ],
              [
                106.721064,
                20.903476
              ],
              [
                106.721064,
                20.903476
              ],
              [
                106.720422,
                20.904042
              ],
              [
                106.720422,
                20.904042
              ],
              [
                106.7204,
                20.904057
              ],
              [
                106.720379,
                20.904072
              ],
              [
                106.720379,
                20.904072
              ],
              [
                106.720126,
                20.904254
              ],
              [
                106.721411,
                20.904708
              ],
              [
                106.720971,
                20.906596
              ],
              [
                106.72066,
                20.907933
              ],
              [
                106.720068,
                20.910474
              ],
              [
                106.722927,
                20.911868
              ],
              [
                106.722923,
                20.912751
              ],
              [
                106.723754,
                20.9129
              ],
              [
                106.722957,
                20.915209
              ],
              [
                106.722907,
                20.915327
              ],
              [
                106.722819,
                20.915536
              ],
              [
                106.722586,
                20.916064
              ],
              [
                106.722575,
                20.916098
              ],
              [
                106.722374,
                20.916707
              ],
              [
                106.722322,
                20.916729
              ],
              [
                106.722294,
                20.916727
              ],
              [
                106.722087,
                20.917084
              ],
              [
                106.721673,
                20.918013
              ],
              [
                106.722033,
                20.91814
              ],
              [
                106.722105,
                20.918166
              ],
              [
                106.722115,
                20.918216
              ],
              [
                106.722126,
                20.91822
              ],
              [
                106.722132,
                20.918232
              ],
              [
                106.722092,
                20.918313
              ],
              [
                106.722004,
                20.91848
              ],
              [
                106.721993,
                20.918497
              ],
              [
                106.721986,
                20.918497
              ],
              [
                106.721887,
                20.918636
              ],
              [
                106.721874,
                20.91868
              ],
              [
                106.72176,
                20.918913
              ],
              [
                106.72181,
                20.918931
              ],
              [
                106.721721,
                20.919222
              ],
              [
                106.721663,
                20.919221
              ],
              [
                106.721646,
                20.919279
              ],
              [
                106.721672,
                20.919311
              ],
              [
                106.721668,
                20.919375
              ],
              [
                106.722275,
                20.919535
              ],
              [
                106.722933,
                20.919707
              ],
              [
                106.723105,
                20.919751
              ],
              [
                106.723132,
                20.919775
              ],
              [
                106.723122,
                20.919845
              ],
              [
                106.722853,
                20.920693
              ],
              [
                106.722837,
                20.920832
              ],
              [
                106.722873,
                20.920874
              ],
              [
                106.722966,
                20.920926
              ],
              [
                106.723481,
                20.921177
              ],
              [
                106.723483,
                20.921186
              ],
              [
                106.723547,
                20.921198
              ],
              [
                106.723178,
                20.921666
              ],
              [
                106.722335,
                20.922709
              ],
              [
                106.722068,
                20.923044
              ],
              [
                106.722068,
                20.923044
              ],
              [
                106.722953,
                20.923424
              ],
              [
                106.723241,
                20.923564
              ],
              [
                106.723491,
                20.923684
              ],
              [
                106.723613,
                20.923725
              ],
              [
                106.724492,
                20.923969
              ],
              [
                106.724506,
                20.924036
              ],
              [
                106.724542,
                20.92422
              ],
              [
                106.724742,
                20.924722
              ],
              [
                106.72475,
                20.924742
              ],
              [
                106.724754,
                20.924749
              ],
              [
                106.725053,
                20.925266
              ],
              [
                106.725161,
                20.925454
              ],
              [
                106.725182,
                20.92549
              ],
              [
                106.725209,
                20.925551
              ],
              [
                106.725443,
                20.926089
              ],
              [
                106.725508,
                20.92624
              ],
              [
                106.725566,
                20.926456
              ],
              [
                106.725637,
                20.926723
              ],
              [
                106.725742,
                20.927115
              ],
              [
                106.725921,
                20.92776
              ],
              [
                106.725986,
                20.927996
              ],
              [
                106.726086,
                20.928374
              ],
              [
                106.726195,
                20.9287
              ],
              [
                106.726344,
                20.929145
              ],
              [
                106.726475,
                20.929467
              ],
              [
                106.72652,
                20.929578
              ],
              [
                106.726681,
                20.929809
              ],
              [
                106.72679,
                20.929919
              ],
              [
                106.726819,
                20.929959
              ],
              [
                106.726883,
                20.930047
              ],
              [
                106.726933,
                20.93011
              ],
              [
                106.72696,
                20.930146
              ],
              [
                106.726969,
                20.930162
              ],
              [
                106.727137,
                20.930184
              ],
              [
                106.727207,
                20.930188
              ],
              [
                106.727242,
                20.930187
              ],
              [
                106.72727,
                20.930188
              ],
              [
                106.727281,
                20.930189
              ],
              [
                106.727746,
                20.9303
              ],
              [
                106.727835,
                20.930322
              ],
              [
                106.728084,
                20.930383
              ],
              [
                106.728325,
                20.930398
              ],
              [
                106.728327,
                20.930404
              ],
              [
                106.728363,
                20.930532
              ],
              [
                106.728476,
                20.930928
              ],
              [
                106.728452,
                20.931057
              ],
              [
                106.728374,
                20.931357
              ],
              [
                106.728335,
                20.931621
              ],
              [
                106.728306,
                20.931884
              ],
              [
                106.728325,
                20.932186
              ],
              [
                106.728366,
                20.93237
              ],
              [
                106.728407,
                20.932544
              ],
              [
                106.728463,
                20.932675
              ],
              [
                106.728563,
                20.932824
              ],
              [
                106.728607,
                20.932888
              ],
              [
                106.728632,
                20.93288
              ],
              [
                106.729484,
                20.932631
              ],
              [
                106.729909,
                20.932483
              ],
              [
                106.73046,
                20.932286
              ],
              [
                106.730987,
                20.932138
              ],
              [
                106.731344,
                20.932029
              ],
              [
                106.731477,
                20.932013
              ],
              [
                106.731682,
                20.932004
              ],
              [
                106.731803,
                20.931972
              ],
              [
                106.731819,
                20.931985
              ],
              [
                106.73199,
                20.932283
              ],
              [
                106.732414,
                20.932938
              ],
              [
                106.732498,
                20.933129
              ],
              [
                106.732532,
                20.933292
              ],
              [
                106.732566,
                20.933724
              ],
              [
                106.732596,
                20.934085
              ],
              [
                106.732623,
                20.934073
              ],
              [
                106.732808,
                20.93394
              ],
              [
                106.733028,
                20.933853
              ],
              [
                106.733069,
                20.933859
              ],
              [
                106.733567,
                20.933644
              ],
              [
                106.733658,
                20.933579
              ],
              [
                106.733994,
                20.933453
              ],
              [
                106.734281,
                20.933369
              ],
              [
                106.734401,
                20.933333
              ],
              [
                106.73438,
                20.933512
              ],
              [
                106.734455,
                20.934075
              ],
              [
                106.734584,
                20.934804
              ],
              [
                106.734692,
                20.935157
              ],
              [
                106.73484,
                20.935618
              ],
              [
                106.734917,
                20.935595
              ],
              [
                106.735461,
                20.935437
              ],
              [
                106.735937,
                20.93526
              ],
              [
                106.736045,
                20.935169
              ],
              [
                106.736272,
                20.935534
              ],
              [
                106.73645,
                20.93587
              ],
              [
                106.736646,
                20.936106
              ],
              [
                106.736861,
                20.936318
              ],
              [
                106.737072,
                20.936502
              ],
              [
                106.738123,
                20.937304
              ],
              [
                106.739281,
                20.938123
              ],
              [
                106.740093,
                20.93884
              ],
              [
                106.740249,
                20.938983
              ],
              [
                106.740355,
                20.939
              ],
              [
                106.740478,
                20.938947
              ],
              [
                106.740683,
                20.939857
              ],
              [
                106.740902,
                20.940924
              ],
              [
                106.740969,
                20.940992
              ],
              [
                106.741128,
                20.940982
              ],
              [
                106.741667,
                20.940944
              ],
              [
                106.741737,
                20.940941
              ],
              [
                106.743605,
                20.940898
              ],
              [
                106.74368,
                20.940897
              ],
              [
                106.743747,
                20.941678
              ],
              [
                106.743834,
                20.942591
              ],
              [
                106.743839,
                20.94265
              ],
              [
                106.74388,
                20.943122
              ],
              [
                106.743907,
                20.943442
              ],
              [
                106.743931,
                20.943689
              ],
              [
                106.744004,
                20.944453
              ],
              [
                106.744009,
                20.944501
              ],
              [
                106.744017,
                20.944638
              ],
              [
                106.744066,
                20.945442
              ],
              [
                106.744075,
                20.945601
              ],
              [
                106.744097,
                20.946026
              ],
              [
                106.744118,
                20.946247
              ],
              [
                106.744126,
                20.946615
              ],
              [
                106.744163,
                20.948472
              ],
              [
                106.746994,
                20.948594
              ],
              [
                106.748369,
                20.948592
              ],
              [
                106.749146,
                20.948463
              ],
              [
                106.750201,
                20.948134
              ],
              [
                106.751871,
                20.94774
              ],
              [
                106.755096,
                20.946956
              ],
              [
                106.766018,
                20.943664
              ],
              [
                106.770528,
                20.942027
              ],
              [
                106.770534,
                20.94148
              ],
              [
                106.770534,
                20.94148
              ]
            ]
          ]
        ]
      },
      "properties": {
        "code": "11542",
        "name": "Nam Triệu",
        "nameEn": "Nam Trieu",
        "fullName": "Phường Nam Triệu",
        "fullNameEn": "Nam Trieu Ward",
        "codeName": "nam_trieu",
        "postalCode": "04345",
        "postalCodePrefix": "",
        "gisServerId": "diaphanhanhchinhcapxa_2025.927",
        "areaKm2": 29.51
      }
    }
  ]
}