{
  "type": "FeatureCollection",
  "bbox": [
    106.649703,
    20.848523,
    106.766027,
    20.933531
  ],
  "features": [
    {
      "type": "Feature",
      "id": "11560",
      "bbox": [
        106.649703,
        20.848523,
        106.766027,
        20.933531
      ],
      "geometry": {
        "type": "MultiPolygon",
        "coordinates": [
          [
            [
              [
                106.674821,
                20.933215
              ],
              [
                106.675002,
                20.933201
              ],
              [
                106.675205,
                20.933229
              ],
              [
                106.67562,
                20.933309
              ],
              [
                106.675992,
                20.933374
              ],
              [
                106.676381,
                20.933377
              ],
              [
                106.676567,
                20.933363
              ],
              [
                106.676683,
                20.933317
              ],
              [
                106.6767,
                20.933302
              ],
              [
                106.676856,
                20.933157
              ],
              [
                106.676853,
                20.933109
              ],
              [
                106.676847,
                20.932968
              ],
              [
                106.676844,
                20.932899
              ],
              [
                106.676837,
                20.932762
              ],
              [
                106.677148,
                20.93275
              ],
              [
                106.677378,
                20.932741
              ],
              [
                106.677543,
                20.932191
              ],
              [
                106.6776,
                20.93211
              ],
              [
                106.677658,
                20.932029
              ],
              [
                106.677951,
                20.932056
              ],
              [
                106.678046,
                20.931869
              ],
              [
                106.678186,
                20.931895
              ],
              [
                106.678372,
                20.931939
              ],
              [
                106.678392,
                20.931828
              ],
              [
                106.678396,
                20.93183
              ],
              [
                106.679548,
                20.932221
              ],
              [
                106.680549,
                20.933285
              ],
              [
                106.680786,
                20.932247
              ],
              [
                106.681407,
                20.930923
              ],
              [
                106.68028,
                20.93066
              ],
              [
                106.680629,
                20.929896
              ],
              [
                106.680978,
                20.929132
              ],
              [
                106.681266,
                20.929206
              ],
              [
                106.681563,
                20.928538
              ],
              [
                106.681728,
                20.928288
              ],
              [
                106.681734,
                20.92829
              ],
              [
                106.681841,
                20.928312
              ],
              [
                106.682178,
                20.927705
              ],
              [
                106.682182,
                20.927701
              ],
              [
                106.68237,
                20.927804
              ],
              [
                106.682815,
                20.928026
              ],
              [
                106.682835,
                20.928036
              ],
              [
                106.682922,
                20.928062
              ],
              [
                106.682982,
                20.928067
              ],
              [
                106.683048,
                20.92803
              ],
              [
                106.683353,
                20.927749
              ],
              [
                106.683552,
                20.927585
              ],
              [
                106.683579,
                20.92757
              ],
              [
                106.683629,
                20.927601
              ],
              [
                106.68373,
                20.927577
              ],
              [
                106.684057,
                20.927445
              ],
              [
                106.684193,
                20.927347
              ],
              [
                106.684275,
                20.927239
              ],
              [
                106.684305,
                20.927255
              ],
              [
                106.684602,
                20.927409
              ],
              [
                106.684967,
                20.927599
              ],
              [
                106.685067,
                20.927654
              ],
              [
                106.685089,
                20.927667
              ],
              [
                106.685104,
                20.927731
              ],
              [
                106.685085,
                20.927872
              ],
              [
                106.68507,
                20.927981
              ],
              [
                106.685051,
                20.928061
              ],
              [
                106.684969,
                20.928404
              ],
              [
                106.684888,
                20.928744
              ],
              [
                106.684899,
                20.928744
              ],
              [
                106.68493,
                20.928745
              ],
              [
                106.685214,
                20.928821
              ],
              [
                106.685382,
                20.928866
              ],
              [
                106.685665,
                20.928942
              ],
              [
                106.686774,
                20.929217
              ],
              [
                106.687194,
                20.929325
              ],
              [
                106.687487,
                20.929425
              ],
              [
                106.687629,
                20.929501
              ],
              [
                106.687698,
                20.929534
              ],
              [
                106.687761,
                20.929564
              ],
              [
                106.687827,
                20.92957
              ],
              [
                106.687881,
                20.929602
              ],
              [
                106.687918,
                20.929638
              ],
              [
                106.688351,
                20.92919
              ],
              [
                106.68796,
                20.928288
              ],
              [
                106.688449,
                20.927621
              ],
              [
                106.688603,
                20.927665
              ],
              [
                106.689319,
                20.927877
              ],
              [
                106.690041,
                20.928094
              ],
              [
                106.690269,
                20.928163
              ],
              [
                106.690461,
                20.928234
              ],
              [
                106.690872,
                20.928502
              ],
              [
                106.69091,
                20.928527
              ],
              [
                106.690942,
                20.928548
              ],
              [
                106.691926,
                20.92884
              ],
              [
                106.692785,
                20.929083
              ],
              [
                106.69325,
                20.929197
              ],
              [
                106.693248,
                20.928642
              ],
              [
                106.693192,
                20.928163
              ],
              [
                106.693126,
                20.927375
              ],
              [
                106.692979,
                20.926838
              ],
              [
                106.69287,
                20.926422
              ],
              [
                106.692865,
                20.926051
              ],
              [
                106.692768,
                20.925158
              ],
              [
                106.692879,
                20.924976
              ],
              [
                106.693029,
                20.924723
              ],
              [
                106.693281,
                20.924565
              ],
              [
                106.693611,
                20.924466
              ],
              [
                106.694041,
                20.924295
              ],
              [
                106.694421,
                20.924088
              ],
              [
                106.694609,
                20.923883
              ],
              [
                106.694809,
                20.923546
              ],
              [
                106.694931,
                20.923115
              ],
              [
                106.695038,
                20.922421
              ],
              [
                106.69502,
                20.921967
              ],
              [
                106.694951,
                20.921454
              ],
              [
                106.694959,
                20.921119
              ],
              [
                106.695053,
                20.920413
              ],
              [
                106.695274,
                20.919718
              ],
              [
                106.695572,
                20.919082
              ],
              [
                106.695756,
                20.918423
              ],
              [
                106.695985,
                20.917321
              ],
              [
                106.696264,
                20.916147
              ],
              [
                106.696332,
                20.915297
              ],
              [
                106.696247,
                20.91457
              ],
              [
                106.696038,
                20.914082
              ],
              [
                106.695675,
                20.9135
              ],
              [
                106.695365,
                20.913073
              ],
              [
                106.695066,
                20.91249
              ],
              [
                106.694923,
                20.912193
              ],
              [
                106.694894,
                20.911907
              ],
              [
                106.695028,
                20.911415
              ],
              [
                106.695165,
                20.911139
              ],
              [
                106.695347,
                20.910384
              ],
              [
                106.69533,
                20.909978
              ],
              [
                106.695135,
                20.909622
              ],
              [
                106.69471,
                20.909136
              ],
              [
                106.694618,
                20.908838
              ],
              [
                106.694615,
                20.908583
              ],
              [
                106.694614,
                20.908468
              ],
              [
                106.694675,
                20.908216
              ],
              [
                106.694896,
                20.907545
              ],
              [
                106.695067,
                20.906898
              ],
              [
                106.69509,
                20.906812
              ],
              [
                106.695132,
                20.906653
              ],
              [
                106.69525,
                20.906215
              ],
              [
                106.695306,
                20.905581
              ],
              [
                106.69553,
                20.90457
              ],
              [
                106.69557,
                20.904389
              ],
              [
                106.695876,
                20.904389
              ],
              [
                106.697143,
                20.904388
              ],
              [
                106.697315,
                20.904388
              ],
              [
                106.697525,
                20.904385
              ],
              [
                106.699396,
                20.904366
              ],
              [
                106.701933,
                20.904362
              ],
              [
                106.702437,
                20.904358
              ],
              [
                106.703218,
                20.904353
              ],
              [
                106.703474,
                20.904351
              ],
              [
                106.703529,
                20.90435
              ],
              [
                106.70616,
                20.904345
              ],
              [
                106.706799,
                20.90434
              ],
              [
                106.707621,
                20.904334
              ],
              [
                106.710753,
                20.904314
              ],
              [
                106.71134,
                20.904301
              ],
              [
                106.711667,
                20.904299
              ],
              [
                106.712811,
                20.904294
              ],
              [
                106.713404,
                20.904291
              ],
              [
                106.71425,
                20.904287
              ],
              [
                106.714254,
                20.904287
              ],
              [
                106.714675,
                20.904285
              ],
              [
                106.715863,
                20.904277
              ],
              [
                106.717216,
                20.904268
              ],
              [
                106.71778,
                20.904265
              ],
              [
                106.720126,
                20.904254
              ],
              [
                106.720379,
                20.904072
              ],
              [
                106.720379,
                20.904072
              ],
              [
                106.7204,
                20.904057
              ],
              [
                106.720422,
                20.904042
              ],
              [
                106.720422,
                20.904042
              ],
              [
                106.721064,
                20.903476
              ],
              [
                106.721064,
                20.903476
              ],
              [
                106.721736,
                20.902885
              ],
              [
                106.721736,
                20.902885
              ],
              [
                106.722363,
                20.902319
              ],
              [
                106.722363,
                20.902319
              ],
              [
                106.722986,
                20.901725
              ],
              [
                106.723688,
                20.901126
              ],
              [
                106.723858,
                20.901024
              ],
              [
                106.723792,
                20.900872
              ],
              [
                106.723499,
                20.900204
              ],
              [
                106.723345,
                20.899871
              ],
              [
                106.723228,
                20.899647
              ],
              [
                106.723184,
                20.899564
              ],
              [
                106.723029,
                20.899267
              ],
              [
                106.722852,
                20.898996
              ],
              [
                106.722608,
                20.898723
              ],
              [
                106.722573,
                20.898684
              ],
              [
                106.722267,
                20.898396
              ],
              [
                106.72182,
                20.897964
              ],
              [
                106.721617,
                20.897787
              ],
              [
                106.721282,
                20.897494
              ],
              [
                106.720956,
                20.897247
              ],
              [
                106.720852,
                20.897193
              ],
              [
                106.720852,
                20.897193
              ],
              [
                106.720874,
                20.897164
              ],
              [
                106.720911,
                20.897027
              ],
              [
                106.721035,
                20.896571
              ],
              [
                106.72115,
                20.896143
              ],
              [
                106.721189,
                20.895996
              ],
              [
                106.721234,
                20.895938
              ],
              [
                106.721234,
                20.895938
              ],
              [
                106.721568,
                20.895766
              ],
              [
                106.721856,
                20.895648
              ],
              [
                106.721893,
                20.89563
              ],
              [
                106.721893,
                20.89563
              ],
              [
                106.722423,
                20.895362
              ],
              [
                106.722423,
                20.895362
              ],
              [
                106.722486,
                20.89533
              ],
              [
                106.723292,
                20.894953
              ],
              [
                106.723292,
                20.894953
              ],
              [
                106.724094,
                20.894578
              ],
              [
                106.724094,
                20.894578
              ],
              [
                106.724156,
                20.89455
              ],
              [
                106.724156,
                20.89455
              ],
              [
                106.724745,
                20.894254
              ],
              [
                106.724745,
                20.894254
              ],
              [
                106.724671,
                20.893895
              ],
              [
                106.724557,
                20.893615
              ],
              [
                106.724441,
                20.893443
              ],
              [
                106.724377,
                20.893379
              ],
              [
                106.724196,
                20.89325
              ],
              [
                106.72393,
                20.892971
              ],
              [
                106.723932,
                20.89296
              ],
              [
                106.723964,
                20.892891
              ],
              [
                106.723994,
                20.892828
              ],
              [
                106.724005,
                20.892785
              ],
              [
                106.724396,
                20.892673
              ],
              [
                106.724397,
                20.892673
              ],
              [
                106.724925,
                20.892472
              ],
              [
                106.724925,
                20.892471
              ],
              [
                106.725332,
                20.892246
              ],
              [
                106.725332,
                20.892246
              ],
              [
                106.725443,
                20.892185
              ],
              [
                106.725707,
                20.891961
              ],
              [
                106.725707,
                20.891961
              ],
              [
                106.72577,
                20.89193
              ],
              [
                106.72577,
                20.89193
              ],
              [
                106.725832,
                20.891897
              ],
              [
                106.725832,
                20.891897
              ],
              [
                106.725897,
                20.891856
              ],
              [
                106.725897,
                20.891856
              ],
              [
                106.725961,
                20.891814
              ],
              [
                106.725961,
                20.891814
              ],
              [
                106.726027,
                20.891765
              ],
              [
                106.726027,
                20.891765
              ],
              [
                106.726094,
                20.891712
              ],
              [
                106.726094,
                20.891712
              ],
              [
                106.726161,
                20.891657
              ],
              [
                106.726161,
                20.891657
              ],
              [
                106.726221,
                20.891605
              ],
              [
                106.726221,
                20.891605
              ],
              [
                106.726268,
                20.891557
              ],
              [
                106.726307,
                20.891512
              ],
              [
                106.726308,
                20.891512
              ],
              [
                106.726346,
                20.891463
              ],
              [
                106.726388,
                20.891396
              ],
              [
                106.726436,
                20.891303
              ],
              [
                106.726487,
                20.891201
              ],
              [
                106.726537,
                20.8911
              ],
              [
                106.726578,
                20.891009
              ],
              [
                106.7266,
                20.890948
              ],
              [
                106.726617,
                20.890903
              ],
              [
                106.726628,
                20.89087
              ],
              [
                106.726635,
                20.890846
              ],
              [
                106.72665,
                20.890794
              ],
              [
                106.726658,
                20.890769
              ],
              [
                106.726685,
                20.890708
              ],
              [
                106.726705,
                20.890684
              ],
              [
                106.726729,
                20.89066
              ],
              [
                106.726758,
                20.890631
              ],
              [
                106.726758,
                20.890631
              ],
              [
                106.72678,
                20.890611
              ],
              [
                106.726805,
                20.890579
              ],
              [
                106.727067,
                20.890015
              ],
              [
                106.727077,
                20.890018
              ],
              [
                106.727193,
                20.890056
              ],
              [
                106.727286,
                20.890087
              ],
              [
                106.727858,
                20.890274
              ],
              [
                106.728013,
                20.890325
              ],
              [
                106.728206,
                20.890387
              ],
              [
                106.728212,
                20.8903
              ],
              [
                106.72816,
                20.88981
              ],
              [
                106.728142,
                20.88953
              ],
              [
                106.727696,
                20.889573
              ],
              [
                106.727546,
                20.889371
              ],
              [
                106.727051,
                20.888719
              ],
              [
                106.726438,
                20.887829
              ],
              [
                106.726298,
                20.887636
              ],
              [
                106.726125,
                20.887418
              ],
              [
                106.726185,
                20.8874
              ],
              [
                106.726185,
                20.8874
              ],
              [
                106.726962,
                20.887162
              ],
              [
                106.726619,
                20.886468
              ],
              [
                106.726621,
                20.886464
              ],
              [
                106.72668,
                20.88633
              ],
              [
                106.72668,
                20.88633
              ],
              [
                106.726815,
                20.886299
              ],
              [
                106.726956,
                20.886278
              ],
              [
                106.727005,
                20.886238
              ],
              [
                106.727332,
                20.885372
              ],
              [
                106.727422,
                20.885133
              ],
              [
                106.727553,
                20.885226
              ],
              [
                106.727553,
                20.885227
              ],
              [
                106.727574,
                20.885178
              ],
              [
                106.727681,
                20.884899
              ],
              [
                106.727863,
                20.884427
              ],
              [
                106.728678,
                20.885174
              ],
              [
                106.729642,
                20.88573
              ],
              [
                106.730244,
                20.885966
              ],
              [
                106.730812,
                20.886114
              ],
              [
                106.731168,
                20.886139
              ],
              [
                106.732114,
                20.886053
              ],
              [
                106.732655,
                20.885976
              ],
              [
                106.732655,
                20.885976
              ],
              [
                106.733238,
                20.885733
              ],
              [
                106.733238,
                20.885733
              ],
              [
                106.733853,
                20.885402
              ],
              [
                106.733853,
                20.885402
              ],
              [
                106.734637,
                20.884838
              ],
              [
                106.734637,
                20.884838
              ],
              [
                106.735035,
                20.884523
              ],
              [
                106.735073,
                20.884465
              ],
              [
                106.735109,
                20.884398
              ],
              [
                106.735153,
                20.88432
              ],
              [
                106.73523,
                20.884198
              ],
              [
                106.735323,
                20.884047
              ],
              [
                106.735406,
                20.883904
              ],
              [
                106.735487,
                20.883758
              ],
              [
                106.735574,
                20.883596
              ],
              [
                106.735643,
                20.883461
              ],
              [
                106.735694,
                20.883378
              ],
              [
                106.735734,
                20.883302
              ],
              [
                106.735745,
                20.88322
              ],
              [
                106.735745,
                20.883163
              ],
              [
                106.735761,
                20.883102
              ],
              [
                106.735791,
                20.883021
              ],
              [
                106.735821,
                20.882961
              ],
              [
                106.735868,
                20.882901
              ],
              [
                106.735935,
                20.882793
              ],
              [
                106.735978,
                20.882655
              ],
              [
                106.735995,
                20.882542
              ],
              [
                106.736002,
                20.882479
              ],
              [
                106.736009,
                20.882424
              ],
              [
                106.736022,
                20.882354
              ],
              [
                106.736034,
                20.882302
              ],
              [
                106.736043,
                20.882269
              ],
              [
                106.736052,
                20.882235
              ],
              [
                106.736058,
                20.882198
              ],
              [
                106.736062,
                20.882159
              ],
              [
                106.736065,
                20.88212
              ],
              [
                106.73607,
                20.882076
              ],
              [
                106.736074,
                20.88203
              ],
              [
                106.736079,
                20.881974
              ],
              [
                106.73609,
                20.881884
              ],
              [
                106.736108,
                20.881761
              ],
              [
                106.736124,
                20.881668
              ],
              [
                106.736136,
                20.881609
              ],
              [
                106.736151,
                20.881516
              ],
              [
                106.736169,
                20.881341
              ],
              [
                106.736181,
                20.881133
              ],
              [
                106.736187,
                20.880954
              ],
              [
                106.736191,
                20.880773
              ],
              [
                106.736195,
                20.880546
              ],
              [
                106.736199,
                20.880298
              ],
              [
                106.736201,
                20.880054
              ],
              [
                106.736201,
                20.879808
              ],
              [
                106.736197,
                20.879542
              ],
              [
                106.736187,
                20.879237
              ],
              [
                106.736175,
                20.878908
              ],
              [
                106.736163,
                20.87859
              ],
              [
                106.736156,
                20.878352
              ],
              [
                106.736156,
                20.87834
              ],
              [
                106.736154,
                20.878243
              ],
              [
                106.736155,
                20.878204
              ],
              [
                106.736155,
                20.87817
              ],
              [
                106.736152,
                20.878132
              ],
              [
                106.736147,
                20.878089
              ],
              [
                106.736143,
                20.878037
              ],
              [
                106.736141,
                20.877985
              ],
              [
                106.73614,
                20.87794
              ],
              [
                106.736143,
                20.877887
              ],
              [
                106.736153,
                20.877806
              ],
              [
                106.736171,
                20.877709
              ],
              [
                106.736187,
                20.877619
              ],
              [
                106.736203,
                20.87753
              ],
              [
                106.736223,
                20.877439
              ],
              [
                106.736238,
                20.877364
              ],
              [
                106.73625,
                20.877302
              ],
              [
                106.736265,
                20.877238
              ],
              [
                106.736286,
                20.877166
              ],
              [
                106.736317,
                20.877077
              ],
              [
                106.736355,
                20.876976
              ],
              [
                106.736391,
                20.876879
              ],
              [
                106.736428,
                20.876782
              ],
              [
                106.736469,
                20.876679
              ],
              [
                106.736507,
                20.876584
              ],
              [
                106.736545,
                20.876499
              ],
              [
                106.736585,
                20.876414
              ],
              [
                106.736626,
                20.87633
              ],
              [
                106.736665,
                20.876251
              ],
              [
                106.736697,
                20.87618
              ],
              [
                106.73673,
                20.876112
              ],
              [
                106.736769,
                20.87604
              ],
              [
                106.73681,
                20.875964
              ],
              [
                106.73685,
                20.875888
              ],
              [
                106.736883,
                20.875823
              ],
              [
                106.736907,
                20.875778
              ],
              [
                106.736934,
                20.87574
              ],
              [
                106.736973,
                20.875692
              ],
              [
                106.737025,
                20.875633
              ],
              [
                106.737084,
                20.875572
              ],
              [
                106.737155,
                20.875506
              ],
              [
                106.737231,
                20.875436
              ],
              [
                106.73731,
                20.87537
              ],
              [
                106.737391,
                20.875308
              ],
              [
                106.737475,
                20.875246
              ],
              [
                106.737549,
                20.875193
              ],
              [
                106.737622,
                20.875144
              ],
              [
                106.737703,
                20.875091
              ],
              [
                106.737784,
                20.875043
              ],
              [
                106.737866,
                20.875001
              ],
              [
                106.73795,
                20.87496
              ],
              [
                106.738036,
                20.874919
              ],
              [
                106.738122,
                20.87488
              ],
              [
                106.73821,
                20.874844
              ],
              [
                106.738293,
                20.874813
              ],
              [
                106.738377,
                20.874783
              ],
              [
                106.738472,
                20.87475
              ],
              [
                106.738579,
                20.874718
              ],
              [
                106.738688,
                20.874688
              ],
              [
                106.73876,
                20.874669
              ],
              [
                106.738955,
                20.874613
              ],
              [
                106.739065,
                20.874631
              ],
              [
                106.739096,
                20.874636
              ],
              [
                106.739128,
                20.874641
              ],
              [
                106.73917,
                20.874642
              ],
              [
                106.739237,
                20.874637
              ],
              [
                106.739311,
                20.874631
              ],
              [
                106.739388,
                20.874625
              ],
              [
                106.73946,
                20.874621
              ],
              [
                106.739534,
                20.87462
              ],
              [
                106.739614,
                20.87462
              ],
              [
                106.739697,
                20.874619
              ],
              [
                106.739786,
                20.874622
              ],
              [
                106.73988,
                20.874627
              ],
              [
                106.739968,
                20.874634
              ],
              [
                106.74006,
                20.874642
              ],
              [
                106.740178,
                20.874656
              ],
              [
                106.740319,
                20.874677
              ],
              [
                106.740468,
                20.874698
              ],
              [
                106.740555,
                20.874711
              ],
              [
                106.740558,
                20.874711
              ],
              [
                106.740614,
                20.87472
              ],
              [
                106.740737,
                20.874738
              ],
              [
                106.74082,
                20.874748
              ],
              [
                106.740884,
                20.874745
              ],
              [
                106.740958,
                20.874753
              ],
              [
                106.741033,
                20.874796
              ],
              [
                106.741112,
                20.874844
              ],
              [
                106.741223,
                20.874895
              ],
              [
                106.74137,
                20.874959
              ],
              [
                106.741521,
                20.875029
              ],
              [
                106.74169,
                20.875111
              ],
              [
                106.741849,
                20.875186
              ],
              [
                106.741944,
                20.875229
              ],
              [
                106.742019,
                20.875267
              ],
              [
                106.742109,
                20.875313
              ],
              [
                106.74218,
                20.875341
              ],
              [
                106.74226,
                20.875362
              ],
              [
                106.742386,
                20.875419
              ],
              [
                106.742533,
                20.875534
              ],
              [
                106.74269,
                20.875669
              ],
              [
                106.74282,
                20.875772
              ],
              [
                106.742878,
                20.875823
              ],
              [
                106.742893,
                20.875842
              ],
              [
                106.742903,
                20.875855
              ],
              [
                106.74293,
                20.875878
              ],
              [
                106.74301,
                20.875937
              ],
              [
                106.743172,
                20.876055
              ],
              [
                106.74338,
                20.876213
              ],
              [
                106.743567,
                20.876361
              ],
              [
                106.743698,
                20.876467
              ],
              [
                106.743822,
                20.87657
              ],
              [
                106.743974,
                20.876697
              ],
              [
                106.744113,
                20.876813
              ],
              [
                106.74424,
                20.876922
              ],
              [
                106.744404,
                20.877058
              ],
              [
                106.744597,
                20.877216
              ],
              [
                106.744743,
                20.877337
              ],
              [
                106.744822,
                20.877401
              ],
              [
                106.744882,
                20.877442
              ],
              [
                106.744991,
                20.87751
              ],
              [
                106.745194,
                20.877645
              ],
              [
                106.745454,
                20.877823
              ],
              [
                106.745696,
                20.877982
              ],
              [
                106.745899,
                20.878107
              ],
              [
                106.746083,
                20.878215
              ],
              [
                106.746265,
                20.87832
              ],
              [
                106.746454,
                20.878422
              ],
              [
                106.746634,
                20.878512
              ],
              [
                106.746788,
                20.878583
              ],
              [
                106.746934,
                20.878649
              ],
              [
                106.747072,
                20.878713
              ],
              [
                106.747166,
                20.878757
              ],
              [
                106.747232,
                20.878783
              ],
              [
                106.747316,
                20.878808
              ],
              [
                106.747455,
                20.878844
              ],
              [
                106.747631,
                20.878887
              ],
              [
                106.747791,
                20.878925
              ],
              [
                106.747947,
                20.878959
              ],
              [
                106.748116,
                20.878994
              ],
              [
                106.748264,
                20.879021
              ],
              [
                106.748407,
                20.879044
              ],
              [
                106.748559,
                20.879068
              ],
              [
                106.748672,
                20.879084
              ],
              [
                106.748741,
                20.879091
              ],
              [
                106.748827,
                20.879102
              ],
              [
                106.748953,
                20.879118
              ],
              [
                106.749066,
                20.879127
              ],
              [
                106.749155,
                20.879129
              ],
              [
                106.74924,
                20.879134
              ],
              [
                106.749309,
                20.879137
              ],
              [
                106.749351,
                20.879134
              ],
              [
                106.749395,
                20.879123
              ],
              [
                106.749483,
                20.879109
              ],
              [
                106.749605,
                20.879097
              ],
              [
                106.750833,
                20.87896
              ],
              [
                106.751871,
                20.878611
              ],
              [
                106.753072,
                20.87835
              ],
              [
                106.753087,
                20.878284
              ],
              [
                106.753119,
                20.878144
              ],
              [
                106.753548,
                20.876292
              ],
              [
                106.754287,
                20.874002
              ],
              [
                106.755396,
                20.87012
              ],
              [
                106.756642,
                20.865528
              ],
              [
                106.758362,
                20.861491
              ],
              [
                106.758403,
                20.8614
              ],
              [
                106.761085,
                20.855586
              ],
              [
                106.762442,
                20.853455
              ],
              [
                106.763569,
                20.851685
              ],
              [
                106.763584,
                20.851665
              ],
              [
                106.764643,
                20.850332
              ],
              [
                106.764751,
                20.850195
              ],
              [
                106.766027,
                20.848589
              ],
              [
                106.76213,
                20.848523
              ],
              [
                106.759255,
                20.848634
              ],
              [
                106.751886,
                20.851134
              ],
              [
                106.74655,
                20.853434
              ],
              [
                106.734977,
                20.85816
              ],
              [
                106.731504,
                20.859985
              ],
              [
                106.725575,
                20.864431
              ],
              [
                106.725072,
                20.864808
              ],
              [
                106.723734,
                20.865913
              ],
              [
                106.723142,
                20.866435
              ],
              [
                106.72229,
                20.867188
              ],
              [
                106.722264,
                20.867213
              ],
              [
                106.721741,
                20.867715
              ],
              [
                106.7201,
                20.8693
              ],
              [
                106.718535,
                20.870766
              ],
              [
                106.717079,
                20.871959
              ],
              [
                106.71483,
                20.87393
              ],
              [
                106.714747,
                20.874002
              ],
              [
                106.714744,
                20.874005
              ],
              [
                106.714743,
                20.874006
              ],
              [
                106.713768,
                20.874726
              ],
              [
                106.71266,
                20.875544
              ],
              [
                106.710544,
                20.876279
              ],
              [
                106.708875,
                20.87698
              ],
              [
                106.707013,
                20.877399
              ],
              [
                106.706458,
                20.877403
              ],
              [
                106.705441,
                20.877411
              ],
              [
                106.704697,
                20.877416
              ],
              [
                106.70378,
                20.877179
              ],
              [
                106.703482,
                20.877035
              ],
              [
                106.70096,
                20.875816
              ],
              [
                106.698857,
                20.874741
              ],
              [
                106.697523,
                20.874004
              ],
              [
                106.69752,
                20.874002
              ],
              [
                106.69752,
                20.874002
              ],
              [
                106.697358,
                20.87393
              ],
              [
                106.695798,
                20.873234
              ],
              [
                106.695284,
                20.872913
              ],
              [
                106.695158,
                20.872835
              ],
              [
                106.693524,
                20.871817
              ],
              [
                106.691606,
                20.870772
              ],
              [
                106.690352,
                20.870103
              ],
              [
                106.688109,
                20.869166
              ],
              [
                106.685902,
                20.868313
              ],
              [
                106.685502,
                20.868198
              ],
              [
                106.684264,
                20.867841
              ],
              [
                106.683317,
                20.867682
              ],
              [
                106.682812,
                20.867598
              ],
              [
                106.681535,
                20.86749
              ],
              [
                106.681381,
                20.867477
              ],
              [
                106.681285,
                20.867469
              ],
              [
                106.68126,
                20.867468
              ],
              [
                106.681227,
                20.867466
              ],
              [
                106.679601,
                20.867385
              ],
              [
                106.678596,
                20.867567
              ],
              [
                106.678596,
                20.867567
              ],
              [
                106.67831,
                20.867648
              ],
              [
                106.676854,
                20.868058
              ],
              [
                106.676854,
                20.868058
              ],
              [
                106.675295,
                20.868856
              ],
              [
                106.675295,
                20.868856
              ],
              [
                106.674022,
                20.869614
              ],
              [
                106.674022,
                20.869614
              ],
              [
                106.672633,
                20.87094
              ],
              [
                106.672633,
                20.87094
              ],
              [
                106.670587,
                20.87312
              ],
              [
                106.670587,
                20.87312
              ],
              [
                106.669604,
                20.873896
              ],
              [
                106.669604,
                20.873896
              ],
              [
                106.669443,
                20.874004
              ],
              [
                106.669443,
                20.874004
              ],
              [
                106.669257,
                20.874129
              ],
              [
                106.669257,
                20.874129
              ],
              [
                106.668508,
                20.874632
              ],
              [
                106.668507,
                20.874632
              ],
              [
                106.667614,
                20.875241
              ],
              [
                106.667614,
                20.875242
              ],
              [
                106.66756,
                20.875274
              ],
              [
                106.66756,
                20.875275
              ],
              [
                106.667275,
                20.875447
              ],
              [
                106.667275,
                20.875447
              ],
              [
                106.666261,
                20.876061
              ],
              [
                106.666223,
                20.876084
              ],
              [
                106.666223,
                20.876084
              ],
              [
                106.666183,
                20.876108
              ],
              [
                106.666183,
                20.876108
              ],
              [
                106.665844,
                20.876313
              ],
              [
                106.665844,
                20.876313
              ],
              [
                106.664979,
                20.876837
              ],
              [
                106.664979,
                20.876837
              ],
              [
                106.664963,
                20.876844
              ],
              [
                106.664948,
                20.876851
              ],
              [
                106.664948,
                20.876851
              ],
              [
                106.663383,
                20.877593
              ],
              [
                106.663383,
                20.877593
              ],
              [
                106.662321,
                20.878096
              ],
              [
                106.662321,
                20.878096
              ],
              [
                106.662184,
                20.878158
              ],
              [
                106.662184,
                20.878158
              ],
              [
                106.662034,
                20.878227
              ],
              [
                106.662034,
                20.878228
              ],
              [
                106.661409,
                20.878514
              ],
              [
                106.661409,
                20.878514
              ],
              [
                106.659435,
                20.87942
              ],
              [
                106.659435,
                20.87942
              ],
              [
                106.65892,
                20.879657
              ],
              [
                106.65892,
                20.879657
              ],
              [
                106.656996,
                20.88017
              ],
              [
                106.656996,
                20.88017
              ],
              [
                106.656813,
                20.88022
              ],
              [
                106.656813,
                20.88022
              ],
              [
                106.656024,
                20.88043
              ],
              [
                106.656024,
                20.88043
              ],
              [
                106.655377,
                20.88055
              ],
              [
                106.655377,
                20.88055
              ],
              [
                106.655124,
                20.880597
              ],
              [
                106.654096,
                20.880787
              ],
              [
                106.654096,
                20.880787
              ],
              [
                106.653227,
                20.880837
              ],
              [
                106.651763,
                20.880921
              ],
              [
                106.651763,
                20.880921
              ],
              [
                106.651448,
                20.880939
              ],
              [
                106.65125,
                20.880935
              ],
              [
                106.650871,
                20.880926
              ],
              [
                106.6508,
                20.880924
              ],
              [
                106.650566,
                20.880919
              ],
              [
                106.650314,
                20.880913
              ],
              [
                106.650307,
                20.880913
              ],
              [
                106.650059,
                20.880908
              ],
              [
                106.650469,
                20.882525
              ],
              [
                106.651304,
                20.884367
              ],
              [
                106.651708,
                20.888336
              ],
              [
                106.654738,
                20.888259
              ],
              [
                106.655503,
                20.891498
              ],
              [
                106.656583,
                20.891316
              ],
              [
                106.656912,
                20.893554
              ],
              [
                106.655958,
                20.894139
              ],
              [
                106.656827,
                20.904993
              ],
              [
                106.663526,
                20.905225
              ],
              [
                106.667432,
                20.905361
              ],
              [
                106.671338,
                20.905496
              ],
              [
                106.670481,
                20.907444
              ],
              [
                106.668306,
                20.909292
              ],
              [
                106.663369,
                20.911926
              ],
              [
                106.663446,
                20.91209
              ],
              [
                106.66271,
                20.912354
              ],
              [
                106.661879,
                20.912821
              ],
              [
                106.660538,
                20.913885
              ],
              [
                106.660306,
                20.914185
              ],
              [
                106.660255,
                20.914339
              ],
              [
                106.660235,
                20.914399
              ],
              [
                106.660233,
                20.914722
              ],
              [
                106.660312,
                20.914951
              ],
              [
                106.660341,
                20.915036
              ],
              [
                106.660696,
                20.915362
              ],
              [
                106.660699,
                20.915363
              ],
              [
                106.661026,
                20.915496
              ],
              [
                106.661334,
                20.915621
              ],
              [
                106.661807,
                20.915861
              ],
              [
                106.662139,
                20.916029
              ],
              [
                106.662445,
                20.916254
              ],
              [
                106.662631,
                20.916582
              ],
              [
                106.662718,
                20.916816
              ],
              [
                106.662756,
                20.916916
              ],
              [
                106.662795,
                20.91716
              ],
              [
                106.662806,
                20.917232
              ],
              [
                106.662786,
                20.917326
              ],
              [
                106.662661,
                20.917902
              ],
              [
                106.662443,
                20.918218
              ],
              [
                106.662381,
                20.918308
              ],
              [
                106.66185,
                20.918755
              ],
              [
                106.661111,
                20.919223
              ],
              [
                106.660258,
                20.919646
              ],
              [
                106.659359,
                20.919983
              ],
              [
                106.658898,
                20.920216
              ],
              [
                106.658437,
                20.920513
              ],
              [
                106.658159,
                20.920726
              ],
              [
                106.657789,
                20.92111
              ],
              [
                106.657221,
                20.92182
              ],
              [
                106.657139,
                20.921922
              ],
              [
                106.656629,
                20.922435
              ],
              [
                106.656453,
                20.922558
              ],
              [
                106.656236,
                20.922711
              ],
              [
                106.655914,
                20.922773
              ],
              [
                106.655547,
                20.922792
              ],
              [
                106.655226,
                20.922768
              ],
              [
                106.65466,
                20.922586
              ],
              [
                106.653234,
                20.922128
              ],
              [
                106.653058,
                20.922102
              ],
              [
                106.652317,
                20.921992
              ],
              [
                106.651613,
                20.921884
              ],
              [
                106.651593,
                20.921885
              ],
              [
                106.651449,
                20.92189
              ],
              [
                106.65131,
                20.921896
              ],
              [
                106.651193,
                20.921906
              ],
              [
                106.651129,
                20.921912
              ],
              [
                106.651096,
                20.921912
              ],
              [
                106.651055,
                20.921913
              ],
              [
                106.650951,
                20.921912
              ],
              [
                106.650838,
                20.921913
              ],
              [
                106.650746,
                20.921917
              ],
              [
                106.650522,
                20.92239
              ],
              [
                106.650433,
                20.92256
              ],
              [
                106.650395,
                20.922614
              ],
              [
                106.650373,
                20.922636
              ],
              [
                106.650357,
                20.92266
              ],
              [
                106.650342,
                20.922692
              ],
              [
                106.650326,
                20.922731
              ],
              [
                106.650295,
                20.922811
              ],
              [
                106.650281,
                20.922851
              ],
              [
                106.650265,
                20.922892
              ],
              [
                106.650248,
                20.922937
              ],
              [
                106.650238,
                20.922963
              ],
              [
                106.650148,
                20.923308
              ],
              [
                106.649984,
                20.923651
              ],
              [
                106.649867,
                20.923886
              ],
              [
                106.649703,
                20.924229
              ],
              [
                106.649746,
                20.92457
              ],
              [
                106.649746,
                20.924574
              ],
              [
                106.650019,
                20.92492
              ],
              [
                106.65043,
                20.925095
              ],
              [
                106.65097,
                20.925246
              ],
              [
                106.65114,
                20.925294
              ],
              [
                106.651409,
                20.925396
              ],
              [
                106.651862,
                20.925567
              ],
              [
                106.651895,
                20.92558
              ],
              [
                106.65226,
                20.925819
              ],
              [
                106.652556,
                20.926144
              ],
              [
                106.652645,
                20.926258
              ],
              [
                106.653032,
                20.92675
              ],
              [
                106.653382,
                20.927225
              ],
              [
                106.653767,
                20.927748
              ],
              [
                106.653781,
                20.927766
              ],
              [
                106.653963,
                20.927918
              ],
              [
                106.653973,
                20.927921
              ],
              [
                106.654123,
                20.927963
              ],
              [
                106.654399,
                20.927965
              ],
              [
                106.654598,
                20.927912
              ],
              [
                106.654601,
                20.927911
              ],
              [
                106.654742,
                20.927921
              ],
              [
                106.654789,
                20.927925
              ],
              [
                106.654956,
                20.927982
              ],
              [
                106.655155,
                20.928078
              ],
              [
                106.655329,
                20.928255
              ],
              [
                106.655424,
                20.928422
              ],
              [
                106.65547,
                20.928594
              ],
              [
                106.655494,
                20.928769
              ],
              [
                106.657611,
                20.927717
              ],
              [
                106.659906,
                20.92808
              ],
              [
                106.66025,
                20.928532
              ],
              [
                106.660933,
                20.929123
              ],
              [
                106.661155,
                20.929323
              ],
              [
                106.661252,
                20.929669
              ],
              [
                106.661277,
                20.92986
              ],
              [
                106.661343,
                20.930111
              ],
              [
                106.661381,
                20.930227
              ],
              [
                106.661439,
                20.930313
              ],
              [
                106.661484,
                20.930347
              ],
              [
                106.661507,
                20.930356
              ],
              [
                106.661562,
                20.930369
              ],
              [
                106.661711,
                20.930407
              ],
              [
                106.661883,
                20.93044
              ],
              [
                106.662028,
                20.930478
              ],
              [
                106.662151,
                20.930515
              ],
              [
                106.662351,
                20.930604
              ],
              [
                106.663528,
                20.931294
              ],
              [
                106.663723,
                20.93136
              ],
              [
                106.664049,
                20.931472
              ],
              [
                106.664754,
                20.931675
              ],
              [
                106.66524,
                20.931775
              ],
              [
                106.665359,
                20.931742
              ],
              [
                106.665699,
                20.93167
              ],
              [
                106.665882,
                20.931649
              ],
              [
                106.666038,
                20.931661
              ],
              [
                106.666045,
                20.931662
              ],
              [
                106.666248,
                20.931631
              ],
              [
                106.666787,
                20.931544
              ],
              [
                106.667,
                20.931504
              ],
              [
                106.667345,
                20.931443
              ],
              [
                106.667584,
                20.931436
              ],
              [
                106.668063,
                20.931451
              ],
              [
                106.668363,
                20.931476
              ],
              [
                106.668659,
                20.931502
              ],
              [
                106.668974,
                20.931518
              ],
              [
                106.669321,
                20.931548
              ],
              [
                106.669717,
                20.931549
              ],
              [
                106.669911,
                20.931552
              ],
              [
                106.670246,
                20.931506
              ],
              [
                106.670744,
                20.93142
              ],
              [
                106.671366,
                20.931352
              ],
              [
                106.671711,
                20.931321
              ],
              [
                106.671966,
                20.931297
              ],
              [
                106.672193,
                20.931299
              ],
              [
                106.672274,
                20.931342
              ],
              [
                106.672391,
                20.93142
              ],
              [
                106.672508,
                20.931582
              ],
              [
                106.67337,
                20.932611
              ],
              [
                106.67345,
                20.932746
              ],
              [
                106.673422,
                20.932881
              ],
              [
                106.673305,
                20.933001
              ],
              [
                106.673223,
                20.933097
              ],
              [
                106.673134,
                20.93316
              ],
              [
                106.673082,
                20.933236
              ],
              [
                106.67329,
                20.933304
              ],
              [
                106.673475,
                20.933377
              ],
              [
                106.673688,
                20.933487
              ],
              [
                106.673868,
                20.93353
              ],
              [
                106.673994,
                20.933531
              ],
              [
                106.67411,
                20.933506
              ],
              [
                106.674209,
                20.933434
              ],
              [
                106.674363,
                20.933338
              ],
              [
                106.674561,
                20.933252
              ],
              [
                106.674821,
                20.933215
              ],
              [
                106.674821,
                20.933215
              ]
            ]
          ]
        ]
      },
      "properties": {
        "code": "11560",
        "name": "Thuỷ Nguyên",
        "nameEn": "Thuy Nguyen",
        "fullName": "Phường Thuỷ Nguyên",
        "fullNameEn": "Thuy Nguyen Ward",
        "codeName": "thuy_nguyen",
        "postalCode": "04344",
        "postalCodePrefix": "",
        "gisServerId": "diaphanhanhchinhcapxa_2025.926",
        "areaKm2": 45.34
      }
    }
  ]
}