{
  "type": "FeatureCollection",
  "bbox": [
    106.52705,
    20.847986,
    106.582057,
    20.948529
  ],
  "features": [
    {
      "type": "Feature",
      "id": "11593",
      "bbox": [
        106.52705,
        20.847986,
        106.582057,
        20.948529
      ],
      "geometry": {
        "type": "MultiPolygon",
        "coordinates": [
          [
            [
              [
                106.557179,
                20.931802
              ],
              [
                106.557549,
                20.93171
              ],
              [
                106.55545,
                20.929052
              ],
              [
                106.563198,
                20.916767
              ],
              [
                106.567721,
                20.912992
              ],
              [
                106.573568,
                20.911786
              ],
              [
                106.574671,
                20.911559
              ],
              [
                106.572976,
                20.90979
              ],
              [
                106.572194,
                20.908975
              ],
              [
                106.572329,
                20.908865
              ],
              [
                106.57239,
                20.908816
              ],
              [
                106.572922,
                20.908267
              ],
              [
                106.572981,
                20.908207
              ],
              [
                106.573198,
                20.907917
              ],
              [
                106.573068,
                20.907889
              ],
              [
                106.572949,
                20.907863
              ],
              [
                106.572629,
                20.907814
              ],
              [
                106.57186,
                20.907697
              ],
              [
                106.571521,
                20.907645
              ],
              [
                106.571224,
                20.9076
              ],
              [
                106.571628,
                20.906989
              ],
              [
                106.571655,
                20.906955
              ],
              [
                106.571643,
                20.906947
              ],
              [
                106.571511,
                20.906854
              ],
              [
                106.571444,
                20.906815
              ],
              [
                106.571417,
                20.906754
              ],
              [
                106.571265,
                20.906319
              ],
              [
                106.57119,
                20.906114
              ],
              [
                106.571165,
                20.903693
              ],
              [
                106.571176,
                20.903592
              ],
              [
                106.570752,
                20.903657
              ],
              [
                106.569553,
                20.903838
              ],
              [
                106.569352,
                20.90361
              ],
              [
                106.569292,
                20.903408
              ],
              [
                106.569175,
                20.903307
              ],
              [
                106.569076,
                20.903022
              ],
              [
                106.567791,
                20.90299
              ],
              [
                106.567529,
                20.903142
              ],
              [
                106.567285,
                20.903284
              ],
              [
                106.567227,
                20.902604
              ],
              [
                106.567261,
                20.902209
              ],
              [
                106.567402,
                20.901748
              ],
              [
                106.567687,
                20.900974
              ],
              [
                106.568005,
                20.900392
              ],
              [
                106.568431,
                20.899609
              ],
              [
                106.5685,
                20.899499
              ],
              [
                106.568589,
                20.899343
              ],
              [
                106.568624,
                20.899244
              ],
              [
                106.568667,
                20.899164
              ],
              [
                106.568706,
                20.89913
              ],
              [
                106.568758,
                20.899069
              ],
              [
                106.568806,
                20.89903
              ],
              [
                106.569148,
                20.899059
              ],
              [
                106.569537,
                20.899077
              ],
              [
                106.569781,
                20.899046
              ],
              [
                106.569926,
                20.898995
              ],
              [
                106.569986,
                20.898915
              ],
              [
                106.570038,
                20.898822
              ],
              [
                106.570068,
                20.898714
              ],
              [
                106.570157,
                20.898321
              ],
              [
                106.570167,
                20.898202
              ],
              [
                106.570186,
                20.898054
              ],
              [
                106.570196,
                20.897974
              ],
              [
                106.57024,
                20.897849
              ],
              [
                106.570291,
                20.897714
              ],
              [
                106.570334,
                20.897657
              ],
              [
                106.570409,
                20.897573
              ],
              [
                106.570596,
                20.897363
              ],
              [
                106.570782,
                20.89718
              ],
              [
                106.571084,
                20.896874
              ],
              [
                106.571253,
                20.896586
              ],
              [
                106.57132,
                20.896346
              ],
              [
                106.571383,
                20.896055
              ],
              [
                106.571383,
                20.895547
              ],
              [
                106.571373,
                20.895182
              ],
              [
                106.571373,
                20.894928
              ],
              [
                106.571382,
                20.894742
              ],
              [
                106.571418,
                20.894469
              ],
              [
                106.571447,
                20.894264
              ],
              [
                106.571495,
                20.894076
              ],
              [
                106.571842,
                20.893324
              ],
              [
                106.57211,
                20.892784
              ],
              [
                106.572303,
                20.892399
              ],
              [
                106.572544,
                20.891758
              ],
              [
                106.572727,
                20.891051
              ],
              [
                106.572863,
                20.890673
              ],
              [
                106.573,
                20.890373
              ],
              [
                106.57315,
                20.890133
              ],
              [
                106.57341,
                20.889744
              ],
              [
                106.573686,
                20.889505
              ],
              [
                106.573978,
                20.889261
              ],
              [
                106.574275,
                20.889027
              ],
              [
                106.574483,
                20.888846
              ],
              [
                106.574747,
                20.88858
              ],
              [
                106.574832,
                20.888495
              ],
              [
                106.57506,
                20.888208
              ],
              [
                106.575235,
                20.8879
              ],
              [
                106.575404,
                20.887579
              ],
              [
                106.575493,
                20.887327
              ],
              [
                106.575545,
                20.887154
              ],
              [
                106.575582,
                20.886981
              ],
              [
                106.575668,
                20.886508
              ],
              [
                106.575716,
                20.886256
              ],
              [
                106.575793,
                20.885794
              ],
              [
                106.575856,
                20.885431
              ],
              [
                106.575929,
                20.885087
              ],
              [
                106.576014,
                20.884736
              ],
              [
                106.576103,
                20.884389
              ],
              [
                106.576186,
                20.884029
              ],
              [
                106.576275,
                20.883682
              ],
              [
                106.576427,
                20.883079
              ],
              [
                106.576524,
                20.88271
              ],
              [
                106.576634,
                20.882271
              ],
              [
                106.576723,
                20.88194
              ],
              [
                106.576798,
                20.881681
              ],
              [
                106.576827,
                20.881578
              ],
              [
                106.576919,
                20.881224
              ],
              [
                106.576964,
                20.881071
              ],
              [
                106.576994,
                20.880997
              ],
              [
                106.577047,
                20.880896
              ],
              [
                106.577174,
                20.880674
              ],
              [
                106.577311,
                20.880425
              ],
              [
                106.577436,
                20.88013
              ],
              [
                106.577536,
                20.87991
              ],
              [
                106.577686,
                20.879573
              ],
              [
                106.577832,
                20.879247
              ],
              [
                106.577965,
                20.878912
              ],
              [
                106.578112,
                20.878573
              ],
              [
                106.578262,
                20.878247
              ],
              [
                106.578324,
                20.87811
              ],
              [
                106.578635,
                20.877621
              ],
              [
                106.57896,
                20.877334
              ],
              [
                106.579273,
                20.877119
              ],
              [
                106.579368,
                20.877077
              ],
              [
                106.57946,
                20.877064
              ],
              [
                106.579517,
                20.877063
              ],
              [
                106.579571,
                20.877075
              ],
              [
                106.579622,
                20.877098
              ],
              [
                106.581083,
                20.875928
              ],
              [
                106.581798,
                20.875262
              ],
              [
                106.582008,
                20.874935
              ],
              [
                106.582057,
                20.874676
              ],
              [
                106.581962,
                20.874371
              ],
              [
                106.581777,
                20.874014
              ],
              [
                106.581502,
                20.873579
              ],
              [
                106.581255,
                20.873366
              ],
              [
                106.580841,
                20.873169
              ],
              [
                106.580105,
                20.872817
              ],
              [
                106.580011,
                20.872708
              ],
              [
                106.57975,
                20.872404
              ],
              [
                106.579533,
                20.872048
              ],
              [
                106.579466,
                20.871547
              ],
              [
                106.579476,
                20.87103
              ],
              [
                106.579439,
                20.870342
              ],
              [
                106.579326,
                20.86977
              ],
              [
                106.579274,
                20.869197
              ],
              [
                106.579318,
                20.869053
              ],
              [
                106.579529,
                20.868778
              ],
              [
                106.579815,
                20.868446
              ],
              [
                106.579864,
                20.86837
              ],
              [
                106.579787,
                20.868292
              ],
              [
                106.579484,
                20.867989
              ],
              [
                106.579435,
                20.867939
              ],
              [
                106.579337,
                20.867844
              ],
              [
                106.57929,
                20.867798
              ],
              [
                106.579237,
                20.867746
              ],
              [
                106.579111,
                20.867623
              ],
              [
                106.578913,
                20.86743
              ],
              [
                106.578356,
                20.866868
              ],
              [
                106.577972,
                20.866481
              ],
              [
                106.577285,
                20.865751
              ],
              [
                106.577139,
                20.865581
              ],
              [
                106.576785,
                20.864981
              ],
              [
                106.576644,
                20.86459
              ],
              [
                106.576497,
                20.86418
              ],
              [
                106.576414,
                20.863867
              ],
              [
                106.576354,
                20.863646
              ],
              [
                106.576311,
                20.863303
              ],
              [
                106.576239,
                20.862734
              ],
              [
                106.575945,
                20.86183
              ],
              [
                106.575478,
                20.860992
              ],
              [
                106.57535,
                20.860853
              ],
              [
                106.575149,
                20.860638
              ],
              [
                106.57497,
                20.86041
              ],
              [
                106.573769,
                20.859106
              ],
              [
                106.573625,
                20.85895
              ],
              [
                106.573069,
                20.85836
              ],
              [
                106.572689,
                20.857957
              ],
              [
                106.571889,
                20.857109
              ],
              [
                106.571639,
                20.856844
              ],
              [
                106.570692,
                20.855858
              ],
              [
                106.570598,
                20.85576
              ],
              [
                106.569562,
                20.854672
              ],
              [
                106.569217,
                20.854309
              ],
              [
                106.567217,
                20.852144
              ],
              [
                106.566599,
                20.851449
              ],
              [
                106.566094,
                20.850708
              ],
              [
                106.565458,
                20.849742
              ],
              [
                106.565376,
                20.849618
              ],
              [
                106.565269,
                20.849451
              ],
              [
                106.564793,
                20.848707
              ],
              [
                106.564506,
                20.848264
              ],
              [
                106.564326,
                20.847986
              ],
              [
                106.56413,
                20.848057
              ],
              [
                106.563814,
                20.848251
              ],
              [
                106.563514,
                20.848528
              ],
              [
                106.563239,
                20.84901
              ],
              [
                106.562945,
                20.849681
              ],
              [
                106.56279,
                20.850344
              ],
              [
                106.562757,
                20.851099
              ],
              [
                106.562752,
                20.8516
              ],
              [
                106.562751,
                20.852593
              ],
              [
                106.562632,
                20.853175
              ],
              [
                106.562409,
                20.853756
              ],
              [
                106.562272,
                20.853973
              ],
              [
                106.562201,
                20.854085
              ],
              [
                106.562033,
                20.854351
              ],
              [
                106.562028,
                20.85436
              ],
              [
                106.561621,
                20.854898
              ],
              [
                106.561039,
                20.85555
              ],
              [
                106.560256,
                20.856225
              ],
              [
                106.559729,
                20.856565
              ],
              [
                106.559132,
                20.856872
              ],
              [
                106.557583,
                20.85736
              ],
              [
                106.557137,
                20.857438
              ],
              [
                106.556849,
                20.857411
              ],
              [
                106.55664,
                20.85736
              ],
              [
                106.556379,
                20.857218
              ],
              [
                106.554763,
                20.85649
              ],
              [
                106.55474,
                20.856477
              ],
              [
                106.553817,
                20.855941
              ],
              [
                106.552715,
                20.855234
              ],
              [
                106.551111,
                20.854087
              ],
              [
                106.55033,
                20.853654
              ],
              [
                106.549582,
                20.85336
              ],
              [
                106.54919,
                20.853299
              ],
              [
                106.548552,
                20.85336
              ],
              [
                106.548299,
                20.853374
              ],
              [
                106.547989,
                20.853489
              ],
              [
                106.547622,
                20.853816
              ],
              [
                106.547344,
                20.854191
              ],
              [
                106.547242,
                20.854366
              ],
              [
                106.547063,
                20.854833
              ],
              [
                106.547016,
                20.855226
              ],
              [
                106.547064,
                20.855604
              ],
              [
                106.547225,
                20.856131
              ],
              [
                106.547691,
                20.857629
              ],
              [
                106.548201,
                20.859029
              ],
              [
                106.548742,
                20.86088
              ],
              [
                106.549016,
                20.862352
              ],
              [
                106.549055,
                20.86282
              ],
              [
                106.54901,
                20.863903
              ],
              [
                106.54876,
                20.865321
              ],
              [
                106.548705,
                20.865649
              ],
              [
                106.548603,
                20.866272
              ],
              [
                106.548468,
                20.866698
              ],
              [
                106.548227,
                20.867213
              ],
              [
                106.547917,
                20.86767
              ],
              [
                106.547467,
                20.868167
              ],
              [
                106.546756,
                20.868628
              ],
              [
                106.547269,
                20.868879
              ],
              [
                106.547497,
                20.868967
              ],
              [
                106.547861,
                20.869118
              ],
              [
                106.547987,
                20.869199
              ],
              [
                106.54811,
                20.869307
              ],
              [
                106.548591,
                20.869928
              ],
              [
                106.548725,
                20.870081
              ],
              [
                106.548835,
                20.870109
              ],
              [
                106.549219,
                20.870148
              ],
              [
                106.549388,
                20.870168
              ],
              [
                106.549467,
                20.870201
              ],
              [
                106.549541,
                20.870241
              ],
              [
                106.549624,
                20.870319
              ],
              [
                106.549919,
                20.870684
              ],
              [
                106.550002,
                20.870873
              ],
              [
                106.550088,
                20.871141
              ],
              [
                106.550183,
                20.871449
              ],
              [
                106.550305,
                20.871856
              ],
              [
                106.550358,
                20.872132
              ],
              [
                106.550373,
                20.872458
              ],
              [
                106.550379,
                20.872687
              ],
              [
                106.550384,
                20.872816
              ],
              [
                106.550392,
                20.872881
              ],
              [
                106.550412,
                20.872931
              ],
              [
                106.550446,
                20.872966
              ],
              [
                106.550504,
                20.872995
              ],
              [
                106.550665,
                20.873033
              ],
              [
                106.550981,
                20.873051
              ],
              [
                106.551325,
                20.873081
              ],
              [
                106.551566,
                20.873154
              ],
              [
                106.551732,
                20.873225
              ],
              [
                106.551916,
                20.873304
              ],
              [
                106.552016,
                20.873368
              ],
              [
                106.552069,
                20.873419
              ],
              [
                106.552117,
                20.873471
              ],
              [
                106.552146,
                20.873521
              ],
              [
                106.55219,
                20.873619
              ],
              [
                106.552318,
                20.873724
              ],
              [
                106.552716,
                20.873727
              ],
              [
                106.552725,
                20.874015
              ],
              [
                106.552755,
                20.874414
              ],
              [
                106.552809,
                20.874806
              ],
              [
                106.552838,
                20.875014
              ],
              [
                106.552881,
                20.875325
              ],
              [
                106.552935,
                20.875715
              ],
              [
                106.553066,
                20.876641
              ],
              [
                106.553074,
                20.8767
              ],
              [
                106.552191,
                20.876855
              ],
              [
                106.551104,
                20.877411
              ],
              [
                106.550301,
                20.877984
              ],
              [
                106.549408,
                20.87858
              ],
              [
                106.548863,
                20.87883
              ],
              [
                106.54829,
                20.878957
              ],
              [
                106.547854,
                20.878953
              ],
              [
                106.547378,
                20.87888
              ],
              [
                106.546837,
                20.878713
              ],
              [
                106.546083,
                20.87849
              ],
              [
                106.545377,
                20.878368
              ],
              [
                106.545007,
                20.878357
              ],
              [
                106.544702,
                20.878455
              ],
              [
                106.544396,
                20.878646
              ],
              [
                106.544184,
                20.878899
              ],
              [
                106.544154,
                20.879018
              ],
              [
                106.544162,
                20.879188
              ],
              [
                106.544237,
                20.879402
              ],
              [
                106.544422,
                20.879699
              ],
              [
                106.544675,
                20.879939
              ],
              [
                106.544945,
                20.880188
              ],
              [
                106.545462,
                20.880688
              ],
              [
                106.545521,
                20.880741
              ],
              [
                106.545865,
                20.881131
              ],
              [
                106.546009,
                20.881225
              ],
              [
                106.546223,
                20.881266
              ],
              [
                106.546523,
                20.881278
              ],
              [
                106.546929,
                20.881226
              ],
              [
                106.547118,
                20.881249
              ],
              [
                106.547277,
                20.881376
              ],
              [
                106.547368,
                20.881623
              ],
              [
                106.547384,
                20.881872
              ],
              [
                106.547354,
                20.882011
              ],
              [
                106.547177,
                20.882113
              ],
              [
                106.547082,
                20.88221
              ],
              [
                106.547032,
                20.882306
              ],
              [
                106.547018,
                20.882392
              ],
              [
                106.547018,
                20.882473
              ],
              [
                106.547062,
                20.882649
              ],
              [
                106.547716,
                20.883085
              ],
              [
                106.547946,
                20.883315
              ],
              [
                106.548075,
                20.883482
              ],
              [
                106.548236,
                20.883722
              ],
              [
                106.548292,
                20.883937
              ],
              [
                106.548313,
                20.884086
              ],
              [
                106.548289,
                20.884259
              ],
              [
                106.548208,
                20.884395
              ],
              [
                106.547925,
                20.884747
              ],
              [
                106.547905,
                20.884775
              ],
              [
                106.547681,
                20.885036
              ],
              [
                106.547424,
                20.885266
              ],
              [
                106.547159,
                20.88541
              ],
              [
                106.54687,
                20.885524
              ],
              [
                106.546566,
                20.885583
              ],
              [
                106.545973,
                20.885663
              ],
              [
                106.545281,
                20.885781
              ],
              [
                106.54473,
                20.885807
              ],
              [
                106.544023,
                20.885793
              ],
              [
                106.543678,
                20.885729
              ],
              [
                106.543252,
                20.885555
              ],
              [
                106.542623,
                20.885132
              ],
              [
                106.542215,
                20.884874
              ],
              [
                106.541961,
                20.884794
              ],
              [
                106.541714,
                20.884823
              ],
              [
                106.541516,
                20.884906
              ],
              [
                106.541241,
                20.885092
              ],
              [
                106.541044,
                20.885264
              ],
              [
                106.54068,
                20.88571
              ],
              [
                106.540344,
                20.886202
              ],
              [
                106.540063,
                20.886511
              ],
              [
                106.539581,
                20.887009
              ],
              [
                106.539371,
                20.88736
              ],
              [
                106.539313,
                20.887623
              ],
              [
                106.539341,
                20.887915
              ],
              [
                106.539476,
                20.88821
              ],
              [
                106.539686,
                20.88837
              ],
              [
                106.540009,
                20.888535
              ],
              [
                106.540366,
                20.888713
              ],
              [
                106.540541,
                20.888917
              ],
              [
                106.54064,
                20.889079
              ],
              [
                106.540677,
                20.889246
              ],
              [
                106.540663,
                20.889404
              ],
              [
                106.54062,
                20.889619
              ],
              [
                106.540453,
                20.890252
              ],
              [
                106.540431,
                20.890596
              ],
              [
                106.540515,
                20.89082
              ],
              [
                106.540638,
                20.890948
              ],
              [
                106.540797,
                20.891013
              ],
              [
                106.540868,
                20.891041
              ],
              [
                106.541076,
                20.891083
              ],
              [
                106.541446,
                20.891095
              ],
              [
                106.541865,
                20.891099
              ],
              [
                106.542313,
                20.891157
              ],
              [
                106.542595,
                20.891224
              ],
              [
                106.542983,
                20.891374
              ],
              [
                106.543225,
                20.89155
              ],
              [
                106.543447,
                20.891735
              ],
              [
                106.54364,
                20.892002
              ],
              [
                106.543811,
                20.89237
              ],
              [
                106.543882,
                20.892609
              ],
              [
                106.543869,
                20.892948
              ],
              [
                106.543779,
                20.893204
              ],
              [
                106.543621,
                20.893432
              ],
              [
                106.543414,
                20.893622
              ],
              [
                106.543111,
                20.89372
              ],
              [
                106.542761,
                20.893708
              ],
              [
                106.542381,
                20.893705
              ],
              [
                106.541816,
                20.893682
              ],
              [
                106.54126,
                20.893686
              ],
              [
                106.540831,
                20.893747
              ],
              [
                106.540547,
                20.893863
              ],
              [
                106.540331,
                20.894036
              ],
              [
                106.540134,
                20.894318
              ],
              [
                106.540092,
                20.894556
              ],
              [
                106.540118,
                20.894877
              ],
              [
                106.540223,
                20.895143
              ],
              [
                106.54039,
                20.895484
              ],
              [
                106.540592,
                20.895779
              ],
              [
                106.540814,
                20.896046
              ],
              [
                106.541112,
                20.896388
              ],
              [
                106.541343,
                20.896765
              ],
              [
                106.541446,
                20.897124
              ],
              [
                106.541434,
                20.897371
              ],
              [
                106.541384,
                20.897545
              ],
              [
                106.541255,
                20.897718
              ],
              [
                106.541001,
                20.897853
              ],
              [
                106.54064,
                20.897877
              ],
              [
                106.540017,
                20.897808
              ],
              [
                106.539102,
                20.897663
              ],
              [
                106.538663,
                20.897705
              ],
              [
                106.53837,
                20.89783
              ],
              [
                106.538104,
                20.898085
              ],
              [
                106.53797,
                20.898368
              ],
              [
                106.537978,
                20.898569
              ],
              [
                106.538035,
                20.898753
              ],
              [
                106.53815,
                20.898928
              ],
              [
                106.538314,
                20.899076
              ],
              [
                106.538634,
                20.899207
              ],
              [
                106.539129,
                20.899394
              ],
              [
                106.539741,
                20.899592
              ],
              [
                106.540101,
                20.899742
              ],
              [
                106.540265,
                20.899881
              ],
              [
                106.540302,
                20.900027
              ],
              [
                106.540272,
                20.900137
              ],
              [
                106.540163,
                20.900319
              ],
              [
                106.539928,
                20.900482
              ],
              [
                106.539575,
                20.900653
              ],
              [
                106.539038,
                20.900823
              ],
              [
                106.538344,
                20.900973
              ],
              [
                106.537759,
                20.901023
              ],
              [
                106.536853,
                20.901006
              ],
              [
                106.536493,
                20.901003
              ],
              [
                106.536161,
                20.901064
              ],
              [
                106.535916,
                20.901181
              ],
              [
                106.535685,
                20.901362
              ],
              [
                106.535193,
                20.90188
              ],
              [
                106.534761,
                20.902188
              ],
              [
                106.534399,
                20.902359
              ],
              [
                106.533939,
                20.902538
              ],
              [
                106.533704,
                20.902701
              ],
              [
                106.533585,
                20.902884
              ],
              [
                106.533543,
                20.90314
              ],
              [
                106.533617,
                20.90358
              ],
              [
                106.533779,
                20.903966
              ],
              [
                106.53397,
                20.904325
              ],
              [
                106.534075,
                20.904629
              ],
              [
                106.534083,
                20.904757
              ],
              [
                106.534042,
                20.90494
              ],
              [
                106.533923,
                20.905149
              ],
              [
                106.533736,
                20.905377
              ],
              [
                106.533598,
                20.905458
              ],
              [
                106.53352,
                20.905503
              ],
              [
                106.533267,
                20.905556
              ],
              [
                106.533033,
                20.905545
              ],
              [
                106.532751,
                20.905442
              ],
              [
                106.532509,
                20.905266
              ],
              [
                106.5322,
                20.905006
              ],
              [
                106.531958,
                20.904803
              ],
              [
                106.531716,
                20.904654
              ],
              [
                106.531376,
                20.90456
              ],
              [
                106.531025,
                20.904566
              ],
              [
                106.530878,
                20.904629
              ],
              [
                106.530809,
                20.904738
              ],
              [
                106.530807,
                20.904903
              ],
              [
                106.530874,
                20.905114
              ],
              [
                106.531057,
                20.905345
              ],
              [
                106.531306,
                20.905732
              ],
              [
                106.531517,
                20.906127
              ],
              [
                106.531554,
                20.906339
              ],
              [
                106.531523,
                20.906503
              ],
              [
                106.531375,
                20.906658
              ],
              [
                106.531179,
                20.906766
              ],
              [
                106.530945,
                20.906791
              ],
              [
                106.530604,
                20.906779
              ],
              [
                106.530059,
                20.906756
              ],
              [
                106.529552,
                20.90677
              ],
              [
                106.528966,
                20.906829
              ],
              [
                106.528429,
                20.906962
              ],
              [
                106.527794,
                20.907158
              ],
              [
                106.527466,
                20.907311
              ],
              [
                106.52723,
                20.907492
              ],
              [
                106.527091,
                20.907729
              ],
              [
                106.52705,
                20.907967
              ],
              [
                106.527068,
                20.90816
              ],
              [
                106.527164,
                20.908316
              ],
              [
                106.527434,
                20.90852
              ],
              [
                106.527774,
                20.908642
              ],
              [
                106.528075,
                20.908828
              ],
              [
                106.528297,
                20.909059
              ],
              [
                106.528382,
                20.90928
              ],
              [
                106.528383,
                20.909655
              ],
              [
                106.528322,
                20.909994
              ],
              [
                106.528172,
                20.91035
              ],
              [
                106.528051,
                20.910715
              ],
              [
                106.528028,
                20.911091
              ],
              [
                106.528078,
                20.911971
              ],
              [
                106.528094,
                20.912365
              ],
              [
                106.528091,
                20.912621
              ],
              [
                106.528035,
                20.912868
              ],
              [
                106.527934,
                20.913298
              ],
              [
                106.527833,
                20.9136
              ],
              [
                106.527624,
                20.914047
              ],
              [
                106.527395,
                20.914521
              ],
              [
                106.527353,
                20.914869
              ],
              [
                106.527418,
                20.915144
              ],
              [
                106.527573,
                20.915329
              ],
              [
                106.527702,
                20.915426
              ],
              [
                106.527795,
                20.915496
              ],
              [
                106.527824,
                20.915505
              ],
              [
                106.528359,
                20.915684
              ],
              [
                106.528943,
                20.915716
              ],
              [
                106.529299,
                20.915664
              ],
              [
                106.529622,
                20.915576
              ],
              [
                106.529882,
                20.915413
              ],
              [
                106.530078,
                20.915213
              ],
              [
                106.530257,
                20.914876
              ],
              [
                106.530413,
                20.914428
              ],
              [
                106.530534,
                20.913916
              ],
              [
                106.530726,
                20.91324
              ],
              [
                106.530875,
                20.912966
              ],
              [
                106.531121,
                20.912684
              ],
              [
                106.531593,
                20.912285
              ],
              [
                106.532073,
                20.912005
              ],
              [
                106.532553,
                20.911826
              ],
              [
                106.532787,
                20.911791
              ],
              [
                106.53303,
                20.911803
              ],
              [
                106.533186,
                20.911822
              ],
              [
                106.5334,
                20.911879
              ],
              [
                106.533604,
                20.911991
              ],
              [
                106.533768,
                20.912157
              ],
              [
                106.534027,
                20.912526
              ],
              [
                106.534189,
                20.912894
              ],
              [
                106.534302,
                20.913362
              ],
              [
                106.534365,
                20.914467
              ],
              [
                106.534515,
                20.915398
              ],
              [
                106.534724,
                20.915946
              ],
              [
                106.535062,
                20.916719
              ],
              [
                106.53541,
                20.917147
              ],
              [
                106.536012,
                20.917559
              ],
              [
                106.536344,
                20.917688
              ],
              [
                106.53693,
                20.917778
              ],
              [
                106.538148,
                20.917701
              ],
              [
                106.538402,
                20.917685
              ],
              [
                106.538772,
                20.917707
              ],
              [
                106.539025,
                20.917718
              ],
              [
                106.539045,
                20.917722
              ],
              [
                106.539821,
                20.918062
              ],
              [
                106.540691,
                20.918506
              ],
              [
                106.540838,
                20.918644
              ],
              [
                106.540915,
                20.91882
              ],
              [
                106.540938,
                20.918944
              ],
              [
                106.540898,
                20.919081
              ],
              [
                106.540677,
                20.919693
              ],
              [
                106.540625,
                20.920086
              ],
              [
                106.54067,
                20.920435
              ],
              [
                106.540736,
                20.920637
              ],
              [
                106.540962,
                20.921033
              ],
              [
                106.541193,
                20.921264
              ],
              [
                106.541464,
                20.921468
              ],
              [
                106.541862,
                20.921691
              ],
              [
                106.542503,
                20.921925
              ],
              [
                106.542931,
                20.922002
              ],
              [
                106.543316,
                20.922011
              ],
              [
                106.543813,
                20.921988
              ],
              [
                106.543952,
                20.921954
              ],
              [
                106.544389,
                20.921823
              ],
              [
                106.544658,
                20.921673
              ],
              [
                106.544949,
                20.921416
              ],
              [
                106.54522,
                20.921016
              ],
              [
                106.545609,
                20.92032
              ],
              [
                106.545936,
                20.919772
              ],
              [
                106.546124,
                20.919534
              ],
              [
                106.546347,
                20.919338
              ],
              [
                106.546579,
                20.919197
              ],
              [
                106.54681,
                20.919108
              ],
              [
                106.547051,
                20.919092
              ],
              [
                106.547249,
                20.919065
              ],
              [
                106.547478,
                20.919092
              ],
              [
                106.547635,
                20.919126
              ],
              [
                106.547773,
                20.919186
              ],
              [
                106.548109,
                20.919437
              ],
              [
                106.548294,
                20.919636
              ],
              [
                106.548418,
                20.919855
              ],
              [
                106.548527,
                20.920069
              ],
              [
                106.548561,
                20.920351
              ],
              [
                106.548599,
                20.920671
              ],
              [
                106.548603,
                20.921005
              ],
              [
                106.54859,
                20.921273
              ],
              [
                106.548552,
                20.921522
              ],
              [
                106.548478,
                20.921747
              ],
              [
                106.548383,
                20.92192
              ],
              [
                106.548137,
                20.922205
              ],
              [
                106.547839,
                20.922456
              ],
              [
                106.547425,
                20.922689
              ],
              [
                106.547101,
                20.922874
              ],
              [
                106.546832,
                20.922962
              ],
              [
                106.546553,
                20.923013
              ],
              [
                106.546278,
                20.923029
              ],
              [
                106.546019,
                20.923032
              ],
              [
                106.545774,
                20.922972
              ],
              [
                106.545407,
                20.922889
              ],
              [
                106.544856,
                20.922732
              ],
              [
                106.544621,
                20.922665
              ],
              [
                106.544514,
                20.922634
              ],
              [
                106.544327,
                20.922555
              ],
              [
                106.544248,
                20.922522
              ],
              [
                106.544014,
                20.922486
              ],
              [
                106.543765,
                20.922517
              ],
              [
                106.54345,
                20.922582
              ],
              [
                106.543278,
                20.922631
              ],
              [
                106.542921,
                20.922787
              ],
              [
                106.542717,
                20.922953
              ],
              [
                106.542549,
                20.92319
              ],
              [
                106.54238,
                20.923482
              ],
              [
                106.542299,
                20.923875
              ],
              [
                106.542352,
                20.92438
              ],
              [
                106.542491,
                20.924692
              ],
              [
                106.54274,
                20.925134
              ],
              [
                106.543038,
                20.925549
              ],
              [
                106.543462,
                20.926047
              ],
              [
                106.543876,
                20.926527
              ],
              [
                106.544136,
                20.92685
              ],
              [
                106.54428,
                20.927099
              ],
              [
                106.544317,
                20.92731
              ],
              [
                106.544286,
                20.927456
              ],
              [
                106.544143,
                20.927657
              ],
              [
                106.543849,
                20.927874
              ],
              [
                106.5433,
                20.928236
              ],
              [
                106.542593,
                20.928878
              ],
              [
                106.542311,
                20.929215
              ],
              [
                106.542067,
                20.929671
              ],
              [
                106.541938,
                20.930109
              ],
              [
                106.541847,
                20.930558
              ],
              [
                106.541813,
                20.930916
              ],
              [
                106.541816,
                20.931221
              ],
              [
                106.54185,
                20.93143
              ],
              [
                106.541898,
                20.931734
              ],
              [
                106.542056,
                20.932324
              ],
              [
                106.542381,
                20.932997
              ],
              [
                106.542967,
                20.933978
              ],
              [
                106.543139,
                20.934298
              ],
              [
                106.54338,
                20.934894
              ],
              [
                106.543459,
                20.935156
              ],
              [
                106.54348,
                20.935365
              ],
              [
                106.543465,
                20.93552
              ],
              [
                106.543446,
                20.935706
              ],
              [
                106.543423,
                20.935987
              ],
              [
                106.54332,
                20.936442
              ],
              [
                106.543196,
                20.936819
              ],
              [
                106.542962,
                20.937349
              ],
              [
                106.543009,
                20.937674
              ],
              [
                106.543147,
                20.938645
              ],
              [
                106.543412,
                20.940516
              ],
              [
                106.543884,
                20.94341
              ],
              [
                106.543924,
                20.943655
              ],
              [
                106.543807,
                20.943784
              ],
              [
                106.543623,
                20.943987
              ],
              [
                106.543321,
                20.944318
              ],
              [
                106.543296,
                20.944342
              ],
              [
                106.544635,
                20.945619
              ],
              [
                106.54442,
                20.945952
              ],
              [
                106.545554,
                20.947421
              ],
              [
                106.546104,
                20.948343
              ],
              [
                106.546294,
                20.947884
              ],
              [
                106.546521,
                20.947512
              ],
              [
                106.546905,
                20.947116
              ],
              [
                106.547717,
                20.946758
              ],
              [
                106.548546,
                20.946642
              ],
              [
                106.549211,
                20.94673
              ],
              [
                106.549886,
                20.946959
              ],
              [
                106.551156,
                20.947555
              ],
              [
                106.552326,
                20.948185
              ],
              [
                106.553228,
                20.948513
              ],
              [
                106.553907,
                20.948529
              ],
              [
                106.554574,
                20.948357
              ],
              [
                106.554993,
                20.948197
              ],
              [
                106.555181,
                20.947959
              ],
              [
                106.55542,
                20.947637
              ],
              [
                106.555473,
                20.947542
              ],
              [
                106.555503,
                20.947414
              ],
              [
                106.555581,
                20.946954
              ],
              [
                106.555663,
                20.946503
              ],
              [
                106.555736,
                20.946043
              ],
              [
                106.555796,
                20.945585
              ],
              [
                106.555833,
                20.945288
              ],
              [
                106.555906,
                20.944831
              ],
              [
                106.556005,
                20.944173
              ],
              [
                106.556071,
                20.943734
              ],
              [
                106.556143,
                20.942994
              ],
              [
                106.556201,
                20.942187
              ],
              [
                106.556223,
                20.941458
              ],
              [
                106.556228,
                20.940841
              ],
              [
                106.556192,
                20.940393
              ],
              [
                106.556086,
                20.939505
              ],
              [
                106.556022,
                20.939048
              ],
              [
                106.55594,
                20.93838
              ],
              [
                106.555858,
                20.937664
              ],
              [
                106.555772,
                20.936868
              ],
              [
                106.555747,
                20.936503
              ],
              [
                106.55556,
                20.935378
              ],
              [
                106.555432,
                20.93476
              ],
              [
                106.555528,
                20.933821
              ],
              [
                106.555778,
                20.933016
              ],
              [
                106.556325,
                20.932316
              ],
              [
                106.557022,
                20.931897
              ],
              [
                106.557038,
                20.931887
              ],
              [
                106.557179,
                20.931802
              ],
              [
                106.557179,
                20.931802
              ]
            ]
          ]
        ]
      },
      "properties": {
        "code": "11593",
        "name": "An Phong",
        "nameEn": "An Phong",
        "fullName": "Phường An Phong",
        "fullNameEn": "An Phong Ward",
        "codeName": "an_phong",
        "postalCode": "04424",
        "postalCodePrefix": "",
        "gisServerId": "diaphanhanhchinhcapxa_2025.909",
        "areaKm2": 27.92
      }
    }
  ]
}