{
  "type": "FeatureCollection",
  "bbox": [
    106.55545,
    20.880003,
    106.623612,
    20.951871
  ],
  "features": [
    {
      "type": "Feature",
      "id": "11602",
      "bbox": [
        106.55545,
        20.880003,
        106.623612,
        20.951871
      ],
      "geometry": {
        "type": "MultiPolygon",
        "coordinates": [
          [
            [
              [
                106.591275,
                20.946587
              ],
              [
                106.593515,
                20.945745
              ],
              [
                106.596017,
                20.94418
              ],
              [
                106.597571,
                20.943185
              ],
              [
                106.598417,
                20.942568
              ],
              [
                106.599651,
                20.941349
              ],
              [
                106.600564,
                20.939895
              ],
              [
                106.601772,
                20.937732
              ],
              [
                106.60217,
                20.936338
              ],
              [
                106.602425,
                20.9345
              ],
              [
                106.602403,
                20.932421
              ],
              [
                106.602008,
                20.929803
              ],
              [
                106.601696,
                20.927695
              ],
              [
                106.601645,
                20.927199
              ],
              [
                106.601577,
                20.926549
              ],
              [
                106.601568,
                20.92566
              ],
              [
                106.601667,
                20.924956
              ],
              [
                106.601793,
                20.92464
              ],
              [
                106.60192,
                20.924323
              ],
              [
                106.602296,
                20.923803
              ],
              [
                106.602659,
                20.923513
              ],
              [
                106.602946,
                20.923252
              ],
              [
                106.603783,
                20.923029
              ],
              [
                106.604682,
                20.922877
              ],
              [
                106.606984,
                20.922641
              ],
              [
                106.610583,
                20.922306
              ],
              [
                106.613448,
                20.921949
              ],
              [
                106.614819,
                20.921721
              ],
              [
                106.616568,
                20.921225
              ],
              [
                106.617045,
                20.921073
              ],
              [
                106.618351,
                20.920412
              ],
              [
                106.619338,
                20.919781
              ],
              [
                106.619926,
                20.919396
              ],
              [
                106.619955,
                20.919378
              ],
              [
                106.621416,
                20.918156
              ],
              [
                106.621924,
                20.917356
              ],
              [
                106.622267,
                20.916698
              ],
              [
                106.623001,
                20.915051
              ],
              [
                106.623272,
                20.914194
              ],
              [
                106.623519,
                20.913127
              ],
              [
                106.623534,
                20.912918
              ],
              [
                106.623609,
                20.911911
              ],
              [
                106.623612,
                20.911868
              ],
              [
                106.623608,
                20.911785
              ],
              [
                106.623605,
                20.911702
              ],
              [
                106.623601,
                20.911198
              ],
              [
                106.623499,
                20.909216
              ],
              [
                106.623264,
                20.905491
              ],
              [
                106.62284,
                20.90194
              ],
              [
                106.622817,
                20.901698
              ],
              [
                106.621978,
                20.897747
              ],
              [
                106.62094,
                20.893685
              ],
              [
                106.620504,
                20.891673
              ],
              [
                106.620486,
                20.891346
              ],
              [
                106.620165,
                20.889567
              ],
              [
                106.620008,
                20.888414
              ],
              [
                106.619948,
                20.887675
              ],
              [
                106.619951,
                20.88732
              ],
              [
                106.620006,
                20.88674
              ],
              [
                106.620136,
                20.886002
              ],
              [
                106.620311,
                20.885167
              ],
              [
                106.620529,
                20.884578
              ],
              [
                106.620813,
                20.884009
              ],
              [
                106.621193,
                20.883431
              ],
              [
                106.62178,
                20.882747
              ],
              [
                106.622321,
                20.882298
              ],
              [
                106.623062,
                20.881831
              ],
              [
                106.62329,
                20.881749
              ],
              [
                106.622807,
                20.88111
              ],
              [
                106.622582,
                20.880812
              ],
              [
                106.622511,
                20.880664
              ],
              [
                106.622499,
                20.880328
              ],
              [
                106.622497,
                20.880218
              ],
              [
                106.622496,
                20.880186
              ],
              [
                106.622505,
                20.880003
              ],
              [
                106.62243,
                20.880026
              ],
              [
                106.621859,
                20.8802
              ],
              [
                106.62124,
                20.880389
              ],
              [
                106.620874,
                20.880499
              ],
              [
                106.620377,
                20.880648
              ],
              [
                106.619962,
                20.880776
              ],
              [
                106.619503,
                20.880918
              ],
              [
                106.619323,
                20.880973
              ],
              [
                106.618628,
                20.881188
              ],
              [
                106.618387,
                20.881267
              ],
              [
                106.617697,
                20.881494
              ],
              [
                106.61719,
                20.881695
              ],
              [
                106.617021,
                20.881762
              ],
              [
                106.616993,
                20.881774
              ],
              [
                106.616945,
                20.881794
              ],
              [
                106.616461,
                20.881998
              ],
              [
                106.615851,
                20.882254
              ],
              [
                106.615084,
                20.882569
              ],
              [
                106.614259,
                20.882889
              ],
              [
                106.61348,
                20.883162
              ],
              [
                106.612605,
                20.883392
              ],
              [
                106.612133,
                20.883465
              ],
              [
                106.611811,
                20.8835
              ],
              [
                106.611489,
                20.883536
              ],
              [
                106.610437,
                20.883606
              ],
              [
                106.609767,
                20.883662
              ],
              [
                106.609267,
                20.883703
              ],
              [
                106.608739,
                20.883746
              ],
              [
                106.608745,
                20.884024
              ],
              [
                106.608021,
                20.884227
              ],
              [
                106.607774,
                20.884368
              ],
              [
                106.607608,
                20.884556
              ],
              [
                106.607463,
                20.884829
              ],
              [
                106.607389,
                20.885064
              ],
              [
                106.607366,
                20.885227
              ],
              [
                106.607382,
                20.885351
              ],
              [
                106.607415,
                20.885561
              ],
              [
                106.607639,
                20.886499
              ],
              [
                106.607654,
                20.886569
              ],
              [
                106.607739,
                20.886892
              ],
              [
                106.607762,
                20.887088
              ],
              [
                106.607728,
                20.887222
              ],
              [
                106.607633,
                20.887385
              ],
              [
                106.607476,
                20.887506
              ],
              [
                106.607294,
                20.887584
              ],
              [
                106.60702,
                20.887644
              ],
              [
                106.606766,
                20.887647
              ],
              [
                106.606485,
                20.887582
              ],
              [
                106.606194,
                20.887418
              ],
              [
                106.605768,
                20.887054
              ],
              [
                106.605331,
                20.88669
              ],
              [
                106.604998,
                20.886468
              ],
              [
                106.604809,
                20.886389
              ],
              [
                106.604526,
                20.886341
              ],
              [
                106.604381,
                20.886343
              ],
              [
                106.604259,
                20.886369
              ],
              [
                106.604148,
                20.886448
              ],
              [
                106.604039,
                20.886563
              ],
              [
                106.603948,
                20.886703
              ],
              [
                106.603911,
                20.886777
              ],
              [
                106.60384,
                20.887004
              ],
              [
                106.603831,
                20.887247
              ],
              [
                106.603848,
                20.887319
              ],
              [
                106.603871,
                20.887392
              ],
              [
                106.603919,
                20.887472
              ],
              [
                106.603984,
                20.887538
              ],
              [
                106.604042,
                20.887597
              ],
              [
                106.604077,
                20.887665
              ],
              [
                106.604099,
                20.887793
              ],
              [
                106.604055,
                20.887887
              ],
              [
                106.603932,
                20.888145
              ],
              [
                106.603884,
                20.88826
              ],
              [
                106.603774,
                20.888418
              ],
              [
                106.603585,
                20.888586
              ],
              [
                106.6034,
                20.888654
              ],
              [
                106.603295,
                20.888672
              ],
              [
                106.603177,
                20.888672
              ],
              [
                106.603085,
                20.888648
              ],
              [
                106.602923,
                20.888569
              ],
              [
                106.602809,
                20.888515
              ],
              [
                106.602772,
                20.888513
              ],
              [
                106.602715,
                20.888529
              ],
              [
                106.602675,
                20.888565
              ],
              [
                106.60256,
                20.88862
              ],
              [
                106.602476,
                20.88865
              ],
              [
                106.602399,
                20.888656
              ],
              [
                106.602322,
                20.888649
              ],
              [
                106.602129,
                20.888621
              ],
              [
                106.602041,
                20.888621
              ],
              [
                106.601965,
                20.888651
              ],
              [
                106.601783,
                20.888749
              ],
              [
                106.60167,
                20.888879
              ],
              [
                106.601466,
                20.889111
              ],
              [
                106.601232,
                20.889335
              ],
              [
                106.600986,
                20.889506
              ],
              [
                106.600824,
                20.889669
              ],
              [
                106.600594,
                20.889813
              ],
              [
                106.600351,
                20.889899
              ],
              [
                106.6001,
                20.889957
              ],
              [
                106.599848,
                20.88998
              ],
              [
                106.599398,
                20.889959
              ],
              [
                106.599498,
                20.890458
              ],
              [
                106.599559,
                20.890801
              ],
              [
                106.599559,
                20.890806
              ],
              [
                106.599498,
                20.890815
              ],
              [
                106.599448,
                20.890822
              ],
              [
                106.599078,
                20.890871
              ],
              [
                106.598713,
                20.890931
              ],
              [
                106.598476,
                20.891001
              ],
              [
                106.598453,
                20.891008
              ],
              [
                106.598011,
                20.891179
              ],
              [
                106.597874,
                20.891232
              ],
              [
                106.597568,
                20.891365
              ],
              [
                106.597471,
                20.891408
              ],
              [
                106.597316,
                20.891475
              ],
              [
                106.596884,
                20.891665
              ],
              [
                106.596861,
                20.891674
              ],
              [
                106.596785,
                20.89171
              ],
              [
                106.59551,
                20.8923
              ],
              [
                106.595452,
                20.892318
              ],
              [
                106.595181,
                20.892404
              ],
              [
                106.595563,
                20.893411
              ],
              [
                106.597078,
                20.893068
              ],
              [
                106.597032,
                20.893962
              ],
              [
                106.597606,
                20.894045
              ],
              [
                106.59758,
                20.896364
              ],
              [
                106.59696,
                20.899933
              ],
              [
                106.591822,
                20.899719
              ],
              [
                106.591626,
                20.896415
              ],
              [
                106.585591,
                20.898539
              ],
              [
                106.585155,
                20.896586
              ],
              [
                106.584593,
                20.896806
              ],
              [
                106.584065,
                20.897053
              ],
              [
                106.583537,
                20.8973
              ],
              [
                106.582854,
                20.897702
              ],
              [
                106.582475,
                20.897925
              ],
              [
                106.581707,
                20.898401
              ],
              [
                106.581688,
                20.898412
              ],
              [
                106.581107,
                20.898771
              ],
              [
                106.581065,
                20.898797
              ],
              [
                106.580611,
                20.899078
              ],
              [
                106.580497,
                20.899155
              ],
              [
                106.579827,
                20.899609
              ],
              [
                106.579566,
                20.899785
              ],
              [
                106.579519,
                20.899817
              ],
              [
                106.57914,
                20.900147
              ],
              [
                106.578902,
                20.900355
              ],
              [
                106.578398,
                20.900867
              ],
              [
                106.578167,
                20.901154
              ],
              [
                106.578081,
                20.901261
              ],
              [
                106.57798,
                20.901388
              ],
              [
                106.577926,
                20.901454
              ],
              [
                106.577764,
                20.901656
              ],
              [
                106.577614,
                20.901863
              ],
              [
                106.577475,
                20.902054
              ],
              [
                106.575001,
                20.90156
              ],
              [
                106.571643,
                20.906947
              ],
              [
                106.571655,
                20.906955
              ],
              [
                106.571628,
                20.906989
              ],
              [
                106.571224,
                20.9076
              ],
              [
                106.571521,
                20.907645
              ],
              [
                106.57186,
                20.907697
              ],
              [
                106.572629,
                20.907814
              ],
              [
                106.572949,
                20.907863
              ],
              [
                106.573068,
                20.907889
              ],
              [
                106.573198,
                20.907917
              ],
              [
                106.572981,
                20.908207
              ],
              [
                106.572922,
                20.908267
              ],
              [
                106.57239,
                20.908816
              ],
              [
                106.572329,
                20.908865
              ],
              [
                106.572194,
                20.908975
              ],
              [
                106.572976,
                20.90979
              ],
              [
                106.574671,
                20.911559
              ],
              [
                106.573568,
                20.911786
              ],
              [
                106.567721,
                20.912992
              ],
              [
                106.563198,
                20.916767
              ],
              [
                106.55545,
                20.929052
              ],
              [
                106.557549,
                20.93171
              ],
              [
                106.557978,
                20.931707
              ],
              [
                106.558407,
                20.931704
              ],
              [
                106.559167,
                20.93179
              ],
              [
                106.56036,
                20.932091
              ],
              [
                106.561118,
                20.932362
              ],
              [
                106.562922,
                20.933294
              ],
              [
                106.564,
                20.933892
              ],
              [
                106.564373,
                20.934125
              ],
              [
                106.565147,
                20.934682
              ],
              [
                106.566034,
                20.935414
              ],
              [
                106.566961,
                20.936497
              ],
              [
                106.566967,
                20.936504
              ],
              [
                106.567878,
                20.938378
              ],
              [
                106.568332,
                20.939321
              ],
              [
                106.568598,
                20.940548
              ],
              [
                106.568702,
                20.941815
              ],
              [
                106.568594,
                20.943406
              ],
              [
                106.56844,
                20.945017
              ],
              [
                106.568075,
                20.946851
              ],
              [
                106.567737,
                20.948298
              ],
              [
                106.567633,
                20.948942
              ],
              [
                106.56754,
                20.949521
              ],
              [
                106.567672,
                20.950298
              ],
              [
                106.567953,
                20.95086
              ],
              [
                106.56799,
                20.950933
              ],
              [
                106.568634,
                20.951408
              ],
              [
                106.569303,
                20.951761
              ],
              [
                106.570298,
                20.951871
              ],
              [
                106.571458,
                20.951738
              ],
              [
                106.573272,
                20.951039
              ],
              [
                106.574484,
                20.950294
              ],
              [
                106.575743,
                20.949447
              ],
              [
                106.576864,
                20.948517
              ],
              [
                106.577566,
                20.947747
              ],
              [
                106.578225,
                20.94665
              ],
              [
                106.57858,
                20.945878
              ],
              [
                106.578773,
                20.945063
              ],
              [
                106.578712,
                20.944164
              ],
              [
                106.578512,
                20.943285
              ],
              [
                106.578058,
                20.942322
              ],
              [
                106.578048,
                20.942308
              ],
              [
                106.577623,
                20.941726
              ],
              [
                106.576704,
                20.940922
              ],
              [
                106.575532,
                20.939953
              ],
              [
                106.574426,
                20.939291
              ],
              [
                106.572306,
                20.938048
              ],
              [
                106.57172,
                20.937746
              ],
              [
                106.571458,
                20.937547
              ],
              [
                106.571048,
                20.937187
              ],
              [
                106.571011,
                20.937114
              ],
              [
                106.570809,
                20.936712
              ],
              [
                106.570611,
                20.936283
              ],
              [
                106.570324,
                20.935534
              ],
              [
                106.570287,
                20.93542
              ],
              [
                106.570258,
                20.935144
              ],
              [
                106.570267,
                20.934907
              ],
              [
                106.570301,
                20.934627
              ],
              [
                106.570408,
                20.934193
              ],
              [
                106.570663,
                20.933649
              ],
              [
                106.570924,
                20.933189
              ],
              [
                106.571183,
                20.932883
              ],
              [
                106.571767,
                20.932293
              ],
              [
                106.572372,
                20.931785
              ],
              [
                106.573146,
                20.931274
              ],
              [
                106.573686,
                20.930992
              ],
              [
                106.574407,
                20.930718
              ],
              [
                106.575422,
                20.930484
              ],
              [
                106.575989,
                20.930395
              ],
              [
                106.576545,
                20.930372
              ],
              [
                106.577114,
                20.930427
              ],
              [
                106.578062,
                20.930644
              ],
              [
                106.579367,
                20.931184
              ],
              [
                106.580318,
                20.931704
              ],
              [
                106.580895,
                20.932177
              ],
              [
                106.581821,
                20.933187
              ],
              [
                106.582846,
                20.934572
              ],
              [
                106.584065,
                20.936465
              ],
              [
                106.58409,
                20.936504
              ],
              [
                106.58492,
                20.938649
              ],
              [
                106.584927,
                20.938667
              ],
              [
                106.586158,
                20.940861
              ],
              [
                106.587642,
                20.943201
              ],
              [
                106.588925,
                20.944681
              ],
              [
                106.589184,
                20.9449
              ],
              [
                106.590428,
                20.94598
              ],
              [
                106.591268,
                20.946582
              ],
              [
                106.591275,
                20.946587
              ],
              [
                106.591275,
                20.946587
              ]
            ]
          ]
        ]
      },
      "properties": {
        "code": "11602",
        "name": "Hồng An",
        "nameEn": "Hong An",
        "fullName": "Phường Hồng An",
        "fullNameEn": "Hong An Ward",
        "codeName": "hong_an",
        "postalCode": "04118",
        "postalCodePrefix": "",
        "gisServerId": "diaphanhanhchinhcapxa_2025.943",
        "areaKm2": 27.64
      }
    }
  ]
}