{
  "type": "FeatureCollection",
  "bbox": [
    106.606997,
    20.816273,
    106.663924,
    20.872298
  ],
  "features": [
    {
      "type": "Feature",
      "id": "11617",
      "bbox": [
        106.606997,
        20.816273,
        106.663924,
        20.872298
      ],
      "geometry": {
        "type": "MultiPolygon",
        "coordinates": [
          [
            [
              [
                106.623326,
                20.872292
              ],
              [
                106.623508,
                20.872265
              ],
              [
                106.624015,
                20.872172
              ],
              [
                106.624439,
                20.87208
              ],
              [
                106.625577,
                20.871734
              ],
              [
                106.626463,
                20.871369
              ],
              [
                106.626686,
                20.871296
              ],
              [
                106.626791,
                20.871251
              ],
              [
                106.626872,
                20.871235
              ],
              [
                106.626946,
                20.871206
              ],
              [
                106.627471,
                20.870956
              ],
              [
                106.627704,
                20.870836
              ],
              [
                106.627848,
                20.870738
              ],
              [
                106.628085,
                20.870538
              ],
              [
                106.62825,
                20.870402
              ],
              [
                106.628476,
                20.870218
              ],
              [
                106.628727,
                20.869979
              ],
              [
                106.628999,
                20.869687
              ],
              [
                106.629453,
                20.869171
              ],
              [
                106.629757,
                20.868766
              ],
              [
                106.62985,
                20.868634
              ],
              [
                106.630103,
                20.868146
              ],
              [
                106.630379,
                20.867341
              ],
              [
                106.630926,
                20.866131
              ],
              [
                106.631426,
                20.865371
              ],
              [
                106.63203,
                20.86482
              ],
              [
                106.632494,
                20.864443
              ],
              [
                106.633232,
                20.863987
              ],
              [
                106.634205,
                20.863691
              ],
              [
                106.634946,
                20.863578
              ],
              [
                106.63572,
                20.863609
              ],
              [
                106.636564,
                20.863678
              ],
              [
                106.637288,
                20.863804
              ],
              [
                106.63767,
                20.8639
              ],
              [
                106.63813,
                20.864042
              ],
              [
                106.638534,
                20.864179
              ],
              [
                106.638921,
                20.864304
              ],
              [
                106.639129,
                20.864373
              ],
              [
                106.639495,
                20.864514
              ],
              [
                106.639845,
                20.864632
              ],
              [
                106.640059,
                20.864708
              ],
              [
                106.640266,
                20.864761
              ],
              [
                106.640518,
                20.864807
              ],
              [
                106.640831,
                20.864835
              ],
              [
                106.641175,
                20.864851
              ],
              [
                106.641475,
                20.864834
              ],
              [
                106.642021,
                20.864806
              ],
              [
                106.642481,
                20.864711
              ],
              [
                106.642884,
                20.864611
              ],
              [
                106.64341,
                20.864462
              ],
              [
                106.643814,
                20.864337
              ],
              [
                106.64407,
                20.864214
              ],
              [
                106.644347,
                20.864091
              ],
              [
                106.644587,
                20.863942
              ],
              [
                106.644834,
                20.863784
              ],
              [
                106.645074,
                20.863616
              ],
              [
                106.64527,
                20.863448
              ],
              [
                106.645585,
                20.863187
              ],
              [
                106.645922,
                20.862914
              ],
              [
                106.646258,
                20.862635
              ],
              [
                106.646416,
                20.862503
              ],
              [
                106.646519,
                20.862416
              ],
              [
                106.646629,
                20.862275
              ],
              [
                106.646712,
                20.862167
              ],
              [
                106.646912,
                20.861935
              ],
              [
                106.647039,
                20.861766
              ],
              [
                106.647499,
                20.861193
              ],
              [
                106.648053,
                20.86045
              ],
              [
                106.648443,
                20.859973
              ],
              [
                106.648706,
                20.859789
              ],
              [
                106.648812,
                20.859761
              ],
              [
                106.648935,
                20.859736
              ],
              [
                106.649146,
                20.859728
              ],
              [
                106.649272,
                20.859739
              ],
              [
                106.649353,
                20.859772
              ],
              [
                106.649554,
                20.859821
              ],
              [
                106.649788,
                20.859871
              ],
              [
                106.650105,
                20.859947
              ],
              [
                106.650365,
                20.860017
              ],
              [
                106.650485,
                20.86005
              ],
              [
                106.650509,
                20.860056
              ],
              [
                106.650607,
                20.860076
              ],
              [
                106.650659,
                20.860086
              ],
              [
                106.651437,
                20.860314
              ],
              [
                106.651763,
                20.860387
              ],
              [
                106.65196,
                20.860433
              ],
              [
                106.652283,
                20.860509
              ],
              [
                106.652596,
                20.860592
              ],
              [
                106.652773,
                20.860661
              ],
              [
                106.653085,
                20.860779
              ],
              [
                106.653394,
                20.860903
              ],
              [
                106.653479,
                20.860935
              ],
              [
                106.653859,
                20.861147
              ],
              [
                106.654322,
                20.861395
              ],
              [
                106.654781,
                20.861633
              ],
              [
                106.654992,
                20.861734
              ],
              [
                106.655257,
                20.861846
              ],
              [
                106.655738,
                20.86199
              ],
              [
                106.656204,
                20.862083
              ],
              [
                106.656538,
                20.862111
              ],
              [
                106.657276,
                20.862102
              ],
              [
                106.657902,
                20.862062
              ],
              [
                106.658453,
                20.862042
              ],
              [
                106.658677,
                20.86201
              ],
              [
                106.659109,
                20.861962
              ],
              [
                106.659758,
                20.861681
              ],
              [
                106.660241,
                20.86126
              ],
              [
                106.660595,
                20.860841
              ],
              [
                106.660835,
                20.860473
              ],
              [
                106.660946,
                20.860171
              ],
              [
                106.661004,
                20.859869
              ],
              [
                106.660874,
                20.859096
              ],
              [
                106.660745,
                20.858495
              ],
              [
                106.66051,
                20.857902
              ],
              [
                106.660338,
                20.857545
              ],
              [
                106.659958,
                20.857018
              ],
              [
                106.659717,
                20.856547
              ],
              [
                106.65966,
                20.85624
              ],
              [
                106.659717,
                20.855916
              ],
              [
                106.659858,
                20.855542
              ],
              [
                106.660469,
                20.854711
              ],
              [
                106.660525,
                20.854638
              ],
              [
                106.660593,
                20.854556
              ],
              [
                106.660832,
                20.85432
              ],
              [
                106.661052,
                20.854111
              ],
              [
                106.661222,
                20.853993
              ],
              [
                106.661489,
                20.853821
              ],
              [
                106.661855,
                20.853598
              ],
              [
                106.662057,
                20.853483
              ],
              [
                106.662243,
                20.853408
              ],
              [
                106.662552,
                20.853295
              ],
              [
                106.663069,
                20.853146
              ],
              [
                106.663483,
                20.853018
              ],
              [
                106.663681,
                20.85299
              ],
              [
                106.663752,
                20.85298
              ],
              [
                106.663924,
                20.85301
              ],
              [
                106.663679,
                20.85256
              ],
              [
                106.663201,
                20.852044
              ],
              [
                106.662688,
                20.851572
              ],
              [
                106.662079,
                20.850646
              ],
              [
                106.662022,
                20.850537
              ],
              [
                106.661187,
                20.849295
              ],
              [
                106.660621,
                20.848382
              ],
              [
                106.659686,
                20.846835
              ],
              [
                106.659083,
                20.845838
              ],
              [
                106.658271,
                20.844595
              ],
              [
                106.657916,
                20.843904
              ],
              [
                106.657659,
                20.843403
              ],
              [
                106.656952,
                20.843644
              ],
              [
                106.655811,
                20.843905
              ],
              [
                106.654769,
                20.843997
              ],
              [
                106.654233,
                20.843943
              ],
              [
                106.653734,
                20.843823
              ],
              [
                106.653007,
                20.843586
              ],
              [
                106.652542,
                20.843398
              ],
              [
                106.652208,
                20.843226
              ],
              [
                106.651882,
                20.842976
              ],
              [
                106.651233,
                20.842231
              ],
              [
                106.650698,
                20.841572
              ],
              [
                106.650082,
                20.840431
              ],
              [
                106.649935,
                20.840038
              ],
              [
                106.649778,
                20.839619
              ],
              [
                106.649657,
                20.838867
              ],
              [
                106.649661,
                20.838497
              ],
              [
                106.649758,
                20.837642
              ],
              [
                106.650027,
                20.836974
              ],
              [
                106.650421,
                20.836395
              ],
              [
                106.650818,
                20.835982
              ],
              [
                106.651289,
                20.835493
              ],
              [
                106.651933,
                20.834951
              ],
              [
                106.653306,
                20.833933
              ],
              [
                106.65376,
                20.833582
              ],
              [
                106.654527,
                20.832987
              ],
              [
                106.655246,
                20.83233
              ],
              [
                106.655634,
                20.831932
              ],
              [
                106.655935,
                20.831325
              ],
              [
                106.656127,
                20.830429
              ],
              [
                106.65615,
                20.829705
              ],
              [
                106.656047,
                20.828806
              ],
              [
                106.655929,
                20.828312
              ],
              [
                106.655798,
                20.82798
              ],
              [
                106.655704,
                20.82774
              ],
              [
                106.655374,
                20.827322
              ],
              [
                106.655178,
                20.827073
              ],
              [
                106.654683,
                20.826553
              ],
              [
                106.654639,
                20.826521
              ],
              [
                106.654531,
                20.826441
              ],
              [
                106.654392,
                20.826337
              ],
              [
                106.65432,
                20.826284
              ],
              [
                106.65393,
                20.826088
              ],
              [
                106.653504,
                20.825924
              ],
              [
                106.652906,
                20.825822
              ],
              [
                106.652068,
                20.825938
              ],
              [
                106.651245,
                20.826197
              ],
              [
                106.650426,
                20.826647
              ],
              [
                106.649053,
                20.827642
              ],
              [
                106.648342,
                20.828157
              ],
              [
                106.647509,
                20.828683
              ],
              [
                106.646346,
                20.829267
              ],
              [
                106.645394,
                20.829574
              ],
              [
                106.644795,
                20.829646
              ],
              [
                106.644369,
                20.829689
              ],
              [
                106.644027,
                20.829677
              ],
              [
                106.643837,
                20.829669
              ],
              [
                106.6426,
                20.829485
              ],
              [
                106.642172,
                20.829421
              ],
              [
                106.64183,
                20.829374
              ],
              [
                106.640952,
                20.829139
              ],
              [
                106.639948,
                20.828758
              ],
              [
                106.639045,
                20.828292
              ],
              [
                106.638537,
                20.828001
              ],
              [
                106.637908,
                20.827573
              ],
              [
                106.637533,
                20.827331
              ],
              [
                106.636148,
                20.826518
              ],
              [
                106.634916,
                20.82593
              ],
              [
                106.633566,
                20.825261
              ],
              [
                106.632711,
                20.82473
              ],
              [
                106.632103,
                20.824335
              ],
              [
                106.631666,
                20.82396
              ],
              [
                106.630667,
                20.822988
              ],
              [
                106.630042,
                20.822339
              ],
              [
                106.629278,
                20.821248
              ],
              [
                106.628743,
                20.820557
              ],
              [
                106.628559,
                20.820294
              ],
              [
                106.628395,
                20.82007
              ],
              [
                106.627891,
                20.819625
              ],
              [
                106.627411,
                20.819173
              ],
              [
                106.626871,
                20.818775
              ],
              [
                106.626139,
                20.818331
              ],
              [
                106.623861,
                20.817148
              ],
              [
                106.623627,
                20.817058
              ],
              [
                106.622015,
                20.816439
              ],
              [
                106.621723,
                20.816386
              ],
              [
                106.621431,
                20.816333
              ],
              [
                106.621257,
                20.816302
              ],
              [
                106.621214,
                20.816301
              ],
              [
                106.621137,
                20.816299
              ],
              [
                106.620589,
                20.816286
              ],
              [
                106.620133,
                20.816273
              ],
              [
                106.619984,
                20.816285
              ],
              [
                106.619601,
                20.816324
              ],
              [
                106.619249,
                20.816382
              ],
              [
                106.61904,
                20.81645
              ],
              [
                106.618602,
                20.816592
              ],
              [
                106.617811,
                20.816921
              ],
              [
                106.617547,
                20.817029
              ],
              [
                106.617283,
                20.817136
              ],
              [
                106.617143,
                20.817193
              ],
              [
                106.616661,
                20.817388
              ],
              [
                106.615964,
                20.817667
              ],
              [
                106.614873,
                20.818112
              ],
              [
                106.611239,
                20.81953
              ],
              [
                106.610663,
                20.819709
              ],
              [
                106.609471,
                20.82008
              ],
              [
                106.607635,
                20.820505
              ],
              [
                106.607335,
                20.820555
              ],
              [
                106.606997,
                20.820611
              ],
              [
                106.60796,
                20.822413
              ],
              [
                106.608137,
                20.822342
              ],
              [
                106.608269,
                20.822275
              ],
              [
                106.608367,
                20.822256
              ],
              [
                106.608518,
                20.822613
              ],
              [
                106.60808,
                20.82281
              ],
              [
                106.608547,
                20.823626
              ],
              [
                106.609011,
                20.823418
              ],
              [
                106.609169,
                20.823742
              ],
              [
                106.608551,
                20.82408
              ],
              [
                106.608965,
                20.824791
              ],
              [
                106.6094,
                20.82464
              ],
              [
                106.609499,
                20.824868
              ],
              [
                106.609169,
                20.824983
              ],
              [
                106.609315,
                20.825282
              ],
              [
                106.609464,
                20.825427
              ],
              [
                106.610324,
                20.826791
              ],
              [
                106.609878,
                20.827087
              ],
              [
                106.609735,
                20.827357
              ],
              [
                106.610454,
                20.828446
              ],
              [
                106.610197,
                20.828643
              ],
              [
                106.610522,
                20.829111
              ],
              [
                106.611165,
                20.828731
              ],
              [
                106.611333,
                20.829095
              ],
              [
                106.61111,
                20.829211
              ],
              [
                106.611199,
                20.829518
              ],
              [
                106.610984,
                20.829601
              ],
              [
                106.611223,
                20.830094
              ],
              [
                106.61143,
                20.830076
              ],
              [
                106.611956,
                20.830924
              ],
              [
                106.613307,
                20.832859
              ],
              [
                106.612165,
                20.833532
              ],
              [
                106.612408,
                20.833864
              ],
              [
                106.613651,
                20.835668
              ],
              [
                106.614093,
                20.83635
              ],
              [
                106.613804,
                20.836556
              ],
              [
                106.613764,
                20.836824
              ],
              [
                106.613817,
                20.836945
              ],
              [
                106.613988,
                20.837226
              ],
              [
                106.614404,
                20.837388
              ],
              [
                106.614371,
                20.837886
              ],
              [
                106.613796,
                20.837793
              ],
              [
                106.613789,
                20.83786
              ],
              [
                106.613782,
                20.837924
              ],
              [
                106.61377,
                20.838037
              ],
              [
                106.61444,
                20.838218
              ],
              [
                106.614972,
                20.838455
              ],
              [
                106.615257,
                20.83871
              ],
              [
                106.615267,
                20.838939
              ],
              [
                106.616134,
                20.839331
              ],
              [
                106.616149,
                20.839378
              ],
              [
                106.616222,
                20.840115
              ],
              [
                106.616344,
                20.840485
              ],
              [
                106.616498,
                20.840588
              ],
              [
                106.616713,
                20.84068
              ],
              [
                106.617378,
                20.841208
              ],
              [
                106.618714,
                20.842268
              ],
              [
                106.620581,
                20.843758
              ],
              [
                106.620368,
                20.844265
              ],
              [
                106.620123,
                20.844844
              ],
              [
                106.620107,
                20.844881
              ],
              [
                106.620096,
                20.844909
              ],
              [
                106.620069,
                20.844974
              ],
              [
                106.620003,
                20.845137
              ],
              [
                106.620003,
                20.845137
              ],
              [
                106.619937,
                20.8453
              ],
              [
                106.619907,
                20.845374
              ],
              [
                106.619902,
                20.84539
              ],
              [
                106.619808,
                20.845679
              ],
              [
                106.619476,
                20.846406
              ],
              [
                106.619205,
                20.847025
              ],
              [
                106.619175,
                20.847094
              ],
              [
                106.619134,
                20.847173
              ],
              [
                106.619092,
                20.847253
              ],
              [
                106.618934,
                20.847639
              ],
              [
                106.61889,
                20.847747
              ],
              [
                106.618429,
                20.848895
              ],
              [
                106.617661,
                20.850543
              ],
              [
                106.617634,
                20.850605
              ],
              [
                106.617301,
                20.851362
              ],
              [
                106.617069,
                20.852072
              ],
              [
                106.616713,
                20.85313
              ],
              [
                106.616535,
                20.853684
              ],
              [
                106.616519,
                20.853731
              ],
              [
                106.616295,
                20.854418
              ],
              [
                106.61598,
                20.855282
              ],
              [
                106.615899,
                20.855539
              ],
              [
                106.616696,
                20.855633
              ],
              [
                106.615345,
                20.859588
              ],
              [
                106.620267,
                20.859748
              ],
              [
                106.620302,
                20.86309
              ],
              [
                106.619673,
                20.862983
              ],
              [
                106.619318,
                20.867183
              ],
              [
                106.621898,
                20.867197
              ],
              [
                106.621223,
                20.868881
              ],
              [
                106.621363,
                20.869328
              ],
              [
                106.621793,
                20.870795
              ],
              [
                106.621871,
                20.871064
              ],
              [
                106.621905,
                20.871201
              ],
              [
                106.621924,
                20.87131
              ],
              [
                106.621901,
                20.871593
              ],
              [
                106.621896,
                20.871654
              ],
              [
                106.621821,
                20.871844
              ],
              [
                106.621751,
                20.872024
              ],
              [
                106.622073,
                20.872132
              ],
              [
                106.622433,
                20.872227
              ],
              [
                106.62278,
                20.872286
              ],
              [
                106.623092,
                20.872298
              ],
              [
                106.623326,
                20.872292
              ],
              [
                106.623326,
                20.872292
              ]
            ]
          ]
        ]
      },
      "properties": {
        "code": "11617",
        "name": "An Hải",
        "nameEn": "An Hai",
        "fullName": "Phường An Hải",
        "fullNameEn": "An Hai Ward",
        "codeName": "an_hai",
        "postalCode": "04423",
        "postalCodePrefix": "",
        "gisServerId": "diaphanhanhchinhcapxa_2025.948",
        "areaKm2": 19.96
      }
    }
  ]
}