{
  "type": "FeatureCollection",
  "bbox": [
    106.477048,
    20.826454,
    106.581888,
    20.869491
  ],
  "features": [
    {
      "type": "Feature",
      "id": "11635",
      "bbox": [
        106.477048,
        20.826454,
        106.581888,
        20.869491
      ],
      "geometry": {
        "type": "MultiPolygon",
        "coordinates": [
          [
            [
              [
                106.546756,
                20.868628
              ],
              [
                106.547467,
                20.868167
              ],
              [
                106.547917,
                20.86767
              ],
              [
                106.548227,
                20.867213
              ],
              [
                106.548468,
                20.866698
              ],
              [
                106.548603,
                20.866272
              ],
              [
                106.548705,
                20.865649
              ],
              [
                106.54876,
                20.865321
              ],
              [
                106.54901,
                20.863903
              ],
              [
                106.549055,
                20.86282
              ],
              [
                106.549016,
                20.862352
              ],
              [
                106.548742,
                20.86088
              ],
              [
                106.548201,
                20.859029
              ],
              [
                106.547691,
                20.857629
              ],
              [
                106.547225,
                20.856131
              ],
              [
                106.547064,
                20.855604
              ],
              [
                106.547016,
                20.855226
              ],
              [
                106.547063,
                20.854833
              ],
              [
                106.547242,
                20.854366
              ],
              [
                106.547344,
                20.854191
              ],
              [
                106.547622,
                20.853816
              ],
              [
                106.547989,
                20.853489
              ],
              [
                106.548299,
                20.853374
              ],
              [
                106.548552,
                20.85336
              ],
              [
                106.54919,
                20.853299
              ],
              [
                106.549582,
                20.85336
              ],
              [
                106.55033,
                20.853654
              ],
              [
                106.551111,
                20.854087
              ],
              [
                106.552715,
                20.855234
              ],
              [
                106.553817,
                20.855941
              ],
              [
                106.55474,
                20.856477
              ],
              [
                106.554763,
                20.85649
              ],
              [
                106.556379,
                20.857218
              ],
              [
                106.55664,
                20.85736
              ],
              [
                106.556849,
                20.857411
              ],
              [
                106.557137,
                20.857438
              ],
              [
                106.557583,
                20.85736
              ],
              [
                106.559132,
                20.856872
              ],
              [
                106.559729,
                20.856565
              ],
              [
                106.560256,
                20.856225
              ],
              [
                106.561039,
                20.85555
              ],
              [
                106.561621,
                20.854898
              ],
              [
                106.562028,
                20.85436
              ],
              [
                106.562033,
                20.854351
              ],
              [
                106.562201,
                20.854085
              ],
              [
                106.562272,
                20.853973
              ],
              [
                106.562409,
                20.853756
              ],
              [
                106.562632,
                20.853175
              ],
              [
                106.562751,
                20.852593
              ],
              [
                106.562752,
                20.8516
              ],
              [
                106.562757,
                20.851099
              ],
              [
                106.56279,
                20.850344
              ],
              [
                106.562945,
                20.849681
              ],
              [
                106.563239,
                20.84901
              ],
              [
                106.563514,
                20.848528
              ],
              [
                106.563814,
                20.848251
              ],
              [
                106.56413,
                20.848057
              ],
              [
                106.564326,
                20.847986
              ],
              [
                106.564372,
                20.847969
              ],
              [
                106.564722,
                20.847839
              ],
              [
                106.565001,
                20.847788
              ],
              [
                106.56523,
                20.847765
              ],
              [
                106.565647,
                20.847779
              ],
              [
                106.566063,
                20.847878
              ],
              [
                106.566764,
                20.848022
              ],
              [
                106.568053,
                20.848337
              ],
              [
                106.568363,
                20.848422
              ],
              [
                106.568406,
                20.848431
              ],
              [
                106.568632,
                20.848483
              ],
              [
                106.570823,
                20.848918
              ],
              [
                106.572289,
                20.849249
              ],
              [
                106.57371,
                20.849579
              ],
              [
                106.57448,
                20.849767
              ],
              [
                106.575672,
                20.850186
              ],
              [
                106.577967,
                20.850739
              ],
              [
                106.57886,
                20.850838
              ],
              [
                106.579608,
                20.85086
              ],
              [
                106.580576,
                20.850808
              ],
              [
                106.580835,
                20.850763
              ],
              [
                106.581207,
                20.85063
              ],
              [
                106.58164,
                20.85044
              ],
              [
                106.581888,
                20.850301
              ],
              [
                106.581569,
                20.850162
              ],
              [
                106.580802,
                20.849175
              ],
              [
                106.58014,
                20.848048
              ],
              [
                106.580104,
                20.848019
              ],
              [
                106.580029,
                20.847905
              ],
              [
                106.579407,
                20.846953
              ],
              [
                106.578973,
                20.846343
              ],
              [
                106.578909,
                20.846291
              ],
              [
                106.578675,
                20.845947
              ],
              [
                106.578708,
                20.845943
              ],
              [
                106.578838,
                20.845931
              ],
              [
                106.579157,
                20.845856
              ],
              [
                106.579478,
                20.845784
              ],
              [
                106.579623,
                20.845746
              ],
              [
                106.579778,
                20.845699
              ],
              [
                106.579868,
                20.845672
              ],
              [
                106.580117,
                20.845608
              ],
              [
                106.580251,
                20.845566
              ],
              [
                106.580336,
                20.845527
              ],
              [
                106.580379,
                20.845499
              ],
              [
                106.580392,
                20.845491
              ],
              [
                106.58059,
                20.845325
              ],
              [
                106.580676,
                20.845251
              ],
              [
                106.580143,
                20.844815
              ],
              [
                106.580115,
                20.844815
              ],
              [
                106.580002,
                20.844757
              ],
              [
                106.579585,
                20.844505
              ],
              [
                106.579419,
                20.844391
              ],
              [
                106.579373,
                20.844339
              ],
              [
                106.579362,
                20.844306
              ],
              [
                106.57754,
                20.843046
              ],
              [
                106.577474,
                20.842995
              ],
              [
                106.577437,
                20.842938
              ],
              [
                106.577358,
                20.842847
              ],
              [
                106.576619,
                20.842151
              ],
              [
                106.576834,
                20.8419
              ],
              [
                106.577157,
                20.841668
              ],
              [
                106.578037,
                20.841202
              ],
              [
                106.576797,
                20.840486
              ],
              [
                106.576681,
                20.840411
              ],
              [
                106.577138,
                20.840192
              ],
              [
                106.577464,
                20.839985
              ],
              [
                106.577969,
                20.839622
              ],
              [
                106.578312,
                20.83939
              ],
              [
                106.578566,
                20.839207
              ],
              [
                106.578283,
                20.838913
              ],
              [
                106.578037,
                20.838676
              ],
              [
                106.577479,
                20.838447
              ],
              [
                106.577084,
                20.838441
              ],
              [
                106.576149,
                20.838454
              ],
              [
                106.575657,
                20.838566
              ],
              [
                106.575161,
                20.838786
              ],
              [
                106.574743,
                20.838953
              ],
              [
                106.574413,
                20.838993
              ],
              [
                106.574347,
                20.838999
              ],
              [
                106.573838,
                20.839025
              ],
              [
                106.573062,
                20.839104
              ],
              [
                106.572056,
                20.839139
              ],
              [
                106.571548,
                20.839195
              ],
              [
                106.570607,
                20.839209
              ],
              [
                106.570176,
                20.839244
              ],
              [
                106.56987,
                20.839344
              ],
              [
                106.569691,
                20.839438
              ],
              [
                106.56955,
                20.839589
              ],
              [
                106.569263,
                20.839859
              ],
              [
                106.569111,
                20.839932
              ],
              [
                106.568533,
                20.840117
              ],
              [
                106.567813,
                20.840317
              ],
              [
                106.567594,
                20.840316
              ],
              [
                106.567326,
                20.840298
              ],
              [
                106.566126,
                20.840078
              ],
              [
                106.565558,
                20.840051
              ],
              [
                106.565525,
                20.840227
              ],
              [
                106.565485,
                20.840422
              ],
              [
                106.565413,
                20.84053
              ],
              [
                106.565375,
                20.840558
              ],
              [
                106.565312,
                20.840603
              ],
              [
                106.565249,
                20.840633
              ],
              [
                106.565212,
                20.840616
              ],
              [
                106.565157,
                20.84056
              ],
              [
                106.565135,
                20.840483
              ],
              [
                106.565177,
                20.840333
              ],
              [
                106.564507,
                20.840072
              ],
              [
                106.564151,
                20.840589
              ],
              [
                106.563501,
                20.840179
              ],
              [
                106.563001,
                20.839911
              ],
              [
                106.562758,
                20.839745
              ],
              [
                106.56306,
                20.8393
              ],
              [
                106.563378,
                20.838787
              ],
              [
                106.562915,
                20.838472
              ],
              [
                106.562718,
                20.838427
              ],
              [
                106.562661,
                20.838202
              ],
              [
                106.562344,
                20.838251
              ],
              [
                106.560144,
                20.838682
              ],
              [
                106.560097,
                20.838417
              ],
              [
                106.560063,
                20.838277
              ],
              [
                106.559566,
                20.838333
              ],
              [
                106.559016,
                20.838518
              ],
              [
                106.559034,
                20.838656
              ],
              [
                106.558362,
                20.838801
              ],
              [
                106.557609,
                20.838942
              ],
              [
                106.557541,
                20.838747
              ],
              [
                106.556957,
                20.838866
              ],
              [
                106.556209,
                20.839001
              ],
              [
                106.556104,
                20.838899
              ],
              [
                106.555646,
                20.839006
              ],
              [
                106.555596,
                20.838888
              ],
              [
                106.555273,
                20.838881
              ],
              [
                106.555232,
                20.838614
              ],
              [
                106.554472,
                20.838611
              ],
              [
                106.554471,
                20.838035
              ],
              [
                106.554214,
                20.838001
              ],
              [
                106.553629,
                20.838047
              ],
              [
                106.553414,
                20.83736
              ],
              [
                106.553325,
                20.837171
              ],
              [
                106.552857,
                20.836933
              ],
              [
                106.552509,
                20.837117
              ],
              [
                106.552128,
                20.83675
              ],
              [
                106.551851,
                20.836973
              ],
              [
                106.551651,
                20.837202
              ],
              [
                106.551465,
                20.837521
              ],
              [
                106.551233,
                20.83751
              ],
              [
                106.55119,
                20.837657
              ],
              [
                106.551089,
                20.837951
              ],
              [
                106.55074,
                20.837966
              ],
              [
                106.550699,
                20.837657
              ],
              [
                106.549627,
                20.837644
              ],
              [
                106.549633,
                20.83773
              ],
              [
                106.549624,
                20.838141
              ],
              [
                106.549275,
                20.837962
              ],
              [
                106.548973,
                20.837806
              ],
              [
                106.548808,
                20.837729
              ],
              [
                106.548635,
                20.837731
              ],
              [
                106.548262,
                20.837808
              ],
              [
                106.547833,
                20.837502
              ],
              [
                106.546974,
                20.837099
              ],
              [
                106.546754,
                20.83697
              ],
              [
                106.546698,
                20.836937
              ],
              [
                106.546581,
                20.836868
              ],
              [
                106.5464,
                20.836671
              ],
              [
                106.546212,
                20.836368
              ],
              [
                106.5461,
                20.836075
              ],
              [
                106.545889,
                20.835593
              ],
              [
                106.545772,
                20.835351
              ],
              [
                106.545571,
                20.835109
              ],
              [
                106.545425,
                20.834988
              ],
              [
                106.545175,
                20.834864
              ],
              [
                106.545103,
                20.834833
              ],
              [
                106.544805,
                20.834779
              ],
              [
                106.544203,
                20.834805
              ],
              [
                106.543905,
                20.834736
              ],
              [
                106.543737,
                20.834673
              ],
              [
                106.54356,
                20.834553
              ],
              [
                106.543436,
                20.834339
              ],
              [
                106.543371,
                20.83401
              ],
              [
                106.543415,
                20.833809
              ],
              [
                106.54352,
                20.833614
              ],
              [
                106.543633,
                20.833477
              ],
              [
                106.543807,
                20.83331
              ],
              [
                106.544003,
                20.833172
              ],
              [
                106.544535,
                20.83291
              ],
              [
                106.545225,
                20.832559
              ],
              [
                106.546022,
                20.832201
              ],
              [
                106.546378,
                20.831889
              ],
              [
                106.546686,
                20.831463
              ],
              [
                106.546762,
                20.831412
              ],
              [
                106.546944,
                20.831375
              ],
              [
                106.54715,
                20.831337
              ],
              [
                106.547218,
                20.831308
              ],
              [
                106.547286,
                20.831243
              ],
              [
                106.547391,
                20.83107
              ],
              [
                106.547451,
                20.830954
              ],
              [
                106.54748,
                20.830768
              ],
              [
                106.547478,
                20.83061
              ],
              [
                106.547361,
                20.830382
              ],
              [
                106.547337,
                20.830281
              ],
              [
                106.547329,
                20.830203
              ],
              [
                106.547343,
                20.830095
              ],
              [
                106.547351,
                20.830071
              ],
              [
                106.547476,
                20.829685
              ],
              [
                106.547535,
                20.829547
              ],
              [
                106.547607,
                20.829409
              ],
              [
                106.547604,
                20.829408
              ],
              [
                106.547344,
                20.829255
              ],
              [
                106.546837,
                20.828909
              ],
              [
                106.546471,
                20.828724
              ],
              [
                106.54609,
                20.828506
              ],
              [
                106.545631,
                20.828237
              ],
              [
                106.544986,
                20.827917
              ],
              [
                106.543963,
                20.827478
              ],
              [
                106.543401,
                20.827289
              ],
              [
                106.542974,
                20.827131
              ],
              [
                106.542921,
                20.827105
              ],
              [
                106.54166,
                20.826824
              ],
              [
                106.541177,
                20.82672
              ],
              [
                106.54097,
                20.826688
              ],
              [
                106.540326,
                20.826602
              ],
              [
                106.539682,
                20.826544
              ],
              [
                106.538423,
                20.826454
              ],
              [
                106.537546,
                20.826455
              ],
              [
                106.535595,
                20.8265
              ],
              [
                106.535395,
                20.826497
              ],
              [
                106.534802,
                20.826492
              ],
              [
                106.53416,
                20.82654
              ],
              [
                106.531911,
                20.827018
              ],
              [
                106.531836,
                20.827034
              ],
              [
                106.531798,
                20.827042
              ],
              [
                106.531489,
                20.827164
              ],
              [
                106.531171,
                20.827392
              ],
              [
                106.530403,
                20.827839
              ],
              [
                106.528969,
                20.828789
              ],
              [
                106.528142,
                20.829503
              ],
              [
                106.526468,
                20.830952
              ],
              [
                106.525802,
                20.831475
              ],
              [
                106.525223,
                20.831931
              ],
              [
                106.524522,
                20.832195
              ],
              [
                106.523681,
                20.832561
              ],
              [
                106.522856,
                20.832903
              ],
              [
                106.522116,
                20.833167
              ],
              [
                106.521701,
                20.83331
              ],
              [
                106.521138,
                20.833439
              ],
              [
                106.52066,
                20.83352
              ],
              [
                106.520157,
                20.833553
              ],
              [
                106.519705,
                20.833538
              ],
              [
                106.51915,
                20.83349
              ],
              [
                106.518447,
                20.833386
              ],
              [
                106.517782,
                20.83327
              ],
              [
                106.517486,
                20.833191
              ],
              [
                106.517218,
                20.833129
              ],
              [
                106.516699,
                20.833015
              ],
              [
                106.516099,
                20.83292
              ],
              [
                106.515895,
                20.832898
              ],
              [
                106.5157,
                20.83288
              ],
              [
                106.514925,
                20.832857
              ],
              [
                106.513805,
                20.832956
              ],
              [
                106.512261,
                20.833378
              ],
              [
                106.510625,
                20.834009
              ],
              [
                106.509232,
                20.834481
              ],
              [
                106.507192,
                20.835026
              ],
              [
                106.506343,
                20.835442
              ],
              [
                106.505786,
                20.835811
              ],
              [
                106.50534,
                20.836193
              ],
              [
                106.50491,
                20.83665
              ],
              [
                106.504147,
                20.837508
              ],
              [
                106.503889,
                20.838018
              ],
              [
                106.503694,
                20.838257
              ],
              [
                106.50329,
                20.838854
              ],
              [
                106.503086,
                20.839098
              ],
              [
                106.5023,
                20.840222
              ],
              [
                106.501895,
                20.84026
              ],
              [
                106.501872,
                20.840263
              ],
              [
                106.501195,
                20.840329
              ],
              [
                106.501007,
                20.840387
              ],
              [
                106.501018,
                20.840423
              ],
              [
                106.501073,
                20.840594
              ],
              [
                106.501085,
                20.840632
              ],
              [
                106.501048,
                20.840648
              ],
              [
                106.500863,
                20.840728
              ],
              [
                106.500745,
                20.840779
              ],
              [
                106.500415,
                20.841011
              ],
              [
                106.500184,
                20.84113
              ],
              [
                106.499026,
                20.841476
              ],
              [
                106.498986,
                20.841488
              ],
              [
                106.499049,
                20.841058
              ],
              [
                106.499091,
                20.840773
              ],
              [
                106.499114,
                20.840614
              ],
              [
                106.498996,
                20.840596
              ],
              [
                106.498,
                20.840448
              ],
              [
                106.497922,
                20.840436
              ],
              [
                106.496874,
                20.84028
              ],
              [
                106.49682,
                20.84042
              ],
              [
                106.496764,
                20.840801
              ],
              [
                106.496406,
                20.841627
              ],
              [
                106.495705,
                20.842704
              ],
              [
                106.494612,
                20.843586
              ],
              [
                106.494413,
                20.843747
              ],
              [
                106.494407,
                20.843752
              ],
              [
                106.492452,
                20.844988
              ],
              [
                106.48917,
                20.846437
              ],
              [
                106.488682,
                20.846653
              ],
              [
                106.487439,
                20.847413
              ],
              [
                106.486062,
                20.848256
              ],
              [
                106.485823,
                20.848402
              ],
              [
                106.484151,
                20.850331
              ],
              [
                106.483101,
                20.851557
              ],
              [
                106.482575,
                20.852171
              ],
              [
                106.479798,
                20.855443
              ],
              [
                106.479708,
                20.855514
              ],
              [
                106.479702,
                20.855519
              ],
              [
                106.478572,
                20.856686
              ],
              [
                106.4783,
                20.856999
              ],
              [
                106.477916,
                20.857455
              ],
              [
                106.47767,
                20.857772
              ],
              [
                106.477252,
                20.858346
              ],
              [
                106.477048,
                20.85864
              ],
              [
                106.478477,
                20.859727
              ],
              [
                106.478764,
                20.859946
              ],
              [
                106.47901,
                20.860077
              ],
              [
                106.479553,
                20.860493
              ],
              [
                106.48005,
                20.860876
              ],
              [
                106.480532,
                20.861317
              ],
              [
                106.481045,
                20.861747
              ],
              [
                106.481306,
                20.862009
              ],
              [
                106.481757,
                20.862222
              ],
              [
                106.481775,
                20.862229
              ],
              [
                106.48177,
                20.862262
              ],
              [
                106.481764,
                20.862295
              ],
              [
                106.481757,
                20.86241
              ],
              [
                106.481759,
                20.862465
              ],
              [
                106.48176,
                20.862506
              ],
              [
                106.48177,
                20.862601
              ],
              [
                106.481794,
                20.862714
              ],
              [
                106.481834,
                20.862838
              ],
              [
                106.481933,
                20.863089
              ],
              [
                106.481982,
                20.863199
              ],
              [
                106.482031,
                20.86329
              ],
              [
                106.482086,
                20.863371
              ],
              [
                106.482129,
                20.863433
              ],
              [
                106.482259,
                20.863578
              ],
              [
                106.482546,
                20.86385
              ],
              [
                106.482759,
                20.864069
              ],
              [
                106.482845,
                20.864158
              ],
              [
                106.482976,
                20.864261
              ],
              [
                106.483137,
                20.864359
              ],
              [
                106.483383,
                20.864483
              ],
              [
                106.483421,
                20.8645
              ],
              [
                106.483242,
                20.864781
              ],
              [
                106.483182,
                20.864874
              ],
              [
                106.482323,
                20.866218
              ],
              [
                106.481681,
                20.867228
              ],
              [
                106.481425,
                20.867614
              ],
              [
                106.481347,
                20.86774
              ],
              [
                106.481355,
                20.867804
              ],
              [
                106.481497,
                20.867931
              ],
              [
                106.481568,
                20.868056
              ],
              [
                106.482119,
                20.868437
              ],
              [
                106.482695,
                20.868848
              ],
              [
                106.483047,
                20.869308
              ],
              [
                106.483281,
                20.86946
              ],
              [
                106.483438,
                20.869491
              ],
              [
                106.483599,
                20.869397
              ],
              [
                106.483673,
                20.86924
              ],
              [
                106.483682,
                20.869222
              ],
              [
                106.483716,
                20.869053
              ],
              [
                106.483734,
                20.868914
              ],
              [
                106.483765,
                20.86856
              ],
              [
                106.483781,
                20.868471
              ],
              [
                106.483801,
                20.868406
              ],
              [
                106.483843,
                20.868324
              ],
              [
                106.483917,
                20.868231
              ],
              [
                106.483994,
                20.868155
              ],
              [
                106.484167,
                20.868002
              ],
              [
                106.484246,
                20.867921
              ],
              [
                106.48431,
                20.867834
              ],
              [
                106.48436,
                20.867741
              ],
              [
                106.484411,
                20.867609
              ],
              [
                106.484517,
                20.86728
              ],
              [
                106.484624,
                20.867006
              ],
              [
                106.484669,
                20.866871
              ],
              [
                106.485077,
                20.866252
              ],
              [
                106.485738,
                20.865425
              ],
              [
                106.487241,
                20.866025
              ],
              [
                106.487246,
                20.866027
              ],
              [
                106.487381,
                20.866073
              ],
              [
                106.488212,
                20.866361
              ],
              [
                106.490869,
                20.867375
              ],
              [
                106.491039,
                20.867447
              ],
              [
                106.492206,
                20.867608
              ],
              [
                106.493422,
                20.867415
              ],
              [
                106.493757,
                20.867265
              ],
              [
                106.494023,
                20.867053
              ],
              [
                106.494445,
                20.866716
              ],
              [
                106.49475,
                20.866234
              ],
              [
                106.495265,
                20.865098
              ],
              [
                106.496025,
                20.863837
              ],
              [
                106.496873,
                20.862433
              ],
              [
                106.497602,
                20.861242
              ],
              [
                106.498251,
                20.85993
              ],
              [
                106.498494,
                20.859267
              ],
              [
                106.498676,
                20.858512
              ],
              [
                106.498751,
                20.85782
              ],
              [
                106.498803,
                20.856406
              ],
              [
                106.498759,
                20.856283
              ],
              [
                106.498716,
                20.856095
              ],
              [
                106.498625,
                20.854993
              ],
              [
                106.498622,
                20.85451
              ],
              [
                106.498654,
                20.853886
              ],
              [
                106.498773,
                20.853527
              ],
              [
                106.498938,
                20.853274
              ],
              [
                106.499278,
                20.852977
              ],
              [
                106.499359,
                20.852947
              ],
              [
                106.499636,
                20.852845
              ],
              [
                106.49997,
                20.852771
              ],
              [
                106.500276,
                20.852768
              ],
              [
                106.500673,
                20.852858
              ],
              [
                106.501141,
                20.853069
              ],
              [
                106.501868,
                20.853597
              ],
              [
                106.501872,
                20.8536
              ],
              [
                106.502112,
                20.853858
              ],
              [
                106.502453,
                20.854222
              ],
              [
                106.502701,
                20.854636
              ],
              [
                106.503012,
                20.855645
              ],
              [
                106.50316,
                20.856132
              ],
              [
                106.503299,
                20.856769
              ],
              [
                106.503326,
                20.8577
              ],
              [
                106.503337,
                20.857906
              ],
              [
                106.503507,
                20.858804
              ],
              [
                106.50368,
                20.85975
              ],
              [
                106.503911,
                20.860518
              ],
              [
                106.504241,
                20.861331
              ],
              [
                106.504413,
                20.861634
              ],
              [
                106.504695,
                20.861955
              ],
              [
                106.50522,
                20.862445
              ],
              [
                106.505337,
                20.862528
              ],
              [
                106.506077,
                20.863158
              ],
              [
                106.506982,
                20.863668
              ],
              [
                106.507631,
                20.863841
              ],
              [
                106.50869,
                20.863906
              ],
              [
                106.509811,
                20.863901
              ],
              [
                106.510617,
                20.863874
              ],
              [
                106.511688,
                20.863642
              ],
              [
                106.512679,
                20.863218
              ],
              [
                106.513191,
                20.862976
              ],
              [
                106.51399,
                20.86259
              ],
              [
                106.514887,
                20.862324
              ],
              [
                106.51573,
                20.862107
              ],
              [
                106.516394,
                20.862032
              ],
              [
                106.516964,
                20.861993
              ],
              [
                106.517636,
                20.862008
              ],
              [
                106.518186,
                20.862031
              ],
              [
                106.519165,
                20.862152
              ],
              [
                106.519224,
                20.862165
              ],
              [
                106.520098,
                20.862662
              ],
              [
                106.521492,
                20.86308
              ],
              [
                106.522473,
                20.863234
              ],
              [
                106.523089,
                20.863244
              ],
              [
                106.523656,
                20.863135
              ],
              [
                106.524237,
                20.862788
              ],
              [
                106.524879,
                20.862218
              ],
              [
                106.525144,
                20.861649
              ],
              [
                106.525145,
                20.861618
              ],
              [
                106.525121,
                20.861406
              ],
              [
                106.524965,
                20.860735
              ],
              [
                106.524721,
                20.860016
              ],
              [
                106.524379,
                20.85874
              ],
              [
                106.524212,
                20.858196
              ],
              [
                106.523832,
                20.856713
              ],
              [
                106.523795,
                20.856608
              ],
              [
                106.523561,
                20.855597
              ],
              [
                106.523218,
                20.85437
              ],
              [
                106.523158,
                20.853931
              ],
              [
                106.523288,
                20.853127
              ],
              [
                106.523872,
                20.852319
              ],
              [
                106.524774,
                20.851637
              ],
              [
                106.525653,
                20.851344
              ],
              [
                106.527584,
                20.851366
              ],
              [
                106.529674,
                20.852552
              ],
              [
                106.530729,
                20.853358
              ],
              [
                106.531311,
                20.853741
              ],
              [
                106.5324,
                20.855195
              ],
              [
                106.533156,
                20.856405
              ],
              [
                106.533517,
                20.85725
              ],
              [
                106.533901,
                20.858232
              ],
              [
                106.534195,
                20.85916
              ],
              [
                106.534379,
                20.860022
              ],
              [
                106.534489,
                20.860735
              ],
              [
                106.534473,
                20.861687
              ],
              [
                106.534505,
                20.862684
              ],
              [
                106.534493,
                20.863241
              ],
              [
                106.534505,
                20.864063
              ],
              [
                106.534562,
                20.864646
              ],
              [
                106.534735,
                20.865243
              ],
              [
                106.534984,
                20.865763
              ],
              [
                106.535501,
                20.866447
              ],
              [
                106.535876,
                20.866819
              ],
              [
                106.536451,
                20.867161
              ],
              [
                106.53741,
                20.867648
              ],
              [
                106.538549,
                20.86802
              ],
              [
                106.540822,
                20.868642
              ],
              [
                106.542106,
                20.868899
              ],
              [
                106.543124,
                20.86903
              ],
              [
                106.544163,
                20.869085
              ],
              [
                106.545183,
                20.868996
              ],
              [
                106.5463,
                20.868779
              ],
              [
                106.546756,
                20.868628
              ],
              [
                106.546756,
                20.868628
              ]
            ]
          ]
        ]
      },
      "properties": {
        "code": "11635",
        "name": "An Trường",
        "nameEn": "An Truong",
        "fullName": "Xã An Trường",
        "fullNameEn": "An Truong Commune",
        "codeName": "an_truong",
        "postalCode": "04526",
        "postalCodePrefix": "",
        "gisServerId": "diaphanhanhchinhcapxa_2025.908",
        "areaKm2": 25.54
      }
    }
  ]
}