{
  "type": "FeatureCollection",
  "bbox": [
    106.620423,
    20.733165,
    106.686261,
    20.783662
  ],
  "features": [
    {
      "type": "Feature",
      "id": "11680",
      "bbox": [
        106.620423,
        20.733165,
        106.686261,
        20.783662
      ],
      "geometry": {
        "type": "MultiPolygon",
        "coordinates": [
          [
            [
              [
                106.639645,
                20.7764
              ],
              [
                106.63986,
                20.776386
              ],
              [
                106.640468,
                20.776408
              ],
              [
                106.640932,
                20.776464
              ],
              [
                106.641463,
                20.77653
              ],
              [
                106.641923,
                20.776534
              ],
              [
                106.642243,
                20.776502
              ],
              [
                106.642557,
                20.776464
              ],
              [
                106.642702,
                20.776416
              ],
              [
                106.6428,
                20.776385
              ],
              [
                106.642912,
                20.776299
              ],
              [
                106.642995,
                20.776216
              ],
              [
                106.643079,
                20.776099
              ],
              [
                106.643102,
                20.775981
              ],
              [
                106.643105,
                20.775695
              ],
              [
                106.6431,
                20.775516
              ],
              [
                106.643009,
                20.775088
              ],
              [
                106.642881,
                20.774596
              ],
              [
                106.642719,
                20.774113
              ],
              [
                106.642588,
                20.773731
              ],
              [
                106.642495,
                20.773406
              ],
              [
                106.642436,
                20.773132
              ],
              [
                106.642426,
                20.772933
              ],
              [
                106.642405,
                20.772519
              ],
              [
                106.642408,
                20.772122
              ],
              [
                106.642422,
                20.771922
              ],
              [
                106.642448,
                20.771769
              ],
              [
                106.642503,
                20.77151
              ],
              [
                106.642582,
                20.771293
              ],
              [
                106.642717,
                20.770976
              ],
              [
                106.642823,
                20.770787
              ],
              [
                106.642966,
                20.770575
              ],
              [
                106.643103,
                20.770371
              ],
              [
                106.643314,
                20.770111
              ],
              [
                106.643546,
                20.769925
              ],
              [
                106.643732,
                20.76977
              ],
              [
                106.644001,
                20.769582
              ],
              [
                106.644344,
                20.769344
              ],
              [
                106.644582,
                20.769216
              ],
              [
                106.644893,
                20.769096
              ],
              [
                106.645239,
                20.768968
              ],
              [
                106.645741,
                20.768822
              ],
              [
                106.646141,
                20.768712
              ],
              [
                106.646541,
                20.768659
              ],
              [
                106.646815,
                20.768621
              ],
              [
                106.647386,
                20.768643
              ],
              [
                106.647782,
                20.768686
              ],
              [
                106.648187,
                20.768783
              ],
              [
                106.648435,
                20.768846
              ],
              [
                106.648732,
                20.768947
              ],
              [
                106.648974,
                20.769047
              ],
              [
                106.649231,
                20.769153
              ],
              [
                106.649513,
                20.769282
              ],
              [
                106.64987,
                20.769518
              ],
              [
                106.650038,
                20.769641
              ],
              [
                106.650315,
                20.769892
              ],
              [
                106.650437,
                20.770025
              ],
              [
                106.650592,
                20.770177
              ],
              [
                106.650832,
                20.770516
              ],
              [
                106.650938,
                20.770673
              ],
              [
                106.651183,
                20.771088
              ],
              [
                106.651431,
                20.771537
              ],
              [
                106.651725,
                20.772051
              ],
              [
                106.651982,
                20.772537
              ],
              [
                106.652221,
                20.772897
              ],
              [
                106.652357,
                20.773138
              ],
              [
                106.652581,
                20.773558
              ],
              [
                106.652751,
                20.773817
              ],
              [
                106.652899,
                20.77404
              ],
              [
                106.65299,
                20.774171
              ],
              [
                106.653112,
                20.774337
              ],
              [
                106.65324,
                20.774453
              ],
              [
                106.65338,
                20.77457
              ],
              [
                106.653503,
                20.774681
              ],
              [
                106.653542,
                20.774716
              ],
              [
                106.653885,
                20.774829
              ],
              [
                106.654385,
                20.774948
              ],
              [
                106.655105,
                20.774846
              ],
              [
                106.655723,
                20.77462
              ],
              [
                106.656622,
                20.774066
              ],
              [
                106.658198,
                20.773162
              ],
              [
                106.659188,
                20.772636
              ],
              [
                106.659721,
                20.772553
              ],
              [
                106.659893,
                20.772551
              ],
              [
                106.660123,
                20.772579
              ],
              [
                106.660285,
                20.772673
              ],
              [
                106.660408,
                20.772766
              ],
              [
                106.660486,
                20.772885
              ],
              [
                106.660522,
                20.773048
              ],
              [
                106.660545,
                20.773239
              ],
              [
                106.660525,
                20.773406
              ],
              [
                106.660496,
                20.773576
              ],
              [
                106.660417,
                20.773793
              ],
              [
                106.660295,
                20.77405
              ],
              [
                106.66008,
                20.774391
              ],
              [
                106.659193,
                20.775607
              ],
              [
                106.658559,
                20.776487
              ],
              [
                106.657906,
                20.777319
              ],
              [
                106.6573,
                20.778121
              ],
              [
                106.65699,
                20.778743
              ],
              [
                106.656811,
                20.779193
              ],
              [
                106.656776,
                20.779851
              ],
              [
                106.657087,
                20.780398
              ],
              [
                106.657971,
                20.781046
              ],
              [
                106.65883,
                20.781695
              ],
              [
                106.660375,
                20.782469
              ],
              [
                106.662134,
                20.782906
              ],
              [
                106.663635,
                20.783095
              ],
              [
                106.664664,
                20.783049
              ],
              [
                106.665779,
                20.782799
              ],
              [
                106.6666,
                20.782289
              ],
              [
                106.667211,
                20.781723
              ],
              [
                106.667292,
                20.781649
              ],
              [
                106.668145,
                20.780236
              ],
              [
                106.668598,
                20.778439
              ],
              [
                106.668775,
                20.776252
              ],
              [
                106.668851,
                20.775014
              ],
              [
                106.668928,
                20.773949
              ],
              [
                106.668987,
                20.77353
              ],
              [
                106.669072,
                20.773195
              ],
              [
                106.669259,
                20.772835
              ],
              [
                106.669658,
                20.772102
              ],
              [
                106.669882,
                20.771693
              ],
              [
                106.669988,
                20.771549
              ],
              [
                106.670095,
                20.771404
              ],
              [
                106.670837,
                20.770776
              ],
              [
                106.671706,
                20.770015
              ],
              [
                106.673129,
                20.768842
              ],
              [
                106.673935,
                20.768272
              ],
              [
                106.67464,
                20.76768
              ],
              [
                106.674967,
                20.767378
              ],
              [
                106.675344,
                20.766968
              ],
              [
                106.675544,
                20.766655
              ],
              [
                106.675692,
                20.766283
              ],
              [
                106.675827,
                20.765864
              ],
              [
                106.675865,
                20.765579
              ],
              [
                106.67587,
                20.765543
              ],
              [
                106.675886,
                20.765421
              ],
              [
                106.675888,
                20.76539
              ],
              [
                106.675898,
                20.765217
              ],
              [
                106.675907,
                20.765062
              ],
              [
                106.675865,
                20.76468
              ],
              [
                106.67577,
                20.764143
              ],
              [
                106.675586,
                20.763548
              ],
              [
                106.676394,
                20.763282
              ],
              [
                106.676459,
                20.763279
              ],
              [
                106.676983,
                20.762935
              ],
              [
                106.676307,
                20.760696
              ],
              [
                106.676223,
                20.760347
              ],
              [
                106.676223,
                20.760346
              ],
              [
                106.676223,
                20.760342
              ],
              [
                106.676074,
                20.760315
              ],
              [
                106.67575,
                20.760256
              ],
              [
                106.676002,
                20.759743
              ],
              [
                106.67455,
                20.758162
              ],
              [
                106.673609,
                20.755353
              ],
              [
                106.673831,
                20.754547
              ],
              [
                106.673976,
                20.754211
              ],
              [
                106.674165,
                20.753768
              ],
              [
                106.674348,
                20.753336
              ],
              [
                106.674484,
                20.753012
              ],
              [
                106.674542,
                20.752875
              ],
              [
                106.674644,
                20.752617
              ],
              [
                106.676241,
                20.752979
              ],
              [
                106.676378,
                20.752656
              ],
              [
                106.6754,
                20.752428
              ],
              [
                106.675333,
                20.752412
              ],
              [
                106.675314,
                20.752408
              ],
              [
                106.67477,
                20.752277
              ],
              [
                106.674815,
                20.752195
              ],
              [
                106.674834,
                20.75216
              ],
              [
                106.676436,
                20.749003
              ],
              [
                106.676436,
                20.749003
              ],
              [
                106.676576,
                20.748726
              ],
              [
                106.677013,
                20.74868
              ],
              [
                106.677022,
                20.748678
              ],
              [
                106.677287,
                20.748652
              ],
              [
                106.678639,
                20.748511
              ],
              [
                106.678724,
                20.748522
              ],
              [
                106.679387,
                20.74861
              ],
              [
                106.679729,
                20.748664
              ],
              [
                106.681749,
                20.748919
              ],
              [
                106.682231,
                20.748847
              ],
              [
                106.682515,
                20.748811
              ],
              [
                106.682517,
                20.748811
              ],
              [
                106.68275,
                20.748801
              ],
              [
                106.682832,
                20.748849
              ],
              [
                106.682964,
                20.748875
              ],
              [
                106.682978,
                20.748816
              ],
              [
                106.682991,
                20.748765
              ],
              [
                106.683135,
                20.748793
              ],
              [
                106.683162,
                20.748735
              ],
              [
                106.683245,
                20.7487
              ],
              [
                106.683322,
                20.748726
              ],
              [
                106.683372,
                20.748701
              ],
              [
                106.683466,
                20.748716
              ],
              [
                106.683533,
                20.748503
              ],
              [
                106.683587,
                20.748342
              ],
              [
                106.683593,
                20.748327
              ],
              [
                106.683597,
                20.748313
              ],
              [
                106.684623,
                20.747289
              ],
              [
                106.685169,
                20.746743
              ],
              [
                106.685623,
                20.746289
              ],
              [
                106.686261,
                20.745652
              ],
              [
                106.685828,
                20.745555
              ],
              [
                106.685848,
                20.745453
              ],
              [
                106.685863,
                20.745379
              ],
              [
                106.685879,
                20.74524
              ],
              [
                106.685883,
                20.745212
              ],
              [
                106.685892,
                20.745133
              ],
              [
                106.685904,
                20.745034
              ],
              [
                106.685973,
                20.744739
              ],
              [
                106.686035,
                20.744481
              ],
              [
                106.686044,
                20.744444
              ],
              [
                106.685993,
                20.744439
              ],
              [
                106.685561,
                20.744399
              ],
              [
                106.685307,
                20.744376
              ],
              [
                106.685218,
                20.744365
              ],
              [
                106.684771,
                20.744311
              ],
              [
                106.68477,
                20.74427
              ],
              [
                106.68476,
                20.743798
              ],
              [
                106.684723,
                20.743368
              ],
              [
                106.68472,
                20.743127
              ],
              [
                106.68472,
                20.743124
              ],
              [
                106.684738,
                20.742802
              ],
              [
                106.684776,
                20.742427
              ],
              [
                106.684894,
                20.742028
              ],
              [
                106.685102,
                20.741559
              ],
              [
                106.68533,
                20.741207
              ],
              [
                106.685562,
                20.74093
              ],
              [
                106.68552,
                20.740899
              ],
              [
                106.685365,
                20.740787
              ],
              [
                106.685256,
                20.74072
              ],
              [
                106.6852,
                20.740685
              ],
              [
                106.68505,
                20.740591
              ],
              [
                106.68485,
                20.740465
              ],
              [
                106.684483,
                20.740216
              ],
              [
                106.684327,
                20.740107
              ],
              [
                106.684102,
                20.73995
              ],
              [
                106.683358,
                20.739415
              ],
              [
                106.682977,
                20.739114
              ],
              [
                106.682775,
                20.738993
              ],
              [
                106.682568,
                20.738903
              ],
              [
                106.682211,
                20.738736
              ],
              [
                106.681923,
                20.738614
              ],
              [
                106.681556,
                20.738517
              ],
              [
                106.681159,
                20.738435
              ],
              [
                106.680823,
                20.738417
              ],
              [
                106.680511,
                20.73842
              ],
              [
                106.679993,
                20.738461
              ],
              [
                106.679746,
                20.738511
              ],
              [
                106.679658,
                20.738529
              ],
              [
                106.679323,
                20.738561
              ],
              [
                106.678927,
                20.738543
              ],
              [
                106.678779,
                20.73853
              ],
              [
                106.678278,
                20.738485
              ],
              [
                106.677767,
                20.738411
              ],
              [
                106.677354,
                20.738315
              ],
              [
                106.676841,
                20.73814
              ],
              [
                106.676375,
                20.737966
              ],
              [
                106.676183,
                20.737867
              ],
              [
                106.67596,
                20.737669
              ],
              [
                106.675837,
                20.737531
              ],
              [
                106.675297,
                20.73751
              ],
              [
                106.674892,
                20.737495
              ],
              [
                106.674606,
                20.737484
              ],
              [
                106.67458,
                20.737517
              ],
              [
                106.674527,
                20.737527
              ],
              [
                106.674359,
                20.737527
              ],
              [
                106.67399,
                20.73749
              ],
              [
                106.673953,
                20.73749
              ],
              [
                106.673722,
                20.737493
              ],
              [
                106.673624,
                20.737473
              ],
              [
                106.673546,
                20.737477
              ],
              [
                106.673408,
                20.737485
              ],
              [
                106.673138,
                20.737501
              ],
              [
                106.673104,
                20.737489
              ],
              [
                106.673047,
                20.737502
              ],
              [
                106.672909,
                20.737587
              ],
              [
                106.67281,
                20.737688
              ],
              [
                106.672705,
                20.737771
              ],
              [
                106.672658,
                20.737797
              ],
              [
                106.67251,
                20.737872
              ],
              [
                106.672401,
                20.737941
              ],
              [
                106.67234,
                20.738013
              ],
              [
                106.672312,
                20.738082
              ],
              [
                106.672268,
                20.738116
              ],
              [
                106.67222,
                20.738124
              ],
              [
                106.672164,
                20.738114
              ],
              [
                106.672008,
                20.738078
              ],
              [
                106.671944,
                20.738071
              ],
              [
                106.671896,
                20.738085
              ],
              [
                106.671859,
                20.738117
              ],
              [
                106.671843,
                20.73816
              ],
              [
                106.671839,
                20.738244
              ],
              [
                106.671838,
                20.738304
              ],
              [
                106.671824,
                20.738336
              ],
              [
                106.671767,
                20.738397
              ],
              [
                106.6717,
                20.738478
              ],
              [
                106.671638,
                20.738554
              ],
              [
                106.671528,
                20.738717
              ],
              [
                106.671485,
                20.738756
              ],
              [
                106.671399,
                20.738802
              ],
              [
                106.671108,
                20.738943
              ],
              [
                106.670752,
                20.739129
              ],
              [
                106.670592,
                20.739233
              ],
              [
                106.670552,
                20.739253
              ],
              [
                106.670441,
                20.739296
              ],
              [
                106.670273,
                20.739305
              ],
              [
                106.670214,
                20.739296
              ],
              [
                106.670204,
                20.739295
              ],
              [
                106.669899,
                20.739251
              ],
              [
                106.669541,
                20.739199
              ],
              [
                106.668635,
                20.739012
              ],
              [
                106.668622,
                20.73901
              ],
              [
                106.668654,
                20.738779
              ],
              [
                106.668371,
                20.738674
              ],
              [
                106.668378,
                20.738558
              ],
              [
                106.668382,
                20.738498
              ],
              [
                106.668323,
                20.738461
              ],
              [
                106.668265,
                20.738425
              ],
              [
                106.66835,
                20.738261
              ],
              [
                106.668379,
                20.738205
              ],
              [
                106.668121,
                20.738053
              ],
              [
                106.667994,
                20.737963
              ],
              [
                106.667838,
                20.737785
              ],
              [
                106.667676,
                20.737538
              ],
              [
                106.667582,
                20.737447
              ],
              [
                106.66734,
                20.737258
              ],
              [
                106.667192,
                20.737114
              ],
              [
                106.667031,
                20.736894
              ],
              [
                106.666927,
                20.736707
              ],
              [
                106.66689,
                20.736605
              ],
              [
                106.666856,
                20.736513
              ],
              [
                106.666695,
                20.736255
              ],
              [
                106.666564,
                20.736149
              ],
              [
                106.666439,
                20.735871
              ],
              [
                106.666407,
                20.73576
              ],
              [
                106.666406,
                20.735685
              ],
              [
                106.666427,
                20.735646
              ],
              [
                106.666445,
                20.735613
              ],
              [
                106.666649,
                20.735462
              ],
              [
                106.666999,
                20.735189
              ],
              [
                106.667003,
                20.735186
              ],
              [
                106.666934,
                20.734959
              ],
              [
                106.666919,
                20.734694
              ],
              [
                106.666452,
                20.734556
              ],
              [
                106.666424,
                20.734547
              ],
              [
                106.665987,
                20.734397
              ],
              [
                106.665843,
                20.734351
              ],
              [
                106.66574,
                20.73433
              ],
              [
                106.665522,
                20.734313
              ],
              [
                106.665323,
                20.734349
              ],
              [
                106.665286,
                20.734223
              ],
              [
                106.665244,
                20.734194
              ],
              [
                106.665194,
                20.734195
              ],
              [
                106.665069,
                20.734225
              ],
              [
                106.664794,
                20.734407
              ],
              [
                106.66485,
                20.734451
              ],
              [
                106.664925,
                20.73452
              ],
              [
                106.665204,
                20.734861
              ],
              [
                106.665205,
                20.73488
              ],
              [
                106.665207,
                20.734915
              ],
              [
                106.665185,
                20.734966
              ],
              [
                106.665079,
                20.735067
              ],
              [
                106.665023,
                20.735182
              ],
              [
                106.665023,
                20.73519
              ],
              [
                106.66502,
                20.735272
              ],
              [
                106.664979,
                20.735337
              ],
              [
                106.664972,
                20.735343
              ],
              [
                106.664923,
                20.735384
              ],
              [
                106.66492,
                20.735524
              ],
              [
                106.664921,
                20.735528
              ],
              [
                106.664957,
                20.73576
              ],
              [
                106.66505,
                20.735921
              ],
              [
                106.665206,
                20.736212
              ],
              [
                106.664834,
                20.736364
              ],
              [
                106.664558,
                20.736459
              ],
              [
                106.664446,
                20.736497
              ],
              [
                106.664223,
                20.736573
              ],
              [
                106.664056,
                20.736632
              ],
              [
                106.663628,
                20.736785
              ],
              [
                106.663903,
                20.737307
              ],
              [
                106.664009,
                20.737375
              ],
              [
                106.664093,
                20.737485
              ],
              [
                106.66427,
                20.737737
              ],
              [
                106.664395,
                20.737914
              ],
              [
                106.664026,
                20.738163
              ],
              [
                106.663851,
                20.738282
              ],
              [
                106.663802,
                20.738315
              ],
              [
                106.663517,
                20.738096
              ],
              [
                106.663459,
                20.738068
              ],
              [
                106.663425,
                20.738104
              ],
              [
                106.663178,
                20.738355
              ],
              [
                106.66272,
                20.738063
              ],
              [
                106.662856,
                20.737829
              ],
              [
                106.662652,
                20.737736
              ],
              [
                106.662758,
                20.737508
              ],
              [
                106.662772,
                20.73748
              ],
              [
                106.663019,
                20.736952
              ],
              [
                106.662927,
                20.736908
              ],
              [
                106.662844,
                20.736869
              ],
              [
                106.661289,
                20.736208
              ],
              [
                106.659238,
                20.735336
              ],
              [
                106.659149,
                20.735303
              ],
              [
                106.65818,
                20.734891
              ],
              [
                106.657634,
                20.734642
              ],
              [
                106.656869,
                20.734226
              ],
              [
                106.656526,
                20.734021
              ],
              [
                106.656343,
                20.733797
              ],
              [
                106.656128,
                20.733481
              ],
              [
                106.655913,
                20.733165
              ],
              [
                106.655768,
                20.733249
              ],
              [
                106.654414,
                20.734072
              ],
              [
                106.654174,
                20.734215
              ],
              [
                106.653783,
                20.73445
              ],
              [
                106.653607,
                20.734556
              ],
              [
                106.653209,
                20.734803
              ],
              [
                106.652724,
                20.734641
              ],
              [
                106.652364,
                20.734486
              ],
              [
                106.652241,
                20.734568
              ],
              [
                106.652217,
                20.734584
              ],
              [
                106.652037,
                20.734709
              ],
              [
                106.650977,
                20.735446
              ],
              [
                106.649792,
                20.736303
              ],
              [
                106.649379,
                20.736593
              ],
              [
                106.64925,
                20.736684
              ],
              [
                106.649234,
                20.736695
              ],
              [
                106.649119,
                20.736776
              ],
              [
                106.647394,
                20.737995
              ],
              [
                106.647388,
                20.737999
              ],
              [
                106.647371,
                20.738011
              ],
              [
                106.647356,
                20.738022
              ],
              [
                106.646956,
                20.738304
              ],
              [
                106.646956,
                20.738304
              ],
              [
                106.646956,
                20.738304
              ],
              [
                106.647274,
                20.738831
              ],
              [
                106.647198,
                20.738864
              ],
              [
                106.646914,
                20.738987
              ],
              [
                106.646603,
                20.739119
              ],
              [
                106.646529,
                20.73915
              ],
              [
                106.646135,
                20.739317
              ],
              [
                106.646153,
                20.740229
              ],
              [
                106.646046,
                20.740298
              ],
              [
                106.645991,
                20.740394
              ],
              [
                106.645965,
                20.740574
              ],
              [
                106.646198,
                20.740541
              ],
              [
                106.646231,
                20.740733
              ],
              [
                106.646386,
                20.740719
              ],
              [
                106.646487,
                20.740709
              ],
              [
                106.646539,
                20.740922
              ],
              [
                106.646643,
                20.740917
              ],
              [
                106.647171,
                20.740888
              ],
              [
                106.647218,
                20.741017
              ],
              [
                106.647788,
                20.741234
              ],
              [
                106.647628,
                20.741623
              ],
              [
                106.647676,
                20.741636
              ],
              [
                106.64782,
                20.741674
              ],
              [
                106.647927,
                20.741702
              ],
              [
                106.648067,
                20.741738
              ],
              [
                106.648221,
                20.741779
              ],
              [
                106.648494,
                20.74185
              ],
              [
                106.648491,
                20.741868
              ],
              [
                106.648181,
                20.74359
              ],
              [
                106.648161,
                20.743694
              ],
              [
                106.64808,
                20.744115
              ],
              [
                106.648048,
                20.744155
              ],
              [
                106.648006,
                20.744309
              ],
              [
                106.647946,
                20.744525
              ],
              [
                106.647824,
                20.745105
              ],
              [
                106.647694,
                20.74572
              ],
              [
                106.647554,
                20.745741
              ],
              [
                106.647057,
                20.745841
              ],
              [
                106.646814,
                20.74591
              ],
              [
                106.646811,
                20.745905
              ],
              [
                106.646737,
                20.745577
              ],
              [
                106.646705,
                20.745438
              ],
              [
                106.64654,
                20.745492
              ],
              [
                106.645686,
                20.745769
              ],
              [
                106.645715,
                20.745958
              ],
              [
                106.644516,
                20.746341
              ],
              [
                106.644505,
                20.746346
              ],
              [
                106.644825,
                20.747048
              ],
              [
                106.645251,
                20.746924
              ],
              [
                106.64546,
                20.747423
              ],
              [
                106.645393,
                20.747453
              ],
              [
                106.6454,
                20.74747
              ],
              [
                106.644481,
                20.747799
              ],
              [
                106.644582,
                20.748015
              ],
              [
                106.644695,
                20.748256
              ],
              [
                106.645032,
                20.748978
              ],
              [
                106.645048,
                20.749004
              ],
              [
                106.645079,
                20.749049
              ],
              [
                106.645508,
                20.749832
              ],
              [
                106.647116,
                20.752565
              ],
              [
                106.646933,
                20.752587
              ],
              [
                106.646637,
                20.752621
              ],
              [
                106.646259,
                20.7527
              ],
              [
                106.6459,
                20.752768
              ],
              [
                106.645684,
                20.752796
              ],
              [
                106.645599,
                20.752807
              ],
              [
                106.645622,
                20.752864
              ],
              [
                106.645687,
                20.75313
              ],
              [
                106.645616,
                20.753199
              ],
              [
                106.645565,
                20.753209
              ],
              [
                106.645473,
                20.753185
              ],
              [
                106.645458,
                20.753181
              ],
              [
                106.644311,
                20.752857
              ],
              [
                106.643663,
                20.75266
              ],
              [
                106.643215,
                20.752524
              ],
              [
                106.643062,
                20.752481
              ],
              [
                106.642264,
                20.752257
              ],
              [
                106.642029,
                20.752196
              ],
              [
                106.641795,
                20.752136
              ],
              [
                106.641587,
                20.752084
              ],
              [
                106.641397,
                20.752037
              ],
              [
                106.641225,
                20.751995
              ],
              [
                106.641067,
                20.751959
              ],
              [
                106.640917,
                20.751927
              ],
              [
                106.640781,
                20.751898
              ],
              [
                106.640676,
                20.751875
              ],
              [
                106.64061,
                20.751861
              ],
              [
                106.640566,
                20.751851
              ],
              [
                106.640516,
                20.751838
              ],
              [
                106.640427,
                20.751817
              ],
              [
                106.64031,
                20.751788
              ],
              [
                106.639734,
                20.751654
              ],
              [
                106.639553,
                20.751652
              ],
              [
                106.63946,
                20.751651
              ],
              [
                106.638675,
                20.751578
              ],
              [
                106.637803,
                20.751502
              ],
              [
                106.637801,
                20.751551
              ],
              [
                106.637749,
                20.752841
              ],
              [
                106.636783,
                20.752824
              ],
              [
                106.636739,
                20.754026
              ],
              [
                106.634828,
                20.754055
              ],
              [
                106.634161,
                20.754066
              ],
              [
                106.634024,
                20.754317
              ],
              [
                106.633855,
                20.754502
              ],
              [
                106.633746,
                20.754578
              ],
              [
                106.633505,
                20.754785
              ],
              [
                106.633161,
                20.755048
              ],
              [
                106.633024,
                20.755175
              ],
              [
                106.632755,
                20.755512
              ],
              [
                106.632462,
                20.75587
              ],
              [
                106.632023,
                20.756283
              ],
              [
                106.63241,
                20.756804
              ],
              [
                106.632721,
                20.7572
              ],
              [
                106.632883,
                20.757424
              ],
              [
                106.632864,
                20.757496
              ],
              [
                106.632857,
                20.757523
              ],
              [
                106.632852,
                20.757531
              ],
              [
                106.632868,
                20.757549
              ],
              [
                106.633458,
                20.757541
              ],
              [
                106.633455,
                20.757894
              ],
              [
                106.634637,
                20.757833
              ],
              [
                106.634583,
                20.758788
              ],
              [
                106.634516,
                20.760067
              ],
              [
                106.634456,
                20.761217
              ],
              [
                106.634452,
                20.761317
              ],
              [
                106.634511,
                20.761394
              ],
              [
                106.634479,
                20.761606
              ],
              [
                106.634212,
                20.761577
              ],
              [
                106.633243,
                20.761575
              ],
              [
                106.633202,
                20.761597
              ],
              [
                106.633195,
                20.761647
              ],
              [
                106.633207,
                20.761773
              ],
              [
                106.633262,
                20.761912
              ],
              [
                106.633335,
                20.761943
              ],
              [
                106.6334,
                20.761932
              ],
              [
                106.633464,
                20.761924
              ],
              [
                106.633507,
                20.761956
              ],
              [
                106.633638,
                20.762098
              ],
              [
                106.633781,
                20.762258
              ],
              [
                106.633867,
                20.762457
              ],
              [
                106.633831,
                20.762468
              ],
              [
                106.6323,
                20.762924
              ],
              [
                106.63081,
                20.763355
              ],
              [
                106.630268,
                20.763522
              ],
              [
                106.630126,
                20.76357
              ],
              [
                106.629944,
                20.76363
              ],
              [
                106.628556,
                20.764072
              ],
              [
                106.627858,
                20.76427
              ],
              [
                106.627852,
                20.764272
              ],
              [
                106.626913,
                20.764541
              ],
              [
                106.626898,
                20.764545
              ],
              [
                106.626897,
                20.764545
              ],
              [
                106.626887,
                20.764548
              ],
              [
                106.626876,
                20.764551
              ],
              [
                106.62687,
                20.764553
              ],
              [
                106.62687,
                20.764553
              ],
              [
                106.625387,
                20.764968
              ],
              [
                106.624912,
                20.765011
              ],
              [
                106.624869,
                20.765143
              ],
              [
                106.624385,
                20.766438
              ],
              [
                106.623542,
                20.76836
              ],
              [
                106.623333,
                20.76914
              ],
              [
                106.622385,
                20.769586
              ],
              [
                106.621427,
                20.77001
              ],
              [
                106.621138,
                20.77012
              ],
              [
                106.620818,
                20.770137
              ],
              [
                106.620483,
                20.770162
              ],
              [
                106.620423,
                20.770234
              ],
              [
                106.620438,
                20.770391
              ],
              [
                106.620483,
                20.770668
              ],
              [
                106.62049,
                20.770886
              ],
              [
                106.620873,
                20.772726
              ],
              [
                106.620918,
                20.772781
              ],
              [
                106.621003,
                20.773198
              ],
              [
                106.621011,
                20.773302
              ],
              [
                106.620999,
                20.773451
              ],
              [
                106.620954,
                20.773614
              ],
              [
                106.620913,
                20.773694
              ],
              [
                106.620768,
                20.773959
              ],
              [
                106.620704,
                20.774048
              ],
              [
                106.621408,
                20.774286
              ],
              [
                106.6219,
                20.774508
              ],
              [
                106.622641,
                20.774908
              ],
              [
                106.622999,
                20.775131
              ],
              [
                106.623243,
                20.775308
              ],
              [
                106.623362,
                20.775411
              ],
              [
                106.623769,
                20.775901
              ],
              [
                106.624075,
                20.776378
              ],
              [
                106.624205,
                20.776784
              ],
              [
                106.624286,
                20.77721
              ],
              [
                106.624262,
                20.777578
              ],
              [
                106.624101,
                20.778151
              ],
              [
                106.623793,
                20.778745
              ],
              [
                106.623519,
                20.779292
              ],
              [
                106.623309,
                20.779872
              ],
              [
                106.623217,
                20.780379
              ],
              [
                106.623151,
                20.780806
              ],
              [
                106.623167,
                20.781581
              ],
              [
                106.623305,
                20.782099
              ],
              [
                106.623505,
                20.782497
              ],
              [
                106.623927,
                20.782828
              ],
              [
                106.624215,
                20.782977
              ],
              [
                106.624705,
                20.783103
              ],
              [
                106.625076,
                20.783146
              ],
              [
                106.625656,
                20.783066
              ],
              [
                106.625837,
                20.783044
              ],
              [
                106.626264,
                20.782983
              ],
              [
                106.626389,
                20.782968
              ],
              [
                106.62687,
                20.782833
              ],
              [
                106.62687,
                20.782833
              ],
              [
                106.627312,
                20.782745
              ],
              [
                106.627926,
                20.782408
              ],
              [
                106.62837,
                20.782093
              ],
              [
                106.628711,
                20.781794
              ],
              [
                106.629078,
                20.781297
              ],
              [
                106.629288,
                20.780815
              ],
              [
                106.629444,
                20.780298
              ],
              [
                106.629508,
                20.779863
              ],
              [
                106.62953,
                20.779181
              ],
              [
                106.629494,
                20.778802
              ],
              [
                106.629299,
                20.777927
              ],
              [
                106.629235,
                20.777628
              ],
              [
                106.629062,
                20.776776
              ],
              [
                106.629011,
                20.776397
              ],
              [
                106.629029,
                20.775767
              ],
              [
                106.629147,
                20.775413
              ],
              [
                106.629318,
                20.775229
              ],
              [
                106.62953,
                20.775151
              ],
              [
                106.629804,
                20.7751
              ],
              [
                106.630018,
                20.775175
              ],
              [
                106.630223,
                20.775297
              ],
              [
                106.630442,
                20.77545
              ],
              [
                106.630586,
                20.775662
              ],
              [
                106.630826,
                20.776125
              ],
              [
                106.630906,
                20.776316
              ],
              [
                106.630964,
                20.776609
              ],
              [
                106.630988,
                20.777028
              ],
              [
                106.630999,
                20.777426
              ],
              [
                106.630984,
                20.777931
              ],
              [
                106.630971,
                20.77823
              ],
              [
                106.630917,
                20.778653
              ],
              [
                106.630909,
                20.779035
              ],
              [
                106.630925,
                20.779353
              ],
              [
                106.630995,
                20.779846
              ],
              [
                106.631083,
                20.780445
              ],
              [
                106.631205,
                20.780959
              ],
              [
                106.631256,
                20.781155
              ],
              [
                106.631392,
                20.781417
              ],
              [
                106.63153,
                20.781718
              ],
              [
                106.631736,
                20.782169
              ],
              [
                106.631913,
                20.782438
              ],
              [
                106.632209,
                20.782828
              ],
              [
                106.632426,
                20.78309
              ],
              [
                106.632497,
                20.783176
              ],
              [
                106.632839,
                20.783395
              ],
              [
                106.633094,
                20.783519
              ],
              [
                106.633124,
                20.783527
              ],
              [
                106.633349,
                20.783588
              ],
              [
                106.6336,
                20.783637
              ],
              [
                106.633836,
                20.783662
              ],
              [
                106.634185,
                20.783656
              ],
              [
                106.634391,
                20.78363
              ],
              [
                106.634721,
                20.783561
              ],
              [
                106.635019,
                20.783415
              ],
              [
                106.635247,
                20.783266
              ],
              [
                106.635452,
                20.78313
              ],
              [
                106.635676,
                20.782916
              ],
              [
                106.635804,
                20.782771
              ],
              [
                106.635974,
                20.782507
              ],
              [
                106.636103,
                20.782208
              ],
              [
                106.636172,
                20.782018
              ],
              [
                106.636316,
                20.781441
              ],
              [
                106.636356,
                20.781236
              ],
              [
                106.636461,
                20.780632
              ],
              [
                106.636504,
                20.780367
              ],
              [
                106.636536,
                20.780036
              ],
              [
                106.636586,
                20.779521
              ],
              [
                106.636672,
                20.779018
              ],
              [
                106.636901,
                20.778255
              ],
              [
                106.637028,
                20.777991
              ],
              [
                106.63713,
                20.77778
              ],
              [
                106.637395,
                20.777459
              ],
              [
                106.637547,
                20.777328
              ],
              [
                106.637847,
                20.777087
              ],
              [
                106.638184,
                20.776872
              ],
              [
                106.638379,
                20.776769
              ],
              [
                106.638573,
                20.776681
              ],
              [
                106.638776,
                20.776599
              ],
              [
                106.638968,
                20.776537
              ],
              [
                106.639177,
                20.776486
              ],
              [
                106.639429,
                20.776431
              ],
              [
                106.639645,
                20.7764
              ],
              [
                106.639645,
                20.7764
              ]
            ]
          ]
        ]
      },
      "properties": {
        "code": "11680",
        "name": "Kiến Thuỵ",
        "nameEn": "Kien Thuy",
        "fullName": "Xã Kiến Thuỵ",
        "fullNameEn": "Kien Thuy Commune",
        "codeName": "kien_thuy",
        "postalCode": "05124",
        "postalCodePrefix": "",
        "gisServerId": "diaphanhanhchinhcapxa_2025.935",
        "areaKm2": 20.18
      }
    }
  ]
}