{
  "type": "FeatureCollection",
  "bbox": [
    106.69778,
    20.742921,
    106.781249,
    20.799157
  ],
  "features": [
    {
      "type": "Feature",
      "id": "11692",
      "bbox": [
        106.69778,
        20.742921,
        106.781249,
        20.799157
      ],
      "geometry": {
        "type": "MultiPolygon",
        "coordinates": [
          [
            [
              [
                106.758276,
                20.775821
              ],
              [
                106.758299,
                20.774927
              ],
              [
                106.758304,
                20.774702
              ],
              [
                106.758306,
                20.774623
              ],
              [
                106.758461,
                20.774806
              ],
              [
                106.758579,
                20.774847
              ],
              [
                106.758647,
                20.774846
              ],
              [
                106.758735,
                20.774845
              ],
              [
                106.759193,
                20.774837
              ],
              [
                106.759418,
                20.774835
              ],
              [
                106.759601,
                20.774862
              ],
              [
                106.759773,
                20.774939
              ],
              [
                106.759873,
                20.774997
              ],
              [
                106.759878,
                20.775
              ],
              [
                106.760043,
                20.775096
              ],
              [
                106.760046,
                20.775098
              ],
              [
                106.760207,
                20.775171
              ],
              [
                106.760486,
                20.775236
              ],
              [
                106.760974,
                20.775303
              ],
              [
                106.761419,
                20.775334
              ],
              [
                106.761875,
                20.775366
              ],
              [
                106.762363,
                20.775361
              ],
              [
                106.763016,
                20.775202
              ],
              [
                106.763402,
                20.775108
              ],
              [
                106.763533,
                20.775076
              ],
              [
                106.764309,
                20.774882
              ],
              [
                106.764362,
                20.774873
              ],
              [
                106.764932,
                20.774775
              ],
              [
                106.765107,
                20.77476
              ],
              [
                106.765695,
                20.774406
              ],
              [
                106.766474,
                20.774076
              ],
              [
                106.768271,
                20.77308
              ],
              [
                106.768962,
                20.772524
              ],
              [
                106.769013,
                20.772455
              ],
              [
                106.769425,
                20.771889
              ],
              [
                106.769441,
                20.77184
              ],
              [
                106.769481,
                20.771711
              ],
              [
                106.769672,
                20.771096
              ],
              [
                106.769724,
                20.77105
              ],
              [
                106.770166,
                20.770611
              ],
              [
                106.770269,
                20.770509
              ],
              [
                106.770362,
                20.77042
              ],
              [
                106.770594,
                20.770197
              ],
              [
                106.771117,
                20.769713
              ],
              [
                106.771979,
                20.768879
              ],
              [
                106.772075,
                20.768787
              ],
              [
                106.772974,
                20.767929
              ],
              [
                106.773963,
                20.766989
              ],
              [
                106.774373,
                20.766629
              ],
              [
                106.774423,
                20.766585
              ],
              [
                106.774486,
                20.766529
              ],
              [
                106.774514,
                20.766496
              ],
              [
                106.774549,
                20.766442
              ],
              [
                106.774564,
                20.766397
              ],
              [
                106.774573,
                20.766358
              ],
              [
                106.774573,
                20.766322
              ],
              [
                106.774572,
                20.766286
              ],
              [
                106.774559,
                20.766244
              ],
              [
                106.774536,
                20.766194
              ],
              [
                106.774501,
                20.76614
              ],
              [
                106.774443,
                20.766069
              ],
              [
                106.773644,
                20.7653
              ],
              [
                106.773486,
                20.765148
              ],
              [
                106.77375,
                20.765021
              ],
              [
                106.773952,
                20.764904
              ],
              [
                106.774506,
                20.765144
              ],
              [
                106.774887,
                20.765183
              ],
              [
                106.775121,
                20.764939
              ],
              [
                106.775165,
                20.764894
              ],
              [
                106.775414,
                20.764633
              ],
              [
                106.776316,
                20.763548
              ],
              [
                106.776931,
                20.762667
              ],
              [
                106.777405,
                20.761472
              ],
              [
                106.777727,
                20.760293
              ],
              [
                106.778126,
                20.759242
              ],
              [
                106.778386,
                20.758049
              ],
              [
                106.778905,
                20.755491
              ],
              [
                106.779329,
                20.753881
              ],
              [
                106.779644,
                20.751835
              ],
              [
                106.779725,
                20.75131
              ],
              [
                106.779773,
                20.75022
              ],
              [
                106.77969,
                20.749575
              ],
              [
                106.779567,
                20.749009
              ],
              [
                106.779827,
                20.748241
              ],
              [
                106.781249,
                20.746003
              ],
              [
                106.777364,
                20.746318
              ],
              [
                106.774861,
                20.74593
              ],
              [
                106.771305,
                20.74506
              ],
              [
                106.765755,
                20.743108
              ],
              [
                106.765079,
                20.743835
              ],
              [
                106.763676,
                20.744906
              ],
              [
                106.762883,
                20.74434
              ],
              [
                106.761719,
                20.745503
              ],
              [
                106.760619,
                20.744855
              ],
              [
                106.759233,
                20.744056
              ],
              [
                106.758069,
                20.743408
              ],
              [
                106.758097,
                20.743345
              ],
              [
                106.757786,
                20.743165
              ],
              [
                106.757671,
                20.743099
              ],
              [
                106.757546,
                20.743019
              ],
              [
                106.757487,
                20.742981
              ],
              [
                106.757393,
                20.742921
              ],
              [
                106.757293,
                20.74306
              ],
              [
                106.757063,
                20.743379
              ],
              [
                106.757046,
                20.743403
              ],
              [
                106.756696,
                20.743883
              ],
              [
                106.756102,
                20.744698
              ],
              [
                106.755653,
                20.745333
              ],
              [
                106.75536,
                20.74575
              ],
              [
                106.755238,
                20.745922
              ],
              [
                106.754533,
                20.746859
              ],
              [
                106.754481,
                20.746928
              ],
              [
                106.753948,
                20.747614
              ],
              [
                106.753651,
                20.747965
              ],
              [
                106.753283,
                20.748399
              ],
              [
                106.752795,
                20.748973
              ],
              [
                106.752771,
                20.749001
              ],
              [
                106.752667,
                20.749124
              ],
              [
                106.752471,
                20.749355
              ],
              [
                106.752206,
                20.749667
              ],
              [
                106.751975,
                20.749932
              ],
              [
                106.75187,
                20.750053
              ],
              [
                106.75187,
                20.750055
              ],
              [
                106.751596,
                20.750369
              ],
              [
                106.750641,
                20.751465
              ],
              [
                106.750595,
                20.751518
              ],
              [
                106.749211,
                20.753142
              ],
              [
                106.748774,
                20.753655
              ],
              [
                106.747979,
                20.754574
              ],
              [
                106.747626,
                20.754982
              ],
              [
                106.747023,
                20.755686
              ],
              [
                106.74674,
                20.756016
              ],
              [
                106.746006,
                20.756868
              ],
              [
                106.745352,
                20.757629
              ],
              [
                106.744916,
                20.757401
              ],
              [
                106.743477,
                20.757033
              ],
              [
                106.74345,
                20.757026
              ],
              [
                106.742832,
                20.756865
              ],
              [
                106.741663,
                20.756561
              ],
              [
                106.741207,
                20.756443
              ],
              [
                106.741003,
                20.75639
              ],
              [
                106.740606,
                20.756286
              ],
              [
                106.74045,
                20.756244
              ],
              [
                106.740232,
                20.756185
              ],
              [
                106.739836,
                20.756078
              ],
              [
                106.739402,
                20.75596
              ],
              [
                106.738832,
                20.755805
              ],
              [
                106.737515,
                20.755446
              ],
              [
                106.737251,
                20.755375
              ],
              [
                106.736538,
                20.75518
              ],
              [
                106.735657,
                20.754942
              ],
              [
                106.735167,
                20.75481
              ],
              [
                106.734758,
                20.754699
              ],
              [
                106.734732,
                20.754692
              ],
              [
                106.731996,
                20.753946
              ],
              [
                106.731212,
                20.753761
              ],
              [
                106.731185,
                20.753749
              ],
              [
                106.731116,
                20.753728
              ],
              [
                106.730928,
                20.753671
              ],
              [
                106.730893,
                20.753657
              ],
              [
                106.730873,
                20.753643
              ],
              [
                106.730706,
                20.753608
              ],
              [
                106.730061,
                20.753434
              ],
              [
                106.729989,
                20.753414
              ],
              [
                106.729084,
                20.753165
              ],
              [
                106.728697,
                20.753062
              ],
              [
                106.728203,
                20.75293
              ],
              [
                106.727711,
                20.752803
              ],
              [
                106.727491,
                20.752791
              ],
              [
                106.727334,
                20.752776
              ],
              [
                106.726473,
                20.752592
              ],
              [
                106.725862,
                20.752465
              ],
              [
                106.725255,
                20.752092
              ],
              [
                106.724692,
                20.752024
              ],
              [
                106.724147,
                20.752015
              ],
              [
                106.723875,
                20.752012
              ],
              [
                106.722823,
                20.75198
              ],
              [
                106.722741,
                20.751977
              ],
              [
                106.721993,
                20.751962
              ],
              [
                106.721164,
                20.751964
              ],
              [
                106.720456,
                20.751955
              ],
              [
                106.72042,
                20.751955
              ],
              [
                106.719639,
                20.751937
              ],
              [
                106.718902,
                20.751915
              ],
              [
                106.718543,
                20.751905
              ],
              [
                106.718382,
                20.751899
              ],
              [
                106.717218,
                20.751853
              ],
              [
                106.716893,
                20.751834
              ],
              [
                106.716347,
                20.751801
              ],
              [
                106.71564,
                20.751782
              ],
              [
                106.715371,
                20.751775
              ],
              [
                106.7152,
                20.75177
              ],
              [
                106.71457,
                20.75176
              ],
              [
                106.714456,
                20.751758
              ],
              [
                106.713505,
                20.751783
              ],
              [
                106.713115,
                20.751802
              ],
              [
                106.712888,
                20.751843
              ],
              [
                106.712661,
                20.751902
              ],
              [
                106.711654,
                20.751618
              ],
              [
                106.709736,
                20.751073
              ],
              [
                106.707681,
                20.750502
              ],
              [
                106.706718,
                20.75026
              ],
              [
                106.706756,
                20.750706
              ],
              [
                106.706981,
                20.751168
              ],
              [
                106.707064,
                20.75134
              ],
              [
                106.707143,
                20.751501
              ],
              [
                106.706686,
                20.751767
              ],
              [
                106.706465,
                20.751898
              ],
              [
                106.706338,
                20.751987
              ],
              [
                106.706115,
                20.751989
              ],
              [
                106.705983,
                20.752
              ],
              [
                106.705851,
                20.752044
              ],
              [
                106.705664,
                20.752122
              ],
              [
                106.705391,
                20.752288
              ],
              [
                106.705211,
                20.752368
              ],
              [
                106.705089,
                20.752402
              ],
              [
                106.704789,
                20.752419
              ],
              [
                106.704647,
                20.752463
              ],
              [
                106.704511,
                20.752517
              ],
              [
                106.704309,
                20.752634
              ],
              [
                106.704179,
                20.75292
              ],
              [
                106.704385,
                20.75322
              ],
              [
                106.704647,
                20.753461
              ],
              [
                106.70493,
                20.75376
              ],
              [
                106.705122,
                20.754131
              ],
              [
                106.705191,
                20.754398
              ],
              [
                106.705194,
                20.754608
              ],
              [
                106.705142,
                20.754962
              ],
              [
                106.705024,
                20.755374
              ],
              [
                106.704906,
                20.755686
              ],
              [
                106.704496,
                20.755876
              ],
              [
                106.703798,
                20.756045
              ],
              [
                106.703443,
                20.756299
              ],
              [
                106.702905,
                20.756684
              ],
              [
                106.702755,
                20.756735
              ],
              [
                106.702021,
                20.756958
              ],
              [
                106.701681,
                20.757118
              ],
              [
                106.701118,
                20.757385
              ],
              [
                106.700077,
                20.758034
              ],
              [
                106.699825,
                20.758218
              ],
              [
                106.699503,
                20.758452
              ],
              [
                106.699303,
                20.758681
              ],
              [
                106.699135,
                20.759071
              ],
              [
                106.698964,
                20.759659
              ],
              [
                106.698861,
                20.760114
              ],
              [
                106.698506,
                20.760183
              ],
              [
                106.698519,
                20.760314
              ],
              [
                106.698571,
                20.76045
              ],
              [
                106.698566,
                20.7605
              ],
              [
                106.698524,
                20.760568
              ],
              [
                106.698428,
                20.760652
              ],
              [
                106.698277,
                20.760754
              ],
              [
                106.698283,
                20.760809
              ],
              [
                106.698317,
                20.761123
              ],
              [
                106.698373,
                20.761635
              ],
              [
                106.698386,
                20.761722
              ],
              [
                106.698485,
                20.762361
              ],
              [
                106.698569,
                20.762598
              ],
              [
                106.698528,
                20.762871
              ],
              [
                106.698495,
                20.763254
              ],
              [
                106.698423,
                20.763639
              ],
              [
                106.698414,
                20.763721
              ],
              [
                106.698351,
                20.76434
              ],
              [
                106.698316,
                20.764466
              ],
              [
                106.697972,
                20.76453
              ],
              [
                106.697937,
                20.764691
              ],
              [
                106.69778,
                20.765348
              ],
              [
                106.69779,
                20.765354
              ],
              [
                106.698172,
                20.765587
              ],
              [
                106.698477,
                20.765646
              ],
              [
                106.699006,
                20.765679
              ],
              [
                106.699348,
                20.765633
              ],
              [
                106.699503,
                20.765612
              ],
              [
                106.699615,
                20.765587
              ],
              [
                106.700158,
                20.765464
              ],
              [
                106.70032,
                20.765427
              ],
              [
                106.700387,
                20.765418
              ],
              [
                106.700645,
                20.765383
              ],
              [
                106.700776,
                20.765365
              ],
              [
                106.701351,
                20.765262
              ],
              [
                106.701562,
                20.765734
              ],
              [
                106.701799,
                20.766262
              ],
              [
                106.702253,
                20.767303
              ],
              [
                106.702294,
                20.767394
              ],
              [
                106.702367,
                20.767554
              ],
              [
                106.702463,
                20.767743
              ],
              [
                106.702545,
                20.767904
              ],
              [
                106.702577,
                20.76797
              ],
              [
                106.702639,
                20.768097
              ],
              [
                106.702653,
                20.768126
              ],
              [
                106.702701,
                20.768221
              ],
              [
                106.703128,
                20.769062
              ],
              [
                106.70348,
                20.769949
              ],
              [
                106.703796,
                20.770729
              ],
              [
                106.704151,
                20.771571
              ],
              [
                106.704315,
                20.771997
              ],
              [
                106.704453,
                20.772356
              ],
              [
                106.70446,
                20.77238
              ],
              [
                106.704498,
                20.772499
              ],
              [
                106.704334,
                20.772534
              ],
              [
                106.704186,
                20.772586
              ],
              [
                106.704249,
                20.772703
              ],
              [
                106.704319,
                20.772959
              ],
              [
                106.704586,
                20.773919
              ],
              [
                106.704828,
                20.774795
              ],
              [
                106.705011,
                20.775458
              ],
              [
                106.705152,
                20.776007
              ],
              [
                106.705359,
                20.776683
              ],
              [
                106.705562,
                20.777327
              ],
              [
                106.705668,
                20.777663
              ],
              [
                106.705978,
                20.778645
              ],
              [
                106.706046,
                20.778861
              ],
              [
                106.706144,
                20.77917
              ],
              [
                106.706323,
                20.779779
              ],
              [
                106.706477,
                20.780301
              ],
              [
                106.706506,
                20.780401
              ],
              [
                106.706664,
                20.780997
              ],
              [
                106.706771,
                20.781403
              ],
              [
                106.706887,
                20.781909
              ],
              [
                106.706923,
                20.78207
              ],
              [
                106.706943,
                20.782246
              ],
              [
                106.706999,
                20.782752
              ],
              [
                106.707095,
                20.783179
              ],
              [
                106.70711,
                20.783246
              ],
              [
                106.707125,
                20.783314
              ],
              [
                106.707187,
                20.78359
              ],
              [
                106.707212,
                20.783699
              ],
              [
                106.707238,
                20.783704
              ],
              [
                106.707477,
                20.78514
              ],
              [
                106.707679,
                20.786076
              ],
              [
                106.707918,
                20.785841
              ],
              [
                106.708283,
                20.786118
              ],
              [
                106.708285,
                20.786119
              ],
              [
                106.707608,
                20.78682
              ],
              [
                106.708654,
                20.787605
              ],
              [
                106.708623,
                20.78764
              ],
              [
                106.708307,
                20.787997
              ],
              [
                106.707823,
                20.78853
              ],
              [
                106.707836,
                20.788543
              ],
              [
                106.707856,
                20.788573
              ],
              [
                106.70798,
                20.78877
              ],
              [
                106.707597,
                20.789006
              ],
              [
                106.706386,
                20.789771
              ],
              [
                106.7062,
                20.789918
              ],
              [
                106.705881,
                20.790128
              ],
              [
                106.70572,
                20.790206
              ],
              [
                106.704929,
                20.790212
              ],
              [
                106.704624,
                20.790214
              ],
              [
                106.704041,
                20.790251
              ],
              [
                106.703943,
                20.790257
              ],
              [
                106.703808,
                20.790702
              ],
              [
                106.704337,
                20.790781
              ],
              [
                106.704543,
                20.790817
              ],
              [
                106.70491,
                20.79088
              ],
              [
                106.705227,
                20.790935
              ],
              [
                106.705476,
                20.790979
              ],
              [
                106.705758,
                20.791031
              ],
              [
                106.706123,
                20.791099
              ],
              [
                106.706475,
                20.791163
              ],
              [
                106.706842,
                20.79123
              ],
              [
                106.707279,
                20.791311
              ],
              [
                106.70769,
                20.791385
              ],
              [
                106.70803,
                20.791443
              ],
              [
                106.708338,
                20.791495
              ],
              [
                106.708568,
                20.791533
              ],
              [
                106.708698,
                20.791554
              ],
              [
                106.708763,
                20.791565
              ],
              [
                106.708809,
                20.791573
              ],
              [
                106.708872,
                20.791583
              ],
              [
                106.708953,
                20.791596
              ],
              [
                106.70902,
                20.791608
              ],
              [
                106.709043,
                20.791611
              ],
              [
                106.709159,
                20.79163
              ],
              [
                106.7093,
                20.791653
              ],
              [
                106.709458,
                20.791678
              ],
              [
                106.709665,
                20.791712
              ],
              [
                106.709929,
                20.791757
              ],
              [
                106.710207,
                20.791806
              ],
              [
                106.710488,
                20.791856
              ],
              [
                106.710785,
                20.791908
              ],
              [
                106.711097,
                20.791963
              ],
              [
                106.71142,
                20.792021
              ],
              [
                106.711715,
                20.792073
              ],
              [
                106.712006,
                20.792125
              ],
              [
                106.712309,
                20.79218
              ],
              [
                106.712531,
                20.792219
              ],
              [
                106.712644,
                20.792239
              ],
              [
                106.712714,
                20.792252
              ],
              [
                106.712785,
                20.792264
              ],
              [
                106.712898,
                20.792283
              ],
              [
                106.713035,
                20.792307
              ],
              [
                106.71314,
                20.792324
              ],
              [
                106.713243,
                20.792343
              ],
              [
                106.7134,
                20.792371
              ],
              [
                106.713568,
                20.7924
              ],
              [
                106.713701,
                20.792424
              ],
              [
                106.713816,
                20.792445
              ],
              [
                106.713914,
                20.792464
              ],
              [
                106.714009,
                20.792484
              ],
              [
                106.714113,
                20.792508
              ],
              [
                106.71422,
                20.792534
              ],
              [
                106.714323,
                20.792565
              ],
              [
                106.714413,
                20.792598
              ],
              [
                106.714485,
                20.792625
              ],
              [
                106.714554,
                20.792652
              ],
              [
                106.714627,
                20.792683
              ],
              [
                106.714686,
                20.792708
              ],
              [
                106.714725,
                20.792724
              ],
              [
                106.714756,
                20.792738
              ],
              [
                106.714796,
                20.792762
              ],
              [
                106.714862,
                20.792804
              ],
              [
                106.714943,
                20.792859
              ],
              [
                106.715022,
                20.792915
              ],
              [
                106.715086,
                20.79296
              ],
              [
                106.715125,
                20.792988
              ],
              [
                106.715153,
                20.793007
              ],
              [
                106.715177,
                20.793022
              ],
              [
                106.715202,
                20.793039
              ],
              [
                106.715231,
                20.793058
              ],
              [
                106.715257,
                20.793076
              ],
              [
                106.715258,
                20.793077
              ],
              [
                106.715283,
                20.793094
              ],
              [
                106.715311,
                20.793113
              ],
              [
                106.715336,
                20.79313
              ],
              [
                106.71536,
                20.793146
              ],
              [
                106.715385,
                20.793163
              ],
              [
                106.715403,
                20.793176
              ],
              [
                106.715415,
                20.793184
              ],
              [
                106.715449,
                20.793208
              ],
              [
                106.715546,
                20.793273
              ],
              [
                106.715703,
                20.793379
              ],
              [
                106.715907,
                20.793516
              ],
              [
                106.716176,
                20.793697
              ],
              [
                106.716491,
                20.793907
              ],
              [
                106.716837,
                20.794139
              ],
              [
                106.717185,
                20.794373
              ],
              [
                106.717348,
                20.794482
              ],
              [
                106.717511,
                20.794592
              ],
              [
                106.717822,
                20.7948
              ],
              [
                106.718085,
                20.794977
              ],
              [
                106.718297,
                20.795118
              ],
              [
                106.718505,
                20.795257
              ],
              [
                106.71872,
                20.795402
              ],
              [
                106.71891,
                20.79553
              ],
              [
                106.719092,
                20.795652
              ],
              [
                106.719258,
                20.795763
              ],
              [
                106.719349,
                20.795824
              ],
              [
                106.719392,
                20.795853
              ],
              [
                106.719436,
                20.795885
              ],
              [
                106.719479,
                20.795921
              ],
              [
                106.719509,
                20.795958
              ],
              [
                106.719526,
                20.796003
              ],
              [
                106.719538,
                20.796057
              ],
              [
                106.719545,
                20.7961
              ],
              [
                106.72034,
                20.797875
              ],
              [
                106.720436,
                20.799157
              ],
              [
                106.721603,
                20.799021
              ],
              [
                106.722761,
                20.798971
              ],
              [
                106.72454,
                20.798925
              ],
              [
                106.725728,
                20.798817
              ],
              [
                106.726763,
                20.798615
              ],
              [
                106.727635,
                20.798387
              ],
              [
                106.728282,
                20.798132
              ],
              [
                106.729162,
                20.797702
              ],
              [
                106.730091,
                20.797196
              ],
              [
                106.730797,
                20.796682
              ],
              [
                106.731491,
                20.796025
              ],
              [
                106.732033,
                20.79536
              ],
              [
                106.732382,
                20.794783
              ],
              [
                106.732909,
                20.793745
              ],
              [
                106.733284,
                20.792776
              ],
              [
                106.733461,
                20.792229
              ],
              [
                106.733614,
                20.791434
              ],
              [
                106.733706,
                20.790601
              ],
              [
                106.733765,
                20.789492
              ],
              [
                106.733773,
                20.788459
              ],
              [
                106.733733,
                20.787571
              ],
              [
                106.733637,
                20.786291
              ],
              [
                106.733505,
                20.784533
              ],
              [
                106.733453,
                20.783558
              ],
              [
                106.733476,
                20.78286
              ],
              [
                106.733581,
                20.782295
              ],
              [
                106.733707,
                20.781711
              ],
              [
                106.733931,
                20.780886
              ],
              [
                106.734107,
                20.780301
              ],
              [
                106.734345,
                20.779735
              ],
              [
                106.734662,
                20.779194
              ],
              [
                106.734734,
                20.779071
              ],
              [
                106.734846,
                20.77893
              ],
              [
                106.734865,
                20.778905
              ],
              [
                106.735184,
                20.778503
              ],
              [
                106.735536,
                20.778107
              ],
              [
                106.735948,
                20.777692
              ],
              [
                106.736642,
                20.777083
              ],
              [
                106.737469,
                20.776482
              ],
              [
                106.738478,
                20.775869
              ],
              [
                106.739469,
                20.775381
              ],
              [
                106.740237,
                20.775039
              ],
              [
                106.741148,
                20.774714
              ],
              [
                106.742517,
                20.774356
              ],
              [
                106.743562,
                20.774221
              ],
              [
                106.744822,
                20.774151
              ],
              [
                106.745747,
                20.774161
              ],
              [
                106.748015,
                20.774262
              ],
              [
                106.748621,
                20.774321
              ],
              [
                106.748897,
                20.774348
              ],
              [
                106.749429,
                20.774401
              ],
              [
                106.750915,
                20.774577
              ],
              [
                106.75187,
                20.77469
              ],
              [
                106.75187,
                20.77469
              ],
              [
                106.758276,
                20.775821
              ],
              [
                106.758276,
                20.775821
              ]
            ]
          ]
        ]
      },
      "properties": {
        "code": "11692",
        "name": "Dương Kinh",
        "nameEn": "Duong Kinh",
        "fullName": "Phường Dương Kinh",
        "fullNameEn": "Duong Kinh Ward",
        "codeName": "duong_kinh",
        "postalCode": "04912",
        "postalCodePrefix": "",
        "gisServerId": "diaphanhanhchinhcapxa_2025.936",
        "areaKm2": 27.96
      }
    }
  ]
}