{
  "type": "FeatureCollection",
  "bbox": [
    106.68238,
    20.676495,
    106.741535,
    20.75292
  ],
  "features": [
    {
      "type": "Feature",
      "id": "11749",
      "bbox": [
        106.68238,
        20.676495,
        106.741535,
        20.75292
      ],
      "geometry": {
        "type": "MultiPolygon",
        "coordinates": [
          [
            [
              [
                106.707681,
                20.750502
              ],
              [
                106.707772,
                20.749928
              ],
              [
                106.708907,
                20.749435
              ],
              [
                106.709347,
                20.749249
              ],
              [
                106.709924,
                20.749005
              ],
              [
                106.710642,
                20.748701
              ],
              [
                106.712159,
                20.747992
              ],
              [
                106.712289,
                20.747931
              ],
              [
                106.712523,
                20.747822
              ],
              [
                106.712645,
                20.747765
              ],
              [
                106.712854,
                20.747674
              ],
              [
                106.713157,
                20.747529
              ],
              [
                106.713278,
                20.747472
              ],
              [
                106.713296,
                20.747462
              ],
              [
                106.713273,
                20.747427
              ],
              [
                106.712961,
                20.747026
              ],
              [
                106.713473,
                20.746376
              ],
              [
                106.713505,
                20.746336
              ],
              [
                106.713556,
                20.74627
              ],
              [
                106.713854,
                20.746236
              ],
              [
                106.714111,
                20.746198
              ],
              [
                106.714196,
                20.746189
              ],
              [
                106.714419,
                20.746192
              ],
              [
                106.714856,
                20.74627
              ],
              [
                106.714951,
                20.746287
              ],
              [
                106.715417,
                20.746359
              ],
              [
                106.715764,
                20.74641
              ],
              [
                106.715821,
                20.746382
              ],
              [
                106.71584,
                20.746365
              ],
              [
                106.715913,
                20.746278
              ],
              [
                106.715917,
                20.74624
              ],
              [
                106.715996,
                20.745994
              ],
              [
                106.716068,
                20.745916
              ],
              [
                106.716267,
                20.745809
              ],
              [
                106.716357,
                20.745829
              ],
              [
                106.716391,
                20.745836
              ],
              [
                106.71648,
                20.74596
              ],
              [
                106.716676,
                20.745903
              ],
              [
                106.716731,
                20.745903
              ],
              [
                106.716815,
                20.745904
              ],
              [
                106.716941,
                20.745774
              ],
              [
                106.716985,
                20.745724
              ],
              [
                106.71703,
                20.745667
              ],
              [
                106.717334,
                20.745313
              ],
              [
                106.717445,
                20.74514
              ],
              [
                106.71747,
                20.745103
              ],
              [
                106.717566,
                20.744961
              ],
              [
                106.71764,
                20.744643
              ],
              [
                106.717787,
                20.74456
              ],
              [
                106.71802,
                20.744443
              ],
              [
                106.718047,
                20.744397
              ],
              [
                106.718046,
                20.74432
              ],
              [
                106.717906,
                20.744077
              ],
              [
                106.717818,
                20.743797
              ],
              [
                106.717773,
                20.743657
              ],
              [
                106.717757,
                20.743586
              ],
              [
                106.717766,
                20.743525
              ],
              [
                106.717743,
                20.743434
              ],
              [
                106.717693,
                20.743331
              ],
              [
                106.717504,
                20.742906
              ],
              [
                106.71749,
                20.742874
              ],
              [
                106.717423,
                20.742682
              ],
              [
                106.717392,
                20.742591
              ],
              [
                106.71721,
                20.742065
              ],
              [
                106.717063,
                20.74151
              ],
              [
                106.717027,
                20.741264
              ],
              [
                106.717025,
                20.741104
              ],
              [
                106.717064,
                20.740721
              ],
              [
                106.71706,
                20.740386
              ],
              [
                106.717071,
                20.740314
              ],
              [
                106.717092,
                20.740291
              ],
              [
                106.717128,
                20.740245
              ],
              [
                106.717133,
                20.740165
              ],
              [
                106.71711,
                20.740027
              ],
              [
                106.716951,
                20.739639
              ],
              [
                106.716703,
                20.738812
              ],
              [
                106.716668,
                20.73873
              ],
              [
                106.716568,
                20.738493
              ],
              [
                106.71646,
                20.738238
              ],
              [
                106.71662,
                20.738162
              ],
              [
                106.717142,
                20.737916
              ],
              [
                106.717547,
                20.737724
              ],
              [
                106.718286,
                20.738244
              ],
              [
                106.720062,
                20.739474
              ],
              [
                106.720422,
                20.739724
              ],
              [
                106.720755,
                20.739955
              ],
              [
                106.720762,
                20.739951
              ],
              [
                106.720782,
                20.739978
              ],
              [
                106.720881,
                20.740134
              ],
              [
                106.720929,
                20.740127
              ],
              [
                106.721095,
                20.74006
              ],
              [
                106.72116,
                20.740033
              ],
              [
                106.721539,
                20.739854
              ],
              [
                106.721751,
                20.739763
              ],
              [
                106.721759,
                20.739765
              ],
              [
                106.722387,
                20.740612
              ],
              [
                106.722616,
                20.740922
              ],
              [
                106.722661,
                20.740982
              ],
              [
                106.722694,
                20.741026
              ],
              [
                106.722837,
                20.740888
              ],
              [
                106.722845,
                20.740881
              ],
              [
                106.723002,
                20.74094
              ],
              [
                106.723024,
                20.740947
              ],
              [
                106.723175,
                20.740997
              ],
              [
                106.723203,
                20.741015
              ],
              [
                106.723373,
                20.741125
              ],
              [
                106.724109,
                20.741434
              ],
              [
                106.72421,
                20.741477
              ],
              [
                106.724326,
                20.741506
              ],
              [
                106.724334,
                20.741508
              ],
              [
                106.724385,
                20.74152
              ],
              [
                106.724422,
                20.741539
              ],
              [
                106.724724,
                20.74169
              ],
              [
                106.725617,
                20.742135
              ],
              [
                106.725754,
                20.742204
              ],
              [
                106.725946,
                20.742299
              ],
              [
                106.726403,
                20.742527
              ],
              [
                106.727235,
                20.742942
              ],
              [
                106.727438,
                20.743043
              ],
              [
                106.727712,
                20.743176
              ],
              [
                106.727721,
                20.743179
              ],
              [
                106.727951,
                20.743293
              ],
              [
                106.727963,
                20.743395
              ],
              [
                106.728035,
                20.743362
              ],
              [
                106.728812,
                20.742973
              ],
              [
                106.728941,
                20.742909
              ],
              [
                106.729175,
                20.742794
              ],
              [
                106.729008,
                20.742399
              ],
              [
                106.72896,
                20.742228
              ],
              [
                106.728964,
                20.742118
              ],
              [
                106.728998,
                20.74205
              ],
              [
                106.729048,
                20.741973
              ],
              [
                106.729315,
                20.74176
              ],
              [
                106.729544,
                20.741548
              ],
              [
                106.729607,
                20.74149
              ],
              [
                106.729843,
                20.74121
              ],
              [
                106.729957,
                20.741032
              ],
              [
                106.730021,
                20.74085
              ],
              [
                106.730039,
                20.740596
              ],
              [
                106.730004,
                20.740243
              ],
              [
                106.729939,
                20.739828
              ],
              [
                106.729905,
                20.739597
              ],
              [
                106.729839,
                20.739145
              ],
              [
                106.729777,
                20.738534
              ],
              [
                106.729775,
                20.738209
              ],
              [
                106.72981,
                20.738101
              ],
              [
                106.729869,
                20.737948
              ],
              [
                106.730061,
                20.737616
              ],
              [
                106.730203,
                20.737402
              ],
              [
                106.730394,
                20.737206
              ],
              [
                106.730613,
                20.73703
              ],
              [
                106.730772,
                20.736894
              ],
              [
                106.730895,
                20.736819
              ],
              [
                106.731216,
                20.736648
              ],
              [
                106.731494,
                20.736507
              ],
              [
                106.732065,
                20.736253
              ],
              [
                106.732702,
                20.735984
              ],
              [
                106.733059,
                20.735784
              ],
              [
                106.73338,
                20.73558
              ],
              [
                106.733571,
                20.73543
              ],
              [
                106.733723,
                20.735311
              ],
              [
                106.733924,
                20.735055
              ],
              [
                106.734072,
                20.734719
              ],
              [
                106.734158,
                20.734431
              ],
              [
                106.734192,
                20.734043
              ],
              [
                106.734169,
                20.733696
              ],
              [
                106.7341,
                20.733231
              ],
              [
                106.734016,
                20.732863
              ],
              [
                106.733973,
                20.732676
              ],
              [
                106.7338,
                20.732027
              ],
              [
                106.733779,
                20.731968
              ],
              [
                106.733617,
                20.731509
              ],
              [
                106.733519,
                20.731277
              ],
              [
                106.733496,
                20.731253
              ],
              [
                106.733445,
                20.731199
              ],
              [
                106.733384,
                20.731135
              ],
              [
                106.73311,
                20.730942
              ],
              [
                106.733424,
                20.730479
              ],
              [
                106.733439,
                20.730456
              ],
              [
                106.733758,
                20.729893
              ],
              [
                106.733978,
                20.729537
              ],
              [
                106.73418,
                20.729053
              ],
              [
                106.734449,
                20.728562
              ],
              [
                106.734718,
                20.728072
              ],
              [
                106.735397,
                20.726978
              ],
              [
                106.735826,
                20.726288
              ],
              [
                106.736439,
                20.725321
              ],
              [
                106.737503,
                20.723614
              ],
              [
                106.737589,
                20.723409
              ],
              [
                106.737609,
                20.723139
              ],
              [
                106.737648,
                20.723028
              ],
              [
                106.737733,
                20.722875
              ],
              [
                106.737823,
                20.722773
              ],
              [
                106.737964,
                20.722662
              ],
              [
                106.738126,
                20.722593
              ],
              [
                106.738369,
                20.722543
              ],
              [
                106.738587,
                20.722516
              ],
              [
                106.738663,
                20.722507
              ],
              [
                106.738866,
                20.722457
              ],
              [
                106.738982,
                20.722374
              ],
              [
                106.739067,
                20.722288
              ],
              [
                106.739177,
                20.722105
              ],
              [
                106.739371,
                20.721749
              ],
              [
                106.739566,
                20.72146
              ],
              [
                106.739736,
                20.721253
              ],
              [
                106.739922,
                20.721055
              ],
              [
                106.740138,
                20.720891
              ],
              [
                106.739996,
                20.720793
              ],
              [
                106.739728,
                20.720639
              ],
              [
                106.739508,
                20.720532
              ],
              [
                106.739207,
                20.720401
              ],
              [
                106.738795,
                20.72021
              ],
              [
                106.738695,
                20.720164
              ],
              [
                106.738609,
                20.72012
              ],
              [
                106.738584,
                20.720055
              ],
              [
                106.738578,
                20.720039
              ],
              [
                106.738622,
                20.719934
              ],
              [
                106.738701,
                20.719798
              ],
              [
                106.738792,
                20.71964
              ],
              [
                106.738936,
                20.719338
              ],
              [
                106.73896,
                20.71924
              ],
              [
                106.738949,
                20.719135
              ],
              [
                106.73884,
                20.718983
              ],
              [
                106.738685,
                20.718779
              ],
              [
                106.738488,
                20.718422
              ],
              [
                106.738379,
                20.718192
              ],
              [
                106.738378,
                20.718191
              ],
              [
                106.73828,
                20.717985
              ],
              [
                106.738194,
                20.717833
              ],
              [
                106.738,
                20.71749
              ],
              [
                106.737965,
                20.717439
              ],
              [
                106.737713,
                20.717078
              ],
              [
                106.737672,
                20.717019
              ],
              [
                106.737652,
                20.716994
              ],
              [
                106.737331,
                20.716606
              ],
              [
                106.737072,
                20.716325
              ],
              [
                106.736748,
                20.715975
              ],
              [
                106.736582,
                20.715799
              ],
              [
                106.736464,
                20.71569
              ],
              [
                106.736381,
                20.715627
              ],
              [
                106.736354,
                20.715606
              ],
              [
                106.736241,
                20.715526
              ],
              [
                106.736064,
                20.715417
              ],
              [
                106.735972,
                20.715358
              ],
              [
                106.735534,
                20.715077
              ],
              [
                106.734933,
                20.714699
              ],
              [
                106.73484,
                20.714641
              ],
              [
                106.734567,
                20.714473
              ],
              [
                106.734507,
                20.714444
              ],
              [
                106.734494,
                20.714438
              ],
              [
                106.73445,
                20.714428
              ],
              [
                106.734446,
                20.714428
              ],
              [
                106.734345,
                20.714402
              ],
              [
                106.734321,
                20.714339
              ],
              [
                106.734283,
                20.714223
              ],
              [
                106.734282,
                20.714159
              ],
              [
                106.734427,
                20.713881
              ],
              [
                106.734986,
                20.713191
              ],
              [
                106.735656,
                20.712331
              ],
              [
                106.735775,
                20.712086
              ],
              [
                106.735729,
                20.71137
              ],
              [
                106.735648,
                20.710976
              ],
              [
                106.735463,
                20.710756
              ],
              [
                106.73524,
                20.710614
              ],
              [
                106.734987,
                20.710466
              ],
              [
                106.734868,
                20.710447
              ],
              [
                106.734861,
                20.710445
              ],
              [
                106.73456,
                20.710395
              ],
              [
                106.734109,
                20.710178
              ],
              [
                106.733962,
                20.710273
              ],
              [
                106.733941,
                20.710267
              ],
              [
                106.733545,
                20.710076
              ],
              [
                106.733,
                20.709813
              ],
              [
                106.732986,
                20.70974
              ],
              [
                106.732594,
                20.709435
              ],
              [
                106.732593,
                20.709435
              ],
              [
                106.732589,
                20.709432
              ],
              [
                106.732569,
                20.709412
              ],
              [
                106.732283,
                20.709143
              ],
              [
                106.731964,
                20.708844
              ],
              [
                106.731866,
                20.708774
              ],
              [
                106.731743,
                20.708697
              ],
              [
                106.731594,
                20.708607
              ],
              [
                106.731452,
                20.708516
              ],
              [
                106.731263,
                20.70842
              ],
              [
                106.731168,
                20.708378
              ],
              [
                106.730965,
                20.708288
              ],
              [
                106.730616,
                20.708163
              ],
              [
                106.730298,
                20.708049
              ],
              [
                106.730288,
                20.708045
              ],
              [
                106.72983,
                20.707888
              ],
              [
                106.72976,
                20.707857
              ],
              [
                106.729561,
                20.707768
              ],
              [
                106.729495,
                20.70751
              ],
              [
                106.729452,
                20.707239
              ],
              [
                106.729441,
                20.707163
              ],
              [
                106.729428,
                20.70707
              ],
              [
                106.729427,
                20.706996
              ],
              [
                106.72945,
                20.706792
              ],
              [
                106.729472,
                20.706619
              ],
              [
                106.729482,
                20.706545
              ],
              [
                106.72955,
                20.706225
              ],
              [
                106.729576,
                20.706026
              ],
              [
                106.729589,
                20.705926
              ],
              [
                106.729602,
                20.705826
              ],
              [
                106.729655,
                20.705558
              ],
              [
                106.729668,
                20.705298
              ],
              [
                106.729671,
                20.705237
              ],
              [
                106.729664,
                20.705028
              ],
              [
                106.729631,
                20.704791
              ],
              [
                106.729607,
                20.70459
              ],
              [
                106.729595,
                20.704492
              ],
              [
                106.729579,
                20.704239
              ],
              [
                106.729573,
                20.704138
              ],
              [
                106.729542,
                20.703838
              ],
              [
                106.729511,
                20.703668
              ],
              [
                106.729449,
                20.703548
              ],
              [
                106.729403,
                20.703471
              ],
              [
                106.729318,
                20.703402
              ],
              [
                106.729182,
                20.703332
              ],
              [
                106.729001,
                20.703239
              ],
              [
                106.728881,
                20.703156
              ],
              [
                106.728848,
                20.703127
              ],
              [
                106.728789,
                20.703075
              ],
              [
                106.728766,
                20.703047
              ],
              [
                106.728717,
                20.702983
              ],
              [
                106.728597,
                20.702797
              ],
              [
                106.728433,
                20.702563
              ],
              [
                106.728265,
                20.702338
              ],
              [
                106.728081,
                20.702123
              ],
              [
                106.728077,
                20.702119
              ],
              [
                106.72802,
                20.702056
              ],
              [
                106.727768,
                20.701691
              ],
              [
                106.727629,
                20.701497
              ],
              [
                106.72755,
                20.701292
              ],
              [
                106.727533,
                20.701153
              ],
              [
                106.727553,
                20.701087
              ],
              [
                106.727572,
                20.701024
              ],
              [
                106.727682,
                20.700817
              ],
              [
                106.727792,
                20.700663
              ],
              [
                106.727869,
                20.700586
              ],
              [
                106.727897,
                20.700557
              ],
              [
                106.727955,
                20.700497
              ],
              [
                106.728165,
                20.700385
              ],
              [
                106.728267,
                20.700343
              ],
              [
                106.728536,
                20.700233
              ],
              [
                106.728586,
                20.700213
              ],
              [
                106.729028,
                20.70008
              ],
              [
                106.729054,
                20.700072
              ],
              [
                106.729627,
                20.699913
              ],
              [
                106.729973,
                20.699799
              ],
              [
                106.730242,
                20.699712
              ],
              [
                106.731161,
                20.699446
              ],
              [
                106.731248,
                20.699474
              ],
              [
                106.731335,
                20.699503
              ],
              [
                106.731414,
                20.699526
              ],
              [
                106.731441,
                20.699533
              ],
              [
                106.731484,
                20.699537
              ],
              [
                106.73159,
                20.69952
              ],
              [
                106.731629,
                20.699509
              ],
              [
                106.731649,
                20.699499
              ],
              [
                106.731965,
                20.699386
              ],
              [
                106.731991,
                20.699366
              ],
              [
                106.732293,
                20.699302
              ],
              [
                106.732826,
                20.69923
              ],
              [
                106.732895,
                20.69922
              ],
              [
                106.732911,
                20.699216
              ],
              [
                106.733004,
                20.699189
              ],
              [
                106.73298,
                20.699077
              ],
              [
                106.732954,
                20.69896
              ],
              [
                106.732999,
                20.698822
              ],
              [
                106.733009,
                20.6987
              ],
              [
                106.733005,
                20.698668
              ],
              [
                106.732995,
                20.698585
              ],
              [
                106.732969,
                20.698508
              ],
              [
                106.732946,
                20.69844
              ],
              [
                106.732898,
                20.698301
              ],
              [
                106.732839,
                20.698127
              ],
              [
                106.73283,
                20.698102
              ],
              [
                106.732838,
                20.698091
              ],
              [
                106.732846,
                20.69808
              ],
              [
                106.732913,
                20.698009
              ],
              [
                106.732913,
                20.698008
              ],
              [
                106.732964,
                20.697954
              ],
              [
                106.733005,
                20.697912
              ],
              [
                106.733007,
                20.69791
              ],
              [
                106.733007,
                20.69791
              ],
              [
                106.733096,
                20.697986
              ],
              [
                106.733207,
                20.698057
              ],
              [
                106.733375,
                20.698141
              ],
              [
                106.733567,
                20.698272
              ],
              [
                106.733702,
                20.698371
              ],
              [
                106.733898,
                20.698491
              ],
              [
                106.734032,
                20.698583
              ],
              [
                106.734174,
                20.698664
              ],
              [
                106.734331,
                20.698767
              ],
              [
                106.73439,
                20.698806
              ],
              [
                106.73456,
                20.698532
              ],
              [
                106.734589,
                20.69847
              ],
              [
                106.734594,
                20.698429
              ],
              [
                106.734594,
                20.698255
              ],
              [
                106.734599,
                20.698149
              ],
              [
                106.734614,
                20.698093
              ],
              [
                106.734632,
                20.697995
              ],
              [
                106.735478,
                20.696824
              ],
              [
                106.73662,
                20.695242
              ],
              [
                106.736848,
                20.694927
              ],
              [
                106.738662,
                20.692583
              ],
              [
                106.73876,
                20.692456
              ],
              [
                106.739707,
                20.691232
              ],
              [
                106.739826,
                20.691078
              ],
              [
                106.740892,
                20.6897
              ],
              [
                106.741535,
                20.689349
              ],
              [
                106.741064,
                20.688586
              ],
              [
                106.740735,
                20.687801
              ],
              [
                106.73998,
                20.687034
              ],
              [
                106.739849,
                20.686866
              ],
              [
                106.739438,
                20.686337
              ],
              [
                106.739067,
                20.685839
              ],
              [
                106.738504,
                20.684583
              ],
              [
                106.738021,
                20.683684
              ],
              [
                106.737558,
                20.68313
              ],
              [
                106.737035,
                20.682733
              ],
              [
                106.736727,
                20.682378
              ],
              [
                106.736551,
                20.682203
              ],
              [
                106.736039,
                20.681695
              ],
              [
                106.735975,
                20.681468
              ],
              [
                106.735764,
                20.680723
              ],
              [
                106.735269,
                20.68004
              ],
              [
                106.734862,
                20.679826
              ],
              [
                106.734267,
                20.679514
              ],
              [
                106.732983,
                20.679145
              ],
              [
                106.731983,
                20.678753
              ],
              [
                106.731885,
                20.678726
              ],
              [
                106.731321,
                20.678569
              ],
              [
                106.730659,
                20.678384
              ],
              [
                106.728732,
                20.678198
              ],
              [
                106.727889,
                20.677848
              ],
              [
                106.727537,
                20.676955
              ],
              [
                106.726922,
                20.676495
              ],
              [
                106.725379,
                20.676589
              ],
              [
                106.724187,
                20.676661
              ],
              [
                106.723623,
                20.676696
              ],
              [
                106.72291,
                20.676583
              ],
              [
                106.722621,
                20.676633
              ],
              [
                106.722055,
                20.67673
              ],
              [
                106.722023,
                20.676736
              ],
              [
                106.721391,
                20.676981
              ],
              [
                106.720694,
                20.677131
              ],
              [
                106.720549,
                20.677163
              ],
              [
                106.71961,
                20.677268
              ],
              [
                106.718163,
                20.677306
              ],
              [
                106.716896,
                20.677558
              ],
              [
                106.716104,
                20.677839
              ],
              [
                106.715624,
                20.67801
              ],
              [
                106.715225,
                20.678113
              ],
              [
                106.715023,
                20.678216
              ],
              [
                106.714745,
                20.678371
              ],
              [
                106.714497,
                20.678441
              ],
              [
                106.714284,
                20.678457
              ],
              [
                106.713375,
                20.678528
              ],
              [
                106.712818,
                20.678625
              ],
              [
                106.712489,
                20.678714
              ],
              [
                106.71203,
                20.679024
              ],
              [
                106.711452,
                20.679607
              ],
              [
                106.711191,
                20.680021
              ],
              [
                106.711125,
                20.680082
              ],
              [
                106.710765,
                20.680341
              ],
              [
                106.710462,
                20.680478
              ],
              [
                106.709951,
                20.680665
              ],
              [
                106.709252,
                20.680863
              ],
              [
                106.708778,
                20.681097
              ],
              [
                106.708022,
                20.681509
              ],
              [
                106.707758,
                20.681574
              ],
              [
                106.707216,
                20.681694
              ],
              [
                106.707095,
                20.681757
              ],
              [
                106.707035,
                20.681892
              ],
              [
                106.707007,
                20.682035
              ],
              [
                106.706958,
                20.682222
              ],
              [
                106.706884,
                20.6824
              ],
              [
                106.706786,
                20.682537
              ],
              [
                106.706537,
                20.682697
              ],
              [
                106.7059,
                20.683012
              ],
              [
                106.705293,
                20.683276
              ],
              [
                106.704316,
                20.683744
              ],
              [
                106.703561,
                20.6842
              ],
              [
                106.703095,
                20.68459
              ],
              [
                106.702783,
                20.684893
              ],
              [
                106.702489,
                20.685156
              ],
              [
                106.701962,
                20.685625
              ],
              [
                106.701938,
                20.685646
              ],
              [
                106.701701,
                20.685857
              ],
              [
                106.701416,
                20.686145
              ],
              [
                106.700988,
                20.68665
              ],
              [
                106.700038,
                20.686093
              ],
              [
                106.699087,
                20.685536
              ],
              [
                106.698809,
                20.685845
              ],
              [
                106.698486,
                20.686203
              ],
              [
                106.698067,
                20.686668
              ],
              [
                106.697383,
                20.687518
              ],
              [
                106.696431,
                20.688698
              ],
              [
                106.695428,
                20.689883
              ],
              [
                106.694235,
                20.6913
              ],
              [
                106.694156,
                20.691391
              ],
              [
                106.693445,
                20.692206
              ],
              [
                106.691971,
                20.693629
              ],
              [
                106.691674,
                20.693916
              ],
              [
                106.690807,
                20.694523
              ],
              [
                106.689859,
                20.695186
              ],
              [
                106.689505,
                20.695393
              ],
              [
                106.689481,
                20.695415
              ],
              [
                106.68698,
                20.696611
              ],
              [
                106.686931,
                20.696731
              ],
              [
                106.685793,
                20.697196
              ],
              [
                106.683511,
                20.697529
              ],
              [
                106.6828,
                20.697536
              ],
              [
                106.682434,
                20.697539
              ],
              [
                106.682407,
                20.698121
              ],
              [
                106.68238,
                20.698703
              ],
              [
                106.68552,
                20.705484
              ],
              [
                106.685675,
                20.70657
              ],
              [
                106.685325,
                20.707794
              ],
              [
                106.68507,
                20.708657
              ],
              [
                106.684256,
                20.710367
              ],
              [
                106.683857,
                20.711078
              ],
              [
                106.683502,
                20.711691
              ],
              [
                106.6844,
                20.714145
              ],
              [
                106.68501,
                20.715318
              ],
              [
                106.68591,
                20.716615
              ],
              [
                106.686106,
                20.716841
              ],
              [
                106.686978,
                20.717586
              ],
              [
                106.688052,
                20.718268
              ],
              [
                106.688955,
                20.718678
              ],
              [
                106.690014,
                20.718955
              ],
              [
                106.691463,
                20.71919
              ],
              [
                106.692912,
                20.719425
              ],
              [
                106.694355,
                20.719626
              ],
              [
                106.695798,
                20.719943
              ],
              [
                106.696289,
                20.720186
              ],
              [
                106.696627,
                20.720441
              ],
              [
                106.697181,
                20.720952
              ],
              [
                106.697675,
                20.721502
              ],
              [
                106.697996,
                20.722015
              ],
              [
                106.698215,
                20.7225
              ],
              [
                106.698477,
                20.723195
              ],
              [
                106.698646,
                20.723777
              ],
              [
                106.698776,
                20.72435
              ],
              [
                106.698872,
                20.724916
              ],
              [
                106.698948,
                20.725518
              ],
              [
                106.698962,
                20.725632
              ],
              [
                106.699046,
                20.726916
              ],
              [
                106.699108,
                20.727901
              ],
              [
                106.699136,
                20.728672
              ],
              [
                106.699146,
                20.728971
              ],
              [
                106.699246,
                20.730086
              ],
              [
                106.699281,
                20.731233
              ],
              [
                106.699239,
                20.732252
              ],
              [
                106.699149,
                20.733012
              ],
              [
                106.698984,
                20.733939
              ],
              [
                106.698824,
                20.73465
              ],
              [
                106.698642,
                20.735384
              ],
              [
                106.698444,
                20.736095
              ],
              [
                106.698163,
                20.736977
              ],
              [
                106.697819,
                20.737981
              ],
              [
                106.697571,
                20.738942
              ],
              [
                106.697386,
                20.73966
              ],
              [
                106.697382,
                20.739667
              ],
              [
                106.697734,
                20.739557
              ],
              [
                106.698323,
                20.739374
              ],
              [
                106.698729,
                20.739247
              ],
              [
                106.699045,
                20.739876
              ],
              [
                106.699403,
                20.74047
              ],
              [
                106.699764,
                20.741175
              ],
              [
                106.700598,
                20.740824
              ],
              [
                106.700646,
                20.74089
              ],
              [
                106.700783,
                20.741078
              ],
              [
                106.700814,
                20.74123
              ],
              [
                106.700822,
                20.741273
              ],
              [
                106.701105,
                20.741722
              ],
              [
                106.701411,
                20.741565
              ],
              [
                106.70156,
                20.741489
              ],
              [
                106.701583,
                20.741477
              ],
              [
                106.701592,
                20.741406
              ],
              [
                106.701616,
                20.741378
              ],
              [
                106.701641,
                20.741357
              ],
              [
                106.701869,
                20.741283
              ],
              [
                106.701871,
                20.741283
              ],
              [
                106.701938,
                20.741298
              ],
              [
                106.702016,
                20.741278
              ],
              [
                106.702089,
                20.741248
              ],
              [
                106.702198,
                20.74119
              ],
              [
                106.702482,
                20.741116
              ],
              [
                106.702494,
                20.741177
              ],
              [
                106.702524,
                20.741292
              ],
              [
                106.702591,
                20.741448
              ],
              [
                106.702691,
                20.741711
              ],
              [
                106.702708,
                20.74178
              ],
              [
                106.702747,
                20.741936
              ],
              [
                106.702796,
                20.742207
              ],
              [
                106.702803,
                20.742245
              ],
              [
                106.702849,
                20.742487
              ],
              [
                106.702855,
                20.74252
              ],
              [
                106.702863,
                20.742594
              ],
              [
                106.702875,
                20.742693
              ],
              [
                106.702878,
                20.742718
              ],
              [
                106.702886,
                20.742767
              ],
              [
                106.702702,
                20.742833
              ],
              [
                106.702612,
                20.74288
              ],
              [
                106.702577,
                20.742896
              ],
              [
                106.702504,
                20.742979
              ],
              [
                106.702456,
                20.743048
              ],
              [
                106.70245,
                20.743059
              ],
              [
                106.702411,
                20.743157
              ],
              [
                106.702383,
                20.743228
              ],
              [
                106.702356,
                20.743381
              ],
              [
                106.702517,
                20.743667
              ],
              [
                106.702527,
                20.743683
              ],
              [
                106.702612,
                20.743826
              ],
              [
                106.702716,
                20.744001
              ],
              [
                106.702738,
                20.744038
              ],
              [
                106.702904,
                20.744335
              ],
              [
                106.703007,
                20.74446
              ],
              [
                106.703043,
                20.74471
              ],
              [
                106.702736,
                20.744766
              ],
              [
                106.702735,
                20.744766
              ],
              [
                106.702657,
                20.744778
              ],
              [
                106.702449,
                20.744793
              ],
              [
                106.70244,
                20.744926
              ],
              [
                106.702404,
                20.74529
              ],
              [
                106.702385,
                20.745474
              ],
              [
                106.702354,
                20.745916
              ],
              [
                106.702317,
                20.746044
              ],
              [
                106.702287,
                20.746112
              ],
              [
                106.70225,
                20.746326
              ],
              [
                106.702197,
                20.746597
              ],
              [
                106.702174,
                20.746865
              ],
              [
                106.702161,
                20.746995
              ],
              [
                106.702106,
                20.747154
              ],
              [
                106.702082,
                20.747225
              ],
              [
                106.702118,
                20.747248
              ],
              [
                106.702408,
                20.747399
              ],
              [
                106.702306,
                20.74756
              ],
              [
                106.702248,
                20.747691
              ],
              [
                106.70224,
                20.747696
              ],
              [
                106.702245,
                20.747697
              ],
              [
                106.702709,
                20.747825
              ],
              [
                106.702836,
                20.747985
              ],
              [
                106.702747,
                20.748112
              ],
              [
                106.702893,
                20.74823
              ],
              [
                106.702675,
                20.748517
              ],
              [
                106.702365,
                20.748853
              ],
              [
                106.702357,
                20.748916
              ],
              [
                106.702337,
                20.749004
              ],
              [
                106.702272,
                20.749291
              ],
              [
                106.702227,
                20.749755
              ],
              [
                106.702244,
                20.749937
              ],
              [
                106.702307,
                20.750079
              ],
              [
                106.702555,
                20.750459
              ],
              [
                106.70288,
                20.75092
              ],
              [
                106.703136,
                20.751271
              ],
              [
                106.703241,
                20.751329
              ],
              [
                106.7033,
                20.751361
              ],
              [
                106.703497,
                20.751531
              ],
              [
                106.703752,
                20.751752
              ],
              [
                106.703772,
                20.751772
              ],
              [
                106.704142,
                20.752148
              ],
              [
                106.704161,
                20.75217
              ],
              [
                106.704267,
                20.752303
              ],
              [
                106.704262,
                20.752348
              ],
              [
                106.70424,
                20.752522
              ],
              [
                106.704215,
                20.752688
              ],
              [
                106.704179,
                20.75292
              ],
              [
                106.704309,
                20.752634
              ],
              [
                106.704511,
                20.752517
              ],
              [
                106.704647,
                20.752463
              ],
              [
                106.704789,
                20.752419
              ],
              [
                106.705089,
                20.752402
              ],
              [
                106.705211,
                20.752368
              ],
              [
                106.705391,
                20.752288
              ],
              [
                106.705664,
                20.752122
              ],
              [
                106.705851,
                20.752044
              ],
              [
                106.705983,
                20.752
              ],
              [
                106.706115,
                20.751989
              ],
              [
                106.706338,
                20.751987
              ],
              [
                106.706465,
                20.751898
              ],
              [
                106.706686,
                20.751767
              ],
              [
                106.707143,
                20.751501
              ],
              [
                106.707064,
                20.75134
              ],
              [
                106.706981,
                20.751168
              ],
              [
                106.706756,
                20.750706
              ],
              [
                106.706718,
                20.75026
              ],
              [
                106.707681,
                20.750502
              ],
              [
                106.707681,
                20.750502
              ]
            ]
          ]
        ]
      },
      "properties": {
        "code": "11749",
        "name": "Kiến Hải",
        "nameEn": "Kien Hai",
        "fullName": "Xã Kiến Hải",
        "fullNameEn": "Kien Hai Commune",
        "codeName": "kien_hai",
        "postalCode": "05126",
        "postalCodePrefix": "",
        "gisServerId": "diaphanhanhchinhcapxa_2025.939",
        "areaKm2": 31.86
      }
    }
  ]
}