{
  "type": "FeatureCollection",
  "bbox": [
    106.513005,
    20.70522,
    106.58121,
    20.762569
  ],
  "features": [
    {
      "type": "Feature",
      "id": "11755",
      "bbox": [
        106.513005,
        20.70522,
        106.58121,
        20.762569
      ],
      "geometry": {
        "type": "MultiPolygon",
        "coordinates": [
          [
            [
              [
                106.537784,
                20.762196
              ],
              [
                106.539941,
                20.76173
              ],
              [
                106.541434,
                20.761264
              ],
              [
                106.543981,
                20.760144
              ],
              [
                106.544884,
                20.759748
              ],
              [
                106.546236,
                20.759084
              ],
              [
                106.547501,
                20.758729
              ],
              [
                106.548032,
                20.75832
              ],
              [
                106.548129,
                20.758245
              ],
              [
                106.548752,
                20.757677
              ],
              [
                106.550365,
                20.756541
              ],
              [
                106.552531,
                20.755416
              ],
              [
                106.554852,
                20.75429
              ],
              [
                106.557365,
                20.753276
              ],
              [
                106.55922,
                20.752617
              ],
              [
                106.563037,
                20.750843
              ],
              [
                106.563312,
                20.750693
              ],
              [
                106.564005,
                20.750387
              ],
              [
                106.564762,
                20.74999
              ],
              [
                106.565345,
                20.749627
              ],
              [
                106.56611,
                20.749015
              ],
              [
                106.568295,
                20.747624
              ],
              [
                106.574791,
                20.743505
              ],
              [
                106.58121,
                20.739314
              ],
              [
                106.579142,
                20.737358
              ],
              [
                106.578188,
                20.736514
              ],
              [
                106.576818,
                20.735379
              ],
              [
                106.576874,
                20.735341
              ],
              [
                106.576973,
                20.735281
              ],
              [
                106.577207,
                20.735137
              ],
              [
                106.577397,
                20.735062
              ],
              [
                106.577549,
                20.735017
              ],
              [
                106.577115,
                20.734566
              ],
              [
                106.576964,
                20.734398
              ],
              [
                106.576261,
                20.733616
              ],
              [
                106.575063,
                20.732212
              ],
              [
                106.574745,
                20.73184
              ],
              [
                106.574635,
                20.731711
              ],
              [
                106.572955,
                20.729811
              ],
              [
                106.572316,
                20.72909
              ],
              [
                106.571948,
                20.728684
              ],
              [
                106.571783,
                20.728504
              ],
              [
                106.571751,
                20.728468
              ],
              [
                106.571667,
                20.728375
              ],
              [
                106.570749,
                20.727341
              ],
              [
                106.57004,
                20.726542
              ],
              [
                106.569223,
                20.725613
              ],
              [
                106.569125,
                20.725507
              ],
              [
                106.568921,
                20.725284
              ],
              [
                106.568789,
                20.725152
              ],
              [
                106.568729,
                20.72507
              ],
              [
                106.568853,
                20.724926
              ],
              [
                106.568842,
                20.724912
              ],
              [
                106.569106,
                20.724612
              ],
              [
                106.569034,
                20.724536
              ],
              [
                106.568975,
                20.724474
              ],
              [
                106.568696,
                20.724179
              ],
              [
                106.568587,
                20.724017
              ],
              [
                106.56822,
                20.723474
              ],
              [
                106.5674,
                20.722282
              ],
              [
                106.567235,
                20.722059
              ],
              [
                106.567031,
                20.721783
              ],
              [
                106.566948,
                20.721751
              ],
              [
                106.566959,
                20.72174
              ],
              [
                106.567123,
                20.721485
              ],
              [
                106.567535,
                20.720715
              ],
              [
                106.567637,
                20.720528
              ],
              [
                106.567904,
                20.720042
              ],
              [
                106.567733,
                20.719471
              ],
              [
                106.567515,
                20.71874
              ],
              [
                106.567478,
                20.718617
              ],
              [
                106.567519,
                20.71862
              ],
              [
                106.56768,
                20.718612
              ],
              [
                106.567783,
                20.718532
              ],
              [
                106.567834,
                20.718366
              ],
              [
                106.567933,
                20.717956
              ],
              [
                106.567928,
                20.717832
              ],
              [
                106.567928,
                20.717831
              ],
              [
                106.567881,
                20.717731
              ],
              [
                106.567694,
                20.717485
              ],
              [
                106.567278,
                20.717359
              ],
              [
                106.567186,
                20.717332
              ],
              [
                106.566536,
                20.717135
              ],
              [
                106.56646,
                20.717112
              ],
              [
                106.566186,
                20.717029
              ],
              [
                106.565191,
                20.716796
              ],
              [
                106.564679,
                20.716676
              ],
              [
                106.564252,
                20.716576
              ],
              [
                106.563242,
                20.71634
              ],
              [
                106.563092,
                20.716942
              ],
              [
                106.563713,
                20.717067
              ],
              [
                106.563759,
                20.716765
              ],
              [
                106.564229,
                20.717021
              ],
              [
                106.564161,
                20.717214
              ],
              [
                106.56411,
                20.717401
              ],
              [
                106.564067,
                20.717435
              ],
              [
                106.564059,
                20.717447
              ],
              [
                106.564046,
                20.717452
              ],
              [
                106.564038,
                20.717453
              ],
              [
                106.563901,
                20.717473
              ],
              [
                106.563482,
                20.717427
              ],
              [
                106.563434,
                20.717409
              ],
              [
                106.563386,
                20.717392
              ],
              [
                106.563332,
                20.717372
              ],
              [
                106.562998,
                20.717318
              ],
              [
                106.562848,
                20.717254
              ],
              [
                106.562842,
                20.717253
              ],
              [
                106.562763,
                20.717236
              ],
              [
                106.562757,
                20.71723
              ],
              [
                106.562755,
                20.717234
              ],
              [
                106.562751,
                20.717241
              ],
              [
                106.562729,
                20.71729
              ],
              [
                106.560068,
                20.716842
              ],
              [
                106.560067,
                20.716597
              ],
              [
                106.559383,
                20.716567
              ],
              [
                106.55925,
                20.716886
              ],
              [
                106.559123,
                20.717193
              ],
              [
                106.558946,
                20.71713
              ],
              [
                106.558327,
                20.716883
              ],
              [
                106.557578,
                20.716692
              ],
              [
                106.557393,
                20.716644
              ],
              [
                106.556313,
                20.71621
              ],
              [
                106.555537,
                20.715866
              ],
              [
                106.555071,
                20.715678
              ],
              [
                106.555028,
                20.715938
              ],
              [
                106.554467,
                20.715538
              ],
              [
                106.553437,
                20.714778
              ],
              [
                106.553161,
                20.714591
              ],
              [
                106.552817,
                20.714341
              ],
              [
                106.552413,
                20.714002
              ],
              [
                106.552144,
                20.713802
              ],
              [
                106.552101,
                20.713772
              ],
              [
                106.551998,
                20.7137
              ],
              [
                106.552115,
                20.713484
              ],
              [
                106.552362,
                20.713398
              ],
              [
                106.552464,
                20.713173
              ],
              [
                106.551975,
                20.713105
              ],
              [
                106.550386,
                20.712695
              ],
              [
                106.550302,
                20.712683
              ],
              [
                106.550253,
                20.71295
              ],
              [
                106.550158,
                20.712924
              ],
              [
                106.550044,
                20.712887
              ],
              [
                106.550043,
                20.71289
              ],
              [
                106.549261,
                20.712673
              ],
              [
                106.548798,
                20.712788
              ],
              [
                106.548271,
                20.71287
              ],
              [
                106.54812,
                20.712997
              ],
              [
                106.548081,
                20.713102
              ],
              [
                106.548077,
                20.713111
              ],
              [
                106.548098,
                20.713326
              ],
              [
                106.548183,
                20.713546
              ],
              [
                106.548153,
                20.713708
              ],
              [
                106.547952,
                20.714213
              ],
              [
                106.547947,
                20.714225
              ],
              [
                106.547874,
                20.714574
              ],
              [
                106.547787,
                20.714888
              ],
              [
                106.547682,
                20.715271
              ],
              [
                106.547609,
                20.715536
              ],
              [
                106.547432,
                20.716183
              ],
              [
                106.547419,
                20.716228
              ],
              [
                106.547414,
                20.716246
              ],
              [
                106.547374,
                20.716378
              ],
              [
                106.547183,
                20.717125
              ],
              [
                106.545478,
                20.716972
              ],
              [
                106.544213,
                20.716858
              ],
              [
                106.544116,
                20.717114
              ],
              [
                106.543961,
                20.717521
              ],
              [
                106.543827,
                20.717953
              ],
              [
                106.543602,
                20.717828
              ],
              [
                106.543576,
                20.717907
              ],
              [
                106.543362,
                20.717635
              ],
              [
                106.543336,
                20.717524
              ],
              [
                106.543055,
                20.717527
              ],
              [
                106.542208,
                20.717537
              ],
              [
                106.54222,
                20.717495
              ],
              [
                106.542208,
                20.717112
              ],
              [
                106.542202,
                20.716922
              ],
              [
                106.541649,
                20.716935
              ],
              [
                106.540698,
                20.716677
              ],
              [
                106.540733,
                20.716289
              ],
              [
                106.540724,
                20.716207
              ],
              [
                106.540705,
                20.716158
              ],
              [
                106.540494,
                20.716161
              ],
              [
                106.540604,
                20.715682
              ],
              [
                106.540507,
                20.715521
              ],
              [
                106.540392,
                20.715451
              ],
              [
                106.540297,
                20.71547
              ],
              [
                106.540216,
                20.715596
              ],
              [
                106.540121,
                20.71562
              ],
              [
                106.540018,
                20.715568
              ],
              [
                106.539916,
                20.715491
              ],
              [
                106.539813,
                20.71536
              ],
              [
                106.539748,
                20.7152
              ],
              [
                106.539776,
                20.714871
              ],
              [
                106.539237,
                20.714854
              ],
              [
                106.538357,
                20.714818
              ],
              [
                106.537748,
                20.714793
              ],
              [
                106.53668,
                20.714821
              ],
              [
                106.536651,
                20.71456
              ],
              [
                106.536572,
                20.714256
              ],
              [
                106.536509,
                20.714094
              ],
              [
                106.536556,
                20.713702
              ],
              [
                106.536604,
                20.713279
              ],
              [
                106.536266,
                20.713284
              ],
              [
                106.536266,
                20.713284
              ],
              [
                106.535616,
                20.713271
              ],
              [
                106.535479,
                20.713301
              ],
              [
                106.535353,
                20.713345
              ],
              [
                106.535206,
                20.713451
              ],
              [
                106.535064,
                20.713491
              ],
              [
                106.534862,
                20.713526
              ],
              [
                106.534684,
                20.713528
              ],
              [
                106.534505,
                20.713481
              ],
              [
                106.534378,
                20.713411
              ],
              [
                106.534152,
                20.713174
              ],
              [
                106.533849,
                20.712851
              ],
              [
                106.533464,
                20.712487
              ],
              [
                106.5331,
                20.712165
              ],
              [
                106.532737,
                20.711891
              ],
              [
                106.532307,
                20.711574
              ],
              [
                106.531989,
                20.711286
              ],
              [
                106.531809,
                20.711067
              ],
              [
                106.53157,
                20.710606
              ],
              [
                106.531307,
                20.710221
              ],
              [
                106.530947,
                20.709794
              ],
              [
                106.530624,
                20.709424
              ],
              [
                106.530366,
                20.709092
              ],
              [
                106.530185,
                20.70873
              ],
              [
                106.529852,
                20.707954
              ],
              [
                106.52971,
                20.70753
              ],
              [
                106.529678,
                20.70731
              ],
              [
                106.529669,
                20.706985
              ],
              [
                106.52967,
                20.706516
              ],
              [
                106.529647,
                20.70622
              ],
              [
                106.529609,
                20.70602
              ],
              [
                106.529547,
                20.705901
              ],
              [
                106.529368,
                20.705769
              ],
              [
                106.529117,
                20.705618
              ],
              [
                106.528919,
                20.705567
              ],
              [
                106.528629,
                20.70556
              ],
              [
                106.528344,
                20.705529
              ],
              [
                106.527876,
                20.705438
              ],
              [
                106.527433,
                20.70536
              ],
              [
                106.527123,
                20.705339
              ],
              [
                106.526666,
                20.705343
              ],
              [
                106.5263,
                20.705337
              ],
              [
                106.525837,
                20.705294
              ],
              [
                106.525472,
                20.705317
              ],
              [
                106.525096,
                20.705303
              ],
              [
                106.524485,
                20.70522
              ],
              [
                106.523643,
                20.705304
              ],
              [
                106.523089,
                20.705435
              ],
              [
                106.52245,
                20.705733
              ],
              [
                106.52202,
                20.705892
              ],
              [
                106.521659,
                20.705931
              ],
              [
                106.521373,
                20.705934
              ],
              [
                106.521029,
                20.705871
              ],
              [
                106.520807,
                20.705879
              ],
              [
                106.520484,
                20.705966
              ],
              [
                106.520104,
                20.706029
              ],
              [
                106.51916,
                20.706033
              ],
              [
                106.519071,
                20.706478
              ],
              [
                106.518968,
                20.706993
              ],
              [
                106.518557,
                20.709384
              ],
              [
                106.517773,
                20.709192
              ],
              [
                106.51723,
                20.709159
              ],
              [
                106.516386,
                20.709052
              ],
              [
                106.515613,
                20.708898
              ],
              [
                106.514791,
                20.708621
              ],
              [
                106.514222,
                20.710271
              ],
              [
                106.513586,
                20.711758
              ],
              [
                106.51338,
                20.712458
              ],
              [
                106.513165,
                20.713397
              ],
              [
                106.513039,
                20.714
              ],
              [
                106.513005,
                20.714631
              ],
              [
                106.513158,
                20.71572
              ],
              [
                106.513465,
                20.716912
              ],
              [
                106.513956,
                20.718294
              ],
              [
                106.515748,
                20.722791
              ],
              [
                106.516344,
                20.724449
              ],
              [
                106.51683,
                20.725814
              ],
              [
                106.517087,
                20.726536
              ],
              [
                106.518143,
                20.729587
              ],
              [
                106.518659,
                20.731351
              ],
              [
                106.519207,
                20.733287
              ],
              [
                106.519684,
                20.735149
              ],
              [
                106.519693,
                20.735185
              ],
              [
                106.52014,
                20.737208
              ],
              [
                106.520472,
                20.738935
              ],
              [
                106.520788,
                20.740969
              ],
              [
                106.521029,
                20.742774
              ],
              [
                106.521216,
                20.744187
              ],
              [
                106.521455,
                20.746699
              ],
              [
                106.521549,
                20.74901
              ],
              [
                106.521442,
                20.750057
              ],
              [
                106.521267,
                20.751892
              ],
              [
                106.521175,
                20.752593
              ],
              [
                106.520982,
                20.753575
              ],
              [
                106.520663,
                20.754713
              ],
              [
                106.520336,
                20.755638
              ],
              [
                106.519949,
                20.756639
              ],
              [
                106.5198,
                20.757035
              ],
              [
                106.519607,
                20.757419
              ],
              [
                106.519243,
                20.757924
              ],
              [
                106.518725,
                20.758513
              ],
              [
                106.518607,
                20.758735
              ],
              [
                106.51847,
                20.759106
              ],
              [
                106.518459,
                20.759508
              ],
              [
                106.518494,
                20.759872
              ],
              [
                106.518572,
                20.760027
              ],
              [
                106.518854,
                20.760294
              ],
              [
                106.5192,
                20.760595
              ],
              [
                106.519368,
                20.760845
              ],
              [
                106.519402,
                20.761071
              ],
              [
                106.519442,
                20.761322
              ],
              [
                106.519525,
                20.761711
              ],
              [
                106.519549,
                20.761772
              ],
              [
                106.51965,
                20.762028
              ],
              [
                106.520968,
                20.762032
              ],
              [
                106.522449,
                20.762144
              ],
              [
                106.522708,
                20.762222
              ],
              [
                106.524161,
                20.76223
              ],
              [
                106.526493,
                20.762103
              ],
              [
                106.528934,
                20.762224
              ],
              [
                106.531376,
                20.762442
              ],
              [
                106.53313,
                20.762569
              ],
              [
                106.535138,
                20.762527
              ],
              [
                106.537497,
                20.762239
              ],
              [
                106.537784,
                20.762196
              ],
              [
                106.537784,
                20.762196
              ]
            ]
          ]
        ]
      },
      "properties": {
        "code": "11755",
        "name": "Tiên Lãng",
        "nameEn": "Tien Lang",
        "fullName": "Xã Tiên Lãng",
        "fullNameEn": "Tien Lang Commune",
        "codeName": "tien_lang",
        "postalCode": "05206",
        "postalCodePrefix": "",
        "gisServerId": "diaphanhanhchinhcapxa_2025.916",
        "areaKm2": 27.89
      }
    }
  ]
}