{
  "type": "FeatureCollection",
  "bbox": [
    106.512518,
    20.664137,
    106.592474,
    20.720042
  ],
  "features": [
    {
      "type": "Feature",
      "id": "11779",
      "bbox": [
        106.512518,
        20.664137,
        106.592474,
        20.720042
      ],
      "geometry": {
        "type": "MultiPolygon",
        "coordinates": [
          [
            [
              [
                106.57556,
                20.70608
              ],
              [
                106.576311,
                20.70473
              ],
              [
                106.577444,
                20.702513
              ],
              [
                106.580621,
                20.703889
              ],
              [
                106.584155,
                20.698283
              ],
              [
                106.58537,
                20.695902
              ],
              [
                106.587666,
                20.693043
              ],
              [
                106.585389,
                20.692187
              ],
              [
                106.586474,
                20.690162
              ],
              [
                106.587707,
                20.687849
              ],
              [
                106.588888,
                20.685651
              ],
              [
                106.589792,
                20.683965
              ],
              [
                106.590951,
                20.681839
              ],
              [
                106.591713,
                20.680383
              ],
              [
                106.592312,
                20.679352
              ],
              [
                106.592453,
                20.679
              ],
              [
                106.592474,
                20.678863
              ],
              [
                106.592458,
                20.67877
              ],
              [
                106.592358,
                20.678714
              ],
              [
                106.591755,
                20.678597
              ],
              [
                106.590282,
                20.67836
              ],
              [
                106.588344,
                20.678019
              ],
              [
                106.585741,
                20.67757
              ],
              [
                106.583726,
                20.677237
              ],
              [
                106.583596,
                20.677203
              ],
              [
                106.58358,
                20.677131
              ],
              [
                106.583615,
                20.676837
              ],
              [
                106.583672,
                20.676449
              ],
              [
                106.583647,
                20.67627
              ],
              [
                106.583562,
                20.676099
              ],
              [
                106.583382,
                20.675642
              ],
              [
                106.582863,
                20.674105
              ],
              [
                106.582439,
                20.672926
              ],
              [
                106.582101,
                20.672066
              ],
              [
                106.581884,
                20.671511
              ],
              [
                106.581767,
                20.671283
              ],
              [
                106.581179,
                20.670618
              ],
              [
                106.580637,
                20.671191
              ],
              [
                106.578042,
                20.673653
              ],
              [
                106.576531,
                20.674857
              ],
              [
                106.574714,
                20.676064
              ],
              [
                106.573366,
                20.676822
              ],
              [
                106.571683,
                20.677612
              ],
              [
                106.569376,
                20.678536
              ],
              [
                106.5676,
                20.679183
              ],
              [
                106.565581,
                20.679919
              ],
              [
                106.563652,
                20.680538
              ],
              [
                106.562011,
                20.681041
              ],
              [
                106.560308,
                20.681372
              ],
              [
                106.558999,
                20.681541
              ],
              [
                106.557689,
                20.681568
              ],
              [
                106.556421,
                20.681538
              ],
              [
                106.55525,
                20.681348
              ],
              [
                106.554638,
                20.681105
              ],
              [
                106.553614,
                20.680311
              ],
              [
                106.552752,
                20.67943
              ],
              [
                106.551347,
                20.677697
              ],
              [
                106.551162,
                20.67747
              ],
              [
                106.550394,
                20.676592
              ],
              [
                106.549585,
                20.675667
              ],
              [
                106.548807,
                20.674849
              ],
              [
                106.547083,
                20.673179
              ],
              [
                106.547028,
                20.67313
              ],
              [
                106.545515,
                20.671767
              ],
              [
                106.544493,
                20.670951
              ],
              [
                106.54315,
                20.669988
              ],
              [
                106.541854,
                20.669139
              ],
              [
                106.540782,
                20.668561
              ],
              [
                106.539034,
                20.667544
              ],
              [
                106.537005,
                20.666551
              ],
              [
                106.535644,
                20.666032
              ],
              [
                106.534169,
                20.665536
              ],
              [
                106.532732,
                20.665105
              ],
              [
                106.531006,
                20.664683
              ],
              [
                106.530151,
                20.664504
              ],
              [
                106.528419,
                20.664254
              ],
              [
                106.526986,
                20.664137
              ],
              [
                106.526079,
                20.664153
              ],
              [
                106.525022,
                20.664298
              ],
              [
                106.524385,
                20.664462
              ],
              [
                106.523806,
                20.66461
              ],
              [
                106.523522,
                20.664713
              ],
              [
                106.522691,
                20.665012
              ],
              [
                106.521377,
                20.665607
              ],
              [
                106.519154,
                20.666841
              ],
              [
                106.517831,
                20.667627
              ],
              [
                106.516984,
                20.668218
              ],
              [
                106.516037,
                20.668972
              ],
              [
                106.515151,
                20.669811
              ],
              [
                106.514397,
                20.670573
              ],
              [
                106.514045,
                20.671007
              ],
              [
                106.513676,
                20.67166
              ],
              [
                106.513238,
                20.67261
              ],
              [
                106.512893,
                20.673598
              ],
              [
                106.512774,
                20.674166
              ],
              [
                106.512723,
                20.674409
              ],
              [
                106.512592,
                20.675035
              ],
              [
                106.512518,
                20.676154
              ],
              [
                106.512555,
                20.677425
              ],
              [
                106.512611,
                20.680006
              ],
              [
                106.512734,
                20.683265
              ],
              [
                106.512854,
                20.687175
              ],
              [
                106.512933,
                20.688943
              ],
              [
                106.513068,
                20.690299
              ],
              [
                106.513125,
                20.690708
              ],
              [
                106.513167,
                20.691006
              ],
              [
                106.51353,
                20.693055
              ],
              [
                106.514191,
                20.696934
              ],
              [
                106.514663,
                20.699463
              ],
              [
                106.514895,
                20.701354
              ],
              [
                106.515347,
                20.704897
              ],
              [
                106.515348,
                20.704924
              ],
              [
                106.515356,
                20.705191
              ],
              [
                106.515377,
                20.705882
              ],
              [
                106.515332,
                20.706503
              ],
              [
                106.515168,
                20.707327
              ],
              [
                106.514824,
                20.708525
              ],
              [
                106.514791,
                20.708621
              ],
              [
                106.515613,
                20.708898
              ],
              [
                106.516386,
                20.709052
              ],
              [
                106.51723,
                20.709159
              ],
              [
                106.517773,
                20.709192
              ],
              [
                106.518557,
                20.709384
              ],
              [
                106.518968,
                20.706993
              ],
              [
                106.519071,
                20.706478
              ],
              [
                106.51916,
                20.706033
              ],
              [
                106.520104,
                20.706029
              ],
              [
                106.520484,
                20.705966
              ],
              [
                106.520807,
                20.705879
              ],
              [
                106.521029,
                20.705871
              ],
              [
                106.521373,
                20.705934
              ],
              [
                106.521659,
                20.705931
              ],
              [
                106.52202,
                20.705892
              ],
              [
                106.52245,
                20.705733
              ],
              [
                106.523089,
                20.705435
              ],
              [
                106.523643,
                20.705304
              ],
              [
                106.524485,
                20.70522
              ],
              [
                106.525096,
                20.705303
              ],
              [
                106.525472,
                20.705317
              ],
              [
                106.525837,
                20.705294
              ],
              [
                106.5263,
                20.705337
              ],
              [
                106.526666,
                20.705343
              ],
              [
                106.527123,
                20.705339
              ],
              [
                106.527433,
                20.70536
              ],
              [
                106.527876,
                20.705438
              ],
              [
                106.528344,
                20.705529
              ],
              [
                106.528629,
                20.70556
              ],
              [
                106.528919,
                20.705567
              ],
              [
                106.529117,
                20.705618
              ],
              [
                106.529368,
                20.705769
              ],
              [
                106.529547,
                20.705901
              ],
              [
                106.529609,
                20.70602
              ],
              [
                106.529647,
                20.70622
              ],
              [
                106.52967,
                20.706516
              ],
              [
                106.529669,
                20.706985
              ],
              [
                106.529678,
                20.70731
              ],
              [
                106.52971,
                20.70753
              ],
              [
                106.529852,
                20.707954
              ],
              [
                106.530185,
                20.70873
              ],
              [
                106.530366,
                20.709092
              ],
              [
                106.530624,
                20.709424
              ],
              [
                106.530947,
                20.709794
              ],
              [
                106.531307,
                20.710221
              ],
              [
                106.53157,
                20.710606
              ],
              [
                106.531809,
                20.711067
              ],
              [
                106.531989,
                20.711286
              ],
              [
                106.532307,
                20.711574
              ],
              [
                106.532737,
                20.711891
              ],
              [
                106.5331,
                20.712165
              ],
              [
                106.533464,
                20.712487
              ],
              [
                106.533849,
                20.712851
              ],
              [
                106.534152,
                20.713174
              ],
              [
                106.534378,
                20.713411
              ],
              [
                106.534505,
                20.713481
              ],
              [
                106.534684,
                20.713528
              ],
              [
                106.534862,
                20.713526
              ],
              [
                106.535064,
                20.713491
              ],
              [
                106.535206,
                20.713451
              ],
              [
                106.535353,
                20.713345
              ],
              [
                106.535479,
                20.713301
              ],
              [
                106.535616,
                20.713271
              ],
              [
                106.536266,
                20.713284
              ],
              [
                106.536266,
                20.713284
              ],
              [
                106.536604,
                20.713279
              ],
              [
                106.536556,
                20.713702
              ],
              [
                106.536509,
                20.714094
              ],
              [
                106.536572,
                20.714256
              ],
              [
                106.536651,
                20.71456
              ],
              [
                106.53668,
                20.714821
              ],
              [
                106.537748,
                20.714793
              ],
              [
                106.538357,
                20.714818
              ],
              [
                106.539237,
                20.714854
              ],
              [
                106.539776,
                20.714871
              ],
              [
                106.539748,
                20.7152
              ],
              [
                106.539813,
                20.71536
              ],
              [
                106.539916,
                20.715491
              ],
              [
                106.540018,
                20.715568
              ],
              [
                106.540121,
                20.71562
              ],
              [
                106.540216,
                20.715596
              ],
              [
                106.540297,
                20.71547
              ],
              [
                106.540392,
                20.715451
              ],
              [
                106.540507,
                20.715521
              ],
              [
                106.540604,
                20.715682
              ],
              [
                106.540494,
                20.716161
              ],
              [
                106.540705,
                20.716158
              ],
              [
                106.540724,
                20.716207
              ],
              [
                106.540733,
                20.716289
              ],
              [
                106.540698,
                20.716677
              ],
              [
                106.541649,
                20.716935
              ],
              [
                106.542202,
                20.716922
              ],
              [
                106.542208,
                20.717112
              ],
              [
                106.54222,
                20.717495
              ],
              [
                106.542208,
                20.717537
              ],
              [
                106.543055,
                20.717527
              ],
              [
                106.543336,
                20.717524
              ],
              [
                106.543362,
                20.717635
              ],
              [
                106.543576,
                20.717907
              ],
              [
                106.543602,
                20.717828
              ],
              [
                106.543827,
                20.717953
              ],
              [
                106.543961,
                20.717521
              ],
              [
                106.544116,
                20.717114
              ],
              [
                106.544213,
                20.716858
              ],
              [
                106.545478,
                20.716972
              ],
              [
                106.547183,
                20.717125
              ],
              [
                106.547374,
                20.716378
              ],
              [
                106.547414,
                20.716246
              ],
              [
                106.547419,
                20.716228
              ],
              [
                106.547432,
                20.716183
              ],
              [
                106.547609,
                20.715536
              ],
              [
                106.547682,
                20.715271
              ],
              [
                106.547787,
                20.714888
              ],
              [
                106.547874,
                20.714574
              ],
              [
                106.547947,
                20.714225
              ],
              [
                106.547952,
                20.714213
              ],
              [
                106.548153,
                20.713708
              ],
              [
                106.548183,
                20.713546
              ],
              [
                106.548098,
                20.713326
              ],
              [
                106.548077,
                20.713111
              ],
              [
                106.548081,
                20.713102
              ],
              [
                106.54812,
                20.712997
              ],
              [
                106.548271,
                20.71287
              ],
              [
                106.548798,
                20.712788
              ],
              [
                106.549261,
                20.712673
              ],
              [
                106.550043,
                20.71289
              ],
              [
                106.550044,
                20.712887
              ],
              [
                106.550158,
                20.712924
              ],
              [
                106.550253,
                20.71295
              ],
              [
                106.550302,
                20.712683
              ],
              [
                106.550386,
                20.712695
              ],
              [
                106.551975,
                20.713105
              ],
              [
                106.552464,
                20.713173
              ],
              [
                106.552362,
                20.713398
              ],
              [
                106.552115,
                20.713484
              ],
              [
                106.551998,
                20.7137
              ],
              [
                106.552101,
                20.713772
              ],
              [
                106.552144,
                20.713802
              ],
              [
                106.552413,
                20.714002
              ],
              [
                106.552817,
                20.714341
              ],
              [
                106.553161,
                20.714591
              ],
              [
                106.553437,
                20.714778
              ],
              [
                106.554467,
                20.715538
              ],
              [
                106.555028,
                20.715938
              ],
              [
                106.555071,
                20.715678
              ],
              [
                106.555537,
                20.715866
              ],
              [
                106.556313,
                20.71621
              ],
              [
                106.557393,
                20.716644
              ],
              [
                106.557578,
                20.716692
              ],
              [
                106.558327,
                20.716883
              ],
              [
                106.558946,
                20.71713
              ],
              [
                106.559123,
                20.717193
              ],
              [
                106.55925,
                20.716886
              ],
              [
                106.559383,
                20.716567
              ],
              [
                106.560067,
                20.716597
              ],
              [
                106.560068,
                20.716842
              ],
              [
                106.562729,
                20.71729
              ],
              [
                106.562751,
                20.717241
              ],
              [
                106.562755,
                20.717234
              ],
              [
                106.562757,
                20.71723
              ],
              [
                106.562763,
                20.717236
              ],
              [
                106.562842,
                20.717253
              ],
              [
                106.562848,
                20.717254
              ],
              [
                106.562998,
                20.717318
              ],
              [
                106.563332,
                20.717372
              ],
              [
                106.563386,
                20.717392
              ],
              [
                106.563434,
                20.717409
              ],
              [
                106.563482,
                20.717427
              ],
              [
                106.563901,
                20.717473
              ],
              [
                106.564038,
                20.717453
              ],
              [
                106.564046,
                20.717452
              ],
              [
                106.564059,
                20.717447
              ],
              [
                106.564067,
                20.717435
              ],
              [
                106.56411,
                20.717401
              ],
              [
                106.564161,
                20.717214
              ],
              [
                106.564229,
                20.717021
              ],
              [
                106.563759,
                20.716765
              ],
              [
                106.563713,
                20.717067
              ],
              [
                106.563092,
                20.716942
              ],
              [
                106.563242,
                20.71634
              ],
              [
                106.564252,
                20.716576
              ],
              [
                106.564679,
                20.716676
              ],
              [
                106.565191,
                20.716796
              ],
              [
                106.566186,
                20.717029
              ],
              [
                106.56646,
                20.717112
              ],
              [
                106.566536,
                20.717135
              ],
              [
                106.567186,
                20.717332
              ],
              [
                106.567278,
                20.717359
              ],
              [
                106.567694,
                20.717485
              ],
              [
                106.567881,
                20.717731
              ],
              [
                106.567928,
                20.717831
              ],
              [
                106.567928,
                20.717832
              ],
              [
                106.567933,
                20.717956
              ],
              [
                106.567834,
                20.718366
              ],
              [
                106.567783,
                20.718532
              ],
              [
                106.56768,
                20.718612
              ],
              [
                106.567519,
                20.71862
              ],
              [
                106.567478,
                20.718617
              ],
              [
                106.567515,
                20.71874
              ],
              [
                106.567733,
                20.719471
              ],
              [
                106.567904,
                20.720042
              ],
              [
                106.568361,
                20.719209
              ],
              [
                106.568365,
                20.719202
              ],
              [
                106.568495,
                20.718968
              ],
              [
                106.568717,
                20.718565
              ],
              [
                106.569115,
                20.717837
              ],
              [
                106.569133,
                20.717805
              ],
              [
                106.56952,
                20.717097
              ],
              [
                106.569601,
                20.716949
              ],
              [
                106.569603,
                20.716945
              ],
              [
                106.570205,
                20.715834
              ],
              [
                106.570377,
                20.715516
              ],
              [
                106.57045,
                20.715381
              ],
              [
                106.570855,
                20.714566
              ],
              [
                106.570967,
                20.71434
              ],
              [
                106.571042,
                20.714433
              ],
              [
                106.571083,
                20.714354
              ],
              [
                106.571119,
                20.714285
              ],
              [
                106.571194,
                20.71414
              ],
              [
                106.571243,
                20.714047
              ],
              [
                106.57151,
                20.713566
              ],
              [
                106.571654,
                20.713306
              ],
              [
                106.571811,
                20.713017
              ],
              [
                106.572114,
                20.712461
              ],
              [
                106.57234,
                20.712046
              ],
              [
                106.572366,
                20.711998
              ],
              [
                106.5724,
                20.711935
              ],
              [
                106.572405,
                20.711927
              ],
              [
                106.573141,
                20.710585
              ],
              [
                106.573474,
                20.709961
              ],
              [
                106.573845,
                20.709266
              ],
              [
                106.573859,
                20.709239
              ],
              [
                106.574168,
                20.708669
              ],
              [
                106.574597,
                20.707879
              ],
              [
                106.574658,
                20.707768
              ],
              [
                106.575092,
                20.70698
              ],
              [
                106.575119,
                20.70693
              ],
              [
                106.575309,
                20.706564
              ],
              [
                106.575361,
                20.706464
              ],
              [
                106.57556,
                20.70608
              ],
              [
                106.57556,
                20.70608
              ]
            ]
          ]
        ]
      },
      "properties": {
        "code": "11779",
        "name": "Tân Minh",
        "nameEn": "Tan Minh",
        "fullName": "Xã Tân Minh",
        "fullNameEn": "Tan Minh Commune",
        "codeName": "tan_minh",
        "postalCode": "05217",
        "postalCodePrefix": "",
        "gisServerId": "diaphanhanhchinhcapxa_2025.914",
        "areaKm2": 33
      }
    }
  ]
}