{
  "type": "FeatureCollection",
  "bbox": [
    106.566948,
    20.64533,
    106.650752,
    20.739314
  ],
  "features": [
    {
      "type": "Feature",
      "id": "11791",
      "bbox": [
        106.566948,
        20.64533,
        106.650752,
        20.739314
      ],
      "geometry": {
        "type": "MultiPolygon",
        "coordinates": [
          [
            [
              [
                106.601423,
                20.725474
              ],
              [
                106.60262,
                20.724523
              ],
              [
                106.604982,
                20.722221
              ],
              [
                106.605088,
                20.7221
              ],
              [
                106.607469,
                20.719387
              ],
              [
                106.609071,
                20.717089
              ],
              [
                106.610891,
                20.71387
              ],
              [
                106.611991,
                20.71131
              ],
              [
                106.613955,
                20.70691
              ],
              [
                106.615512,
                20.704063
              ],
              [
                106.616085,
                20.703239
              ],
              [
                106.616256,
                20.702994
              ],
              [
                106.61665,
                20.702427
              ],
              [
                106.617556,
                20.701582
              ],
              [
                106.618954,
                20.700457
              ],
              [
                106.620345,
                20.699883
              ],
              [
                106.621497,
                20.699621
              ],
              [
                106.622462,
                20.699552
              ],
              [
                106.623467,
                20.699674
              ],
              [
                106.625161,
                20.700136
              ],
              [
                106.626869,
                20.700898
              ],
              [
                106.627676,
                20.701242
              ],
              [
                106.628054,
                20.701441
              ],
              [
                106.62925,
                20.702147
              ],
              [
                106.630325,
                20.702883
              ],
              [
                106.630645,
                20.70313
              ],
              [
                106.631831,
                20.704044
              ],
              [
                106.633826,
                20.705594
              ],
              [
                106.633923,
                20.705669
              ],
              [
                106.634924,
                20.706386
              ],
              [
                106.636346,
                20.707271
              ],
              [
                106.637561,
                20.707862
              ],
              [
                106.63859,
                20.708229
              ],
              [
                106.639476,
                20.708491
              ],
              [
                106.639729,
                20.708538
              ],
              [
                106.639958,
                20.708581
              ],
              [
                106.64021,
                20.708629
              ],
              [
                106.641073,
                20.708716
              ],
              [
                106.641523,
                20.708742
              ],
              [
                106.642071,
                20.708726
              ],
              [
                106.642889,
                20.708653
              ],
              [
                106.6439,
                20.708446
              ],
              [
                106.64406,
                20.708397
              ],
              [
                106.644612,
                20.708187
              ],
              [
                106.645476,
                20.707805
              ],
              [
                106.646004,
                20.707504
              ],
              [
                106.646465,
                20.707241
              ],
              [
                106.64654,
                20.707188
              ],
              [
                106.646805,
                20.707001
              ],
              [
                106.647232,
                20.706699
              ],
              [
                106.64758,
                20.706441
              ],
              [
                106.648646,
                20.705408
              ],
              [
                106.64883,
                20.70518
              ],
              [
                106.649377,
                20.704328
              ],
              [
                106.649771,
                20.703419
              ],
              [
                106.650249,
                20.701947
              ],
              [
                106.650508,
                20.700568
              ],
              [
                106.650675,
                20.699104
              ],
              [
                106.650695,
                20.698596
              ],
              [
                106.650665,
                20.695465
              ],
              [
                106.650705,
                20.695015
              ],
              [
                106.650745,
                20.694564
              ],
              [
                106.65075,
                20.694243
              ],
              [
                106.65075,
                20.694225
              ],
              [
                106.650751,
                20.694134
              ],
              [
                106.650752,
                20.694107
              ],
              [
                106.650752,
                20.694107
              ],
              [
                106.649265,
                20.693198
              ],
              [
                106.648911,
                20.692982
              ],
              [
                106.648839,
                20.692938
              ],
              [
                106.648833,
                20.692934
              ],
              [
                106.648831,
                20.692936
              ],
              [
                106.648485,
                20.692777
              ],
              [
                106.648082,
                20.692474
              ],
              [
                106.647797,
                20.692259
              ],
              [
                106.6471,
                20.691826
              ],
              [
                106.64704,
                20.691789
              ],
              [
                106.647006,
                20.691757
              ],
              [
                106.646871,
                20.691632
              ],
              [
                106.645318,
                20.690192
              ],
              [
                106.645249,
                20.690128
              ],
              [
                106.645366,
                20.689817
              ],
              [
                106.645402,
                20.689718
              ],
              [
                106.643908,
                20.689141
              ],
              [
                106.643691,
                20.689038
              ],
              [
                106.643601,
                20.688996
              ],
              [
                106.642907,
                20.688587
              ],
              [
                106.642283,
                20.688282
              ],
              [
                106.642279,
                20.688279
              ],
              [
                106.642283,
                20.688276
              ],
              [
                106.641709,
                20.687952
              ],
              [
                106.641587,
                20.688078
              ],
              [
                106.641531,
                20.688134
              ],
              [
                106.640548,
                20.687641
              ],
              [
                106.640601,
                20.687341
              ],
              [
                106.640596,
                20.687084
              ],
              [
                106.640465,
                20.687063
              ],
              [
                106.640026,
                20.686958
              ],
              [
                106.639833,
                20.686902
              ],
              [
                106.639834,
                20.686893
              ],
              [
                106.639909,
                20.686505
              ],
              [
                106.639981,
                20.686182
              ],
              [
                106.640046,
                20.685903
              ],
              [
                106.640115,
                20.685584
              ],
              [
                106.640177,
                20.685261
              ],
              [
                106.640215,
                20.685069
              ],
              [
                106.640378,
                20.684416
              ],
              [
                106.640434,
                20.684203
              ],
              [
                106.640435,
                20.68418
              ],
              [
                106.639489,
                20.68401
              ],
              [
                106.638857,
                20.683888
              ],
              [
                106.638371,
                20.683795
              ],
              [
                106.637312,
                20.683572
              ],
              [
                106.6368,
                20.683475
              ],
              [
                106.635621,
                20.68323
              ],
              [
                106.634893,
                20.683079
              ],
              [
                106.63398,
                20.682908
              ],
              [
                106.633908,
                20.682894
              ],
              [
                106.633828,
                20.682779
              ],
              [
                106.633744,
                20.682804
              ],
              [
                106.632718,
                20.683097
              ],
              [
                106.632718,
                20.683099
              ],
              [
                106.631481,
                20.683497
              ],
              [
                106.631345,
                20.682919
              ],
              [
                106.630714,
                20.683204
              ],
              [
                106.630634,
                20.683051
              ],
              [
                106.63048,
                20.682755
              ],
              [
                106.630376,
                20.682556
              ],
              [
                106.629934,
                20.68276
              ],
              [
                106.629924,
                20.682765
              ],
              [
                106.629922,
                20.68276
              ],
              [
                106.629793,
                20.682825
              ],
              [
                106.628457,
                20.683501
              ],
              [
                106.627198,
                20.684139
              ],
              [
                106.626868,
                20.683089
              ],
              [
                106.626868,
                20.683165
              ],
              [
                106.626494,
                20.681791
              ],
              [
                106.625331,
                20.682074
              ],
              [
                106.624677,
                20.682234
              ],
              [
                106.622452,
                20.682776
              ],
              [
                106.621962,
                20.6829
              ],
              [
                106.62192,
                20.682835
              ],
              [
                106.621305,
                20.681889
              ],
              [
                106.620995,
                20.681432
              ],
              [
                106.620582,
                20.68171
              ],
              [
                106.620452,
                20.681581
              ],
              [
                106.620131,
                20.681291
              ],
              [
                106.620093,
                20.681277
              ],
              [
                106.620033,
                20.681301
              ],
              [
                106.619942,
                20.681374
              ],
              [
                106.619916,
                20.681371
              ],
              [
                106.619775,
                20.681247
              ],
              [
                106.619727,
                20.681164
              ],
              [
                106.619739,
                20.681104
              ],
              [
                106.619849,
                20.680965
              ],
              [
                106.619867,
                20.680926
              ],
              [
                106.62003,
                20.680795
              ],
              [
                106.620199,
                20.680609
              ],
              [
                106.62021,
                20.680477
              ],
              [
                106.620211,
                20.680419
              ],
              [
                106.620211,
                20.680344
              ],
              [
                106.620212,
                20.680162
              ],
              [
                106.620221,
                20.680121
              ],
              [
                106.620293,
                20.679405
              ],
              [
                106.620266,
                20.679394
              ],
              [
                106.62023,
                20.679389
              ],
              [
                106.62023,
                20.679387
              ],
              [
                106.620227,
                20.679375
              ],
              [
                106.620248,
                20.67894
              ],
              [
                106.620243,
                20.678929
              ],
              [
                106.620344,
                20.678507
              ],
              [
                106.62037,
                20.678495
              ],
              [
                106.620511,
                20.677941
              ],
              [
                106.62052,
                20.677926
              ],
              [
                106.620611,
                20.67742
              ],
              [
                106.620617,
                20.677092
              ],
              [
                106.620629,
                20.677013
              ],
              [
                106.620604,
                20.67679
              ],
              [
                106.62056,
                20.676511
              ],
              [
                106.620542,
                20.676484
              ],
              [
                106.620496,
                20.676009
              ],
              [
                106.620547,
                20.675627
              ],
              [
                106.620576,
                20.675464
              ],
              [
                106.620584,
                20.674949
              ],
              [
                106.620601,
                20.674686
              ],
              [
                106.620606,
                20.674616
              ],
              [
                106.62057,
                20.67454
              ],
              [
                106.62054,
                20.674477
              ],
              [
                106.620383,
                20.674192
              ],
              [
                106.620208,
                20.673818
              ],
              [
                106.620175,
                20.67375
              ],
              [
                106.620102,
                20.673386
              ],
              [
                106.62,
                20.672848
              ],
              [
                106.620013,
                20.672846
              ],
              [
                106.619841,
                20.672428
              ],
              [
                106.619833,
                20.672408
              ],
              [
                106.619804,
                20.672338
              ],
              [
                106.619734,
                20.672055
              ],
              [
                106.619745,
                20.671955
              ],
              [
                106.619758,
                20.671633
              ],
              [
                106.619759,
                20.671453
              ],
              [
                106.61975,
                20.671384
              ],
              [
                106.619697,
                20.671278
              ],
              [
                106.619573,
                20.671276
              ],
              [
                106.619522,
                20.671096
              ],
              [
                106.619225,
                20.671157
              ],
              [
                106.619157,
                20.671172
              ],
              [
                106.61662,
                20.671729
              ],
              [
                106.616096,
                20.670111
              ],
              [
                106.616967,
                20.668729
              ],
              [
                106.616074,
                20.668342
              ],
              [
                106.615632,
                20.668104
              ],
              [
                106.615398,
                20.667997
              ],
              [
                106.615209,
                20.66791
              ],
              [
                106.615185,
                20.667882
              ],
              [
                106.615159,
                20.667852
              ],
              [
                106.615127,
                20.667746
              ],
              [
                106.61511,
                20.6675
              ],
              [
                106.614666,
                20.667587
              ],
              [
                106.614151,
                20.667688
              ],
              [
                106.612985,
                20.667916
              ],
              [
                106.612917,
                20.667929
              ],
              [
                106.612943,
                20.668053
              ],
              [
                106.612933,
                20.668055
              ],
              [
                106.612562,
                20.666203
              ],
              [
                106.612314,
                20.665008
              ],
              [
                106.612121,
                20.664128
              ],
              [
                106.611849,
                20.66289
              ],
              [
                106.611763,
                20.662604
              ],
              [
                106.611529,
                20.662155
              ],
              [
                106.611086,
                20.661298
              ],
              [
                106.610915,
                20.660934
              ],
              [
                106.610826,
                20.660512
              ],
              [
                106.610727,
                20.659803
              ],
              [
                106.610596,
                20.658908
              ],
              [
                106.610374,
                20.657333
              ],
              [
                106.610333,
                20.657097
              ],
              [
                106.610327,
                20.65708
              ],
              [
                106.610211,
                20.656142
              ],
              [
                106.60547,
                20.656159
              ],
              [
                106.605468,
                20.656147
              ],
              [
                106.605426,
                20.65589
              ],
              [
                106.605326,
                20.65529
              ],
              [
                106.605279,
                20.655116
              ],
              [
                106.605316,
                20.655093
              ],
              [
                106.605538,
                20.654982
              ],
              [
                106.605712,
                20.654935
              ],
              [
                106.60592,
                20.654895
              ],
              [
                106.606118,
                20.65488
              ],
              [
                106.606306,
                20.654843
              ],
              [
                106.606544,
                20.654741
              ],
              [
                106.606998,
                20.654572
              ],
              [
                106.607246,
                20.654483
              ],
              [
                106.607533,
                20.654429
              ],
              [
                106.607936,
                20.654387
              ],
              [
                106.608442,
                20.654353
              ],
              [
                106.608637,
                20.654325
              ],
              [
                106.60892,
                20.654229
              ],
              [
                106.609342,
                20.654103
              ],
              [
                106.609571,
                20.654066
              ],
              [
                106.609769,
                20.654035
              ],
              [
                106.60991,
                20.65402
              ],
              [
                106.609904,
                20.653435
              ],
              [
                106.609919,
                20.653053
              ],
              [
                106.609916,
                20.652757
              ],
              [
                106.609895,
                20.652644
              ],
              [
                106.609831,
                20.652519
              ],
              [
                106.60975,
                20.652386
              ],
              [
                106.609343,
                20.651874
              ],
              [
                106.609235,
                20.651703
              ],
              [
                106.609167,
                20.651522
              ],
              [
                106.609139,
                20.651307
              ],
              [
                106.609095,
                20.650992
              ],
              [
                106.609037,
                20.650801
              ],
              [
                106.608861,
                20.650473
              ],
              [
                106.608697,
                20.650254
              ],
              [
                106.608419,
                20.64997
              ],
              [
                106.608153,
                20.649739
              ],
              [
                106.607988,
                20.649638
              ],
              [
                106.60773,
                20.649536
              ],
              [
                106.60751,
                20.649473
              ],
              [
                106.607249,
                20.649418
              ],
              [
                106.606919,
                20.649359
              ],
              [
                106.606797,
                20.649315
              ],
              [
                106.606245,
                20.649021
              ],
              [
                106.605843,
                20.648813
              ],
              [
                106.605568,
                20.648637
              ],
              [
                106.605399,
                20.648472
              ],
              [
                106.605286,
                20.648329
              ],
              [
                106.605104,
                20.647973
              ],
              [
                106.604876,
                20.647482
              ],
              [
                106.604684,
                20.647154
              ],
              [
                106.60438,
                20.646708
              ],
              [
                106.604159,
                20.646456
              ],
              [
                106.603861,
                20.646129
              ],
              [
                106.603686,
                20.645948
              ],
              [
                106.603496,
                20.645707
              ],
              [
                106.60314,
                20.645498
              ],
              [
                106.60307,
                20.645648
              ],
              [
                106.602823,
                20.646175
              ],
              [
                106.600784,
                20.64533
              ],
              [
                106.600773,
                20.645694
              ],
              [
                106.600618,
                20.646929
              ],
              [
                106.600268,
                20.648424
              ],
              [
                106.599765,
                20.649863
              ],
              [
                106.598702,
                20.651636
              ],
              [
                106.596883,
                20.653905
              ],
              [
                106.594367,
                20.65671
              ],
              [
                106.591698,
                20.65933
              ],
              [
                106.589406,
                20.66166
              ],
              [
                106.586693,
                20.664467
              ],
              [
                106.585266,
                20.666193
              ],
              [
                106.584451,
                20.667133
              ],
              [
                106.583352,
                20.6684
              ],
              [
                106.583216,
                20.668558
              ],
              [
                106.581828,
                20.669933
              ],
              [
                106.581179,
                20.670618
              ],
              [
                106.581767,
                20.671283
              ],
              [
                106.581884,
                20.671511
              ],
              [
                106.582101,
                20.672066
              ],
              [
                106.582439,
                20.672926
              ],
              [
                106.582863,
                20.674105
              ],
              [
                106.583382,
                20.675642
              ],
              [
                106.583562,
                20.676099
              ],
              [
                106.583647,
                20.67627
              ],
              [
                106.583672,
                20.676449
              ],
              [
                106.583615,
                20.676837
              ],
              [
                106.58358,
                20.677131
              ],
              [
                106.583596,
                20.677203
              ],
              [
                106.583726,
                20.677237
              ],
              [
                106.585741,
                20.67757
              ],
              [
                106.588344,
                20.678019
              ],
              [
                106.590282,
                20.67836
              ],
              [
                106.591755,
                20.678597
              ],
              [
                106.592358,
                20.678714
              ],
              [
                106.592458,
                20.67877
              ],
              [
                106.592474,
                20.678863
              ],
              [
                106.592453,
                20.679
              ],
              [
                106.592312,
                20.679352
              ],
              [
                106.591713,
                20.680383
              ],
              [
                106.590951,
                20.681839
              ],
              [
                106.589792,
                20.683965
              ],
              [
                106.588888,
                20.685651
              ],
              [
                106.587707,
                20.687849
              ],
              [
                106.586474,
                20.690162
              ],
              [
                106.585389,
                20.692187
              ],
              [
                106.587666,
                20.693043
              ],
              [
                106.58537,
                20.695902
              ],
              [
                106.584155,
                20.698283
              ],
              [
                106.580621,
                20.703889
              ],
              [
                106.577444,
                20.702513
              ],
              [
                106.576311,
                20.70473
              ],
              [
                106.57556,
                20.70608
              ],
              [
                106.575361,
                20.706464
              ],
              [
                106.575309,
                20.706564
              ],
              [
                106.575119,
                20.70693
              ],
              [
                106.575092,
                20.70698
              ],
              [
                106.574658,
                20.707768
              ],
              [
                106.574597,
                20.707879
              ],
              [
                106.574168,
                20.708669
              ],
              [
                106.573859,
                20.709239
              ],
              [
                106.573845,
                20.709266
              ],
              [
                106.573474,
                20.709961
              ],
              [
                106.573141,
                20.710585
              ],
              [
                106.572405,
                20.711927
              ],
              [
                106.5724,
                20.711935
              ],
              [
                106.572366,
                20.711998
              ],
              [
                106.57234,
                20.712046
              ],
              [
                106.572114,
                20.712461
              ],
              [
                106.571811,
                20.713017
              ],
              [
                106.571654,
                20.713306
              ],
              [
                106.57151,
                20.713566
              ],
              [
                106.571243,
                20.714047
              ],
              [
                106.571194,
                20.71414
              ],
              [
                106.571119,
                20.714285
              ],
              [
                106.571083,
                20.714354
              ],
              [
                106.571042,
                20.714433
              ],
              [
                106.570967,
                20.71434
              ],
              [
                106.570855,
                20.714566
              ],
              [
                106.57045,
                20.715381
              ],
              [
                106.570377,
                20.715516
              ],
              [
                106.570205,
                20.715834
              ],
              [
                106.569603,
                20.716945
              ],
              [
                106.569601,
                20.716949
              ],
              [
                106.56952,
                20.717097
              ],
              [
                106.569133,
                20.717805
              ],
              [
                106.569115,
                20.717837
              ],
              [
                106.568717,
                20.718565
              ],
              [
                106.568495,
                20.718968
              ],
              [
                106.568365,
                20.719202
              ],
              [
                106.568361,
                20.719209
              ],
              [
                106.567904,
                20.720042
              ],
              [
                106.567637,
                20.720528
              ],
              [
                106.567535,
                20.720715
              ],
              [
                106.567123,
                20.721485
              ],
              [
                106.566959,
                20.72174
              ],
              [
                106.566948,
                20.721751
              ],
              [
                106.567031,
                20.721783
              ],
              [
                106.567235,
                20.722059
              ],
              [
                106.5674,
                20.722282
              ],
              [
                106.56822,
                20.723474
              ],
              [
                106.568587,
                20.724017
              ],
              [
                106.568696,
                20.724179
              ],
              [
                106.568975,
                20.724474
              ],
              [
                106.569034,
                20.724536
              ],
              [
                106.569106,
                20.724612
              ],
              [
                106.568842,
                20.724912
              ],
              [
                106.568853,
                20.724926
              ],
              [
                106.568729,
                20.72507
              ],
              [
                106.568789,
                20.725152
              ],
              [
                106.568921,
                20.725284
              ],
              [
                106.569125,
                20.725507
              ],
              [
                106.569223,
                20.725613
              ],
              [
                106.57004,
                20.726542
              ],
              [
                106.570749,
                20.727341
              ],
              [
                106.571667,
                20.728375
              ],
              [
                106.571751,
                20.728468
              ],
              [
                106.571783,
                20.728504
              ],
              [
                106.571948,
                20.728684
              ],
              [
                106.572316,
                20.72909
              ],
              [
                106.572955,
                20.729811
              ],
              [
                106.574635,
                20.731711
              ],
              [
                106.574745,
                20.73184
              ],
              [
                106.575063,
                20.732212
              ],
              [
                106.576261,
                20.733616
              ],
              [
                106.576964,
                20.734398
              ],
              [
                106.577115,
                20.734566
              ],
              [
                106.577549,
                20.735017
              ],
              [
                106.577397,
                20.735062
              ],
              [
                106.577207,
                20.735137
              ],
              [
                106.576973,
                20.735281
              ],
              [
                106.576874,
                20.735341
              ],
              [
                106.576818,
                20.735379
              ],
              [
                106.578188,
                20.736514
              ],
              [
                106.579142,
                20.737358
              ],
              [
                106.58121,
                20.739314
              ],
              [
                106.584499,
                20.737167
              ],
              [
                106.587792,
                20.734979
              ],
              [
                106.588436,
                20.734551
              ],
              [
                106.590428,
                20.733228
              ],
              [
                106.595727,
                20.729773
              ],
              [
                106.599559,
                20.726953
              ],
              [
                106.601423,
                20.725474
              ],
              [
                106.601423,
                20.725474
              ]
            ]
          ]
        ]
      },
      "properties": {
        "code": "11791",
        "name": "Tiên Minh",
        "nameEn": "Tien Minh",
        "fullName": "Xã Tiên Minh",
        "fullNameEn": "Tien Minh Commune",
        "codeName": "tien_minh",
        "postalCode": "05218",
        "postalCodePrefix": "",
        "gisServerId": "diaphanhanhchinhcapxa_2025.915",
        "areaKm2": 36.48
      }
    }
  ]
}