{
  "type": "FeatureCollection",
  "bbox": [
    106.600784,
    20.612224,
    106.673529,
    20.684139
  ],
  "features": [
    {
      "type": "Feature",
      "id": "11806",
      "bbox": [
        106.600784,
        20.612224,
        106.673529,
        20.684139
      ],
      "geometry": {
        "type": "MultiPolygon",
        "coordinates": [
          [
            [
              [
                106.633828,
                20.682779
              ],
              [
                106.633782,
                20.682723
              ],
              [
                106.633255,
                20.682079
              ],
              [
                106.633213,
                20.682028
              ],
              [
                106.633202,
                20.682013
              ],
              [
                106.632019,
                20.680493
              ],
              [
                106.634051,
                20.679964
              ],
              [
                106.634082,
                20.679956
              ],
              [
                106.636506,
                20.679307
              ],
              [
                106.637318,
                20.679089
              ],
              [
                106.638972,
                20.678647
              ],
              [
                106.639183,
                20.678594
              ],
              [
                106.63915,
                20.678471
              ],
              [
                106.63913,
                20.678395
              ],
              [
                106.639123,
                20.678376
              ],
              [
                106.63902,
                20.678098
              ],
              [
                106.638583,
                20.676727
              ],
              [
                106.638568,
                20.676717
              ],
              [
                106.638495,
                20.676665
              ],
              [
                106.638362,
                20.676301
              ],
              [
                106.638405,
                20.67626
              ],
              [
                106.638568,
                20.676106
              ],
              [
                106.638631,
                20.676046
              ],
              [
                106.638844,
                20.676032
              ],
              [
                106.63891,
                20.67601
              ],
              [
                106.639683,
                20.675756
              ],
              [
                106.641379,
                20.675126
              ],
              [
                106.642095,
                20.673006
              ],
              [
                106.642168,
                20.672782
              ],
              [
                106.642172,
                20.672784
              ],
              [
                106.643231,
                20.67322
              ],
              [
                106.643515,
                20.672761
              ],
              [
                106.643546,
                20.672711
              ],
              [
                106.644711,
                20.673632
              ],
              [
                106.645387,
                20.672914
              ],
              [
                106.645944,
                20.6723
              ],
              [
                106.6472,
                20.670969
              ],
              [
                106.647371,
                20.670789
              ],
              [
                106.647999,
                20.670124
              ],
              [
                106.648196,
                20.669915
              ],
              [
                106.647901,
                20.669537
              ],
              [
                106.647282,
                20.668867
              ],
              [
                106.647092,
                20.668722
              ],
              [
                106.647185,
                20.66855
              ],
              [
                106.647226,
                20.668545
              ],
              [
                106.647254,
                20.668528
              ],
              [
                106.647524,
                20.668202
              ],
              [
                106.647577,
                20.668138
              ],
              [
                106.646357,
                20.667262
              ],
              [
                106.645463,
                20.66667
              ],
              [
                106.645222,
                20.666531
              ],
              [
                106.645308,
                20.6656
              ],
              [
                106.645413,
                20.6656
              ],
              [
                106.645822,
                20.665343
              ],
              [
                106.645807,
                20.665297
              ],
              [
                106.645553,
                20.664545
              ],
              [
                106.645295,
                20.663785
              ],
              [
                106.645653,
                20.662811
              ],
              [
                106.645655,
                20.662806
              ],
              [
                106.646085,
                20.661626
              ],
              [
                106.64637,
                20.660841
              ],
              [
                106.646396,
                20.660767
              ],
              [
                106.646608,
                20.660187
              ],
              [
                106.646621,
                20.660152
              ],
              [
                106.646732,
                20.659843
              ],
              [
                106.646823,
                20.659708
              ],
              [
                106.647214,
                20.659106
              ],
              [
                106.647492,
                20.659345
              ],
              [
                106.647663,
                20.659494
              ],
              [
                106.647976,
                20.659767
              ],
              [
                106.648255,
                20.659987
              ],
              [
                106.648522,
                20.660164
              ],
              [
                106.648522,
                20.660165
              ],
              [
                106.648925,
                20.660383
              ],
              [
                106.649335,
                20.66061
              ],
              [
                106.65001,
                20.661015
              ],
              [
                106.650435,
                20.661254
              ],
              [
                106.650847,
                20.661419
              ],
              [
                106.651195,
                20.661548
              ],
              [
                106.651556,
                20.66167
              ],
              [
                106.651873,
                20.661765
              ],
              [
                106.651873,
                20.661765
              ],
              [
                106.652084,
                20.661273
              ],
              [
                106.652256,
                20.660854
              ],
              [
                106.652509,
                20.660241
              ],
              [
                106.652933,
                20.659145
              ],
              [
                106.65333,
                20.65814
              ],
              [
                106.653839,
                20.656882
              ],
              [
                106.654028,
                20.656426
              ],
              [
                106.654223,
                20.655952
              ],
              [
                106.654364,
                20.655611
              ],
              [
                106.654443,
                20.655427
              ],
              [
                106.654622,
                20.655007
              ],
              [
                106.654883,
                20.654395
              ],
              [
                106.655604,
                20.65281
              ],
              [
                106.656169,
                20.651594
              ],
              [
                106.656574,
                20.650679
              ],
              [
                106.657141,
                20.649405
              ],
              [
                106.657594,
                20.648363
              ],
              [
                106.658302,
                20.646764
              ],
              [
                106.658495,
                20.646329
              ],
              [
                106.65854,
                20.646288
              ],
              [
                106.65857,
                20.646232
              ],
              [
                106.659265,
                20.644686
              ],
              [
                106.659839,
                20.643416
              ],
              [
                106.660528,
                20.641889
              ],
              [
                106.661063,
                20.64068
              ],
              [
                106.661604,
                20.639473
              ],
              [
                106.662558,
                20.637414
              ],
              [
                106.662636,
                20.637228
              ],
              [
                106.662741,
                20.636978
              ],
              [
                106.663238,
                20.63579
              ],
              [
                106.663929,
                20.63447
              ],
              [
                106.663898,
                20.634441
              ],
              [
                106.663892,
                20.634417
              ],
              [
                106.663886,
                20.634394
              ],
              [
                106.663982,
                20.634101
              ],
              [
                106.664215,
                20.633644
              ],
              [
                106.664616,
                20.632861
              ],
              [
                106.664808,
                20.632488
              ],
              [
                106.665115,
                20.631893
              ],
              [
                106.665139,
                20.631862
              ],
              [
                106.665356,
                20.631355
              ],
              [
                106.665728,
                20.630762
              ],
              [
                106.66578,
                20.630679
              ],
              [
                106.668505,
                20.626331
              ],
              [
                106.66873,
                20.625972
              ],
              [
                106.668806,
                20.625896
              ],
              [
                106.668917,
                20.625764
              ],
              [
                106.669064,
                20.62555
              ],
              [
                106.66923,
                20.625219
              ],
              [
                106.669612,
                20.624482
              ],
              [
                106.669884,
                20.624054
              ],
              [
                106.669913,
                20.624003
              ],
              [
                106.670382,
                20.623212
              ],
              [
                106.670831,
                20.622514
              ],
              [
                106.671299,
                20.621751
              ],
              [
                106.671461,
                20.621522
              ],
              [
                106.671661,
                20.62121
              ],
              [
                106.671835,
                20.62082
              ],
              [
                106.672089,
                20.620333
              ],
              [
                106.672406,
                20.619996
              ],
              [
                106.672682,
                20.619821
              ],
              [
                106.672988,
                20.619646
              ],
              [
                106.673328,
                20.619356
              ],
              [
                106.673463,
                20.619197
              ],
              [
                106.673522,
                20.619032
              ],
              [
                106.673529,
                20.618921
              ],
              [
                106.673423,
                20.618638
              ],
              [
                106.673211,
                20.618364
              ],
              [
                106.672975,
                20.618117
              ],
              [
                106.672848,
                20.617869
              ],
              [
                106.672809,
                20.617793
              ],
              [
                106.672816,
                20.617753
              ],
              [
                106.67247,
                20.616281
              ],
              [
                106.672469,
                20.615857
              ],
              [
                106.672493,
                20.615254
              ],
              [
                106.672257,
                20.614095
              ],
              [
                106.672008,
                20.613667
              ],
              [
                106.671656,
                20.613499
              ],
              [
                106.67139,
                20.613501
              ],
              [
                106.671123,
                20.613504
              ],
              [
                106.670005,
                20.613721
              ],
              [
                106.66926,
                20.61378
              ],
              [
                106.668622,
                20.61391
              ],
              [
                106.668439,
                20.613969
              ],
              [
                106.668196,
                20.613991
              ],
              [
                106.668002,
                20.613916
              ],
              [
                106.667899,
                20.613736
              ],
              [
                106.667974,
                20.612981
              ],
              [
                106.667941,
                20.612838
              ],
              [
                106.667774,
                20.612648
              ],
              [
                106.66748,
                20.612466
              ],
              [
                106.66697,
                20.612298
              ],
              [
                106.666525,
                20.612224
              ],
              [
                106.666176,
                20.612264
              ],
              [
                106.665588,
                20.612448
              ],
              [
                106.665175,
                20.612617
              ],
              [
                106.664186,
                20.613056
              ],
              [
                106.66404,
                20.613079
              ],
              [
                106.663388,
                20.613234
              ],
              [
                106.662869,
                20.613347
              ],
              [
                106.662654,
                20.613421
              ],
              [
                106.662548,
                20.613553
              ],
              [
                106.662422,
                20.613626
              ],
              [
                106.66196,
                20.613828
              ],
              [
                106.661702,
                20.613962
              ],
              [
                106.661564,
                20.614154
              ],
              [
                106.661431,
                20.614185
              ],
              [
                106.661253,
                20.614145
              ],
              [
                106.660891,
                20.614143
              ],
              [
                106.660529,
                20.614063
              ],
              [
                106.660294,
                20.614101
              ],
              [
                106.659992,
                20.614283
              ],
              [
                106.659613,
                20.614496
              ],
              [
                106.659564,
                20.614663
              ],
              [
                106.659649,
                20.614896
              ],
              [
                106.659631,
                20.614962
              ],
              [
                106.65953,
                20.615022
              ],
              [
                106.659441,
                20.615005
              ],
              [
                106.659241,
                20.61475
              ],
              [
                106.658974,
                20.614699
              ],
              [
                106.65857,
                20.614846
              ],
              [
                106.657693,
                20.615369
              ],
              [
                106.657002,
                20.615773
              ],
              [
                106.656312,
                20.616176
              ],
              [
                106.656067,
                20.61637
              ],
              [
                106.655613,
                20.616709
              ],
              [
                106.655501,
                20.616738
              ],
              [
                106.654442,
                20.61744
              ],
              [
                106.653326,
                20.618142
              ],
              [
                106.65277,
                20.618499
              ],
              [
                106.652332,
                20.618787
              ],
              [
                106.65184,
                20.61911
              ],
              [
                106.65148,
                20.61935
              ],
              [
                106.650944,
                20.619707
              ],
              [
                106.650354,
                20.620096
              ],
              [
                106.650144,
                20.620276
              ],
              [
                106.649415,
                20.619477
              ],
              [
                106.64778,
                20.620656
              ],
              [
                106.642476,
                20.624004
              ],
              [
                106.640589,
                20.625159
              ],
              [
                106.638944,
                20.626112
              ],
              [
                106.637347,
                20.626844
              ],
              [
                106.635618,
                20.627558
              ],
              [
                106.634312,
                20.627857
              ],
              [
                106.633438,
                20.62788
              ],
              [
                106.632515,
                20.627903
              ],
              [
                106.630625,
                20.627844
              ],
              [
                106.628865,
                20.627507
              ],
              [
                106.626899,
                20.626835
              ],
              [
                106.626869,
                20.626825
              ],
              [
                106.625512,
                20.626307
              ],
              [
                106.623532,
                20.625448
              ],
              [
                106.622478,
                20.625114
              ],
              [
                106.621059,
                20.624941
              ],
              [
                106.619932,
                20.624951
              ],
              [
                106.617695,
                20.625188
              ],
              [
                106.614686,
                20.625847
              ],
              [
                106.61247,
                20.626599
              ],
              [
                106.611334,
                20.627147
              ],
              [
                106.611015,
                20.627301
              ],
              [
                106.609488,
                20.628333
              ],
              [
                106.60807,
                20.629709
              ],
              [
                106.606715,
                20.631256
              ],
              [
                106.605664,
                20.632699
              ],
              [
                106.604094,
                20.635467
              ],
              [
                106.603229,
                20.637225
              ],
              [
                106.602329,
                20.638581
              ],
              [
                106.601589,
                20.639398
              ],
              [
                106.60138,
                20.639637
              ],
              [
                106.601256,
                20.639918
              ],
              [
                106.601082,
                20.640314
              ],
              [
                106.600924,
                20.641204
              ],
              [
                106.60083,
                20.64383
              ],
              [
                106.600821,
                20.644105
              ],
              [
                106.600784,
                20.64533
              ],
              [
                106.602823,
                20.646175
              ],
              [
                106.60307,
                20.645648
              ],
              [
                106.60314,
                20.645498
              ],
              [
                106.603496,
                20.645707
              ],
              [
                106.603686,
                20.645948
              ],
              [
                106.603861,
                20.646129
              ],
              [
                106.604159,
                20.646456
              ],
              [
                106.60438,
                20.646708
              ],
              [
                106.604684,
                20.647154
              ],
              [
                106.604876,
                20.647482
              ],
              [
                106.605104,
                20.647973
              ],
              [
                106.605286,
                20.648329
              ],
              [
                106.605399,
                20.648472
              ],
              [
                106.605568,
                20.648637
              ],
              [
                106.605843,
                20.648813
              ],
              [
                106.606245,
                20.649021
              ],
              [
                106.606797,
                20.649315
              ],
              [
                106.606919,
                20.649359
              ],
              [
                106.607249,
                20.649418
              ],
              [
                106.60751,
                20.649473
              ],
              [
                106.60773,
                20.649536
              ],
              [
                106.607988,
                20.649638
              ],
              [
                106.608153,
                20.649739
              ],
              [
                106.608419,
                20.64997
              ],
              [
                106.608697,
                20.650254
              ],
              [
                106.608861,
                20.650473
              ],
              [
                106.609037,
                20.650801
              ],
              [
                106.609095,
                20.650992
              ],
              [
                106.609139,
                20.651307
              ],
              [
                106.609167,
                20.651522
              ],
              [
                106.609235,
                20.651703
              ],
              [
                106.609343,
                20.651874
              ],
              [
                106.60975,
                20.652386
              ],
              [
                106.609831,
                20.652519
              ],
              [
                106.609895,
                20.652644
              ],
              [
                106.609916,
                20.652757
              ],
              [
                106.609919,
                20.653053
              ],
              [
                106.609904,
                20.653435
              ],
              [
                106.60991,
                20.65402
              ],
              [
                106.609769,
                20.654035
              ],
              [
                106.609571,
                20.654066
              ],
              [
                106.609342,
                20.654103
              ],
              [
                106.60892,
                20.654229
              ],
              [
                106.608637,
                20.654325
              ],
              [
                106.608442,
                20.654353
              ],
              [
                106.607936,
                20.654387
              ],
              [
                106.607533,
                20.654429
              ],
              [
                106.607246,
                20.654483
              ],
              [
                106.606998,
                20.654572
              ],
              [
                106.606544,
                20.654741
              ],
              [
                106.606306,
                20.654843
              ],
              [
                106.606118,
                20.65488
              ],
              [
                106.60592,
                20.654895
              ],
              [
                106.605712,
                20.654935
              ],
              [
                106.605538,
                20.654982
              ],
              [
                106.605316,
                20.655093
              ],
              [
                106.605279,
                20.655116
              ],
              [
                106.605326,
                20.65529
              ],
              [
                106.605426,
                20.65589
              ],
              [
                106.605468,
                20.656147
              ],
              [
                106.60547,
                20.656159
              ],
              [
                106.610211,
                20.656142
              ],
              [
                106.610327,
                20.65708
              ],
              [
                106.610333,
                20.657097
              ],
              [
                106.610374,
                20.657333
              ],
              [
                106.610596,
                20.658908
              ],
              [
                106.610727,
                20.659803
              ],
              [
                106.610826,
                20.660512
              ],
              [
                106.610915,
                20.660934
              ],
              [
                106.611086,
                20.661298
              ],
              [
                106.611529,
                20.662155
              ],
              [
                106.611763,
                20.662604
              ],
              [
                106.611849,
                20.66289
              ],
              [
                106.612121,
                20.664128
              ],
              [
                106.612314,
                20.665008
              ],
              [
                106.612562,
                20.666203
              ],
              [
                106.612933,
                20.668055
              ],
              [
                106.612943,
                20.668053
              ],
              [
                106.612917,
                20.667929
              ],
              [
                106.612985,
                20.667916
              ],
              [
                106.614151,
                20.667688
              ],
              [
                106.614666,
                20.667587
              ],
              [
                106.61511,
                20.6675
              ],
              [
                106.615127,
                20.667746
              ],
              [
                106.615159,
                20.667852
              ],
              [
                106.615185,
                20.667882
              ],
              [
                106.615209,
                20.66791
              ],
              [
                106.615398,
                20.667997
              ],
              [
                106.615632,
                20.668104
              ],
              [
                106.616074,
                20.668342
              ],
              [
                106.616967,
                20.668729
              ],
              [
                106.616096,
                20.670111
              ],
              [
                106.61662,
                20.671729
              ],
              [
                106.619157,
                20.671172
              ],
              [
                106.619225,
                20.671157
              ],
              [
                106.619522,
                20.671096
              ],
              [
                106.619573,
                20.671276
              ],
              [
                106.619697,
                20.671278
              ],
              [
                106.61975,
                20.671384
              ],
              [
                106.619759,
                20.671453
              ],
              [
                106.619758,
                20.671633
              ],
              [
                106.619745,
                20.671955
              ],
              [
                106.619734,
                20.672055
              ],
              [
                106.619804,
                20.672338
              ],
              [
                106.619833,
                20.672408
              ],
              [
                106.619841,
                20.672428
              ],
              [
                106.620013,
                20.672846
              ],
              [
                106.62,
                20.672848
              ],
              [
                106.620102,
                20.673386
              ],
              [
                106.620175,
                20.67375
              ],
              [
                106.620208,
                20.673818
              ],
              [
                106.620383,
                20.674192
              ],
              [
                106.62054,
                20.674477
              ],
              [
                106.62057,
                20.67454
              ],
              [
                106.620606,
                20.674616
              ],
              [
                106.620601,
                20.674686
              ],
              [
                106.620584,
                20.674949
              ],
              [
                106.620576,
                20.675464
              ],
              [
                106.620547,
                20.675627
              ],
              [
                106.620496,
                20.676009
              ],
              [
                106.620542,
                20.676484
              ],
              [
                106.62056,
                20.676511
              ],
              [
                106.620604,
                20.67679
              ],
              [
                106.620629,
                20.677013
              ],
              [
                106.620617,
                20.677092
              ],
              [
                106.620611,
                20.67742
              ],
              [
                106.62052,
                20.677926
              ],
              [
                106.620511,
                20.677941
              ],
              [
                106.62037,
                20.678495
              ],
              [
                106.620344,
                20.678507
              ],
              [
                106.620243,
                20.678929
              ],
              [
                106.620248,
                20.67894
              ],
              [
                106.620227,
                20.679375
              ],
              [
                106.62023,
                20.679387
              ],
              [
                106.62023,
                20.679389
              ],
              [
                106.620266,
                20.679394
              ],
              [
                106.620293,
                20.679405
              ],
              [
                106.620221,
                20.680121
              ],
              [
                106.620212,
                20.680162
              ],
              [
                106.620211,
                20.680344
              ],
              [
                106.620211,
                20.680419
              ],
              [
                106.62021,
                20.680477
              ],
              [
                106.620199,
                20.680609
              ],
              [
                106.62003,
                20.680795
              ],
              [
                106.619867,
                20.680926
              ],
              [
                106.619849,
                20.680965
              ],
              [
                106.619739,
                20.681104
              ],
              [
                106.619727,
                20.681164
              ],
              [
                106.619775,
                20.681247
              ],
              [
                106.619916,
                20.681371
              ],
              [
                106.619942,
                20.681374
              ],
              [
                106.620033,
                20.681301
              ],
              [
                106.620093,
                20.681277
              ],
              [
                106.620131,
                20.681291
              ],
              [
                106.620452,
                20.681581
              ],
              [
                106.620582,
                20.68171
              ],
              [
                106.620995,
                20.681432
              ],
              [
                106.621305,
                20.681889
              ],
              [
                106.62192,
                20.682835
              ],
              [
                106.621962,
                20.6829
              ],
              [
                106.622452,
                20.682776
              ],
              [
                106.624677,
                20.682234
              ],
              [
                106.625331,
                20.682074
              ],
              [
                106.626494,
                20.681791
              ],
              [
                106.626868,
                20.683165
              ],
              [
                106.626868,
                20.683089
              ],
              [
                106.627198,
                20.684139
              ],
              [
                106.628457,
                20.683501
              ],
              [
                106.629793,
                20.682825
              ],
              [
                106.629922,
                20.68276
              ],
              [
                106.629924,
                20.682765
              ],
              [
                106.629934,
                20.68276
              ],
              [
                106.630376,
                20.682556
              ],
              [
                106.63048,
                20.682755
              ],
              [
                106.630634,
                20.683051
              ],
              [
                106.630714,
                20.683204
              ],
              [
                106.631345,
                20.682919
              ],
              [
                106.631481,
                20.683497
              ],
              [
                106.632718,
                20.683099
              ],
              [
                106.632718,
                20.683097
              ],
              [
                106.633744,
                20.682804
              ],
              [
                106.633828,
                20.682779
              ],
              [
                106.633828,
                20.682779
              ]
            ]
          ]
        ]
      },
      "properties": {
        "code": "11806",
        "name": "Chấn Hưng",
        "nameEn": "Chan Hung",
        "fullName": "Xã Chấn Hưng",
        "fullNameEn": "Chan Hung Commune",
        "codeName": "chan_hung",
        "postalCode": "05230",
        "postalCodePrefix": "",
        "gisServerId": "diaphanhanhchinhcapxa_2025.913",
        "areaKm2": 32.11
      }
    }
  ]
}