{
  "type": "FeatureCollection",
  "bbox": [
    106.445386,
    20.644286,
    106.515348,
    20.709039
  ],
  "features": [
    {
      "type": "Feature",
      "id": "11824",
      "bbox": [
        106.445386,
        20.644286,
        106.515348,
        20.709039
      ],
      "geometry": {
        "type": "MultiPolygon",
        "coordinates": [
          [
            [
              [
                106.515348,
                20.704924
              ],
              [
                106.515347,
                20.704897
              ],
              [
                106.514895,
                20.701354
              ],
              [
                106.514663,
                20.699463
              ],
              [
                106.514191,
                20.696934
              ],
              [
                106.51353,
                20.693055
              ],
              [
                106.513167,
                20.691006
              ],
              [
                106.513125,
                20.690708
              ],
              [
                106.513068,
                20.690299
              ],
              [
                106.512933,
                20.688943
              ],
              [
                106.512854,
                20.687175
              ],
              [
                106.512734,
                20.683265
              ],
              [
                106.512611,
                20.680006
              ],
              [
                106.512555,
                20.677425
              ],
              [
                106.512518,
                20.676154
              ],
              [
                106.512592,
                20.675035
              ],
              [
                106.512723,
                20.674409
              ],
              [
                106.512774,
                20.674166
              ],
              [
                106.512752,
                20.674165
              ],
              [
                106.511875,
                20.673815
              ],
              [
                106.511736,
                20.67409
              ],
              [
                106.511669,
                20.67445
              ],
              [
                106.511227,
                20.675977
              ],
              [
                106.511072,
                20.676445
              ],
              [
                106.510965,
                20.67652
              ],
              [
                106.51067,
                20.676544
              ],
              [
                106.510326,
                20.676585
              ],
              [
                106.509771,
                20.676624
              ],
              [
                106.509685,
                20.67663
              ],
              [
                106.509422,
                20.676045
              ],
              [
                106.509348,
                20.675763
              ],
              [
                106.509288,
                20.675276
              ],
              [
                106.509304,
                20.674846
              ],
              [
                106.509482,
                20.673835
              ],
              [
                106.509706,
                20.672858
              ],
              [
                106.509773,
                20.672475
              ],
              [
                106.509813,
                20.67193
              ],
              [
                106.509808,
                20.670883
              ],
              [
                106.509789,
                20.669994
              ],
              [
                106.509813,
                20.669282
              ],
              [
                106.509848,
                20.668794
              ],
              [
                106.50988,
                20.667847
              ],
              [
                106.509921,
                20.667426
              ],
              [
                106.50996,
                20.667239
              ],
              [
                106.510034,
                20.667057
              ],
              [
                106.510053,
                20.666885
              ],
              [
                106.510064,
                20.66645
              ],
              [
                106.510075,
                20.666059
              ],
              [
                106.510233,
                20.665062
              ],
              [
                106.510424,
                20.663822
              ],
              [
                106.510509,
                20.663157
              ],
              [
                106.510522,
                20.663022
              ],
              [
                106.510535,
                20.662887
              ],
              [
                106.510547,
                20.662586
              ],
              [
                106.510598,
                20.662045
              ],
              [
                106.510697,
                20.661318
              ],
              [
                106.510817,
                20.660528
              ],
              [
                106.511077,
                20.659125
              ],
              [
                106.511249,
                20.658086
              ],
              [
                106.511319,
                20.657909
              ],
              [
                106.511529,
                20.657592
              ],
              [
                106.511903,
                20.656933
              ],
              [
                106.512468,
                20.655953
              ],
              [
                106.512752,
                20.655406
              ],
              [
                106.512915,
                20.654974
              ],
              [
                106.513022,
                20.654481
              ],
              [
                106.513201,
                20.653557
              ],
              [
                106.513267,
                20.653035
              ],
              [
                106.513244,
                20.652304
              ],
              [
                106.513127,
                20.650737
              ],
              [
                106.513063,
                20.650403
              ],
              [
                106.512984,
                20.65015
              ],
              [
                106.51273,
                20.649646
              ],
              [
                106.512032,
                20.648404
              ],
              [
                106.511955,
                20.648328
              ],
              [
                106.511843,
                20.648282
              ],
              [
                106.511766,
                20.648215
              ],
              [
                106.51168,
                20.648067
              ],
              [
                106.511203,
                20.647178
              ],
              [
                106.509885,
                20.644905
              ],
              [
                106.509518,
                20.644286
              ],
              [
                106.509365,
                20.644387
              ],
              [
                106.509001,
                20.644681
              ],
              [
                106.508107,
                20.645456
              ],
              [
                106.507628,
                20.645869
              ],
              [
                106.507489,
                20.64599
              ],
              [
                106.506968,
                20.646439
              ],
              [
                106.506055,
                20.64723
              ],
              [
                106.505977,
                20.647297
              ],
              [
                106.505882,
                20.647379
              ],
              [
                106.505564,
                20.647654
              ],
              [
                106.504451,
                20.648631
              ],
              [
                106.50346,
                20.649502
              ],
              [
                106.50295,
                20.649941
              ],
              [
                106.502833,
                20.650041
              ],
              [
                106.501869,
                20.650871
              ],
              [
                106.501869,
                20.650872
              ],
              [
                106.501821,
                20.650914
              ],
              [
                106.501213,
                20.651445
              ],
              [
                106.501047,
                20.651558
              ],
              [
                106.500815,
                20.651717
              ],
              [
                106.500388,
                20.65201
              ],
              [
                106.500095,
                20.65221
              ],
              [
                106.499692,
                20.652486
              ],
              [
                106.499315,
                20.652744
              ],
              [
                106.498916,
                20.653017
              ],
              [
                106.498645,
                20.653203
              ],
              [
                106.498547,
                20.653269
              ],
              [
                106.498472,
                20.653321
              ],
              [
                106.4984,
                20.653366
              ],
              [
                106.497812,
                20.652387
              ],
              [
                106.497158,
                20.651069
              ],
              [
                106.49691,
                20.650566
              ],
              [
                106.496678,
                20.650093
              ],
              [
                106.49633,
                20.650225
              ],
              [
                106.496194,
                20.650284
              ],
              [
                106.49525,
                20.650666
              ],
              [
                106.494384,
                20.651032
              ],
              [
                106.493318,
                20.651477
              ],
              [
                106.492345,
                20.651911
              ],
              [
                106.491762,
                20.652184
              ],
              [
                106.491126,
                20.65245
              ],
              [
                106.490937,
                20.652514
              ],
              [
                106.490896,
                20.652527
              ],
              [
                106.490673,
                20.654074
              ],
              [
                106.49062,
                20.654378
              ],
              [
                106.490567,
                20.654676
              ],
              [
                106.490484,
                20.655154
              ],
              [
                106.490468,
                20.655227
              ],
              [
                106.489379,
                20.655194
              ],
              [
                106.489063,
                20.655185
              ],
              [
                106.488276,
                20.655162
              ],
              [
                106.488216,
                20.655161
              ],
              [
                106.488138,
                20.655665
              ],
              [
                106.488041,
                20.656607
              ],
              [
                106.488042,
                20.656794
              ],
              [
                106.487952,
                20.656816
              ],
              [
                106.488025,
                20.657144
              ],
              [
                106.488079,
                20.657466
              ],
              [
                106.488068,
                20.657578
              ],
              [
                106.488015,
                20.657648
              ],
              [
                106.487937,
                20.657701
              ],
              [
                106.487828,
                20.657731
              ],
              [
                106.487696,
                20.657746
              ],
              [
                106.487473,
                20.657822
              ],
              [
                106.486704,
                20.658061
              ],
              [
                106.485977,
                20.658323
              ],
              [
                106.485587,
                20.658434
              ],
              [
                106.485298,
                20.658491
              ],
              [
                106.485104,
                20.65856
              ],
              [
                106.484835,
                20.65866
              ],
              [
                106.484559,
                20.658751
              ],
              [
                106.484255,
                20.658802
              ],
              [
                106.484001,
                20.658789
              ],
              [
                106.483767,
                20.658741
              ],
              [
                106.483523,
                20.658674
              ],
              [
                106.48324,
                20.658557
              ],
              [
                106.482897,
                20.65834
              ],
              [
                106.482577,
                20.658065
              ],
              [
                106.482045,
                20.65764
              ],
              [
                106.481671,
                20.657304
              ],
              [
                106.481563,
                20.657209
              ],
              [
                106.48144,
                20.65722
              ],
              [
                106.480763,
                20.65742
              ],
              [
                106.480068,
                20.657616
              ],
              [
                106.478569,
                20.658022
              ],
              [
                106.477776,
                20.658188
              ],
              [
                106.477468,
                20.658273
              ],
              [
                106.476441,
                20.65857
              ],
              [
                106.474909,
                20.659006
              ],
              [
                106.473477,
                20.659401
              ],
              [
                106.47229,
                20.659738
              ],
              [
                106.471524,
                20.659974
              ],
              [
                106.470728,
                20.660202
              ],
              [
                106.470505,
                20.660285
              ],
              [
                106.470378,
                20.660355
              ],
              [
                106.47006,
                20.660537
              ],
              [
                106.469345,
                20.660954
              ],
              [
                106.468062,
                20.661696
              ],
              [
                106.467973,
                20.661747
              ],
              [
                106.467994,
                20.661784
              ],
              [
                106.468864,
                20.663364
              ],
              [
                106.469795,
                20.665094
              ],
              [
                106.46986,
                20.665148
              ],
              [
                106.469852,
                20.665152
              ],
              [
                106.469829,
                20.665164
              ],
              [
                106.469811,
                20.665177
              ],
              [
                106.469783,
                20.665193
              ],
              [
                106.469716,
                20.665227
              ],
              [
                106.469582,
                20.665289
              ],
              [
                106.469463,
                20.665346
              ],
              [
                106.469323,
                20.665414
              ],
              [
                106.469156,
                20.665497
              ],
              [
                106.468895,
                20.665628
              ],
              [
                106.468826,
                20.665657
              ],
              [
                106.468757,
                20.665691
              ],
              [
                106.468715,
                20.66572
              ],
              [
                106.468614,
                20.665812
              ],
              [
                106.468496,
                20.665926
              ],
              [
                106.468404,
                20.666015
              ],
              [
                106.468168,
                20.666235
              ],
              [
                106.468066,
                20.666347
              ],
              [
                106.467903,
                20.666482
              ],
              [
                106.467879,
                20.666506
              ],
              [
                106.467771,
                20.666599
              ],
              [
                106.467752,
                20.666616
              ],
              [
                106.46771,
                20.666652
              ],
              [
                106.467168,
                20.667115
              ],
              [
                106.466978,
                20.667279
              ],
              [
                106.46689,
                20.667361
              ],
              [
                106.46689,
                20.667362
              ],
              [
                106.466817,
                20.667431
              ],
              [
                106.466769,
                20.667476
              ],
              [
                106.466752,
                20.667491
              ],
              [
                106.466705,
                20.667538
              ],
              [
                106.466689,
                20.66755
              ],
              [
                106.466625,
                20.667646
              ],
              [
                106.466596,
                20.66768
              ],
              [
                106.466574,
                20.667728
              ],
              [
                106.466454,
                20.667942
              ],
              [
                106.466385,
                20.668082
              ],
              [
                106.466244,
                20.66834
              ],
              [
                106.466054,
                20.668624
              ],
              [
                106.46592,
                20.668673
              ],
              [
                106.465298,
                20.668498
              ],
              [
                106.465102,
                20.669591
              ],
              [
                106.465464,
                20.66973
              ],
              [
                106.465464,
                20.66973
              ],
              [
                106.465709,
                20.669825
              ],
              [
                106.46571,
                20.669825
              ],
              [
                106.465532,
                20.670282
              ],
              [
                106.465438,
                20.670525
              ],
              [
                106.465032,
                20.670422
              ],
              [
                106.464478,
                20.670235
              ],
              [
                106.463484,
                20.669902
              ],
              [
                106.462729,
                20.66967
              ],
              [
                106.462544,
                20.669608
              ],
              [
                106.462271,
                20.669513
              ],
              [
                106.461875,
                20.669404
              ],
              [
                106.461371,
                20.669255
              ],
              [
                106.460893,
                20.669109
              ],
              [
                106.4601,
                20.668905
              ],
              [
                106.459424,
                20.668708
              ],
              [
                106.458597,
                20.668486
              ],
              [
                106.458116,
                20.668378
              ],
              [
                106.45768,
                20.668288
              ],
              [
                106.4574,
                20.668247
              ],
              [
                106.45708,
                20.668228
              ],
              [
                106.456392,
                20.668269
              ],
              [
                106.455904,
                20.668333
              ],
              [
                106.455602,
                20.668426
              ],
              [
                106.454974,
                20.66864
              ],
              [
                106.453903,
                20.669005
              ],
              [
                106.453553,
                20.669157
              ],
              [
                106.452946,
                20.66944
              ],
              [
                106.452287,
                20.66982
              ],
              [
                106.451149,
                20.670501
              ],
              [
                106.450401,
                20.670988
              ],
              [
                106.449876,
                20.671384
              ],
              [
                106.449525,
                20.671672
              ],
              [
                106.449304,
                20.671911
              ],
              [
                106.449181,
                20.672042
              ],
              [
                106.448878,
                20.672418
              ],
              [
                106.448604,
                20.672846
              ],
              [
                106.448348,
                20.673317
              ],
              [
                106.448169,
                20.673662
              ],
              [
                106.448063,
                20.673974
              ],
              [
                106.447948,
                20.674328
              ],
              [
                106.447808,
                20.674746
              ],
              [
                106.447668,
                20.675131
              ],
              [
                106.447413,
                20.675769
              ],
              [
                106.447183,
                20.676333
              ],
              [
                106.446978,
                20.676998
              ],
              [
                106.446782,
                20.677604
              ],
              [
                106.446557,
                20.67849
              ],
              [
                106.446306,
                20.679513
              ],
              [
                106.445969,
                20.680906
              ],
              [
                106.445713,
                20.682184
              ],
              [
                106.445497,
                20.683181
              ],
              [
                106.445421,
                20.683697
              ],
              [
                106.445386,
                20.684158
              ],
              [
                106.445405,
                20.684531
              ],
              [
                106.445468,
                20.684834
              ],
              [
                106.445552,
                20.685042
              ],
              [
                106.445671,
                20.685251
              ],
              [
                106.445995,
                20.685705
              ],
              [
                106.446322,
                20.686125
              ],
              [
                106.446648,
                20.686504
              ],
              [
                106.446909,
                20.686753
              ],
              [
                106.447515,
                20.68719
              ],
              [
                106.447945,
                20.687469
              ],
              [
                106.448187,
                20.687594
              ],
              [
                106.448581,
                20.687754
              ],
              [
                106.449072,
                20.687936
              ],
              [
                106.449411,
                20.688022
              ],
              [
                106.44988,
                20.688109
              ],
              [
                106.450246,
                20.688128
              ],
              [
                106.450458,
                20.688121
              ],
              [
                106.450723,
                20.688088
              ],
              [
                106.45094,
                20.688028
              ],
              [
                106.45156,
                20.687829
              ],
              [
                106.452258,
                20.687513
              ],
              [
                106.452707,
                20.687285
              ],
              [
                106.453166,
                20.686984
              ],
              [
                106.453866,
                20.686504
              ],
              [
                106.454841,
                20.685918
              ],
              [
                106.455603,
                20.685535
              ],
              [
                106.456633,
                20.685167
              ],
              [
                106.457354,
                20.685013
              ],
              [
                106.457818,
                20.685017
              ],
              [
                106.458282,
                20.685146
              ],
              [
                106.458858,
                20.685392
              ],
              [
                106.459214,
                20.685643
              ],
              [
                106.459665,
                20.686001
              ],
              [
                106.460225,
                20.686504
              ],
              [
                106.460455,
                20.686746
              ],
              [
                106.460675,
                20.686966
              ],
              [
                106.46095,
                20.687318
              ],
              [
                106.461314,
                20.687789
              ],
              [
                106.461511,
                20.688109
              ],
              [
                106.461649,
                20.688363
              ],
              [
                106.461905,
                20.68892
              ],
              [
                106.461987,
                20.689169
              ],
              [
                106.462087,
                20.689526
              ],
              [
                106.462223,
                20.69017
              ],
              [
                106.462344,
                20.690784
              ],
              [
                106.462459,
                20.691368
              ],
              [
                106.462597,
                20.691957
              ],
              [
                106.462776,
                20.692554
              ],
              [
                106.462994,
                20.693156
              ],
              [
                106.463256,
                20.693758
              ],
              [
                106.463413,
                20.694059
              ],
              [
                106.463424,
                20.69408
              ],
              [
                106.463544,
                20.69431
              ],
              [
                106.463824,
                20.69492
              ],
              [
                106.46411,
                20.695533
              ],
              [
                106.464399,
                20.696168
              ],
              [
                106.464594,
                20.696521
              ],
              [
                106.464807,
                20.696887
              ],
              [
                106.465025,
                20.697193
              ],
              [
                106.46523,
                20.697377
              ],
              [
                106.465434,
                20.697528
              ],
              [
                106.46569,
                20.697722
              ],
              [
                106.465862,
                20.697837
              ],
              [
                106.466206,
                20.698089
              ],
              [
                106.466416,
                20.698237
              ],
              [
                106.466536,
                20.698326
              ],
              [
                106.466657,
                20.698415
              ],
              [
                106.46674,
                20.698547
              ],
              [
                106.466907,
                20.698723
              ],
              [
                106.467133,
                20.698878
              ],
              [
                106.467282,
                20.698964
              ],
              [
                106.46738,
                20.699012
              ],
              [
                106.467621,
                20.699104
              ],
              [
                106.467838,
                20.699174
              ],
              [
                106.467918,
                20.69919
              ],
              [
                106.468088,
                20.699185
              ],
              [
                106.468139,
                20.699184
              ],
              [
                106.468403,
                20.699223
              ],
              [
                106.468608,
                20.699267
              ],
              [
                106.468905,
                20.699381
              ],
              [
                106.469164,
                20.699474
              ],
              [
                106.469418,
                20.699575
              ],
              [
                106.469668,
                20.699707
              ],
              [
                106.469917,
                20.699839
              ],
              [
                106.470167,
                20.699981
              ],
              [
                106.470415,
                20.700126
              ],
              [
                106.47064,
                20.700265
              ],
              [
                106.470898,
                20.700428
              ],
              [
                106.471133,
                20.700562
              ],
              [
                106.471386,
                20.700751
              ],
              [
                106.471622,
                20.700953
              ],
              [
                106.471855,
                20.701156
              ],
              [
                106.472088,
                20.70135
              ],
              [
                106.472323,
                20.70154
              ],
              [
                106.47253,
                20.701768
              ],
              [
                106.472623,
                20.701878
              ],
              [
                106.472676,
                20.70194
              ],
              [
                106.472728,
                20.702002
              ],
              [
                106.472913,
                20.702273
              ],
              [
                106.473085,
                20.702536
              ],
              [
                106.473194,
                20.70269
              ],
              [
                106.473503,
                20.703094
              ],
              [
                106.473674,
                20.703375
              ],
              [
                106.473844,
                20.703659
              ],
              [
                106.474011,
                20.703951
              ],
              [
                106.474161,
                20.704246
              ],
              [
                106.474298,
                20.704558
              ],
              [
                106.474422,
                20.704866
              ],
              [
                106.474534,
                20.705174
              ],
              [
                106.474635,
                20.705466
              ],
              [
                106.474714,
                20.705724
              ],
              [
                106.47487,
                20.705689
              ],
              [
                106.474941,
                20.705667
              ],
              [
                106.475119,
                20.705614
              ],
              [
                106.475123,
                20.705612
              ],
              [
                106.475326,
                20.705531
              ],
              [
                106.475573,
                20.705423
              ],
              [
                106.476024,
                20.705226
              ],
              [
                106.476315,
                20.705085
              ],
              [
                106.476533,
                20.704979
              ],
              [
                106.477381,
                20.704622
              ],
              [
                106.477564,
                20.704545
              ],
              [
                106.478194,
                20.704285
              ],
              [
                106.47827,
                20.704254
              ],
              [
                106.47838,
                20.704208
              ],
              [
                106.478528,
                20.704146
              ],
              [
                106.478676,
                20.704086
              ],
              [
                106.478825,
                20.704027
              ],
              [
                106.478877,
                20.704006
              ],
              [
                106.479233,
                20.703868
              ],
              [
                106.47928,
                20.703849
              ],
              [
                106.479296,
                20.703843
              ],
              [
                106.479418,
                20.704123
              ],
              [
                106.479465,
                20.704155
              ],
              [
                106.479495,
                20.704162
              ],
              [
                106.479517,
                20.704159
              ],
              [
                106.479552,
                20.704154
              ],
              [
                106.479873,
                20.704026
              ],
              [
                106.479914,
                20.704015
              ],
              [
                106.480053,
                20.703977
              ],
              [
                106.480229,
                20.703939
              ],
              [
                106.480433,
                20.703896
              ],
              [
                106.480436,
                20.703895
              ],
              [
                106.480642,
                20.70385
              ],
              [
                106.480974,
                20.703776
              ],
              [
                106.481078,
                20.703753
              ],
              [
                106.481498,
                20.70366
              ],
              [
                106.48169,
                20.703617
              ],
              [
                106.481795,
                20.703595
              ],
              [
                106.481982,
                20.703554
              ],
              [
                106.482218,
                20.703503
              ],
              [
                106.482746,
                20.703388
              ],
              [
                106.482828,
                20.70337
              ],
              [
                106.482916,
                20.703351
              ],
              [
                106.483388,
                20.703248
              ],
              [
                106.483506,
                20.703222
              ],
              [
                106.483811,
                20.703159
              ],
              [
                106.484112,
                20.703096
              ],
              [
                106.484282,
                20.70306
              ],
              [
                106.484334,
                20.703044
              ],
              [
                106.484523,
                20.702987
              ],
              [
                106.484592,
                20.70295
              ],
              [
                106.484603,
                20.702934
              ],
              [
                106.48462,
                20.702908
              ],
              [
                106.484606,
                20.702768
              ],
              [
                106.48451,
                20.702323
              ],
              [
                106.484481,
                20.7022
              ],
              [
                106.484467,
                20.702142
              ],
              [
                106.484399,
                20.701853
              ],
              [
                106.484344,
                20.701622
              ],
              [
                106.484343,
                20.701553
              ],
              [
                106.484379,
                20.701531
              ],
              [
                106.484385,
                20.701528
              ],
              [
                106.484514,
                20.701505
              ],
              [
                106.485123,
                20.701453
              ],
              [
                106.486088,
                20.701377
              ],
              [
                106.48649,
                20.701345
              ],
              [
                106.487213,
                20.701296
              ],
              [
                106.487563,
                20.701232
              ],
              [
                106.487887,
                20.701134
              ],
              [
                106.487815,
                20.700995
              ],
              [
                106.487592,
                20.700561
              ],
              [
                106.487502,
                20.700386
              ],
              [
                106.487819,
                20.700311
              ],
              [
                106.488312,
                20.700433
              ],
              [
                106.488623,
                20.700508
              ],
              [
                106.488925,
                20.700581
              ],
              [
                106.489099,
                20.700629
              ],
              [
                106.489268,
                20.700669
              ],
              [
                106.489596,
                20.700752
              ],
              [
                106.489909,
                20.70083
              ],
              [
                106.490225,
                20.700908
              ],
              [
                106.490511,
                20.700974
              ],
              [
                106.490562,
                20.701017
              ],
              [
                106.490605,
                20.701053
              ],
              [
                106.49065,
                20.701092
              ],
              [
                106.490702,
                20.701135
              ],
              [
                106.492597,
                20.701631
              ],
              [
                106.493728,
                20.701936
              ],
              [
                106.493548,
                20.702569
              ],
              [
                106.493384,
                20.703114
              ],
              [
                106.493214,
                20.703799
              ],
              [
                106.492934,
                20.704753
              ],
              [
                106.492836,
                20.704941
              ],
              [
                106.492746,
                20.705032
              ],
              [
                106.492947,
                20.705368
              ],
              [
                106.494034,
                20.705624
              ],
              [
                106.494034,
                20.705624
              ],
              [
                106.495789,
                20.706047
              ],
              [
                106.495395,
                20.707933
              ],
              [
                106.495905,
                20.707992
              ],
              [
                106.495719,
                20.708215
              ],
              [
                106.495696,
                20.708328
              ],
              [
                106.496613,
                20.708282
              ],
              [
                106.497472,
                20.708332
              ],
              [
                106.497525,
                20.708327
              ],
              [
                106.497839,
                20.708386
              ],
              [
                106.498152,
                20.708445
              ],
              [
                106.498958,
                20.70852
              ],
              [
                106.499064,
                20.708537
              ],
              [
                106.499172,
                20.708554
              ],
              [
                106.499445,
                20.708596
              ],
              [
                106.499709,
                20.708633
              ],
              [
                106.499886,
                20.708654
              ],
              [
                106.50017,
                20.7087
              ],
              [
                106.500389,
                20.708745
              ],
              [
                106.500641,
                20.708769
              ],
              [
                106.50094,
                20.708812
              ],
              [
                106.501224,
                20.70885
              ],
              [
                106.501503,
                20.708901
              ],
              [
                106.501869,
                20.708944
              ],
              [
                106.502144,
                20.708975
              ],
              [
                106.502579,
                20.709039
              ],
              [
                106.503146,
                20.706873
              ],
              [
                106.505457,
                20.70779
              ],
              [
                106.505841,
                20.707137
              ],
              [
                106.506781,
                20.707518
              ],
              [
                106.507665,
                20.706122
              ],
              [
                106.507749,
                20.706053
              ],
              [
                106.507912,
                20.706069
              ],
              [
                106.508238,
                20.706173
              ],
              [
                106.508583,
                20.706374
              ],
              [
                106.508632,
                20.70591
              ],
              [
                106.510372,
                20.70616
              ],
              [
                106.510773,
                20.70567
              ],
              [
                106.512845,
                20.705711
              ],
              [
                106.512776,
                20.705246
              ],
              [
                106.515348,
                20.704924
              ],
              [
                106.515348,
                20.704924
              ]
            ]
          ]
        ]
      },
      "properties": {
        "code": "11824",
        "name": "Vĩnh Bảo",
        "nameEn": "Vinh Bao",
        "fullName": "Xã Vĩnh Bảo",
        "fullNameEn": "Vinh Bao Commune",
        "codeName": "vinh_bao",
        "postalCode": "05306",
        "postalCodePrefix": "",
        "gisServerId": "diaphanhanhchinhcapxa_2025.919",
        "areaKm2": 30.6
      }
    }
  ]
}