{
  "type": "FeatureCollection",
  "bbox": [
    106.407445,
    20.69408,
    106.498159,
    20.736263
  ],
  "features": [
    {
      "type": "Feature",
      "id": "11836",
      "bbox": [
        106.407445,
        20.69408,
        106.498159,
        20.736263
      ],
      "geometry": {
        "type": "MultiPolygon",
        "coordinates": [
          [
            [
              [
                106.453364,
                20.721513
              ],
              [
                106.454539,
                20.721372
              ],
              [
                106.45555,
                20.721376
              ],
              [
                106.456761,
                20.721565
              ],
              [
                106.457887,
                20.721774
              ],
              [
                106.459039,
                20.721995
              ],
              [
                106.460053,
                20.722298
              ],
              [
                106.461181,
                20.722793
              ],
              [
                106.462365,
                20.723581
              ],
              [
                106.462879,
                20.723926
              ],
              [
                106.463708,
                20.724611
              ],
              [
                106.464543,
                20.725638
              ],
              [
                106.464959,
                20.726313
              ],
              [
                106.465703,
                20.726485
              ],
              [
                106.465801,
                20.726507
              ],
              [
                106.465823,
                20.726512
              ],
              [
                106.465844,
                20.726517
              ],
              [
                106.465988,
                20.72655
              ],
              [
                106.467534,
                20.726906
              ],
              [
                106.467871,
                20.726992
              ],
              [
                106.468152,
                20.727073
              ],
              [
                106.468242,
                20.727084
              ],
              [
                106.468453,
                20.727109
              ],
              [
                106.468518,
                20.727113
              ],
              [
                106.468539,
                20.727112
              ],
              [
                106.468574,
                20.727103
              ],
              [
                106.468603,
                20.727099
              ],
              [
                106.468641,
                20.727102
              ],
              [
                106.468838,
                20.727164
              ],
              [
                106.468943,
                20.72721
              ],
              [
                106.469025,
                20.727236
              ],
              [
                106.469132,
                20.727264
              ],
              [
                106.469409,
                20.727345
              ],
              [
                106.469602,
                20.727398
              ],
              [
                106.469741,
                20.727454
              ],
              [
                106.470542,
                20.727692
              ],
              [
                106.470786,
                20.727774
              ],
              [
                106.470813,
                20.72733
              ],
              [
                106.470832,
                20.727302
              ],
              [
                106.470903,
                20.727233
              ],
              [
                106.471153,
                20.727307
              ],
              [
                106.471919,
                20.72753
              ],
              [
                106.471991,
                20.727551
              ],
              [
                106.472019,
                20.72755
              ],
              [
                106.472054,
                20.727478
              ],
              [
                106.472106,
                20.727421
              ],
              [
                106.47217,
                20.727415
              ],
              [
                106.472205,
                20.727393
              ],
              [
                106.47222,
                20.727336
              ],
              [
                106.472278,
                20.727321
              ],
              [
                106.472901,
                20.727395
              ],
              [
                106.472975,
                20.727423
              ],
              [
                106.472981,
                20.72749
              ],
              [
                106.472955,
                20.72766
              ],
              [
                106.472978,
                20.727698
              ],
              [
                106.473052,
                20.727733
              ],
              [
                106.473441,
                20.727808
              ],
              [
                106.473582,
                20.727831
              ],
              [
                106.473716,
                20.727853
              ],
              [
                106.47386,
                20.727874
              ],
              [
                106.474004,
                20.727896
              ],
              [
                106.47415,
                20.727919
              ],
              [
                106.474291,
                20.727942
              ],
              [
                106.474432,
                20.727971
              ],
              [
                106.474582,
                20.727995
              ],
              [
                106.474733,
                20.72802
              ],
              [
                106.474875,
                20.728041
              ],
              [
                106.475017,
                20.728068
              ],
              [
                106.475166,
                20.728101
              ],
              [
                106.47531,
                20.728127
              ],
              [
                106.475464,
                20.728154
              ],
              [
                106.475612,
                20.728181
              ],
              [
                106.475766,
                20.72821
              ],
              [
                106.475918,
                20.728239
              ],
              [
                106.476073,
                20.72827
              ],
              [
                106.476159,
                20.728283
              ],
              [
                106.47623,
                20.728296
              ],
              [
                106.47638,
                20.728326
              ],
              [
                106.476535,
                20.728355
              ],
              [
                106.476653,
                20.728381
              ],
              [
                106.476725,
                20.728413
              ],
              [
                106.476759,
                20.728441
              ],
              [
                106.476809,
                20.728494
              ],
              [
                106.476906,
                20.728548
              ],
              [
                106.476969,
                20.728585
              ],
              [
                106.47705,
                20.728625
              ],
              [
                106.477086,
                20.728634
              ],
              [
                106.4772,
                20.728657
              ],
              [
                106.477321,
                20.728669
              ],
              [
                106.477454,
                20.728686
              ],
              [
                106.477574,
                20.728689
              ],
              [
                106.477848,
                20.728695
              ],
              [
                106.477936,
                20.72869
              ],
              [
                106.47796,
                20.728681
              ],
              [
                106.477989,
                20.728654
              ],
              [
                106.478006,
                20.728605
              ],
              [
                106.478016,
                20.72854
              ],
              [
                106.478035,
                20.728414
              ],
              [
                106.478045,
                20.728405
              ],
              [
                106.47811,
                20.728388
              ],
              [
                106.478221,
                20.728377
              ],
              [
                106.478305,
                20.728391
              ],
              [
                106.478351,
                20.728405
              ],
              [
                106.478425,
                20.728427
              ],
              [
                106.478425,
                20.728432
              ],
              [
                106.478396,
                20.728507
              ],
              [
                106.478397,
                20.72853
              ],
              [
                106.478401,
                20.728665
              ],
              [
                106.478416,
                20.728767
              ],
              [
                106.478445,
                20.728957
              ],
              [
                106.478497,
                20.729171
              ],
              [
                106.478505,
                20.729205
              ],
              [
                106.47854,
                20.72927
              ],
              [
                106.478572,
                20.729294
              ],
              [
                106.478604,
                20.729318
              ],
              [
                106.478697,
                20.729344
              ],
              [
                106.47883,
                20.729357
              ],
              [
                106.478891,
                20.729364
              ],
              [
                106.479011,
                20.729377
              ],
              [
                106.479137,
                20.729407
              ],
              [
                106.479164,
                20.729418
              ],
              [
                106.479182,
                20.729426
              ],
              [
                106.479317,
                20.729491
              ],
              [
                106.479409,
                20.729555
              ],
              [
                106.479522,
                20.729635
              ],
              [
                106.479685,
                20.729724
              ],
              [
                106.479769,
                20.729753
              ],
              [
                106.479787,
                20.729759
              ],
              [
                106.479946,
                20.729797
              ],
              [
                106.479955,
                20.729799
              ],
              [
                106.480194,
                20.729863
              ],
              [
                106.480547,
                20.730003
              ],
              [
                106.48081,
                20.730108
              ],
              [
                106.480866,
                20.730134
              ],
              [
                106.480897,
                20.730149
              ],
              [
                106.480927,
                20.730163
              ],
              [
                106.480855,
                20.73029
              ],
              [
                106.480835,
                20.730332
              ],
              [
                106.480685,
                20.730632
              ],
              [
                106.480603,
                20.730797
              ],
              [
                106.480578,
                20.730845
              ],
              [
                106.480535,
                20.730928
              ],
              [
                106.480728,
                20.731079
              ],
              [
                106.480806,
                20.731128
              ],
              [
                106.480863,
                20.73117
              ],
              [
                106.480914,
                20.731214
              ],
              [
                106.480959,
                20.731269
              ],
              [
                106.481022,
                20.731338
              ],
              [
                106.481039,
                20.731356
              ],
              [
                106.481101,
                20.731424
              ],
              [
                106.481127,
                20.731444
              ],
              [
                106.481171,
                20.731472
              ],
              [
                106.481222,
                20.731525
              ],
              [
                106.481259,
                20.731571
              ],
              [
                106.4813,
                20.731624
              ],
              [
                106.481377,
                20.731707
              ],
              [
                106.481473,
                20.731801
              ],
              [
                106.481538,
                20.731869
              ],
              [
                106.481561,
                20.731899
              ],
              [
                106.481577,
                20.731921
              ],
              [
                106.481636,
                20.731967
              ],
              [
                106.481706,
                20.732017
              ],
              [
                106.481744,
                20.732059
              ],
              [
                106.481854,
                20.732196
              ],
              [
                106.481888,
                20.732233
              ],
              [
                106.481895,
                20.732236
              ],
              [
                106.482298,
                20.732032
              ],
              [
                106.482775,
                20.731809
              ],
              [
                106.482982,
                20.731715
              ],
              [
                106.483156,
                20.73163
              ],
              [
                106.48323,
                20.731588
              ],
              [
                106.483275,
                20.731551
              ],
              [
                106.483312,
                20.731521
              ],
              [
                106.483482,
                20.731645
              ],
              [
                106.483652,
                20.731769
              ],
              [
                106.483763,
                20.731894
              ],
              [
                106.483777,
                20.73191
              ],
              [
                106.483883,
                20.73203
              ],
              [
                106.483963,
                20.732169
              ],
              [
                106.483972,
                20.732185
              ],
              [
                106.483977,
                20.732193
              ],
              [
                106.483979,
                20.732205
              ],
              [
                106.483997,
                20.732292
              ],
              [
                106.484007,
                20.732345
              ],
              [
                106.484024,
                20.732477
              ],
              [
                106.48405,
                20.732535
              ],
              [
                106.484052,
                20.732535
              ],
              [
                106.484107,
                20.732515
              ],
              [
                106.484247,
                20.732465
              ],
              [
                106.484338,
                20.732426
              ],
              [
                106.484443,
                20.732383
              ],
              [
                106.484548,
                20.732342
              ],
              [
                106.484666,
                20.73229
              ],
              [
                106.484757,
                20.732253
              ],
              [
                106.484829,
                20.732228
              ],
              [
                106.484858,
                20.732224
              ],
              [
                106.485028,
                20.732232
              ],
              [
                106.485214,
                20.732248
              ],
              [
                106.48555,
                20.732256
              ],
              [
                106.485886,
                20.732264
              ],
              [
                106.486016,
                20.732268
              ],
              [
                106.48688,
                20.732288
              ],
              [
                106.487884,
                20.732324
              ],
              [
                106.487947,
                20.732321
              ],
              [
                106.487987,
                20.7323
              ],
              [
                106.488043,
                20.732292
              ],
              [
                106.488242,
                20.732305
              ],
              [
                106.48843,
                20.732329
              ],
              [
                106.488725,
                20.732367
              ],
              [
                106.489132,
                20.732414
              ],
              [
                106.489416,
                20.732447
              ],
              [
                106.489707,
                20.732489
              ],
              [
                106.489872,
                20.732509
              ],
              [
                106.490021,
                20.732526
              ],
              [
                106.490315,
                20.732558
              ],
              [
                106.490529,
                20.732579
              ],
              [
                106.490724,
                20.732604
              ],
              [
                106.490928,
                20.732633
              ],
              [
                106.491139,
                20.732658
              ],
              [
                106.491383,
                20.732687
              ],
              [
                106.491665,
                20.732722
              ],
              [
                106.491907,
                20.732752
              ],
              [
                106.49209,
                20.73276
              ],
              [
                106.49218,
                20.732776
              ],
              [
                106.492321,
                20.732793
              ],
              [
                106.492571,
                20.732826
              ],
              [
                106.492713,
                20.732844
              ],
              [
                106.492861,
                20.732862
              ],
              [
                106.493007,
                20.732878
              ],
              [
                106.493158,
                20.732892
              ],
              [
                106.493309,
                20.732908
              ],
              [
                106.49347,
                20.732929
              ],
              [
                106.493631,
                20.732948
              ],
              [
                106.493792,
                20.73297
              ],
              [
                106.493947,
                20.732984
              ],
              [
                106.494089,
                20.732998
              ],
              [
                106.494246,
                20.73302
              ],
              [
                106.494395,
                20.73305
              ],
              [
                106.494548,
                20.733068
              ],
              [
                106.494701,
                20.73308
              ],
              [
                106.494846,
                20.733098
              ],
              [
                106.494992,
                20.733117
              ],
              [
                106.4953,
                20.733157
              ],
              [
                106.495307,
                20.733154
              ],
              [
                106.495319,
                20.733042
              ],
              [
                106.495426,
                20.732135
              ],
              [
                106.495472,
                20.731827
              ],
              [
                106.495837,
                20.731883
              ],
              [
                106.496963,
                20.732054
              ],
              [
                106.49779,
                20.732157
              ],
              [
                106.498159,
                20.732203
              ],
              [
                106.498137,
                20.731976
              ],
              [
                106.497946,
                20.72963
              ],
              [
                106.497712,
                20.727056
              ],
              [
                106.497534,
                20.724918
              ],
              [
                106.497347,
                20.724921
              ],
              [
                106.497337,
                20.72492
              ],
              [
                106.49725,
                20.724913
              ],
              [
                106.497032,
                20.72489
              ],
              [
                106.4968,
                20.724864
              ],
              [
                106.496549,
                20.724836
              ],
              [
                106.49625,
                20.724803
              ],
              [
                106.49622,
                20.724799
              ],
              [
                106.495904,
                20.724761
              ],
              [
                106.495655,
                20.724731
              ],
              [
                106.495291,
                20.724687
              ],
              [
                106.495128,
                20.724667
              ],
              [
                106.495037,
                20.724657
              ],
              [
                106.495037,
                20.724657
              ],
              [
                106.495022,
                20.724655
              ],
              [
                106.495048,
                20.724473
              ],
              [
                106.495066,
                20.724327
              ],
              [
                106.495087,
                20.724166
              ],
              [
                106.495076,
                20.724157
              ],
              [
                106.494697,
                20.724095
              ],
              [
                106.494279,
                20.724032
              ],
              [
                106.494111,
                20.724011
              ],
              [
                106.494105,
                20.723997
              ],
              [
                106.494116,
                20.723687
              ],
              [
                106.49414,
                20.723392
              ],
              [
                106.494156,
                20.723007
              ],
              [
                106.494164,
                20.722815
              ],
              [
                106.494187,
                20.72229
              ],
              [
                106.494188,
                20.722277
              ],
              [
                106.494204,
                20.722024
              ],
              [
                106.494221,
                20.721742
              ],
              [
                106.494263,
                20.721209
              ],
              [
                106.494308,
                20.720696
              ],
              [
                106.49432,
                20.720219
              ],
              [
                106.494342,
                20.719968
              ],
              [
                106.494343,
                20.719954
              ],
              [
                106.494174,
                20.719933
              ],
              [
                106.492915,
                20.719782
              ],
              [
                106.4912,
                20.719544
              ],
              [
                106.490425,
                20.719435
              ],
              [
                106.48961,
                20.719289
              ],
              [
                106.489593,
                20.719286
              ],
              [
                106.489229,
                20.719226
              ],
              [
                106.489152,
                20.719218
              ],
              [
                106.488755,
                20.718879
              ],
              [
                106.488697,
                20.718788
              ],
              [
                106.488666,
                20.718678
              ],
              [
                106.4886,
                20.718367
              ],
              [
                106.48853,
                20.718202
              ],
              [
                106.488485,
                20.71813
              ],
              [
                106.489601,
                20.715913
              ],
              [
                106.490076,
                20.714973
              ],
              [
                106.490244,
                20.714618
              ],
              [
                106.490289,
                20.714485
              ],
              [
                106.490229,
                20.71435
              ],
              [
                106.490066,
                20.714136
              ],
              [
                106.489715,
                20.713885
              ],
              [
                106.489075,
                20.713262
              ],
              [
                106.488824,
                20.713016
              ],
              [
                106.488601,
                20.7128
              ],
              [
                106.488359,
                20.712574
              ],
              [
                106.488264,
                20.712487
              ],
              [
                106.487769,
                20.711862
              ],
              [
                106.48738,
                20.711313
              ],
              [
                106.487316,
                20.711122
              ],
              [
                106.487338,
                20.710957
              ],
              [
                106.487557,
                20.710481
              ],
              [
                106.48786,
                20.709999
              ],
              [
                106.487916,
                20.709938
              ],
              [
                106.488064,
                20.709822
              ],
              [
                106.488178,
                20.70971
              ],
              [
                106.488217,
                20.709661
              ],
              [
                106.488236,
                20.709609
              ],
              [
                106.488263,
                20.709439
              ],
              [
                106.488289,
                20.709273
              ],
              [
                106.488507,
                20.709298
              ],
              [
                106.48914,
                20.709376
              ],
              [
                106.489291,
                20.709395
              ],
              [
                106.489696,
                20.709442
              ],
              [
                106.490259,
                20.7095
              ],
              [
                106.490616,
                20.709532
              ],
              [
                106.490692,
                20.708668
              ],
              [
                106.49133,
                20.708679
              ],
              [
                106.491332,
                20.707957
              ],
              [
                106.491353,
                20.707952
              ],
              [
                106.492017,
                20.707795
              ],
              [
                106.492036,
                20.707782
              ],
              [
                106.492081,
                20.70777
              ],
              [
                106.492136,
                20.707716
              ],
              [
                106.492186,
                20.707703
              ],
              [
                106.492242,
                20.70769
              ],
              [
                106.493844,
                20.706893
              ],
              [
                106.494197,
                20.707482
              ],
              [
                106.494353,
                20.707742
              ],
              [
                106.494464,
                20.707927
              ],
              [
                106.49504,
                20.708028
              ],
              [
                106.495363,
                20.708085
              ],
              [
                106.495395,
                20.707933
              ],
              [
                106.495789,
                20.706047
              ],
              [
                106.494034,
                20.705624
              ],
              [
                106.494034,
                20.705624
              ],
              [
                106.492947,
                20.705368
              ],
              [
                106.492746,
                20.705032
              ],
              [
                106.492836,
                20.704941
              ],
              [
                106.492934,
                20.704753
              ],
              [
                106.493214,
                20.703799
              ],
              [
                106.493384,
                20.703114
              ],
              [
                106.493548,
                20.702569
              ],
              [
                106.493728,
                20.701936
              ],
              [
                106.492597,
                20.701631
              ],
              [
                106.490702,
                20.701135
              ],
              [
                106.49065,
                20.701092
              ],
              [
                106.490605,
                20.701053
              ],
              [
                106.490562,
                20.701017
              ],
              [
                106.490511,
                20.700974
              ],
              [
                106.490225,
                20.700908
              ],
              [
                106.489909,
                20.70083
              ],
              [
                106.489596,
                20.700752
              ],
              [
                106.489268,
                20.700669
              ],
              [
                106.489099,
                20.700629
              ],
              [
                106.488925,
                20.700581
              ],
              [
                106.488623,
                20.700508
              ],
              [
                106.488312,
                20.700433
              ],
              [
                106.487819,
                20.700311
              ],
              [
                106.487502,
                20.700386
              ],
              [
                106.487592,
                20.700561
              ],
              [
                106.487815,
                20.700995
              ],
              [
                106.487887,
                20.701134
              ],
              [
                106.487563,
                20.701232
              ],
              [
                106.487213,
                20.701296
              ],
              [
                106.48649,
                20.701345
              ],
              [
                106.486088,
                20.701377
              ],
              [
                106.485123,
                20.701453
              ],
              [
                106.484514,
                20.701505
              ],
              [
                106.484385,
                20.701528
              ],
              [
                106.484379,
                20.701531
              ],
              [
                106.484343,
                20.701553
              ],
              [
                106.484344,
                20.701622
              ],
              [
                106.484399,
                20.701853
              ],
              [
                106.484467,
                20.702142
              ],
              [
                106.484481,
                20.7022
              ],
              [
                106.48451,
                20.702323
              ],
              [
                106.484606,
                20.702768
              ],
              [
                106.48462,
                20.702908
              ],
              [
                106.484603,
                20.702934
              ],
              [
                106.484592,
                20.70295
              ],
              [
                106.484523,
                20.702987
              ],
              [
                106.484334,
                20.703044
              ],
              [
                106.484282,
                20.70306
              ],
              [
                106.484112,
                20.703096
              ],
              [
                106.483811,
                20.703159
              ],
              [
                106.483506,
                20.703222
              ],
              [
                106.483388,
                20.703248
              ],
              [
                106.482916,
                20.703351
              ],
              [
                106.482828,
                20.70337
              ],
              [
                106.482746,
                20.703388
              ],
              [
                106.482218,
                20.703503
              ],
              [
                106.481982,
                20.703554
              ],
              [
                106.481795,
                20.703595
              ],
              [
                106.48169,
                20.703617
              ],
              [
                106.481498,
                20.70366
              ],
              [
                106.481078,
                20.703753
              ],
              [
                106.480974,
                20.703776
              ],
              [
                106.480642,
                20.70385
              ],
              [
                106.480436,
                20.703895
              ],
              [
                106.480433,
                20.703896
              ],
              [
                106.480229,
                20.703939
              ],
              [
                106.480053,
                20.703977
              ],
              [
                106.479914,
                20.704015
              ],
              [
                106.479873,
                20.704026
              ],
              [
                106.479552,
                20.704154
              ],
              [
                106.479517,
                20.704159
              ],
              [
                106.479495,
                20.704162
              ],
              [
                106.479465,
                20.704155
              ],
              [
                106.479418,
                20.704123
              ],
              [
                106.479296,
                20.703843
              ],
              [
                106.47928,
                20.703849
              ],
              [
                106.479233,
                20.703868
              ],
              [
                106.478877,
                20.704006
              ],
              [
                106.478825,
                20.704027
              ],
              [
                106.478676,
                20.704086
              ],
              [
                106.478528,
                20.704146
              ],
              [
                106.47838,
                20.704208
              ],
              [
                106.47827,
                20.704254
              ],
              [
                106.478194,
                20.704285
              ],
              [
                106.477564,
                20.704545
              ],
              [
                106.477381,
                20.704622
              ],
              [
                106.476533,
                20.704979
              ],
              [
                106.476315,
                20.705085
              ],
              [
                106.476024,
                20.705226
              ],
              [
                106.475573,
                20.705423
              ],
              [
                106.475326,
                20.705531
              ],
              [
                106.475123,
                20.705612
              ],
              [
                106.475119,
                20.705614
              ],
              [
                106.474941,
                20.705667
              ],
              [
                106.47487,
                20.705689
              ],
              [
                106.474714,
                20.705724
              ],
              [
                106.474635,
                20.705466
              ],
              [
                106.474534,
                20.705174
              ],
              [
                106.474422,
                20.704866
              ],
              [
                106.474298,
                20.704558
              ],
              [
                106.474161,
                20.704246
              ],
              [
                106.474011,
                20.703951
              ],
              [
                106.473844,
                20.703659
              ],
              [
                106.473674,
                20.703375
              ],
              [
                106.473503,
                20.703094
              ],
              [
                106.473194,
                20.70269
              ],
              [
                106.473085,
                20.702536
              ],
              [
                106.472913,
                20.702273
              ],
              [
                106.472728,
                20.702002
              ],
              [
                106.472676,
                20.70194
              ],
              [
                106.472623,
                20.701878
              ],
              [
                106.47253,
                20.701768
              ],
              [
                106.472323,
                20.70154
              ],
              [
                106.472088,
                20.70135
              ],
              [
                106.471855,
                20.701156
              ],
              [
                106.471622,
                20.700953
              ],
              [
                106.471386,
                20.700751
              ],
              [
                106.471133,
                20.700562
              ],
              [
                106.470898,
                20.700428
              ],
              [
                106.47064,
                20.700265
              ],
              [
                106.470415,
                20.700126
              ],
              [
                106.470167,
                20.699981
              ],
              [
                106.469917,
                20.699839
              ],
              [
                106.469668,
                20.699707
              ],
              [
                106.469418,
                20.699575
              ],
              [
                106.469164,
                20.699474
              ],
              [
                106.468905,
                20.699381
              ],
              [
                106.468608,
                20.699267
              ],
              [
                106.468403,
                20.699223
              ],
              [
                106.468139,
                20.699184
              ],
              [
                106.468088,
                20.699185
              ],
              [
                106.467918,
                20.69919
              ],
              [
                106.467838,
                20.699174
              ],
              [
                106.467621,
                20.699104
              ],
              [
                106.46738,
                20.699012
              ],
              [
                106.467282,
                20.698964
              ],
              [
                106.467133,
                20.698878
              ],
              [
                106.466907,
                20.698723
              ],
              [
                106.46674,
                20.698547
              ],
              [
                106.466657,
                20.698415
              ],
              [
                106.466536,
                20.698326
              ],
              [
                106.466416,
                20.698237
              ],
              [
                106.466206,
                20.698089
              ],
              [
                106.465862,
                20.697837
              ],
              [
                106.46569,
                20.697722
              ],
              [
                106.465434,
                20.697528
              ],
              [
                106.46523,
                20.697377
              ],
              [
                106.465025,
                20.697193
              ],
              [
                106.464807,
                20.696887
              ],
              [
                106.464594,
                20.696521
              ],
              [
                106.464399,
                20.696168
              ],
              [
                106.46411,
                20.695533
              ],
              [
                106.463824,
                20.69492
              ],
              [
                106.463544,
                20.69431
              ],
              [
                106.463424,
                20.69408
              ],
              [
                106.463246,
                20.694163
              ],
              [
                106.462303,
                20.694718
              ],
              [
                106.461804,
                20.694994
              ],
              [
                106.461758,
                20.695023
              ],
              [
                106.460004,
                20.696003
              ],
              [
                106.459651,
                20.6962
              ],
              [
                106.459469,
                20.696313
              ],
              [
                106.45928,
                20.696443
              ],
              [
                106.458145,
                20.69731
              ],
              [
                106.456636,
                20.698474
              ],
              [
                106.456095,
                20.69889
              ],
              [
                106.454408,
                20.700192
              ],
              [
                106.452816,
                20.701449
              ],
              [
                106.452616,
                20.701598
              ],
              [
                106.452549,
                20.701625
              ],
              [
                106.453053,
                20.702341
              ],
              [
                106.453529,
                20.703027
              ],
              [
                106.453836,
                20.703479
              ],
              [
                106.454162,
                20.703971
              ],
              [
                106.4547,
                20.704751
              ],
              [
                106.455242,
                20.70551
              ],
              [
                106.455333,
                20.705646
              ],
              [
                106.454576,
                20.70581
              ],
              [
                106.453468,
                20.705998
              ],
              [
                106.452895,
                20.706083
              ],
              [
                106.452322,
                20.706179
              ],
              [
                106.451768,
                20.706281
              ],
              [
                106.451236,
                20.706374
              ],
              [
                106.451142,
                20.70639
              ],
              [
                106.450711,
                20.706462
              ],
              [
                106.4502,
                20.706547
              ],
              [
                106.449736,
                20.70662
              ],
              [
                106.449193,
                20.706752
              ],
              [
                106.448615,
                20.706873
              ],
              [
                106.448169,
                20.706963
              ],
              [
                106.447606,
                20.707109
              ],
              [
                106.447269,
                20.7072
              ],
              [
                106.447042,
                20.707261
              ],
              [
                106.446485,
                20.707407
              ],
              [
                106.445927,
                20.707553
              ],
              [
                106.445332,
                20.7077
              ],
              [
                106.444736,
                20.707843
              ],
              [
                106.444134,
                20.707982
              ],
              [
                106.443544,
                20.708122
              ],
              [
                106.442954,
                20.708255
              ],
              [
                106.442379,
                20.708387
              ],
              [
                106.442064,
                20.708462
              ],
              [
                106.441376,
                20.708579
              ],
              [
                106.440039,
                20.708776
              ],
              [
                106.43937,
                20.708903
              ],
              [
                106.438867,
                20.709006
              ],
              [
                106.437331,
                20.709294
              ],
              [
                106.436539,
                20.709438
              ],
              [
                106.436234,
                20.709537
              ],
              [
                106.435961,
                20.709676
              ],
              [
                106.435602,
                20.709849
              ],
              [
                106.435219,
                20.710051
              ],
              [
                106.435149,
                20.710021
              ],
              [
                106.43507,
                20.709792
              ],
              [
                106.434984,
                20.709511
              ],
              [
                106.433821,
                20.709724
              ],
              [
                106.433614,
                20.709752
              ],
              [
                106.433211,
                20.709797
              ],
              [
                106.432816,
                20.709837
              ],
              [
                106.432432,
                20.70988
              ],
              [
                106.432012,
                20.709925
              ],
              [
                106.431583,
                20.709972
              ],
              [
                106.431162,
                20.710022
              ],
              [
                106.430735,
                20.710065
              ],
              [
                106.430315,
                20.710108
              ],
              [
                106.429898,
                20.71015
              ],
              [
                106.42945,
                20.710194
              ],
              [
                106.428983,
                20.710229
              ],
              [
                106.428527,
                20.710273
              ],
              [
                106.428071,
                20.710309
              ],
              [
                106.42761,
                20.710349
              ],
              [
                106.427151,
                20.710376
              ],
              [
                106.426934,
                20.710382
              ],
              [
                106.426673,
                20.710386
              ],
              [
                106.426631,
                20.710394
              ],
              [
                106.426615,
                20.710633
              ],
              [
                106.426531,
                20.711665
              ],
              [
                106.426491,
                20.712163
              ],
              [
                106.42646,
                20.712542
              ],
              [
                106.426434,
                20.712874
              ],
              [
                106.426429,
                20.712935
              ],
              [
                106.426353,
                20.713914
              ],
              [
                106.426351,
                20.713929
              ],
              [
                106.426325,
                20.714158
              ],
              [
                106.426317,
                20.714233
              ],
              [
                106.426314,
                20.714405
              ],
              [
                106.426318,
                20.714481
              ],
              [
                106.426348,
                20.714551
              ],
              [
                106.426447,
                20.714679
              ],
              [
                106.426459,
                20.714695
              ],
              [
                106.426537,
                20.714801
              ],
              [
                106.425306,
                20.715467
              ],
              [
                106.424417,
                20.716031
              ],
              [
                106.423462,
                20.716704
              ],
              [
                106.421717,
                20.717865
              ],
              [
                106.420344,
                20.718791
              ],
              [
                106.419299,
                20.719489
              ],
              [
                106.419225,
                20.719428
              ],
              [
                106.419206,
                20.719412
              ],
              [
                106.419176,
                20.719388
              ],
              [
                106.419146,
                20.719363
              ],
              [
                106.418998,
                20.719242
              ],
              [
                106.418991,
                20.719236
              ],
              [
                106.41812,
                20.718531
              ],
              [
                106.41743,
                20.718009
              ],
              [
                106.417429,
                20.718009
              ],
              [
                106.417036,
                20.717686
              ],
              [
                106.416868,
                20.717842
              ],
              [
                106.416544,
                20.718143
              ],
              [
                106.416415,
                20.718317
              ],
              [
                106.416163,
                20.718651
              ],
              [
                106.415961,
                20.718897
              ],
              [
                106.415952,
                20.718888
              ],
              [
                106.415885,
                20.718829
              ],
              [
                106.415867,
                20.718813
              ],
              [
                106.41585,
                20.718797
              ],
              [
                106.415786,
                20.71874
              ],
              [
                106.415513,
                20.718496
              ],
              [
                106.415426,
                20.71837
              ],
              [
                106.415415,
                20.718355
              ],
              [
                106.415284,
                20.718176
              ],
              [
                106.415252,
                20.718199
              ],
              [
                106.413163,
                20.719689
              ],
              [
                106.412745,
                20.719966
              ],
              [
                106.412074,
                20.720268
              ],
              [
                106.410942,
                20.720787
              ],
              [
                106.410409,
                20.721098
              ],
              [
                106.409605,
                20.721652
              ],
              [
                106.409173,
                20.722028
              ],
              [
                106.40896,
                20.722261
              ],
              [
                106.408758,
                20.722649
              ],
              [
                106.408641,
                20.722999
              ],
              [
                106.408489,
                20.723576
              ],
              [
                106.408335,
                20.724341
              ],
              [
                106.408209,
                20.725314
              ],
              [
                106.408116,
                20.726098
              ],
              [
                106.408042,
                20.726712
              ],
              [
                106.407926,
                20.727203
              ],
              [
                106.40773,
                20.727686
              ],
              [
                106.407689,
                20.727777
              ],
              [
                106.407445,
                20.728311
              ],
              [
                106.407612,
                20.728385
              ],
              [
                106.407622,
                20.728389
              ],
              [
                106.407904,
                20.728609
              ],
              [
                106.408232,
                20.728927
              ],
              [
                106.408551,
                20.729476
              ],
              [
                106.408882,
                20.730148
              ],
              [
                106.409848,
                20.731913
              ],
              [
                106.410608,
                20.732851
              ],
              [
                106.411575,
                20.73383
              ],
              [
                106.411644,
                20.733887
              ],
              [
                106.412371,
                20.734487
              ],
              [
                106.412986,
                20.734878
              ],
              [
                106.41376,
                20.735221
              ],
              [
                106.414272,
                20.73533
              ],
              [
                106.414813,
                20.735335
              ],
              [
                106.415404,
                20.735311
              ],
              [
                106.41666,
                20.73514
              ],
              [
                106.418719,
                20.734718
              ],
              [
                106.420819,
                20.734267
              ],
              [
                106.423703,
                20.733639
              ],
              [
                106.424662,
                20.733423
              ],
              [
                106.425431,
                20.733115
              ],
              [
                106.426398,
                20.732635
              ],
              [
                106.428658,
                20.731342
              ],
              [
                106.428864,
                20.731224
              ],
              [
                106.428962,
                20.731168
              ],
              [
                106.429432,
                20.730865
              ],
              [
                106.430486,
                20.730083
              ],
              [
                106.431469,
                20.729207
              ],
              [
                106.432614,
                20.727924
              ],
              [
                106.433109,
                20.72725
              ],
              [
                106.433475,
                20.726728
              ],
              [
                106.433987,
                20.725818
              ],
              [
                106.434265,
                20.725014
              ],
              [
                106.434478,
                20.724305
              ],
              [
                106.435385,
                20.721599
              ],
              [
                106.435646,
                20.721153
              ],
              [
                106.435864,
                20.720897
              ],
              [
                106.436152,
                20.72064
              ],
              [
                106.43651,
                20.72042
              ],
              [
                106.43687,
                20.720332
              ],
              [
                106.43733,
                20.7203
              ],
              [
                106.437801,
                20.720286
              ],
              [
                106.438203,
                20.720377
              ],
              [
                106.438725,
                20.720571
              ],
              [
                106.439067,
                20.720722
              ],
              [
                106.43937,
                20.720898
              ],
              [
                106.439739,
                20.721216
              ],
              [
                106.440161,
                20.721699
              ],
              [
                106.440914,
                20.722428
              ],
              [
                106.441676,
                20.723132
              ],
              [
                106.442295,
                20.723725
              ],
              [
                106.443069,
                20.724648
              ],
              [
                106.443918,
                20.725744
              ],
              [
                106.444668,
                20.72686
              ],
              [
                106.445385,
                20.727982
              ],
              [
                106.446036,
                20.729167
              ],
              [
                106.446206,
                20.729646
              ],
              [
                106.446405,
                20.730685
              ],
              [
                106.446423,
                20.73124
              ],
              [
                106.446401,
                20.732038
              ],
              [
                106.44636,
                20.732631
              ],
              [
                106.446249,
                20.73351
              ],
              [
                106.446176,
                20.734159
              ],
              [
                106.446168,
                20.734783
              ],
              [
                106.446224,
                20.735069
              ],
              [
                106.446511,
                20.735634
              ],
              [
                106.446792,
                20.7359
              ],
              [
                106.447166,
                20.736121
              ],
              [
                106.447667,
                20.73626
              ],
              [
                106.448032,
                20.736263
              ],
              [
                106.448598,
                20.736165
              ],
              [
                106.449497,
                20.735933
              ],
              [
                106.450194,
                20.735671
              ],
              [
                106.450797,
                20.735224
              ],
              [
                106.451065,
                20.73491
              ],
              [
                106.451576,
                20.733927
              ],
              [
                106.452086,
                20.732782
              ],
              [
                106.452494,
                20.731756
              ],
              [
                106.452893,
                20.730581
              ],
              [
                106.452988,
                20.730069
              ],
              [
                106.453016,
                20.729171
              ],
              [
                106.453004,
                20.728604
              ],
              [
                106.452951,
                20.727893
              ],
              [
                106.452829,
                20.727302
              ],
              [
                106.452601,
                20.7267
              ],
              [
                106.452393,
                20.726402
              ],
              [
                106.451758,
                20.725504
              ],
              [
                106.451361,
                20.724877
              ],
              [
                106.451266,
                20.724678
              ],
              [
                106.450999,
                20.724114
              ],
              [
                106.450943,
                20.723784
              ],
              [
                106.450939,
                20.723435
              ],
              [
                106.450995,
                20.723029
              ],
              [
                106.451157,
                20.722622
              ],
              [
                106.451373,
                20.722365
              ],
              [
                106.451732,
                20.722069
              ],
              [
                106.452183,
                20.721816
              ],
              [
                106.453364,
                20.721513
              ],
              [
                106.453364,
                20.721513
              ]
            ]
          ]
        ]
      },
      "properties": {
        "code": "11836",
        "name": "Vĩnh Thịnh",
        "nameEn": "Vinh Thinh",
        "fullName": "Xã Vĩnh Thịnh",
        "fullNameEn": "Vinh Thinh Commune",
        "codeName": "vinh_thinh",
        "postalCode": "05338",
        "postalCodePrefix": "",
        "gisServerId": "diaphanhanhchinhcapxa_2025.918",
        "areaKm2": 21.5
      }
    }
  ]
}