{
  "type": "FeatureCollection",
  "bbox": [
    106.452222,
    20.704924,
    106.521549,
    20.764684
  ],
  "features": [
    {
      "type": "Feature",
      "id": "11842",
      "bbox": [
        106.452222,
        20.704924,
        106.521549,
        20.764684
      ],
      "geometry": {
        "type": "MultiPolygon",
        "coordinates": [
          [
            [
              [
                106.51965,
                20.762028
              ],
              [
                106.519549,
                20.761772
              ],
              [
                106.519525,
                20.761711
              ],
              [
                106.519442,
                20.761322
              ],
              [
                106.519402,
                20.761071
              ],
              [
                106.519368,
                20.760845
              ],
              [
                106.5192,
                20.760595
              ],
              [
                106.518854,
                20.760294
              ],
              [
                106.518572,
                20.760027
              ],
              [
                106.518494,
                20.759872
              ],
              [
                106.518459,
                20.759508
              ],
              [
                106.51847,
                20.759106
              ],
              [
                106.518607,
                20.758735
              ],
              [
                106.518725,
                20.758513
              ],
              [
                106.519243,
                20.757924
              ],
              [
                106.519607,
                20.757419
              ],
              [
                106.5198,
                20.757035
              ],
              [
                106.519949,
                20.756639
              ],
              [
                106.520336,
                20.755638
              ],
              [
                106.520663,
                20.754713
              ],
              [
                106.520982,
                20.753575
              ],
              [
                106.521175,
                20.752593
              ],
              [
                106.521267,
                20.751892
              ],
              [
                106.521442,
                20.750057
              ],
              [
                106.521549,
                20.74901
              ],
              [
                106.521455,
                20.746699
              ],
              [
                106.521216,
                20.744187
              ],
              [
                106.521029,
                20.742774
              ],
              [
                106.520788,
                20.740969
              ],
              [
                106.520472,
                20.738935
              ],
              [
                106.52014,
                20.737208
              ],
              [
                106.519693,
                20.735185
              ],
              [
                106.519684,
                20.735149
              ],
              [
                106.519207,
                20.733287
              ],
              [
                106.518659,
                20.731351
              ],
              [
                106.518143,
                20.729587
              ],
              [
                106.517087,
                20.726536
              ],
              [
                106.51683,
                20.725814
              ],
              [
                106.516344,
                20.724449
              ],
              [
                106.515748,
                20.722791
              ],
              [
                106.513956,
                20.718294
              ],
              [
                106.513465,
                20.716912
              ],
              [
                106.513158,
                20.71572
              ],
              [
                106.513005,
                20.714631
              ],
              [
                106.513039,
                20.714
              ],
              [
                106.513165,
                20.713397
              ],
              [
                106.51338,
                20.712458
              ],
              [
                106.513586,
                20.711758
              ],
              [
                106.514222,
                20.710271
              ],
              [
                106.514791,
                20.708621
              ],
              [
                106.514824,
                20.708525
              ],
              [
                106.515168,
                20.707327
              ],
              [
                106.515332,
                20.706503
              ],
              [
                106.515377,
                20.705882
              ],
              [
                106.515356,
                20.705191
              ],
              [
                106.515348,
                20.704924
              ],
              [
                106.512776,
                20.705246
              ],
              [
                106.512845,
                20.705711
              ],
              [
                106.510773,
                20.70567
              ],
              [
                106.510372,
                20.70616
              ],
              [
                106.508632,
                20.70591
              ],
              [
                106.508583,
                20.706374
              ],
              [
                106.508238,
                20.706173
              ],
              [
                106.507912,
                20.706069
              ],
              [
                106.507749,
                20.706053
              ],
              [
                106.507665,
                20.706122
              ],
              [
                106.506781,
                20.707518
              ],
              [
                106.505841,
                20.707137
              ],
              [
                106.505457,
                20.70779
              ],
              [
                106.503146,
                20.706873
              ],
              [
                106.502579,
                20.709039
              ],
              [
                106.502144,
                20.708975
              ],
              [
                106.501869,
                20.708944
              ],
              [
                106.501503,
                20.708901
              ],
              [
                106.501224,
                20.70885
              ],
              [
                106.50094,
                20.708812
              ],
              [
                106.500641,
                20.708769
              ],
              [
                106.500389,
                20.708745
              ],
              [
                106.50017,
                20.7087
              ],
              [
                106.499886,
                20.708654
              ],
              [
                106.499709,
                20.708633
              ],
              [
                106.499445,
                20.708596
              ],
              [
                106.499172,
                20.708554
              ],
              [
                106.499064,
                20.708537
              ],
              [
                106.498958,
                20.70852
              ],
              [
                106.498152,
                20.708445
              ],
              [
                106.497839,
                20.708386
              ],
              [
                106.497525,
                20.708327
              ],
              [
                106.497472,
                20.708332
              ],
              [
                106.496613,
                20.708282
              ],
              [
                106.495696,
                20.708328
              ],
              [
                106.495719,
                20.708215
              ],
              [
                106.495905,
                20.707992
              ],
              [
                106.495395,
                20.707933
              ],
              [
                106.495363,
                20.708085
              ],
              [
                106.49504,
                20.708028
              ],
              [
                106.494464,
                20.707927
              ],
              [
                106.494353,
                20.707742
              ],
              [
                106.494197,
                20.707482
              ],
              [
                106.493844,
                20.706893
              ],
              [
                106.492242,
                20.70769
              ],
              [
                106.492186,
                20.707703
              ],
              [
                106.492136,
                20.707716
              ],
              [
                106.492081,
                20.70777
              ],
              [
                106.492036,
                20.707782
              ],
              [
                106.492017,
                20.707795
              ],
              [
                106.491353,
                20.707952
              ],
              [
                106.491332,
                20.707957
              ],
              [
                106.49133,
                20.708679
              ],
              [
                106.490692,
                20.708668
              ],
              [
                106.490616,
                20.709532
              ],
              [
                106.490259,
                20.7095
              ],
              [
                106.489696,
                20.709442
              ],
              [
                106.489291,
                20.709395
              ],
              [
                106.48914,
                20.709376
              ],
              [
                106.488507,
                20.709298
              ],
              [
                106.488289,
                20.709273
              ],
              [
                106.488263,
                20.709439
              ],
              [
                106.488236,
                20.709609
              ],
              [
                106.488217,
                20.709661
              ],
              [
                106.488178,
                20.70971
              ],
              [
                106.488064,
                20.709822
              ],
              [
                106.487916,
                20.709938
              ],
              [
                106.48786,
                20.709999
              ],
              [
                106.487557,
                20.710481
              ],
              [
                106.487338,
                20.710957
              ],
              [
                106.487316,
                20.711122
              ],
              [
                106.48738,
                20.711313
              ],
              [
                106.487769,
                20.711862
              ],
              [
                106.488264,
                20.712487
              ],
              [
                106.488359,
                20.712574
              ],
              [
                106.488601,
                20.7128
              ],
              [
                106.488824,
                20.713016
              ],
              [
                106.489075,
                20.713262
              ],
              [
                106.489715,
                20.713885
              ],
              [
                106.490066,
                20.714136
              ],
              [
                106.490229,
                20.71435
              ],
              [
                106.490289,
                20.714485
              ],
              [
                106.490244,
                20.714618
              ],
              [
                106.490076,
                20.714973
              ],
              [
                106.489601,
                20.715913
              ],
              [
                106.488485,
                20.71813
              ],
              [
                106.48853,
                20.718202
              ],
              [
                106.4886,
                20.718367
              ],
              [
                106.488666,
                20.718678
              ],
              [
                106.488697,
                20.718788
              ],
              [
                106.488755,
                20.718879
              ],
              [
                106.489152,
                20.719218
              ],
              [
                106.489229,
                20.719226
              ],
              [
                106.489593,
                20.719286
              ],
              [
                106.48961,
                20.719289
              ],
              [
                106.490425,
                20.719435
              ],
              [
                106.4912,
                20.719544
              ],
              [
                106.492915,
                20.719782
              ],
              [
                106.494174,
                20.719933
              ],
              [
                106.494343,
                20.719954
              ],
              [
                106.494342,
                20.719968
              ],
              [
                106.49432,
                20.720219
              ],
              [
                106.494308,
                20.720696
              ],
              [
                106.494263,
                20.721209
              ],
              [
                106.494221,
                20.721742
              ],
              [
                106.494204,
                20.722024
              ],
              [
                106.494188,
                20.722277
              ],
              [
                106.494187,
                20.72229
              ],
              [
                106.494164,
                20.722815
              ],
              [
                106.494156,
                20.723007
              ],
              [
                106.49414,
                20.723392
              ],
              [
                106.494116,
                20.723687
              ],
              [
                106.494105,
                20.723997
              ],
              [
                106.494111,
                20.724011
              ],
              [
                106.494279,
                20.724032
              ],
              [
                106.494697,
                20.724095
              ],
              [
                106.495076,
                20.724157
              ],
              [
                106.495087,
                20.724166
              ],
              [
                106.495066,
                20.724327
              ],
              [
                106.495048,
                20.724473
              ],
              [
                106.495022,
                20.724655
              ],
              [
                106.495037,
                20.724657
              ],
              [
                106.495037,
                20.724657
              ],
              [
                106.495128,
                20.724667
              ],
              [
                106.495291,
                20.724687
              ],
              [
                106.495655,
                20.724731
              ],
              [
                106.495904,
                20.724761
              ],
              [
                106.49622,
                20.724799
              ],
              [
                106.49625,
                20.724803
              ],
              [
                106.496549,
                20.724836
              ],
              [
                106.4968,
                20.724864
              ],
              [
                106.497032,
                20.72489
              ],
              [
                106.49725,
                20.724913
              ],
              [
                106.497337,
                20.72492
              ],
              [
                106.497347,
                20.724921
              ],
              [
                106.497534,
                20.724918
              ],
              [
                106.497712,
                20.727056
              ],
              [
                106.497946,
                20.72963
              ],
              [
                106.498137,
                20.731976
              ],
              [
                106.498159,
                20.732203
              ],
              [
                106.49779,
                20.732157
              ],
              [
                106.496963,
                20.732054
              ],
              [
                106.495837,
                20.731883
              ],
              [
                106.495472,
                20.731827
              ],
              [
                106.495426,
                20.732135
              ],
              [
                106.495319,
                20.733042
              ],
              [
                106.495307,
                20.733154
              ],
              [
                106.4953,
                20.733157
              ],
              [
                106.494992,
                20.733117
              ],
              [
                106.494846,
                20.733098
              ],
              [
                106.494701,
                20.73308
              ],
              [
                106.494548,
                20.733068
              ],
              [
                106.494395,
                20.73305
              ],
              [
                106.494246,
                20.73302
              ],
              [
                106.494089,
                20.732998
              ],
              [
                106.493947,
                20.732984
              ],
              [
                106.493792,
                20.73297
              ],
              [
                106.493631,
                20.732948
              ],
              [
                106.49347,
                20.732929
              ],
              [
                106.493309,
                20.732908
              ],
              [
                106.493158,
                20.732892
              ],
              [
                106.493007,
                20.732878
              ],
              [
                106.492861,
                20.732862
              ],
              [
                106.492713,
                20.732844
              ],
              [
                106.492571,
                20.732826
              ],
              [
                106.492321,
                20.732793
              ],
              [
                106.49218,
                20.732776
              ],
              [
                106.49209,
                20.73276
              ],
              [
                106.491907,
                20.732752
              ],
              [
                106.491665,
                20.732722
              ],
              [
                106.491383,
                20.732687
              ],
              [
                106.491139,
                20.732658
              ],
              [
                106.490928,
                20.732633
              ],
              [
                106.490724,
                20.732604
              ],
              [
                106.490529,
                20.732579
              ],
              [
                106.490315,
                20.732558
              ],
              [
                106.490021,
                20.732526
              ],
              [
                106.489872,
                20.732509
              ],
              [
                106.489707,
                20.732489
              ],
              [
                106.489416,
                20.732447
              ],
              [
                106.489132,
                20.732414
              ],
              [
                106.488725,
                20.732367
              ],
              [
                106.48843,
                20.732329
              ],
              [
                106.488242,
                20.732305
              ],
              [
                106.488043,
                20.732292
              ],
              [
                106.487987,
                20.7323
              ],
              [
                106.487947,
                20.732321
              ],
              [
                106.487884,
                20.732324
              ],
              [
                106.48688,
                20.732288
              ],
              [
                106.486016,
                20.732268
              ],
              [
                106.485886,
                20.732264
              ],
              [
                106.48555,
                20.732256
              ],
              [
                106.485214,
                20.732248
              ],
              [
                106.485028,
                20.732232
              ],
              [
                106.484858,
                20.732224
              ],
              [
                106.484829,
                20.732228
              ],
              [
                106.484757,
                20.732253
              ],
              [
                106.484666,
                20.73229
              ],
              [
                106.484548,
                20.732342
              ],
              [
                106.484443,
                20.732383
              ],
              [
                106.484338,
                20.732426
              ],
              [
                106.484247,
                20.732465
              ],
              [
                106.484107,
                20.732515
              ],
              [
                106.484052,
                20.732535
              ],
              [
                106.48405,
                20.732535
              ],
              [
                106.484024,
                20.732477
              ],
              [
                106.484007,
                20.732345
              ],
              [
                106.483997,
                20.732292
              ],
              [
                106.483979,
                20.732205
              ],
              [
                106.483977,
                20.732193
              ],
              [
                106.483972,
                20.732185
              ],
              [
                106.483963,
                20.732169
              ],
              [
                106.483883,
                20.73203
              ],
              [
                106.483777,
                20.73191
              ],
              [
                106.483763,
                20.731894
              ],
              [
                106.483652,
                20.731769
              ],
              [
                106.483482,
                20.731645
              ],
              [
                106.483312,
                20.731521
              ],
              [
                106.483275,
                20.731551
              ],
              [
                106.48323,
                20.731588
              ],
              [
                106.483156,
                20.73163
              ],
              [
                106.482982,
                20.731715
              ],
              [
                106.482775,
                20.731809
              ],
              [
                106.482298,
                20.732032
              ],
              [
                106.481895,
                20.732236
              ],
              [
                106.481888,
                20.732233
              ],
              [
                106.481854,
                20.732196
              ],
              [
                106.481744,
                20.732059
              ],
              [
                106.481706,
                20.732017
              ],
              [
                106.481636,
                20.731967
              ],
              [
                106.481577,
                20.731921
              ],
              [
                106.481561,
                20.731899
              ],
              [
                106.481538,
                20.731869
              ],
              [
                106.481473,
                20.731801
              ],
              [
                106.481377,
                20.731707
              ],
              [
                106.4813,
                20.731624
              ],
              [
                106.481259,
                20.731571
              ],
              [
                106.481222,
                20.731525
              ],
              [
                106.481171,
                20.731472
              ],
              [
                106.481127,
                20.731444
              ],
              [
                106.481101,
                20.731424
              ],
              [
                106.481039,
                20.731356
              ],
              [
                106.481022,
                20.731338
              ],
              [
                106.480959,
                20.731269
              ],
              [
                106.480914,
                20.731214
              ],
              [
                106.480863,
                20.73117
              ],
              [
                106.480806,
                20.731128
              ],
              [
                106.480728,
                20.731079
              ],
              [
                106.480535,
                20.730928
              ],
              [
                106.480578,
                20.730845
              ],
              [
                106.480603,
                20.730797
              ],
              [
                106.480685,
                20.730632
              ],
              [
                106.480835,
                20.730332
              ],
              [
                106.480855,
                20.73029
              ],
              [
                106.480927,
                20.730163
              ],
              [
                106.480897,
                20.730149
              ],
              [
                106.480866,
                20.730134
              ],
              [
                106.48081,
                20.730108
              ],
              [
                106.480547,
                20.730003
              ],
              [
                106.480194,
                20.729863
              ],
              [
                106.479955,
                20.729799
              ],
              [
                106.479946,
                20.729797
              ],
              [
                106.479787,
                20.729759
              ],
              [
                106.479769,
                20.729753
              ],
              [
                106.479685,
                20.729724
              ],
              [
                106.479522,
                20.729635
              ],
              [
                106.479409,
                20.729555
              ],
              [
                106.479317,
                20.729491
              ],
              [
                106.479182,
                20.729426
              ],
              [
                106.479164,
                20.729418
              ],
              [
                106.479137,
                20.729407
              ],
              [
                106.479011,
                20.729377
              ],
              [
                106.478891,
                20.729364
              ],
              [
                106.47883,
                20.729357
              ],
              [
                106.478697,
                20.729344
              ],
              [
                106.478604,
                20.729318
              ],
              [
                106.478572,
                20.729294
              ],
              [
                106.47854,
                20.72927
              ],
              [
                106.478505,
                20.729205
              ],
              [
                106.478497,
                20.729171
              ],
              [
                106.478445,
                20.728957
              ],
              [
                106.478416,
                20.728767
              ],
              [
                106.478401,
                20.728665
              ],
              [
                106.478397,
                20.72853
              ],
              [
                106.478396,
                20.728507
              ],
              [
                106.478425,
                20.728432
              ],
              [
                106.478425,
                20.728427
              ],
              [
                106.478351,
                20.728405
              ],
              [
                106.478305,
                20.728391
              ],
              [
                106.478221,
                20.728377
              ],
              [
                106.47811,
                20.728388
              ],
              [
                106.478045,
                20.728405
              ],
              [
                106.478035,
                20.728414
              ],
              [
                106.478016,
                20.72854
              ],
              [
                106.478006,
                20.728605
              ],
              [
                106.477989,
                20.728654
              ],
              [
                106.47796,
                20.728681
              ],
              [
                106.477936,
                20.72869
              ],
              [
                106.477848,
                20.728695
              ],
              [
                106.477574,
                20.728689
              ],
              [
                106.477454,
                20.728686
              ],
              [
                106.477321,
                20.728669
              ],
              [
                106.4772,
                20.728657
              ],
              [
                106.477086,
                20.728634
              ],
              [
                106.47705,
                20.728625
              ],
              [
                106.476969,
                20.728585
              ],
              [
                106.476906,
                20.728548
              ],
              [
                106.476809,
                20.728494
              ],
              [
                106.476759,
                20.728441
              ],
              [
                106.476725,
                20.728413
              ],
              [
                106.476653,
                20.728381
              ],
              [
                106.476535,
                20.728355
              ],
              [
                106.47638,
                20.728326
              ],
              [
                106.47623,
                20.728296
              ],
              [
                106.476159,
                20.728283
              ],
              [
                106.476073,
                20.72827
              ],
              [
                106.475918,
                20.728239
              ],
              [
                106.475766,
                20.72821
              ],
              [
                106.475612,
                20.728181
              ],
              [
                106.475464,
                20.728154
              ],
              [
                106.47531,
                20.728127
              ],
              [
                106.475166,
                20.728101
              ],
              [
                106.475017,
                20.728068
              ],
              [
                106.474875,
                20.728041
              ],
              [
                106.474733,
                20.72802
              ],
              [
                106.474582,
                20.727995
              ],
              [
                106.474432,
                20.727971
              ],
              [
                106.474291,
                20.727942
              ],
              [
                106.47415,
                20.727919
              ],
              [
                106.474004,
                20.727896
              ],
              [
                106.47386,
                20.727874
              ],
              [
                106.473716,
                20.727853
              ],
              [
                106.473582,
                20.727831
              ],
              [
                106.473441,
                20.727808
              ],
              [
                106.473052,
                20.727733
              ],
              [
                106.472978,
                20.727698
              ],
              [
                106.472955,
                20.72766
              ],
              [
                106.472981,
                20.72749
              ],
              [
                106.472975,
                20.727423
              ],
              [
                106.472901,
                20.727395
              ],
              [
                106.472278,
                20.727321
              ],
              [
                106.47222,
                20.727336
              ],
              [
                106.472205,
                20.727393
              ],
              [
                106.47217,
                20.727415
              ],
              [
                106.472106,
                20.727421
              ],
              [
                106.472054,
                20.727478
              ],
              [
                106.472019,
                20.72755
              ],
              [
                106.471991,
                20.727551
              ],
              [
                106.471919,
                20.72753
              ],
              [
                106.471153,
                20.727307
              ],
              [
                106.470903,
                20.727233
              ],
              [
                106.470832,
                20.727302
              ],
              [
                106.470813,
                20.72733
              ],
              [
                106.470786,
                20.727774
              ],
              [
                106.470542,
                20.727692
              ],
              [
                106.469741,
                20.727454
              ],
              [
                106.469602,
                20.727398
              ],
              [
                106.469409,
                20.727345
              ],
              [
                106.469132,
                20.727264
              ],
              [
                106.469025,
                20.727236
              ],
              [
                106.468943,
                20.72721
              ],
              [
                106.468838,
                20.727164
              ],
              [
                106.468641,
                20.727102
              ],
              [
                106.468603,
                20.727099
              ],
              [
                106.468574,
                20.727103
              ],
              [
                106.468539,
                20.727112
              ],
              [
                106.468518,
                20.727113
              ],
              [
                106.468453,
                20.727109
              ],
              [
                106.468242,
                20.727084
              ],
              [
                106.468152,
                20.727073
              ],
              [
                106.467871,
                20.726992
              ],
              [
                106.467534,
                20.726906
              ],
              [
                106.465988,
                20.72655
              ],
              [
                106.465844,
                20.726517
              ],
              [
                106.465823,
                20.726512
              ],
              [
                106.465801,
                20.726507
              ],
              [
                106.465703,
                20.726485
              ],
              [
                106.464959,
                20.726313
              ],
              [
                106.465296,
                20.727147
              ],
              [
                106.46542,
                20.727594
              ],
              [
                106.465471,
                20.728105
              ],
              [
                106.465463,
                20.728579
              ],
              [
                106.465243,
                20.729503
              ],
              [
                106.465109,
                20.730072
              ],
              [
                106.464895,
                20.730897
              ],
              [
                106.464628,
                20.731441
              ],
              [
                106.464078,
                20.732418
              ],
              [
                106.463646,
                20.733045
              ],
              [
                106.462961,
                20.73388
              ],
              [
                106.462614,
                20.73427
              ],
              [
                106.461842,
                20.734968
              ],
              [
                106.460914,
                20.735687
              ],
              [
                106.459702,
                20.736507
              ],
              [
                106.458769,
                20.737027
              ],
              [
                106.457706,
                20.737516
              ],
              [
                106.456293,
                20.738113
              ],
              [
                106.455134,
                20.738547
              ],
              [
                106.454381,
                20.73884
              ],
              [
                106.45359,
                20.73929
              ],
              [
                106.453145,
                20.739617
              ],
              [
                106.452399,
                20.740596
              ],
              [
                106.452222,
                20.741495
              ],
              [
                106.452396,
                20.742379
              ],
              [
                106.452799,
                20.742949
              ],
              [
                106.453773,
                20.743589
              ],
              [
                106.454891,
                20.744004
              ],
              [
                106.45646,
                20.744439
              ],
              [
                106.457375,
                20.744469
              ],
              [
                106.45801,
                20.744345
              ],
              [
                106.459278,
                20.743694
              ],
              [
                106.460729,
                20.742915
              ],
              [
                106.461449,
                20.742613
              ],
              [
                106.462212,
                20.742458
              ],
              [
                106.462981,
                20.742382
              ],
              [
                106.463902,
                20.742329
              ],
              [
                106.464839,
                20.74256
              ],
              [
                106.466194,
                20.743191
              ],
              [
                106.466624,
                20.743501
              ],
              [
                106.467414,
                20.744287
              ],
              [
                106.467941,
                20.745049
              ],
              [
                106.46878,
                20.746403
              ],
              [
                106.469502,
                20.747996
              ],
              [
                106.470002,
                20.749013
              ],
              [
                106.470025,
                20.749054
              ],
              [
                106.471326,
                20.751435
              ],
              [
                106.471442,
                20.751656
              ],
              [
                106.471615,
                20.751975
              ],
              [
                106.47165,
                20.752033
              ],
              [
                106.472179,
                20.753011
              ],
              [
                106.472328,
                20.753164
              ],
              [
                106.472622,
                20.753466
              ],
              [
                106.47284,
                20.753618
              ],
              [
                106.473089,
                20.753727
              ],
              [
                106.473527,
                20.753861
              ],
              [
                106.473951,
                20.753867
              ],
              [
                106.474434,
                20.753833
              ],
              [
                106.475065,
                20.753687
              ],
              [
                106.475929,
                20.753274
              ],
              [
                106.477314,
                20.752262
              ],
              [
                106.477597,
                20.752089
              ],
              [
                106.477731,
                20.752011
              ],
              [
                106.478659,
                20.751476
              ],
              [
                106.478941,
                20.751322
              ],
              [
                106.47923,
                20.751176
              ],
              [
                106.479948,
                20.750849
              ],
              [
                106.480204,
                20.750743
              ],
              [
                106.48039,
                20.750675
              ],
              [
                106.480602,
                20.750609
              ],
              [
                106.481153,
                20.750459
              ],
              [
                106.481892,
                20.750224
              ],
              [
                106.481961,
                20.750205
              ],
              [
                106.482057,
                20.75018
              ],
              [
                106.482214,
                20.750147
              ],
              [
                106.482557,
                20.7501
              ],
              [
                106.48296,
                20.75007
              ],
              [
                106.483285,
                20.750046
              ],
              [
                106.483599,
                20.750035
              ],
              [
                106.483977,
                20.750042
              ],
              [
                106.484204,
                20.750057
              ],
              [
                106.484502,
                20.750086
              ],
              [
                106.484827,
                20.75013
              ],
              [
                106.485455,
                20.75023
              ],
              [
                106.486329,
                20.750317
              ],
              [
                106.486588,
                20.750356
              ],
              [
                106.486827,
                20.750401
              ],
              [
                106.487021,
                20.750446
              ],
              [
                106.487284,
                20.750519
              ],
              [
                106.48778,
                20.750685
              ],
              [
                106.488647,
                20.751002
              ],
              [
                106.488984,
                20.751144
              ],
              [
                106.489303,
                20.751304
              ],
              [
                106.489695,
                20.751519
              ],
              [
                106.489996,
                20.751706
              ],
              [
                106.490432,
                20.752009
              ],
              [
                106.490736,
                20.752232
              ],
              [
                106.490859,
                20.752323
              ],
              [
                106.49113,
                20.752545
              ],
              [
                106.491519,
                20.752895
              ],
              [
                106.491645,
                20.753016
              ],
              [
                106.49183,
                20.753207
              ],
              [
                106.494351,
                20.755917
              ],
              [
                106.495861,
                20.7575
              ],
              [
                106.498091,
                20.759837
              ],
              [
                106.499491,
                20.761031
              ],
              [
                106.499511,
                20.761046
              ],
              [
                106.50069,
                20.761854
              ],
              [
                106.501869,
                20.762662
              ],
              [
                106.501871,
                20.762663
              ],
              [
                106.503256,
                20.763447
              ],
              [
                106.504174,
                20.763882
              ],
              [
                106.505735,
                20.764352
              ],
              [
                106.506636,
                20.764559
              ],
              [
                106.508164,
                20.76468
              ],
              [
                106.509249,
                20.764684
              ],
              [
                106.510799,
                20.764398
              ],
              [
                106.511687,
                20.764227
              ],
              [
                106.518225,
                20.762414
              ],
              [
                106.519257,
                20.762157
              ],
              [
                106.519363,
                20.76213
              ],
              [
                106.51965,
                20.762028
              ],
              [
                106.51965,
                20.762028
              ]
            ]
          ]
        ]
      },
      "properties": {
        "code": "11842",
        "name": "Vĩnh Thuận",
        "nameEn": "Vinh Thuan",
        "fullName": "Xã Vĩnh Thuận",
        "fullNameEn": "Vinh Thuan Commune",
        "codeName": "vinh_thuan",
        "postalCode": "05339",
        "postalCodePrefix": "",
        "gisServerId": "diaphanhanhchinhcapxa_2025.903",
        "areaKm2": 23.5
      }
    }
  ]
}