{
  "type": "FeatureCollection",
  "bbox": [
    106.438009,
    20.597899,
    106.509518,
    20.670525
  ],
  "features": [
    {
      "type": "Feature",
      "id": "11875",
      "bbox": [
        106.438009,
        20.597899,
        106.509518,
        20.670525
      ],
      "geometry": {
        "type": "MultiPolygon",
        "coordinates": [
          [
            [
              [
                106.443649,
                20.663154
              ],
              [
                106.443429,
                20.663708
              ],
              [
                106.443374,
                20.663847
              ],
              [
                106.44446,
                20.664214
              ],
              [
                106.444928,
                20.664376
              ],
              [
                106.445325,
                20.664513
              ],
              [
                106.446509,
                20.664922
              ],
              [
                106.447871,
                20.665378
              ],
              [
                106.448145,
                20.665461
              ],
              [
                106.448418,
                20.665544
              ],
              [
                106.448818,
                20.665666
              ],
              [
                106.44894,
                20.665723
              ],
              [
                106.449019,
                20.66576
              ],
              [
                106.449326,
                20.665853
              ],
              [
                106.449668,
                20.665961
              ],
              [
                106.450077,
                20.666099
              ],
              [
                106.450178,
                20.666132
              ],
              [
                106.450563,
                20.666262
              ],
              [
                106.450775,
                20.666341
              ],
              [
                106.451887,
                20.666754
              ],
              [
                106.452525,
                20.666999
              ],
              [
                106.453138,
                20.667233
              ],
              [
                106.453354,
                20.667312
              ],
              [
                106.453908,
                20.667515
              ],
              [
                106.454197,
                20.667621
              ],
              [
                106.455054,
                20.667926
              ],
              [
                106.455065,
                20.66793
              ],
              [
                106.455399,
                20.66806
              ],
              [
                106.455631,
                20.668151
              ],
              [
                106.455758,
                20.668236
              ],
              [
                106.455904,
                20.668333
              ],
              [
                106.456392,
                20.668269
              ],
              [
                106.45708,
                20.668228
              ],
              [
                106.4574,
                20.668247
              ],
              [
                106.45768,
                20.668288
              ],
              [
                106.458116,
                20.668378
              ],
              [
                106.458597,
                20.668486
              ],
              [
                106.459424,
                20.668708
              ],
              [
                106.4601,
                20.668905
              ],
              [
                106.460893,
                20.669109
              ],
              [
                106.461371,
                20.669255
              ],
              [
                106.461875,
                20.669404
              ],
              [
                106.462271,
                20.669513
              ],
              [
                106.462544,
                20.669608
              ],
              [
                106.462729,
                20.66967
              ],
              [
                106.463484,
                20.669902
              ],
              [
                106.464478,
                20.670235
              ],
              [
                106.465032,
                20.670422
              ],
              [
                106.465438,
                20.670525
              ],
              [
                106.465532,
                20.670282
              ],
              [
                106.46571,
                20.669825
              ],
              [
                106.465709,
                20.669825
              ],
              [
                106.465464,
                20.66973
              ],
              [
                106.465464,
                20.66973
              ],
              [
                106.465102,
                20.669591
              ],
              [
                106.465298,
                20.668498
              ],
              [
                106.46592,
                20.668673
              ],
              [
                106.466054,
                20.668624
              ],
              [
                106.466244,
                20.66834
              ],
              [
                106.466385,
                20.668082
              ],
              [
                106.466454,
                20.667942
              ],
              [
                106.466574,
                20.667728
              ],
              [
                106.466596,
                20.66768
              ],
              [
                106.466625,
                20.667646
              ],
              [
                106.466689,
                20.66755
              ],
              [
                106.466705,
                20.667538
              ],
              [
                106.466752,
                20.667491
              ],
              [
                106.466769,
                20.667476
              ],
              [
                106.466817,
                20.667431
              ],
              [
                106.46689,
                20.667362
              ],
              [
                106.46689,
                20.667361
              ],
              [
                106.466978,
                20.667279
              ],
              [
                106.467168,
                20.667115
              ],
              [
                106.46771,
                20.666652
              ],
              [
                106.467752,
                20.666616
              ],
              [
                106.467771,
                20.666599
              ],
              [
                106.467879,
                20.666506
              ],
              [
                106.467903,
                20.666482
              ],
              [
                106.468066,
                20.666347
              ],
              [
                106.468168,
                20.666235
              ],
              [
                106.468404,
                20.666015
              ],
              [
                106.468496,
                20.665926
              ],
              [
                106.468614,
                20.665812
              ],
              [
                106.468715,
                20.66572
              ],
              [
                106.468757,
                20.665691
              ],
              [
                106.468826,
                20.665657
              ],
              [
                106.468895,
                20.665628
              ],
              [
                106.469156,
                20.665497
              ],
              [
                106.469323,
                20.665414
              ],
              [
                106.469463,
                20.665346
              ],
              [
                106.469582,
                20.665289
              ],
              [
                106.469716,
                20.665227
              ],
              [
                106.469783,
                20.665193
              ],
              [
                106.469811,
                20.665177
              ],
              [
                106.469829,
                20.665164
              ],
              [
                106.469852,
                20.665152
              ],
              [
                106.46986,
                20.665148
              ],
              [
                106.469795,
                20.665094
              ],
              [
                106.468864,
                20.663364
              ],
              [
                106.467994,
                20.661784
              ],
              [
                106.467973,
                20.661747
              ],
              [
                106.468062,
                20.661696
              ],
              [
                106.469345,
                20.660954
              ],
              [
                106.47006,
                20.660537
              ],
              [
                106.470378,
                20.660355
              ],
              [
                106.470505,
                20.660285
              ],
              [
                106.470728,
                20.660202
              ],
              [
                106.471524,
                20.659974
              ],
              [
                106.47229,
                20.659738
              ],
              [
                106.473477,
                20.659401
              ],
              [
                106.474909,
                20.659006
              ],
              [
                106.476441,
                20.65857
              ],
              [
                106.477468,
                20.658273
              ],
              [
                106.477776,
                20.658188
              ],
              [
                106.478569,
                20.658022
              ],
              [
                106.480068,
                20.657616
              ],
              [
                106.480763,
                20.65742
              ],
              [
                106.48144,
                20.65722
              ],
              [
                106.481563,
                20.657209
              ],
              [
                106.481671,
                20.657304
              ],
              [
                106.482045,
                20.65764
              ],
              [
                106.482577,
                20.658065
              ],
              [
                106.482897,
                20.65834
              ],
              [
                106.48324,
                20.658557
              ],
              [
                106.483523,
                20.658674
              ],
              [
                106.483767,
                20.658741
              ],
              [
                106.484001,
                20.658789
              ],
              [
                106.484255,
                20.658802
              ],
              [
                106.484559,
                20.658751
              ],
              [
                106.484835,
                20.65866
              ],
              [
                106.485104,
                20.65856
              ],
              [
                106.485298,
                20.658491
              ],
              [
                106.485587,
                20.658434
              ],
              [
                106.485977,
                20.658323
              ],
              [
                106.486704,
                20.658061
              ],
              [
                106.487473,
                20.657822
              ],
              [
                106.487696,
                20.657746
              ],
              [
                106.487828,
                20.657731
              ],
              [
                106.487937,
                20.657701
              ],
              [
                106.488015,
                20.657648
              ],
              [
                106.488068,
                20.657578
              ],
              [
                106.488079,
                20.657466
              ],
              [
                106.488025,
                20.657144
              ],
              [
                106.487952,
                20.656816
              ],
              [
                106.488042,
                20.656794
              ],
              [
                106.488041,
                20.656607
              ],
              [
                106.488138,
                20.655665
              ],
              [
                106.488216,
                20.655161
              ],
              [
                106.488276,
                20.655162
              ],
              [
                106.489063,
                20.655185
              ],
              [
                106.489379,
                20.655194
              ],
              [
                106.490468,
                20.655227
              ],
              [
                106.490484,
                20.655154
              ],
              [
                106.490567,
                20.654676
              ],
              [
                106.49062,
                20.654378
              ],
              [
                106.490673,
                20.654074
              ],
              [
                106.490896,
                20.652527
              ],
              [
                106.490937,
                20.652514
              ],
              [
                106.491126,
                20.65245
              ],
              [
                106.491762,
                20.652184
              ],
              [
                106.492345,
                20.651911
              ],
              [
                106.493318,
                20.651477
              ],
              [
                106.494384,
                20.651032
              ],
              [
                106.49525,
                20.650666
              ],
              [
                106.496194,
                20.650284
              ],
              [
                106.49633,
                20.650225
              ],
              [
                106.496678,
                20.650093
              ],
              [
                106.49691,
                20.650566
              ],
              [
                106.497158,
                20.651069
              ],
              [
                106.497812,
                20.652387
              ],
              [
                106.4984,
                20.653366
              ],
              [
                106.498472,
                20.653321
              ],
              [
                106.498547,
                20.653269
              ],
              [
                106.498645,
                20.653203
              ],
              [
                106.498916,
                20.653017
              ],
              [
                106.499315,
                20.652744
              ],
              [
                106.499692,
                20.652486
              ],
              [
                106.500095,
                20.65221
              ],
              [
                106.500388,
                20.65201
              ],
              [
                106.500815,
                20.651717
              ],
              [
                106.501047,
                20.651558
              ],
              [
                106.501213,
                20.651445
              ],
              [
                106.501821,
                20.650914
              ],
              [
                106.501869,
                20.650872
              ],
              [
                106.501869,
                20.650871
              ],
              [
                106.502833,
                20.650041
              ],
              [
                106.50295,
                20.649941
              ],
              [
                106.50346,
                20.649502
              ],
              [
                106.504451,
                20.648631
              ],
              [
                106.505564,
                20.647654
              ],
              [
                106.505882,
                20.647379
              ],
              [
                106.505977,
                20.647297
              ],
              [
                106.506055,
                20.64723
              ],
              [
                106.506968,
                20.646439
              ],
              [
                106.507489,
                20.64599
              ],
              [
                106.507628,
                20.645869
              ],
              [
                106.508107,
                20.645456
              ],
              [
                106.509001,
                20.644681
              ],
              [
                106.509365,
                20.644387
              ],
              [
                106.509518,
                20.644286
              ],
              [
                106.508794,
                20.642969
              ],
              [
                106.507828,
                20.641256
              ],
              [
                106.506682,
                20.639351
              ],
              [
                106.506047,
                20.63831
              ],
              [
                106.504544,
                20.635777
              ],
              [
                106.503979,
                20.634814
              ],
              [
                106.502281,
                20.631975
              ],
              [
                106.502373,
                20.631875
              ],
              [
                106.503028,
                20.631381
              ],
              [
                106.503275,
                20.631253
              ],
              [
                106.504349,
                20.630802
              ],
              [
                106.504357,
                20.630799
              ],
              [
                106.505894,
                20.630183
              ],
              [
                106.506513,
                20.629967
              ],
              [
                106.5067,
                20.629903
              ],
              [
                106.507369,
                20.62967
              ],
              [
                106.507361,
                20.629572
              ],
              [
                106.50732,
                20.629057
              ],
              [
                106.50724,
                20.628485
              ],
              [
                106.507197,
                20.62811
              ],
              [
                106.507184,
                20.628041
              ],
              [
                106.506593,
                20.628147
              ],
              [
                106.506526,
                20.628023
              ],
              [
                106.506254,
                20.62738
              ],
              [
                106.506037,
                20.626889
              ],
              [
                106.50495,
                20.624004
              ],
              [
                106.504457,
                20.622866
              ],
              [
                106.50436,
                20.622642
              ],
              [
                106.504863,
                20.622452
              ],
              [
                106.504854,
                20.622432
              ],
              [
                106.504811,
                20.622336
              ],
              [
                106.50479,
                20.62229
              ],
              [
                106.504784,
                20.622274
              ],
              [
                106.504768,
                20.622237
              ],
              [
                106.504374,
                20.621286
              ],
              [
                106.503509,
                20.619269
              ],
              [
                106.503488,
                20.61922
              ],
              [
                106.503487,
                20.61922
              ],
              [
                106.502664,
                20.617293
              ],
              [
                106.501869,
                20.617596
              ],
              [
                106.501314,
                20.617732
              ],
              [
                106.500909,
                20.616647
              ],
              [
                106.500823,
                20.616141
              ],
              [
                106.50082,
                20.615913
              ],
              [
                106.500808,
                20.615506
              ],
              [
                106.499344,
                20.615643
              ],
              [
                106.496554,
                20.616006
              ],
              [
                106.496305,
                20.616039
              ],
              [
                106.496002,
                20.616078
              ],
              [
                106.49593,
                20.616087
              ],
              [
                106.494933,
                20.616255
              ],
              [
                106.493984,
                20.616574
              ],
              [
                106.493566,
                20.616685
              ],
              [
                106.493211,
                20.616652
              ],
              [
                106.492751,
                20.616334
              ],
              [
                106.492123,
                20.615718
              ],
              [
                106.491682,
                20.614849
              ],
              [
                106.491112,
                20.613611
              ],
              [
                106.490694,
                20.612384
              ],
              [
                106.490327,
                20.61118
              ],
              [
                106.48974,
                20.60956
              ],
              [
                106.489481,
                20.60906
              ],
              [
                106.488794,
                20.607927
              ],
              [
                106.488697,
                20.607777
              ],
              [
                106.488214,
                20.607029
              ],
              [
                106.488076,
                20.606813
              ],
              [
                106.486789,
                20.605008
              ],
              [
                106.485913,
                20.603838
              ],
              [
                106.485822,
                20.603729
              ],
              [
                106.484515,
                20.602171
              ],
              [
                106.483746,
                20.601389
              ],
              [
                106.483284,
                20.600915
              ],
              [
                106.483066,
                20.600678
              ],
              [
                106.482937,
                20.600499
              ],
              [
                106.482757,
                20.600202
              ],
              [
                106.482579,
                20.599846
              ],
              [
                106.482325,
                20.599512
              ],
              [
                106.481903,
                20.599207
              ],
              [
                106.481329,
                20.598868
              ],
              [
                106.480442,
                20.598574
              ],
              [
                106.479512,
                20.598396
              ],
              [
                106.477866,
                20.598281
              ],
              [
                106.476761,
                20.598233
              ],
              [
                106.475434,
                20.598072
              ],
              [
                106.474009,
                20.597926
              ],
              [
                106.473034,
                20.597899
              ],
              [
                106.472372,
                20.597969
              ],
              [
                106.47178,
                20.598153
              ],
              [
                106.471204,
                20.598466
              ],
              [
                106.471015,
                20.598619
              ],
              [
                106.470774,
                20.598893
              ],
              [
                106.470586,
                20.59916
              ],
              [
                106.470421,
                20.599448
              ],
              [
                106.470208,
                20.600232
              ],
              [
                106.470099,
                20.600828
              ],
              [
                106.469998,
                20.602198
              ],
              [
                106.469921,
                20.603698
              ],
              [
                106.469797,
                20.605843
              ],
              [
                106.469697,
                20.606532
              ],
              [
                106.469529,
                20.607215
              ],
              [
                106.469247,
                20.608034
              ],
              [
                106.468682,
                20.609445
              ],
              [
                106.467846,
                20.611223
              ],
              [
                106.467605,
                20.611631
              ],
              [
                106.467241,
                20.612151
              ],
              [
                106.467132,
                20.612306
              ],
              [
                106.466349,
                20.613357
              ],
              [
                106.465917,
                20.613835
              ],
              [
                106.465476,
                20.614283
              ],
              [
                106.46481,
                20.614822
              ],
              [
                106.464553,
                20.615012
              ],
              [
                106.464285,
                20.615211
              ],
              [
                106.464171,
                20.615295
              ],
              [
                106.463216,
                20.615928
              ],
              [
                106.462063,
                20.616585
              ],
              [
                106.461047,
                20.617067
              ],
              [
                106.460273,
                20.617368
              ],
              [
                106.459377,
                20.617691
              ],
              [
                106.458618,
                20.617898
              ],
              [
                106.4563,
                20.618398
              ],
              [
                106.454506,
                20.6188
              ],
              [
                106.453343,
                20.619075
              ],
              [
                106.452644,
                20.619182
              ],
              [
                106.451784,
                20.619275
              ],
              [
                106.45132,
                20.619351
              ],
              [
                106.450963,
                20.619504
              ],
              [
                106.450744,
                20.619649
              ],
              [
                106.450563,
                20.619866
              ],
              [
                106.450353,
                20.620162
              ],
              [
                106.450211,
                20.620464
              ],
              [
                106.450137,
                20.620737
              ],
              [
                106.450125,
                20.621089
              ],
              [
                106.450163,
                20.621849
              ],
              [
                106.450266,
                20.622256
              ],
              [
                106.450509,
                20.622979
              ],
              [
                106.450922,
                20.624015
              ],
              [
                106.451286,
                20.624731
              ],
              [
                106.451993,
                20.625961
              ],
              [
                106.452602,
                20.626977
              ],
              [
                106.453245,
                20.628062
              ],
              [
                106.453247,
                20.628067
              ],
              [
                106.453794,
                20.629095
              ],
              [
                106.454212,
                20.629991
              ],
              [
                106.454312,
                20.630262
              ],
              [
                106.45452,
                20.630827
              ],
              [
                106.454799,
                20.631721
              ],
              [
                106.45497,
                20.632528
              ],
              [
                106.455138,
                20.633713
              ],
              [
                106.45519,
                20.635322
              ],
              [
                106.455217,
                20.636508
              ],
              [
                106.455244,
                20.63679
              ],
              [
                106.455309,
                20.63713
              ],
              [
                106.455354,
                20.637656
              ],
              [
                106.455318,
                20.638105
              ],
              [
                106.45519,
                20.638721
              ],
              [
                106.455156,
                20.63889
              ],
              [
                106.455025,
                20.639231
              ],
              [
                106.454743,
                20.639694
              ],
              [
                106.454404,
                20.640178
              ],
              [
                106.453757,
                20.64098
              ],
              [
                106.453103,
                20.641649
              ],
              [
                106.451926,
                20.642759
              ],
              [
                106.450511,
                20.644086
              ],
              [
                106.449272,
                20.645432
              ],
              [
                106.448008,
                20.646919
              ],
              [
                106.446631,
                20.648524
              ],
              [
                106.44538,
                20.650098
              ],
              [
                106.445038,
                20.650528
              ],
              [
                106.444711,
                20.65096
              ],
              [
                106.444573,
                20.651141
              ],
              [
                106.44422,
                20.651608
              ],
              [
                106.443782,
                20.652147
              ],
              [
                106.44371,
                20.65224
              ],
              [
                106.443195,
                20.652901
              ],
              [
                106.442746,
                20.65359
              ],
              [
                106.441902,
                20.654701
              ],
              [
                106.441389,
                20.655454
              ],
              [
                106.440934,
                20.656123
              ],
              [
                106.440624,
                20.656532
              ],
              [
                106.440321,
                20.656834
              ],
              [
                106.439924,
                20.657245
              ],
              [
                106.438666,
                20.658585
              ],
              [
                106.438505,
                20.658756
              ],
              [
                106.438141,
                20.659034
              ],
              [
                106.438009,
                20.659134
              ],
              [
                106.438428,
                20.659453
              ],
              [
                106.441257,
                20.661643
              ],
              [
                106.441929,
                20.662105
              ],
              [
                106.442624,
                20.662444
              ],
              [
                106.443786,
                20.662807
              ],
              [
                106.443649,
                20.663154
              ],
              [
                106.443649,
                20.663154
              ]
            ]
          ]
        ]
      },
      "properties": {
        "code": "11875",
        "name": "Vĩnh Hải",
        "nameEn": "Vinh Hai",
        "fullName": "Xã Vĩnh Hải",
        "fullNameEn": "Vinh Hai Commune",
        "codeName": "vinh_hai",
        "postalCode": "05319",
        "postalCodePrefix": "",
        "gisServerId": "diaphanhanhchinhcapxa_2025.912",
        "areaKm2": 32.21
      }
    }
  ]
}