{
  "type": "FeatureCollection",
  "bbox": [
    106.524287,
    20.622365,
    106.601589,
    20.681568
  ],
  "features": [
    {
      "type": "Feature",
      "id": "11911",
      "bbox": [
        106.524287,
        20.622365,
        106.601589,
        20.681568
      ],
      "geometry": {
        "type": "MultiPolygon",
        "coordinates": [
          [
            [
              [
                106.581179,
                20.670618
              ],
              [
                106.581828,
                20.669933
              ],
              [
                106.583216,
                20.668558
              ],
              [
                106.583352,
                20.6684
              ],
              [
                106.584451,
                20.667133
              ],
              [
                106.585266,
                20.666193
              ],
              [
                106.586693,
                20.664467
              ],
              [
                106.589406,
                20.66166
              ],
              [
                106.591698,
                20.65933
              ],
              [
                106.594367,
                20.65671
              ],
              [
                106.596883,
                20.653905
              ],
              [
                106.598702,
                20.651636
              ],
              [
                106.599765,
                20.649863
              ],
              [
                106.600268,
                20.648424
              ],
              [
                106.600618,
                20.646929
              ],
              [
                106.600773,
                20.645694
              ],
              [
                106.600784,
                20.64533
              ],
              [
                106.600821,
                20.644105
              ],
              [
                106.60083,
                20.64383
              ],
              [
                106.600924,
                20.641204
              ],
              [
                106.601082,
                20.640314
              ],
              [
                106.601256,
                20.639918
              ],
              [
                106.60138,
                20.639637
              ],
              [
                106.601589,
                20.639398
              ],
              [
                106.601065,
                20.639435
              ],
              [
                106.600832,
                20.639425
              ],
              [
                106.600475,
                20.639408
              ],
              [
                106.600102,
                20.639354
              ],
              [
                106.599505,
                20.639166
              ],
              [
                106.599222,
                20.63907
              ],
              [
                106.597589,
                20.638495
              ],
              [
                106.595332,
                20.637607
              ],
              [
                106.594133,
                20.63708
              ],
              [
                106.593009,
                20.63641
              ],
              [
                106.5916,
                20.635168
              ],
              [
                106.590829,
                20.634303
              ],
              [
                106.590006,
                20.633247
              ],
              [
                106.588883,
                20.631476
              ],
              [
                106.587669,
                20.62948
              ],
              [
                106.586949,
                20.628578
              ],
              [
                106.586448,
                20.628045
              ],
              [
                106.585898,
                20.627608
              ],
              [
                106.585156,
                20.627113
              ],
              [
                106.584161,
                20.626632
              ],
              [
                106.582733,
                20.626
              ],
              [
                106.579612,
                20.624917
              ],
              [
                106.579245,
                20.62478
              ],
              [
                106.578924,
                20.62466
              ],
              [
                106.577497,
                20.624013
              ],
              [
                106.574627,
                20.622602
              ],
              [
                106.574206,
                20.622365
              ],
              [
                106.573939,
                20.622796
              ],
              [
                106.573477,
                20.623665
              ],
              [
                106.573325,
                20.624014
              ],
              [
                106.573174,
                20.624198
              ],
              [
                106.573171,
                20.624203
              ],
              [
                106.573133,
                20.624273
              ],
              [
                106.57274,
                20.624998
              ],
              [
                106.571989,
                20.626368
              ],
              [
                106.5714,
                20.627457
              ],
              [
                106.571368,
                20.627563
              ],
              [
                106.57134,
                20.627636
              ],
              [
                106.571273,
                20.62779
              ],
              [
                106.569925,
                20.630241
              ],
              [
                106.56985,
                20.630387
              ],
              [
                106.569813,
                20.630478
              ],
              [
                106.569573,
                20.630848
              ],
              [
                106.569566,
                20.630883
              ],
              [
                106.569343,
                20.631289
              ],
              [
                106.569141,
                20.631652
              ],
              [
                106.568926,
                20.632054
              ],
              [
                106.56884,
                20.632213
              ],
              [
                106.568259,
                20.633279
              ],
              [
                106.567866,
                20.634284
              ],
              [
                106.567501,
                20.635176
              ],
              [
                106.567018,
                20.636409
              ],
              [
                106.566373,
                20.63806
              ],
              [
                106.566325,
                20.638182
              ],
              [
                106.56546,
                20.640392
              ],
              [
                106.565287,
                20.640836
              ],
              [
                106.565165,
                20.640913
              ],
              [
                106.565088,
                20.640624
              ],
              [
                106.564953,
                20.640137
              ],
              [
                106.564313,
                20.638845
              ],
              [
                106.564065,
                20.639545
              ],
              [
                106.563818,
                20.640279
              ],
              [
                106.563618,
                20.640998
              ],
              [
                106.563513,
                20.641574
              ],
              [
                106.563503,
                20.641629
              ],
              [
                106.563404,
                20.641928
              ],
              [
                106.563141,
                20.642938
              ],
              [
                106.562947,
                20.643661
              ],
              [
                106.562628,
                20.644815
              ],
              [
                106.562624,
                20.644827
              ],
              [
                106.562549,
                20.645054
              ],
              [
                106.562526,
                20.645122
              ],
              [
                106.562418,
                20.645445
              ],
              [
                106.562395,
                20.645513
              ],
              [
                106.56231,
                20.645799
              ],
              [
                106.562079,
                20.646573
              ],
              [
                106.561878,
                20.647446
              ],
              [
                106.561775,
                20.647496
              ],
              [
                106.560708,
                20.647608
              ],
              [
                106.560731,
                20.648
              ],
              [
                106.559517,
                20.648269
              ],
              [
                106.558753,
                20.648146
              ],
              [
                106.558389,
                20.647288
              ],
              [
                106.558363,
                20.647226
              ],
              [
                106.558328,
                20.647143
              ],
              [
                106.556866,
                20.646877
              ],
              [
                106.556433,
                20.646799
              ],
              [
                106.556445,
                20.647305
              ],
              [
                106.556476,
                20.648712
              ],
              [
                106.554852,
                20.648933
              ],
              [
                106.554744,
                20.647764
              ],
              [
                106.554715,
                20.647321
              ],
              [
                106.554672,
                20.646671
              ],
              [
                106.554681,
                20.646392
              ],
              [
                106.554601,
                20.646373
              ],
              [
                106.55233,
                20.646475
              ],
              [
                106.549927,
                20.646598
              ],
              [
                106.549753,
                20.64661
              ],
              [
                106.549178,
                20.646649
              ],
              [
                106.548231,
                20.646732
              ],
              [
                106.548125,
                20.646742
              ],
              [
                106.548007,
                20.646753
              ],
              [
                106.547585,
                20.646909
              ],
              [
                106.547193,
                20.647066
              ],
              [
                106.546774,
                20.647198
              ],
              [
                106.546666,
                20.647181
              ],
              [
                106.545907,
                20.647152
              ],
              [
                106.545869,
                20.647161
              ],
              [
                106.545866,
                20.646953
              ],
              [
                106.54519,
                20.646991
              ],
              [
                106.545279,
                20.647406
              ],
              [
                106.545362,
                20.647792
              ],
              [
                106.545398,
                20.647995
              ],
              [
                106.545547,
                20.64885
              ],
              [
                106.545582,
                20.649049
              ],
              [
                106.545744,
                20.649885
              ],
              [
                106.545894,
                20.650658
              ],
              [
                106.546135,
                20.651886
              ],
              [
                106.54635,
                20.65302
              ],
              [
                106.546542,
                20.654015
              ],
              [
                106.546458,
                20.654033
              ],
              [
                106.546191,
                20.654096
              ],
              [
                106.543775,
                20.654659
              ],
              [
                106.542338,
                20.655021
              ],
              [
                106.542235,
                20.655047
              ],
              [
                106.538803,
                20.655822
              ],
              [
                106.538351,
                20.652612
              ],
              [
                106.538073,
                20.650513
              ],
              [
                106.538032,
                20.650203
              ],
              [
                106.538013,
                20.650059
              ],
              [
                106.537832,
                20.648751
              ],
              [
                106.537804,
                20.648484
              ],
              [
                106.537803,
                20.648328
              ],
              [
                106.537704,
                20.647617
              ],
              [
                106.537507,
                20.646101
              ],
              [
                106.537664,
                20.646058
              ],
              [
                106.537668,
                20.646057
              ],
              [
                106.53801,
                20.645971
              ],
              [
                106.538086,
                20.646341
              ],
              [
                106.538507,
                20.646165
              ],
              [
                106.538636,
                20.646039
              ],
              [
                106.538897,
                20.645786
              ],
              [
                106.53947,
                20.645044
              ],
              [
                106.53943,
                20.644858
              ],
              [
                106.539406,
                20.644715
              ],
              [
                106.539269,
                20.64468
              ],
              [
                106.5391,
                20.644735
              ],
              [
                106.539064,
                20.644747
              ],
              [
                106.538987,
                20.64474
              ],
              [
                106.538795,
                20.644563
              ],
              [
                106.538626,
                20.644414
              ],
              [
                106.538612,
                20.644389
              ],
              [
                106.538572,
                20.644321
              ],
              [
                106.538526,
                20.643932
              ],
              [
                106.538514,
                20.64383
              ],
              [
                106.538497,
                20.643691
              ],
              [
                106.538737,
                20.643685
              ],
              [
                106.538969,
                20.643679
              ],
              [
                106.538917,
                20.643085
              ],
              [
                106.538587,
                20.643115
              ],
              [
                106.538309,
                20.64314
              ],
              [
                106.538198,
                20.642694
              ],
              [
                106.537936,
                20.641638
              ],
              [
                106.537898,
                20.641484
              ],
              [
                106.537618,
                20.641503
              ],
              [
                106.536455,
                20.641582
              ],
              [
                106.536405,
                20.640693
              ],
              [
                106.53506,
                20.640762
              ],
              [
                106.53507,
                20.640873
              ],
              [
                106.535145,
                20.641647
              ],
              [
                106.534446,
                20.642279
              ],
              [
                106.53429,
                20.642297
              ],
              [
                106.533923,
                20.64234
              ],
              [
                106.533798,
                20.641443
              ],
              [
                106.533754,
                20.641131
              ],
              [
                106.532785,
                20.641403
              ],
              [
                106.532441,
                20.639211
              ],
              [
                106.532102,
                20.639244
              ],
              [
                106.5321,
                20.639244
              ],
              [
                106.53179,
                20.639284
              ],
              [
                106.531733,
                20.639291
              ],
              [
                106.531559,
                20.639313
              ],
              [
                106.531438,
                20.638495
              ],
              [
                106.531083,
                20.638498
              ],
              [
                106.531081,
                20.638498
              ],
              [
                106.531141,
                20.638736
              ],
              [
                106.531195,
                20.638964
              ],
              [
                106.531333,
                20.639538
              ],
              [
                106.531396,
                20.6398
              ],
              [
                106.531599,
                20.64064
              ],
              [
                106.530608,
                20.640845
              ],
              [
                106.529385,
                20.641098
              ],
              [
                106.529403,
                20.641164
              ],
              [
                106.529827,
                20.64259
              ],
              [
                106.529829,
                20.642596
              ],
              [
                106.529845,
                20.642656
              ],
              [
                106.53014,
                20.643755
              ],
              [
                106.53022,
                20.644054
              ],
              [
                106.53032,
                20.644442
              ],
              [
                106.529871,
                20.644477
              ],
              [
                106.528918,
                20.644552
              ],
              [
                106.527891,
                20.644657
              ],
              [
                106.527173,
                20.644704
              ],
              [
                106.527219,
                20.645834
              ],
              [
                106.527208,
                20.646312
              ],
              [
                106.52723,
                20.646788
              ],
              [
                106.52789,
                20.646794
              ],
              [
                106.527917,
                20.64756
              ],
              [
                106.528099,
                20.652819
              ],
              [
                106.527778,
                20.652831
              ],
              [
                106.527066,
                20.652856
              ],
              [
                106.527068,
                20.653045
              ],
              [
                106.527033,
                20.653046
              ],
              [
                106.527042,
                20.653227
              ],
              [
                106.527046,
                20.653412
              ],
              [
                106.526032,
                20.65346
              ],
              [
                106.52604,
                20.653879
              ],
              [
                106.525564,
                20.653929
              ],
              [
                106.524564,
                20.654034
              ],
              [
                106.524564,
                20.654217
              ],
              [
                106.524563,
                20.65574
              ],
              [
                106.524562,
                20.656623
              ],
              [
                106.524562,
                20.657375
              ],
              [
                106.524559,
                20.660463
              ],
              [
                106.524449,
                20.662059
              ],
              [
                106.524544,
                20.663157
              ],
              [
                106.524469,
                20.663181
              ],
              [
                106.524287,
                20.663289
              ],
              [
                106.524385,
                20.664462
              ],
              [
                106.525022,
                20.664298
              ],
              [
                106.526079,
                20.664153
              ],
              [
                106.526986,
                20.664137
              ],
              [
                106.528419,
                20.664254
              ],
              [
                106.530151,
                20.664504
              ],
              [
                106.531006,
                20.664683
              ],
              [
                106.532732,
                20.665105
              ],
              [
                106.534169,
                20.665536
              ],
              [
                106.535644,
                20.666032
              ],
              [
                106.537005,
                20.666551
              ],
              [
                106.539034,
                20.667544
              ],
              [
                106.540782,
                20.668561
              ],
              [
                106.541854,
                20.669139
              ],
              [
                106.54315,
                20.669988
              ],
              [
                106.544493,
                20.670951
              ],
              [
                106.545515,
                20.671767
              ],
              [
                106.547028,
                20.67313
              ],
              [
                106.549254,
                20.671395
              ],
              [
                106.549711,
                20.670841
              ],
              [
                106.549854,
                20.66978
              ],
              [
                106.549792,
                20.666907
              ],
              [
                106.548926,
                20.661644
              ],
              [
                106.548028,
                20.661232
              ],
              [
                106.55021,
                20.660483
              ],
              [
                106.551045,
                20.663309
              ],
              [
                106.551837,
                20.667743
              ],
              [
                106.55195,
                20.67244
              ],
              [
                106.552029,
                20.674889
              ],
              [
                106.551483,
                20.67485
              ],
              [
                106.551285,
                20.675563
              ],
              [
                106.550817,
                20.675972
              ],
              [
                106.550394,
                20.676592
              ],
              [
                106.551162,
                20.67747
              ],
              [
                106.551347,
                20.677697
              ],
              [
                106.552752,
                20.67943
              ],
              [
                106.553614,
                20.680311
              ],
              [
                106.554638,
                20.681105
              ],
              [
                106.55525,
                20.681348
              ],
              [
                106.556421,
                20.681538
              ],
              [
                106.557689,
                20.681568
              ],
              [
                106.558999,
                20.681541
              ],
              [
                106.560308,
                20.681372
              ],
              [
                106.562011,
                20.681041
              ],
              [
                106.563652,
                20.680538
              ],
              [
                106.565581,
                20.679919
              ],
              [
                106.5676,
                20.679183
              ],
              [
                106.569376,
                20.678536
              ],
              [
                106.571683,
                20.677612
              ],
              [
                106.573366,
                20.676822
              ],
              [
                106.574714,
                20.676064
              ],
              [
                106.576531,
                20.674857
              ],
              [
                106.578042,
                20.673653
              ],
              [
                106.580637,
                20.671191
              ],
              [
                106.581179,
                20.670618
              ],
              [
                106.581179,
                20.670618
              ]
            ]
          ]
        ]
      },
      "properties": {
        "code": "11911",
        "name": "Nguyễn Bỉnh Khiêm",
        "nameEn": "Nguyen Binh Khiem",
        "fullName": "Xã Nguyễn Bỉnh Khiêm",
        "fullNameEn": "Nguyen Binh Khiem Commune",
        "codeName": "nguyen_binh_khiem",
        "postalCode": "05336",
        "postalCodePrefix": "",
        "gisServerId": "diaphanhanhchinhcapxa_2025.911",
        "areaKm2": 26.37
      }
    }
  ]
}