{
  "type": "FeatureCollection",
  "bbox": [
    107.716925,
    20.123082,
    107.743095,
    20.146045
  ],
  "features": [
    {
      "type": "Feature",
      "id": "11948",
      "bbox": [
        107.716925,
        20.123082,
        107.743095,
        20.146045
      ],
      "geometry": {
        "type": "MultiPolygon",
        "coordinates": [
          [
            [
              [
                107.742818,
                20.144798
              ],
              [
                107.743095,
                20.144036
              ],
              [
                107.742956,
                20.14362
              ],
              [
                107.742749,
                20.142823
              ],
              [
                107.742472,
                20.142096
              ],
              [
                107.74216,
                20.14175
              ],
              [
                107.741779,
                20.141126
              ],
              [
                107.741502,
                20.139776
              ],
              [
                107.74119,
                20.139118
              ],
              [
                107.740463,
                20.13839
              ],
              [
                107.739597,
                20.137559
              ],
              [
                107.73932,
                20.136589
              ],
              [
                107.7388,
                20.135516
              ],
              [
                107.738419,
                20.134615
              ],
              [
                107.738419,
                20.134234
              ],
              [
                107.738073,
                20.134096
              ],
              [
                107.737692,
                20.133784
              ],
              [
                107.737346,
                20.133368
              ],
              [
                107.73738,
                20.132779
              ],
              [
                107.737692,
                20.132641
              ],
              [
                107.738108,
                20.132294
              ],
              [
                107.737969,
                20.131706
              ],
              [
                107.737796,
                20.131325
              ],
              [
                107.737553,
                20.130978
              ],
              [
                107.737553,
                20.130286
              ],
              [
                107.737346,
                20.129108
              ],
              [
                107.736895,
                20.128415
              ],
              [
                107.736618,
                20.127653
              ],
              [
                107.73596,
                20.126199
              ],
              [
                107.735129,
                20.125229
              ],
              [
                107.734506,
                20.124675
              ],
              [
                107.734194,
                20.123982
              ],
              [
                107.733847,
                20.123601
              ],
              [
                107.732774,
                20.123359
              ],
              [
                107.731735,
                20.123082
              ],
              [
                107.731181,
                20.12322
              ],
              [
                107.730453,
                20.123844
              ],
              [
                107.73028,
                20.124225
              ],
              [
                107.73028,
                20.124675
              ],
              [
                107.730245,
                20.125125
              ],
              [
                107.729761,
                20.125264
              ],
              [
                107.729691,
                20.12561
              ],
              [
                107.729726,
                20.125922
              ],
              [
                107.729553,
                20.126199
              ],
              [
                107.729761,
                20.126614
              ],
              [
                107.730038,
                20.126995
              ],
              [
                107.730038,
                20.127272
              ],
              [
                107.729553,
                20.127653
              ],
              [
                107.729068,
                20.127584
              ],
              [
                107.728548,
                20.127134
              ],
              [
                107.727925,
                20.126614
              ],
              [
                107.727405,
                20.126441
              ],
              [
                107.727267,
                20.12658
              ],
              [
                107.72744,
                20.126926
              ],
              [
                107.727786,
                20.127376
              ],
              [
                107.727682,
                20.127619
              ],
              [
                107.727301,
                20.127757
              ],
              [
                107.726817,
                20.127376
              ],
              [
                107.726505,
                20.126718
              ],
              [
                107.726332,
                20.126164
              ],
              [
                107.726124,
                20.125714
              ],
              [
                107.725743,
                20.125575
              ],
              [
                107.725397,
                20.125679
              ],
              [
                107.725258,
                20.125333
              ],
              [
                107.725085,
                20.124987
              ],
              [
                107.724912,
                20.124675
              ],
              [
                107.724738,
                20.124432
              ],
              [
                107.724461,
                20.124259
              ],
              [
                107.723979,
                20.124259
              ],
              [
                107.723605,
                20.124881
              ],
              [
                107.723361,
                20.125759
              ],
              [
                107.723361,
                20.1261
              ],
              [
                107.723751,
                20.126588
              ],
              [
                107.723897,
                20.127027
              ],
              [
                107.723751,
                20.127222
              ],
              [
                107.723312,
                20.127319
              ],
              [
                107.72302,
                20.127173
              ],
              [
                107.722727,
                20.127465
              ],
              [
                107.72224,
                20.127612
              ],
              [
                107.721508,
                20.127465
              ],
              [
                107.721167,
                20.127075
              ],
              [
                107.721118,
                20.126539
              ],
              [
                107.720923,
                20.126295
              ],
              [
                107.720338,
                20.12649
              ],
              [
                107.71946,
                20.126393
              ],
              [
                107.719022,
                20.126636
              ],
              [
                107.718485,
                20.126783
              ],
              [
                107.718485,
                20.127222
              ],
              [
                107.717754,
                20.127465
              ],
              [
                107.716925,
                20.127612
              ],
              [
                107.716974,
                20.128002
              ],
              [
                107.717607,
                20.128441
              ],
              [
                107.718388,
                20.128831
              ],
              [
                107.718583,
                20.129269
              ],
              [
                107.718826,
                20.129708
              ],
              [
                107.719314,
                20.130147
              ],
              [
                107.719899,
                20.130293
              ],
              [
                107.720289,
                20.130781
              ],
              [
                107.720513,
                20.131255
              ],
              [
                107.720478,
                20.13181
              ],
              [
                107.720513,
                20.132121
              ],
              [
                107.72079,
                20.132191
              ],
              [
                107.721102,
                20.132225
              ],
              [
                107.721379,
                20.132364
              ],
              [
                107.721587,
                20.13271
              ],
              [
                107.722002,
                20.13323
              ],
              [
                107.722279,
                20.133334
              ],
              [
                107.722487,
                20.133541
              ],
              [
                107.722903,
                20.133957
              ],
              [
                107.723284,
                20.13413
              ],
              [
                107.72363,
                20.133992
              ],
              [
                107.724115,
                20.133957
              ],
              [
                107.724392,
                20.134061
              ],
              [
                107.724773,
                20.134442
              ],
              [
                107.725016,
                20.134511
              ],
              [
                107.725535,
                20.134511
              ],
              [
                107.726124,
                20.134546
              ],
              [
                107.72647,
                20.134788
              ],
              [
                107.726955,
                20.135342
              ],
              [
                107.727059,
                20.135758
              ],
              [
                107.727371,
                20.136104
              ],
              [
                107.727648,
                20.136174
              ],
              [
                107.72789,
                20.136485
              ],
              [
                107.728167,
                20.13652
              ],
              [
                107.728548,
                20.136693
              ],
              [
                107.730245,
                20.137801
              ],
              [
                107.730696,
                20.138113
              ],
              [
                107.731423,
                20.138148
              ],
              [
                107.731735,
                20.138286
              ],
              [
                107.731977,
                20.138563
              ],
              [
                107.732116,
                20.138875
              ],
              [
                107.732427,
                20.139048
              ],
              [
                107.732393,
                20.139429
              ],
              [
                107.732427,
                20.139706
              ],
              [
                107.732566,
                20.13981
              ],
              [
                107.732947,
                20.139776
              ],
              [
                107.733224,
                20.13988
              ],
              [
                107.733363,
                20.14033
              ],
              [
                107.733709,
                20.140884
              ],
              [
                107.734021,
                20.141126
              ],
              [
                107.734125,
                20.141369
              ],
              [
                107.734575,
                20.141681
              ],
              [
                107.734748,
                20.142062
              ],
              [
                107.734852,
                20.142304
              ],
              [
                107.735787,
                20.142997
              ],
              [
                107.736376,
                20.143135
              ],
              [
                107.736688,
                20.143308
              ],
              [
                107.736965,
                20.143828
              ],
              [
                107.73738,
                20.144278
              ],
              [
                107.737727,
                20.144278
              ],
              [
                107.738177,
                20.144209
              ],
              [
                107.738489,
                20.144244
              ],
              [
                107.738627,
                20.144417
              ],
              [
                107.73887,
                20.144763
              ],
              [
                107.739354,
                20.144971
              ],
              [
                107.739805,
                20.145179
              ],
              [
                107.739978,
                20.145456
              ],
              [
                107.740844,
                20.145906
              ],
              [
                107.741848,
                20.146045
              ],
              [
                107.742402,
                20.146045
              ],
              [
                107.742714,
                20.145698
              ],
              [
                107.742679,
                20.145283
              ],
              [
                107.742818,
                20.144798
              ],
              [
                107.742818,
                20.144798
              ]
            ]
          ]
        ]
      },
      "properties": {
        "code": "11948",
        "name": "Bạch Long Vĩ",
        "nameEn": "Bach Long Vi",
        "fullName": "Đặc khu Bạch Long Vĩ",
        "fullNameEn": "Bach Long Vi Special administrative region",
        "codeName": "bach_long_vi",
        "postalCode": "05506",
        "postalCodePrefix": "",
        "gisServerId": "diaphanhanhchinhcapxa_2025.3294",
        "areaKm2": 3.07
      }
    }
  ]
}