{
  "type": "FeatureCollection",
  "bbox": [
    105.80138,
    21.016598,
    105.830007,
    21.036937
  ],
  "features": [
    {
      "type": "Feature",
      "id": "00025",
      "bbox": [
        105.80138,
        21.016598,
        105.830007,
        21.036937
      ],
      "geometry": {
        "type": "MultiPolygon",
        "coordinates": [
          [
            [
              [
                105.809947,
                21.03507
              ],
              [
                105.810304,
                21.03481
              ],
              [
                105.81034,
                21.034893
              ],
              [
                105.810976,
                21.03471
              ],
              [
                105.811289,
                21.034622
              ],
              [
                105.811676,
                21.034517
              ],
              [
                105.811812,
                21.034488
              ],
              [
                105.812572,
                21.034287
              ],
              [
                105.813915,
                21.033928
              ],
              [
                105.814031,
                21.033893
              ],
              [
                105.813703,
                21.032864
              ],
              [
                105.813333,
                21.031666
              ],
              [
                105.81323,
                21.031341
              ],
              [
                105.81338,
                21.031303
              ],
              [
                105.814692,
                21.030949
              ],
              [
                105.815367,
                21.03081
              ],
              [
                105.815897,
                21.030678
              ],
              [
                105.816436,
                21.030636
              ],
              [
                105.817267,
                21.030623
              ],
              [
                105.817314,
                21.030629
              ],
              [
                105.817397,
                21.030641
              ],
              [
                105.817496,
                21.030654
              ],
              [
                105.817613,
                21.03067
              ],
              [
                105.817712,
                21.030684
              ],
              [
                105.817803,
                21.030696
              ],
              [
                105.817885,
                21.030708
              ],
              [
                105.817967,
                21.03072
              ],
              [
                105.818037,
                21.030731
              ],
              [
                105.818106,
                21.030741
              ],
              [
                105.818134,
                21.030745
              ],
              [
                105.818307,
                21.030773
              ],
              [
                105.818326,
                21.030774
              ],
              [
                105.818415,
                21.03078
              ],
              [
                105.818513,
                21.030792
              ],
              [
                105.8186,
                21.030805
              ],
              [
                105.818685,
                21.030818
              ],
              [
                105.81877,
                21.030831
              ],
              [
                105.818836,
                21.03084
              ],
              [
                105.818906,
                21.03085
              ],
              [
                105.818999,
                21.030863
              ],
              [
                105.819092,
                21.030876
              ],
              [
                105.819185,
                21.030889
              ],
              [
                105.819278,
                21.030902
              ],
              [
                105.819371,
                21.030915
              ],
              [
                105.819465,
                21.030929
              ],
              [
                105.819558,
                21.030942
              ],
              [
                105.819665,
                21.030956
              ],
              [
                105.819767,
                21.030971
              ],
              [
                105.819845,
                21.030982
              ],
              [
                105.819916,
                21.030993
              ],
              [
                105.820008,
                21.031006
              ],
              [
                105.820098,
                21.031018
              ],
              [
                105.820165,
                21.031027
              ],
              [
                105.820239,
                21.031037
              ],
              [
                105.820336,
                21.031051
              ],
              [
                105.820433,
                21.031064
              ],
              [
                105.820557,
                21.031082
              ],
              [
                105.820688,
                21.0311
              ],
              [
                105.82078,
                21.031113
              ],
              [
                105.820871,
                21.031125
              ],
              [
                105.820939,
                21.031134
              ],
              [
                105.82101,
                21.031144
              ],
              [
                105.821103,
                21.031157
              ],
              [
                105.821195,
                21.031171
              ],
              [
                105.821264,
                21.031182
              ],
              [
                105.821324,
                21.031192
              ],
              [
                105.821389,
                21.031203
              ],
              [
                105.821403,
                21.031205
              ],
              [
                105.821616,
                21.031234
              ],
              [
                105.821674,
                21.031241
              ],
              [
                105.821823,
                21.031279
              ],
              [
                105.822393,
                21.031363
              ],
              [
                105.82298,
                21.031456
              ],
              [
                105.823464,
                21.03153
              ],
              [
                105.824277,
                21.031636
              ],
              [
                105.824931,
                21.031721
              ],
              [
                105.82553,
                21.031819
              ],
              [
                105.826224,
                21.031951
              ],
              [
                105.826828,
                21.032078
              ],
              [
                105.826979,
                21.032108
              ],
              [
                105.827674,
                21.032246
              ],
              [
                105.828283,
                21.032365
              ],
              [
                105.828856,
                21.032459
              ],
              [
                105.829061,
                21.032427
              ],
              [
                105.830007,
                21.032162
              ],
              [
                105.829973,
                21.03206
              ],
              [
                105.829809,
                21.031567
              ],
              [
                105.829732,
                21.031379
              ],
              [
                105.829347,
                21.031062
              ],
              [
                105.829018,
                21.030801
              ],
              [
                105.828947,
                21.03075
              ],
              [
                105.827929,
                21.030009
              ],
              [
                105.827378,
                21.029569
              ],
              [
                105.827179,
                21.029508
              ],
              [
                105.827126,
                21.029469
              ],
              [
                105.826729,
                21.029179
              ],
              [
                105.826348,
                21.028902
              ],
              [
                105.82603,
                21.02868
              ],
              [
                105.825907,
                21.028602
              ],
              [
                105.825516,
                21.028311
              ],
              [
                105.825153,
                21.028042
              ],
              [
                105.824924,
                21.027857
              ],
              [
                105.824806,
                21.027754
              ],
              [
                105.824414,
                21.027412
              ],
              [
                105.824104,
                21.027159
              ],
              [
                105.823895,
                21.026981
              ],
              [
                105.82368,
                21.026802
              ],
              [
                105.823151,
                21.026357
              ],
              [
                105.822864,
                21.026115
              ],
              [
                105.82284,
                21.026094
              ],
              [
                105.822528,
                21.025829
              ],
              [
                105.822217,
                21.025564
              ],
              [
                105.821912,
                21.0253
              ],
              [
                105.821608,
                21.02504
              ],
              [
                105.821306,
                21.024781
              ],
              [
                105.821044,
                21.024566
              ],
              [
                105.82066,
                21.024238
              ],
              [
                105.820607,
                21.024192
              ],
              [
                105.820588,
                21.024177
              ],
              [
                105.820541,
                21.024139
              ],
              [
                105.82047,
                21.024078
              ],
              [
                105.820409,
                21.024026
              ],
              [
                105.820354,
                21.023977
              ],
              [
                105.820279,
                21.023906
              ],
              [
                105.820194,
                21.023825
              ],
              [
                105.820122,
                21.023763
              ],
              [
                105.820048,
                21.023694
              ],
              [
                105.819984,
                21.023634
              ],
              [
                105.819932,
                21.023584
              ],
              [
                105.819907,
                21.02356
              ],
              [
                105.819897,
                21.023539
              ],
              [
                105.819836,
                21.023428
              ],
              [
                105.819044,
                21.022313
              ],
              [
                105.819031,
                21.022295
              ],
              [
                105.818997,
                21.02225
              ],
              [
                105.818957,
                21.022194
              ],
              [
                105.818904,
                21.022119
              ],
              [
                105.818855,
                21.022051
              ],
              [
                105.818807,
                21.021983
              ],
              [
                105.818746,
                21.021897
              ],
              [
                105.818698,
                21.02183
              ],
              [
                105.818656,
                21.021773
              ],
              [
                105.818614,
                21.021715
              ],
              [
                105.818573,
                21.021657
              ],
              [
                105.818525,
                21.02159
              ],
              [
                105.81848,
                21.021529
              ],
              [
                105.818461,
                21.021503
              ],
              [
                105.818355,
                21.021349
              ],
              [
                105.81832,
                21.0213
              ],
              [
                105.818274,
                21.021234
              ],
              [
                105.818217,
                21.021155
              ],
              [
                105.818163,
                21.02108
              ],
              [
                105.818101,
                21.020993
              ],
              [
                105.818038,
                21.020906
              ],
              [
                105.817988,
                21.020836
              ],
              [
                105.817952,
                21.020784
              ],
              [
                105.817914,
                21.020732
              ],
              [
                105.817849,
                21.020641
              ],
              [
                105.817787,
                21.020555
              ],
              [
                105.81774,
                21.020491
              ],
              [
                105.817693,
                21.020427
              ],
              [
                105.817646,
                21.020362
              ],
              [
                105.817599,
                21.020298
              ],
              [
                105.817542,
                21.02022
              ],
              [
                105.817465,
                21.020115
              ],
              [
                105.817375,
                21.019993
              ],
              [
                105.817305,
                21.019897
              ],
              [
                105.817257,
                21.019832
              ],
              [
                105.817209,
                21.019766
              ],
              [
                105.817161,
                21.019701
              ],
              [
                105.817108,
                21.019628
              ],
              [
                105.817051,
                21.019549
              ],
              [
                105.817001,
                21.019482
              ],
              [
                105.816946,
                21.019406
              ],
              [
                105.81689,
                21.01933
              ],
              [
                105.816832,
                21.019251
              ],
              [
                105.816785,
                21.019187
              ],
              [
                105.816738,
                21.019123
              ],
              [
                105.816691,
                21.019059
              ],
              [
                105.816635,
                21.018982
              ],
              [
                105.816618,
                21.018959
              ],
              [
                105.81648,
                21.018779
              ],
              [
                105.81642,
                21.0187
              ],
              [
                105.816354,
                21.018612
              ],
              [
                105.81628,
                21.018513
              ],
              [
                105.816229,
                21.018445
              ],
              [
                105.816184,
                21.018386
              ],
              [
                105.816139,
                21.018326
              ],
              [
                105.81609,
                21.01826
              ],
              [
                105.816047,
                21.018203
              ],
              [
                105.815998,
                21.018138
              ],
              [
                105.815944,
                21.018064
              ],
              [
                105.815891,
                21.017993
              ],
              [
                105.815843,
                21.017925
              ],
              [
                105.815799,
                21.017865
              ],
              [
                105.815756,
                21.017807
              ],
              [
                105.815706,
                21.017742
              ],
              [
                105.815653,
                21.017675
              ],
              [
                105.815609,
                21.017622
              ],
              [
                105.815585,
                21.017589
              ],
              [
                105.815057,
                21.016785
              ],
              [
                105.814991,
                21.016691
              ],
              [
                105.814926,
                21.016598
              ],
              [
                105.814849,
                21.016638
              ],
              [
                105.814418,
                21.016855
              ],
              [
                105.813592,
                21.017256
              ],
              [
                105.8131,
                21.017498
              ],
              [
                105.812789,
                21.017646
              ],
              [
                105.812633,
                21.017721
              ],
              [
                105.811797,
                21.018134
              ],
              [
                105.811302,
                21.018379
              ],
              [
                105.810716,
                21.018665
              ],
              [
                105.810602,
                21.01872
              ],
              [
                105.809963,
                21.019028
              ],
              [
                105.809382,
                21.019305
              ],
              [
                105.808904,
                21.019535
              ],
              [
                105.808843,
                21.019565
              ],
              [
                105.808341,
                21.019806
              ],
              [
                105.808232,
                21.019859
              ],
              [
                105.81115,
                21.024871
              ],
              [
                105.811252,
                21.025045
              ],
              [
                105.811184,
                21.025174
              ],
              [
                105.810276,
                21.026213
              ],
              [
                105.809706,
                21.026946
              ],
              [
                105.809534,
                21.027184
              ],
              [
                105.809303,
                21.027432
              ],
              [
                105.809023,
                21.02762
              ],
              [
                105.808744,
                21.027736
              ],
              [
                105.808193,
                21.027914
              ],
              [
                105.80809,
                21.02794
              ],
              [
                105.80665,
                21.028276
              ],
              [
                105.806205,
                21.028378
              ],
              [
                105.806154,
                21.02839
              ],
              [
                105.806094,
                21.028405
              ],
              [
                105.805896,
                21.02845
              ],
              [
                105.805827,
                21.028465
              ],
              [
                105.805474,
                21.028591
              ],
              [
                105.805375,
                21.028624
              ],
              [
                105.80528,
                21.028653
              ],
              [
                105.804779,
                21.028799
              ],
              [
                105.804389,
                21.028942
              ],
              [
                105.803823,
                21.029201
              ],
              [
                105.803649,
                21.029286
              ],
              [
                105.803216,
                21.029497
              ],
              [
                105.802667,
                21.029754
              ],
              [
                105.80202,
                21.03
              ],
              [
                105.801882,
                21.030062
              ],
              [
                105.801838,
                21.030081
              ],
              [
                105.801748,
                21.030122
              ],
              [
                105.801715,
                21.030136
              ],
              [
                105.801621,
                21.030178
              ],
              [
                105.801621,
                21.030178
              ],
              [
                105.801532,
                21.030237
              ],
              [
                105.801522,
                21.030243
              ],
              [
                105.80138,
                21.030334
              ],
              [
                105.801752,
                21.030728
              ],
              [
                105.803441,
                21.03267
              ],
              [
                105.803593,
                21.032869
              ],
              [
                105.804464,
                21.034257
              ],
              [
                105.804564,
                21.034393
              ],
              [
                105.804724,
                21.034613
              ],
              [
                105.804766,
                21.034669
              ],
              [
                105.804783,
                21.034693
              ],
              [
                105.804819,
                21.034741
              ],
              [
                105.804825,
                21.034748
              ],
              [
                105.804873,
                21.034813
              ],
              [
                105.805343,
                21.035453
              ],
              [
                105.805763,
                21.036024
              ],
              [
                105.805827,
                21.036111
              ],
              [
                105.805879,
                21.036181
              ],
              [
                105.806099,
                21.036541
              ],
              [
                105.806113,
                21.036575
              ],
              [
                105.806215,
                21.036813
              ],
              [
                105.806268,
                21.036937
              ],
              [
                105.806924,
                21.036798
              ],
              [
                105.807081,
                21.036733
              ],
              [
                105.807591,
                21.036377
              ],
              [
                105.807773,
                21.036304
              ],
              [
                105.808091,
                21.036278
              ],
              [
                105.80831,
                21.036256
              ],
              [
                105.808386,
                21.036204
              ],
              [
                105.808499,
                21.036073
              ],
              [
                105.808653,
                21.035649
              ],
              [
                105.808745,
                21.035548
              ],
              [
                105.808898,
                21.035455
              ],
              [
                105.809051,
                21.035391
              ],
              [
                105.809486,
                21.035283
              ],
              [
                105.809774,
                21.035194
              ],
              [
                105.809842,
                21.035146
              ],
              [
                105.809947,
                21.03507
              ],
              [
                105.809947,
                21.03507
              ]
            ]
          ]
        ]
      },
      "properties": {
        "code": "00025",
        "name": "Giảng Võ",
        "nameEn": "Giang Vo",
        "fullName": "Phường Giảng Võ",
        "fullNameEn": "Giang Vo Ward",
        "codeName": "giang_vo",
        "postalCode": "11110",
        "postalCodePrefix": "",
        "gisServerId": "diaphanhanhchinhcapxa_2025.3258",
        "areaKm2": 2.6
      }
    }
  ]
}