{
  "type": "FeatureCollection",
  "bbox": [
    105.842494,
    21.024377,
    105.860129,
    21.040889
  ],
  "features": [
    {
      "type": "Feature",
      "id": "00070",
      "bbox": [
        105.842494,
        21.024377,
        105.860129,
        21.040889
      ],
      "geometry": {
        "type": "MultiPolygon",
        "coordinates": [
          [
            [
              [
                105.860129,
                21.025056
              ],
              [
                105.85995,
                21.025057
              ],
              [
                105.859445,
                21.024979
              ],
              [
                105.859431,
                21.024977
              ],
              [
                105.859273,
                21.024953
              ],
              [
                105.859256,
                21.024946
              ],
              [
                105.8591,
                21.024887
              ],
              [
                105.859036,
                21.024863
              ],
              [
                105.858993,
                21.024847
              ],
              [
                105.858918,
                21.024834
              ],
              [
                105.858798,
                21.024813
              ],
              [
                105.858735,
                21.024802
              ],
              [
                105.858731,
                21.024801
              ],
              [
                105.858688,
                21.024794
              ],
              [
                105.858675,
                21.024791
              ],
              [
                105.858606,
                21.024779
              ],
              [
                105.858553,
                21.02477
              ],
              [
                105.858474,
                21.024756
              ],
              [
                105.858437,
                21.02475
              ],
              [
                105.858411,
                21.024745
              ],
              [
                105.858335,
                21.024732
              ],
              [
                105.858313,
                21.024728
              ],
              [
                105.858314,
                21.024724
              ],
              [
                105.857526,
                21.024576
              ],
              [
                105.857233,
                21.024426
              ],
              [
                105.857148,
                21.024377
              ],
              [
                105.857059,
                21.024378
              ],
              [
                105.856977,
                21.0244
              ],
              [
                105.855878,
                21.024711
              ],
              [
                105.855146,
                21.024915
              ],
              [
                105.854391,
                21.025127
              ],
              [
                105.85365,
                21.025332
              ],
              [
                105.853217,
                21.025466
              ],
              [
                105.852307,
                21.025757
              ],
              [
                105.851728,
                21.025935
              ],
              [
                105.85056,
                21.026264
              ],
              [
                105.850086,
                21.026395
              ],
              [
                105.847764,
                21.027056
              ],
              [
                105.846013,
                21.027555
              ],
              [
                105.844733,
                21.027924
              ],
              [
                105.844323,
                21.028036
              ],
              [
                105.844201,
                21.028094
              ],
              [
                105.844013,
                21.028149
              ],
              [
                105.843556,
                21.028287
              ],
              [
                105.84352,
                21.028299
              ],
              [
                105.843457,
                21.028319
              ],
              [
                105.843389,
                21.028341
              ],
              [
                105.843304,
                21.028371
              ],
              [
                105.843238,
                21.028412
              ],
              [
                105.843181,
                21.028466
              ],
              [
                105.843116,
                21.028537
              ],
              [
                105.843043,
                21.028621
              ],
              [
                105.842967,
                21.028709
              ],
              [
                105.842906,
                21.028779
              ],
              [
                105.842849,
                21.028841
              ],
              [
                105.8428,
                21.028892
              ],
              [
                105.842752,
                21.028944
              ],
              [
                105.842704,
                21.028996
              ],
              [
                105.842655,
                21.029048
              ],
              [
                105.84263,
                21.029076
              ],
              [
                105.842494,
                21.02922
              ],
              [
                105.84252,
                21.029242
              ],
              [
                105.842522,
                21.029244
              ],
              [
                105.842572,
                21.029299
              ],
              [
                105.842593,
                21.029353
              ],
              [
                105.842599,
                21.02938
              ],
              [
                105.842817,
                21.030347
              ],
              [
                105.84295,
                21.030991
              ],
              [
                105.843119,
                21.031806
              ],
              [
                105.843178,
                21.032094
              ],
              [
                105.843224,
                21.032286
              ],
              [
                105.843271,
                21.032341
              ],
              [
                105.843306,
                21.032386
              ],
              [
                105.843328,
                21.032461
              ],
              [
                105.84353,
                21.033414
              ],
              [
                105.843589,
                21.033717
              ],
              [
                105.843709,
                21.034239
              ],
              [
                105.843795,
                21.034271
              ],
              [
                105.844103,
                21.034208
              ],
              [
                105.844766,
                21.034073
              ],
              [
                105.844933,
                21.034861
              ],
              [
                105.84478,
                21.034894
              ],
              [
                105.844163,
                21.035025
              ],
              [
                105.844121,
                21.035034
              ],
              [
                105.844212,
                21.035493
              ],
              [
                105.84419,
                21.035527
              ],
              [
                105.844199,
                21.035569
              ],
              [
                105.844238,
                21.035738
              ],
              [
                105.844271,
                21.035885
              ],
              [
                105.844316,
                21.036081
              ],
              [
                105.844323,
                21.036121
              ],
              [
                105.844393,
                21.036334
              ],
              [
                105.844525,
                21.037096
              ],
              [
                105.844479,
                21.037104
              ],
              [
                105.844434,
                21.037107
              ],
              [
                105.84457,
                21.037732
              ],
              [
                105.844576,
                21.037763
              ],
              [
                105.844589,
                21.037823
              ],
              [
                105.844689,
                21.038304
              ],
              [
                105.844741,
                21.038569
              ],
              [
                105.844493,
                21.038616
              ],
              [
                105.844542,
                21.038849
              ],
              [
                105.844557,
                21.038894
              ],
              [
                105.844598,
                21.039058
              ],
              [
                105.844658,
                21.039346
              ],
              [
                105.844674,
                21.039343
              ],
              [
                105.844776,
                21.039324
              ],
              [
                105.844804,
                21.039328
              ],
              [
                105.845158,
                21.039266
              ],
              [
                105.845317,
                21.039246
              ],
              [
                105.845359,
                21.039464
              ],
              [
                105.845372,
                21.039461
              ],
              [
                105.845529,
                21.039431
              ],
              [
                105.845633,
                21.039972
              ],
              [
                105.84597,
                21.03991
              ],
              [
                105.846013,
                21.039904
              ],
              [
                105.846363,
                21.039849
              ],
              [
                105.84678,
                21.039799
              ],
              [
                105.846932,
                21.039801
              ],
              [
                105.847166,
                21.039882
              ],
              [
                105.847345,
                21.039931
              ],
              [
                105.847573,
                21.039993
              ],
              [
                105.84776,
                21.040044
              ],
              [
                105.848096,
                21.040152
              ],
              [
                105.848558,
                21.040283
              ],
              [
                105.849217,
                21.040466
              ],
              [
                105.849495,
                21.04054
              ],
              [
                105.849773,
                21.040615
              ],
              [
                105.850126,
                21.040778
              ],
              [
                105.850367,
                21.040889
              ],
              [
                105.850913,
                21.040306
              ],
              [
                105.85132,
                21.039735
              ],
              [
                105.851755,
                21.039099
              ],
              [
                105.851831,
                21.038942
              ],
              [
                105.851873,
                21.038854
              ],
              [
                105.851887,
                21.038825
              ],
              [
                105.85189,
                21.038819
              ],
              [
                105.852026,
                21.038632
              ],
              [
                105.852261,
                21.038359
              ],
              [
                105.852521,
                21.038061
              ],
              [
                105.852791,
                21.037746
              ],
              [
                105.852946,
                21.037562
              ],
              [
                105.853187,
                21.037274
              ],
              [
                105.85335,
                21.037089
              ],
              [
                105.853577,
                21.036832
              ],
              [
                105.85375,
                21.036648
              ],
              [
                105.85379,
                21.036605
              ],
              [
                105.853909,
                21.036472
              ],
              [
                105.854,
                21.036373
              ],
              [
                105.854054,
                21.036305
              ],
              [
                105.854068,
                21.036287
              ],
              [
                105.854191,
                21.03611
              ],
              [
                105.854233,
                21.036049
              ],
              [
                105.854357,
                21.035859
              ],
              [
                105.854425,
                21.035741
              ],
              [
                105.854473,
                21.035658
              ],
              [
                105.854481,
                21.035643
              ],
              [
                105.854487,
                21.035631
              ],
              [
                105.854499,
                21.035605
              ],
              [
                105.854522,
                21.035557
              ],
              [
                105.854565,
                21.035469
              ],
              [
                105.854716,
                21.035211
              ],
              [
                105.854742,
                21.035164
              ],
              [
                105.854746,
                21.035158
              ],
              [
                105.854775,
                21.035109
              ],
              [
                105.854804,
                21.03506
              ],
              [
                105.854821,
                21.03503
              ],
              [
                105.85487,
                21.034948
              ],
              [
                105.854911,
                21.034878
              ],
              [
                105.854975,
                21.034769
              ],
              [
                105.854981,
                21.034759
              ],
              [
                105.855046,
                21.034635
              ],
              [
                105.855084,
                21.034556
              ],
              [
                105.855156,
                21.034405
              ],
              [
                105.855221,
                21.034271
              ],
              [
                105.855243,
                21.034227
              ],
              [
                105.855268,
                21.034174
              ],
              [
                105.855313,
                21.034081
              ],
              [
                105.855335,
                21.03405
              ],
              [
                105.855376,
                21.03399
              ],
              [
                105.855566,
                21.033634
              ],
              [
                105.855731,
                21.033291
              ],
              [
                105.85574,
                21.033272
              ],
              [
                105.855891,
                21.032954
              ],
              [
                105.856026,
                21.032675
              ],
              [
                105.856371,
                21.031942
              ],
              [
                105.856564,
                21.031546
              ],
              [
                105.856817,
                21.030943
              ],
              [
                105.857327,
                21.029953
              ],
              [
                105.857678,
                21.029253
              ],
              [
                105.857868,
                21.028816
              ],
              [
                105.858036,
                21.028473
              ],
              [
                105.858136,
                21.028288
              ],
              [
                105.858296,
                21.027962
              ],
              [
                105.858392,
                21.027757
              ],
              [
                105.858517,
                21.027542
              ],
              [
                105.858589,
                21.027427
              ],
              [
                105.858917,
                21.026917
              ],
              [
                105.859116,
                21.026608
              ],
              [
                105.859672,
                21.025767
              ],
              [
                105.859977,
                21.025317
              ],
              [
                105.860104,
                21.025099
              ],
              [
                105.860129,
                21.025056
              ],
              [
                105.860129,
                21.025056
              ]
            ]
          ]
        ]
      },
      "properties": {
        "code": "00070",
        "name": "Hoàn Kiếm",
        "nameEn": "Hoan Kiem",
        "fullName": "Phường Hoàn Kiếm",
        "fullNameEn": "Hoan Kiem Ward",
        "codeName": "hoan_kiem",
        "postalCode": "11024",
        "postalCodePrefix": "",
        "gisServerId": "diaphanhanhchinhcapxa_2025.3202",
        "areaKm2": 1.91
      }
    }
  ]
}