{
  "type": "FeatureCollection",
  "bbox": [
    105.785841,
    21.070445,
    105.820877,
    21.097728
  ],
  "features": [
    {
      "type": "Feature",
      "id": "00091",
      "bbox": [
        105.785841,
        21.070445,
        105.820877,
        21.097728
      ],
      "geometry": {
        "type": "MultiPolygon",
        "coordinates": [
          [
            [
              [
                105.820877,
                21.093222
              ],
              [
                105.820636,
                21.092629
              ],
              [
                105.818695,
                21.088425
              ],
              [
                105.81819,
                21.087323
              ],
              [
                105.817808,
                21.086555
              ],
              [
                105.817032,
                21.085249
              ],
              [
                105.816613,
                21.084566
              ],
              [
                105.816122,
                21.083766
              ],
              [
                105.815598,
                21.082946
              ],
              [
                105.814786,
                21.081621
              ],
              [
                105.813918,
                21.080301
              ],
              [
                105.812505,
                21.078018
              ],
              [
                105.811965,
                21.077131
              ],
              [
                105.811394,
                21.076168
              ],
              [
                105.811157,
                21.075658
              ],
              [
                105.810466,
                21.073954
              ],
              [
                105.809747,
                21.072109
              ],
              [
                105.809317,
                21.071042
              ],
              [
                105.809027,
                21.070445
              ],
              [
                105.808893,
                21.070488
              ],
              [
                105.808706,
                21.07055
              ],
              [
                105.808508,
                21.070616
              ],
              [
                105.807649,
                21.070957
              ],
              [
                105.806864,
                21.07129
              ],
              [
                105.806494,
                21.071435
              ],
              [
                105.805999,
                21.071596
              ],
              [
                105.804963,
                21.071931
              ],
              [
                105.804881,
                21.07196
              ],
              [
                105.804653,
                21.072039
              ],
              [
                105.803813,
                21.072354
              ],
              [
                105.803728,
                21.072389
              ],
              [
                105.803537,
                21.072467
              ],
              [
                105.803052,
                21.072666
              ],
              [
                105.802451,
                21.072906
              ],
              [
                105.80002,
                21.073831
              ],
              [
                105.799943,
                21.07386
              ],
              [
                105.799933,
                21.073864
              ],
              [
                105.799896,
                21.073878
              ],
              [
                105.798369,
                21.074468
              ],
              [
                105.798645,
                21.075191
              ],
              [
                105.798791,
                21.075501
              ],
              [
                105.798833,
                21.075591
              ],
              [
                105.798832,
                21.075591
              ],
              [
                105.798415,
                21.075752
              ],
              [
                105.794408,
                21.077295
              ],
              [
                105.79438,
                21.077306
              ],
              [
                105.794324,
                21.077176
              ],
              [
                105.793911,
                21.076258
              ],
              [
                105.793859,
                21.076216
              ],
              [
                105.792954,
                21.076568
              ],
              [
                105.790927,
                21.077357
              ],
              [
                105.790238,
                21.077614
              ],
              [
                105.790038,
                21.077696
              ],
              [
                105.788994,
                21.078103
              ],
              [
                105.788617,
                21.078289
              ],
              [
                105.788425,
                21.078447
              ],
              [
                105.788161,
                21.078812
              ],
              [
                105.788105,
                21.07889
              ],
              [
                105.788061,
                21.078927
              ],
              [
                105.787896,
                21.079122
              ],
              [
                105.787955,
                21.079235
              ],
              [
                105.788091,
                21.079514
              ],
              [
                105.788207,
                21.079819
              ],
              [
                105.788274,
                21.079966
              ],
              [
                105.788394,
                21.080486
              ],
              [
                105.788428,
                21.08072
              ],
              [
                105.78846,
                21.080981
              ],
              [
                105.788452,
                21.081411
              ],
              [
                105.788391,
                21.081851
              ],
              [
                105.788364,
                21.082019
              ],
              [
                105.788269,
                21.082395
              ],
              [
                105.788146,
                21.082775
              ],
              [
                105.788021,
                21.08317
              ],
              [
                105.787861,
                21.08363
              ],
              [
                105.78772,
                21.084075
              ],
              [
                105.787612,
                21.084377
              ],
              [
                105.787388,
                21.085062
              ],
              [
                105.78724,
                21.085503
              ],
              [
                105.787237,
                21.08551
              ],
              [
                105.787214,
                21.085578
              ],
              [
                105.786543,
                21.087558
              ],
              [
                105.786329,
                21.088191
              ],
              [
                105.786209,
                21.088546
              ],
              [
                105.786193,
                21.088593
              ],
              [
                105.786072,
                21.088953
              ],
              [
                105.785914,
                21.089499
              ],
              [
                105.785861,
                21.089817
              ],
              [
                105.785843,
                21.090075
              ],
              [
                105.785841,
                21.090102
              ],
              [
                105.785854,
                21.090579
              ],
              [
                105.785867,
                21.090751
              ],
              [
                105.785911,
                21.091329
              ],
              [
                105.785919,
                21.091434
              ],
              [
                105.785932,
                21.091596
              ],
              [
                105.786026,
                21.092816
              ],
              [
                105.786055,
                21.093199
              ],
              [
                105.786075,
                21.093452
              ],
              [
                105.786172,
                21.094709
              ],
              [
                105.786204,
                21.095131
              ],
              [
                105.786321,
                21.096654
              ],
              [
                105.786353,
                21.097068
              ],
              [
                105.786402,
                21.097707
              ],
              [
                105.786404,
                21.097728
              ],
              [
                105.788418,
                21.097628
              ],
              [
                105.789179,
                21.09759
              ],
              [
                105.789924,
                21.097561
              ],
              [
                105.791679,
                21.097494
              ],
              [
                105.79274,
                21.097455
              ],
              [
                105.79355,
                21.097426
              ],
              [
                105.79394,
                21.097369
              ],
              [
                105.794592,
                21.097247
              ],
              [
                105.794992,
                21.097158
              ],
              [
                105.795842,
                21.097007
              ],
              [
                105.796477,
                21.096896
              ],
              [
                105.796893,
                21.096821
              ],
              [
                105.797571,
                21.096705
              ],
              [
                105.797807,
                21.096655
              ],
              [
                105.799043,
                21.096442
              ],
              [
                105.79931,
                21.09639
              ],
              [
                105.800075,
                21.096251
              ],
              [
                105.800479,
                21.096177
              ],
              [
                105.801231,
                21.096043
              ],
              [
                105.801753,
                21.095954
              ],
              [
                105.802587,
                21.095803
              ],
              [
                105.802919,
                21.095748
              ],
              [
                105.803967,
                21.095589
              ],
              [
                105.805287,
                21.095487
              ],
              [
                105.806228,
                21.09542
              ],
              [
                105.807096,
                21.095345
              ],
              [
                105.807915,
                21.095289
              ],
              [
                105.808935,
                21.095213
              ],
              [
                105.809935,
                21.095137
              ],
              [
                105.810876,
                21.095064
              ],
              [
                105.811912,
                21.094995
              ],
              [
                105.812366,
                21.094955
              ],
              [
                105.813054,
                21.094912
              ],
              [
                105.813445,
                21.094879
              ],
              [
                105.814384,
                21.094808
              ],
              [
                105.814854,
                21.094782
              ],
              [
                105.816018,
                21.094703
              ],
              [
                105.816545,
                21.094666
              ],
              [
                105.816846,
                21.094571
              ],
              [
                105.817901,
                21.094218
              ],
              [
                105.818514,
                21.094013
              ],
              [
                105.819476,
                21.093693
              ],
              [
                105.820293,
                21.093414
              ],
              [
                105.820877,
                21.093222
              ],
              [
                105.820877,
                21.093222
              ]
            ]
          ]
        ]
      },
      "properties": {
        "code": "00091",
        "name": "Phú Thượng",
        "nameEn": "Phu Thuong",
        "fullName": "Phường Phú Thượng",
        "fullNameEn": "Phu Thuong Ward",
        "codeName": "phu_thuong",
        "postalCode": "11210",
        "postalCodePrefix": "",
        "gisServerId": "diaphanhanhchinhcapxa_2025.3259",
        "areaKm2": 7.21
      }
    }
  ]
}