{
  "type": "FeatureCollection",
  "bbox": [
    105.804415,
    21.039538,
    105.840144,
    21.084566
  ],
  "features": [
    {
      "type": "Feature",
      "id": "00103",
      "bbox": [
        105.804415,
        21.039538,
        105.840144,
        21.084566
      ],
      "geometry": {
        "type": "MultiPolygon",
        "coordinates": [
          [
            [
              [
                105.837953,
                21.047709
              ],
              [
                105.837934,
                21.0475
              ],
              [
                105.837878,
                21.047363
              ],
              [
                105.83782,
                21.047262
              ],
              [
                105.837792,
                21.047214
              ],
              [
                105.837788,
                21.047207
              ],
              [
                105.837734,
                21.047178
              ],
              [
                105.837637,
                21.047159
              ],
              [
                105.837482,
                21.047195
              ],
              [
                105.83735,
                21.047185
              ],
              [
                105.837123,
                21.047085
              ],
              [
                105.837056,
                21.047051
              ],
              [
                105.837026,
                21.047072
              ],
              [
                105.836847,
                21.046903
              ],
              [
                105.836829,
                21.046881
              ],
              [
                105.83681,
                21.046858
              ],
              [
                105.836761,
                21.046717
              ],
              [
                105.836703,
                21.046414
              ],
              [
                105.836538,
                21.045251
              ],
              [
                105.836531,
                21.045199
              ],
              [
                105.83658,
                21.044431
              ],
              [
                105.8366,
                21.044326
              ],
              [
                105.83658,
                21.044327
              ],
              [
                105.836426,
                21.044337
              ],
              [
                105.836366,
                21.044079
              ],
              [
                105.836273,
                21.04383
              ],
              [
                105.83625,
                21.043771
              ],
              [
                105.836194,
                21.043627
              ],
              [
                105.83613,
                21.043484
              ],
              [
                105.836022,
                21.043262
              ],
              [
                105.835957,
                21.043078
              ],
              [
                105.835956,
                21.042933
              ],
              [
                105.835997,
                21.042793
              ],
              [
                105.836083,
                21.042687
              ],
              [
                105.836028,
                21.042686
              ],
              [
                105.835119,
                21.042687
              ],
              [
                105.835121,
                21.0422
              ],
              [
                105.835106,
                21.042027
              ],
              [
                105.835044,
                21.041894
              ],
              [
                105.834941,
                21.041914
              ],
              [
                105.833827,
                21.041921
              ],
              [
                105.833709,
                21.041922
              ],
              [
                105.832839,
                21.041932
              ],
              [
                105.831875,
                21.041866
              ],
              [
                105.831297,
                21.041776
              ],
              [
                105.831026,
                21.041701
              ],
              [
                105.830727,
                21.041587
              ],
              [
                105.830578,
                21.041503
              ],
              [
                105.830393,
                21.041364
              ],
              [
                105.830026,
                21.041036
              ],
              [
                105.829422,
                21.040384
              ],
              [
                105.829105,
                21.04004
              ],
              [
                105.828868,
                21.039796
              ],
              [
                105.82863,
                21.039578
              ],
              [
                105.82857,
                21.03955
              ],
              [
                105.8284,
                21.039538
              ],
              [
                105.828136,
                21.039552
              ],
              [
                105.827664,
                21.039631
              ],
              [
                105.827461,
                21.03968
              ],
              [
                105.827058,
                21.039826
              ],
              [
                105.826536,
                21.040043
              ],
              [
                105.826493,
                21.040061
              ],
              [
                105.826096,
                21.040217
              ],
              [
                105.825302,
                21.040508
              ],
              [
                105.824868,
                21.040681
              ],
              [
                105.824598,
                21.040786
              ],
              [
                105.824281,
                21.040908
              ],
              [
                105.823279,
                21.041291
              ],
              [
                105.822599,
                21.041529
              ],
              [
                105.821948,
                21.041749
              ],
              [
                105.82173,
                21.041808
              ],
              [
                105.821526,
                21.041836
              ],
              [
                105.820936,
                21.041899
              ],
              [
                105.820822,
                21.041912
              ],
              [
                105.820536,
                21.041983
              ],
              [
                105.820109,
                21.042075
              ],
              [
                105.819685,
                21.042106
              ],
              [
                105.819402,
                21.042115
              ],
              [
                105.819009,
                21.042129
              ],
              [
                105.818875,
                21.042133
              ],
              [
                105.818793,
                21.042135
              ],
              [
                105.818715,
                21.042137
              ],
              [
                105.817981,
                21.042177
              ],
              [
                105.817901,
                21.042179
              ],
              [
                105.817536,
                21.042206
              ],
              [
                105.816849,
                21.042307
              ],
              [
                105.816847,
                21.042307
              ],
              [
                105.816845,
                21.042308
              ],
              [
                105.816724,
                21.04233
              ],
              [
                105.816596,
                21.042356
              ],
              [
                105.816468,
                21.042383
              ],
              [
                105.816347,
                21.042411
              ],
              [
                105.816347,
                21.042411
              ],
              [
                105.815408,
                21.042696
              ],
              [
                105.815244,
                21.042713
              ],
              [
                105.815149,
                21.042712
              ],
              [
                105.814934,
                21.042827
              ],
              [
                105.814625,
                21.043005
              ],
              [
                105.814443,
                21.043122
              ],
              [
                105.813847,
                21.043511
              ],
              [
                105.813505,
                21.043775
              ],
              [
                105.813392,
                21.04387
              ],
              [
                105.813197,
                21.044035
              ],
              [
                105.812789,
                21.04448
              ],
              [
                105.812617,
                21.044668
              ],
              [
                105.81221,
                21.04509
              ],
              [
                105.812173,
                21.045131
              ],
              [
                105.811804,
                21.045488
              ],
              [
                105.811349,
                21.045907
              ],
              [
                105.811175,
                21.046034
              ],
              [
                105.810886,
                21.046195
              ],
              [
                105.810553,
                21.04636
              ],
              [
                105.810435,
                21.046414
              ],
              [
                105.810333,
                21.046459
              ],
              [
                105.8099,
                21.046649
              ],
              [
                105.80911,
                21.047019
              ],
              [
                105.808675,
                21.047202
              ],
              [
                105.808462,
                21.047291
              ],
              [
                105.807998,
                21.047395
              ],
              [
                105.807755,
                21.047423
              ],
              [
                105.807387,
                21.047464
              ],
              [
                105.806555,
                21.047549
              ],
              [
                105.806361,
                21.047572
              ],
              [
                105.806177,
                21.047595
              ],
              [
                105.806105,
                21.047604
              ],
              [
                105.806081,
                21.047607
              ],
              [
                105.806048,
                21.047605
              ],
              [
                105.806027,
                21.047603
              ],
              [
                105.806025,
                21.047603
              ],
              [
                105.805986,
                21.0476
              ],
              [
                105.80578,
                21.047595
              ],
              [
                105.805652,
                21.047611
              ],
              [
                105.805535,
                21.047681
              ],
              [
                105.805432,
                21.047802
              ],
              [
                105.805235,
                21.047753
              ],
              [
                105.80514,
                21.048021
              ],
              [
                105.804982,
                21.048442
              ],
              [
                105.804805,
                21.049105
              ],
              [
                105.804685,
                21.049603
              ],
              [
                105.804554,
                21.050264
              ],
              [
                105.804471,
                21.050933
              ],
              [
                105.80444,
                21.051354
              ],
              [
                105.804442,
                21.051458
              ],
              [
                105.804432,
                21.05167
              ],
              [
                105.80443,
                21.051816
              ],
              [
                105.804429,
                21.051962
              ],
              [
                105.804426,
                21.052529
              ],
              [
                105.804425,
                21.052623
              ],
              [
                105.804427,
                21.053287
              ],
              [
                105.804415,
                21.053997
              ],
              [
                105.804423,
                21.054682
              ],
              [
                105.80444,
                21.055743
              ],
              [
                105.804433,
                21.056607
              ],
              [
                105.804439,
                21.057893
              ],
              [
                105.804425,
                21.060057
              ],
              [
                105.804424,
                21.060965
              ],
              [
                105.80442,
                21.061378
              ],
              [
                105.804448,
                21.061909
              ],
              [
                105.804546,
                21.062405
              ],
              [
                105.804676,
                21.062769
              ],
              [
                105.804901,
                21.063276
              ],
              [
                105.805351,
                21.063997
              ],
              [
                105.805877,
                21.064825
              ],
              [
                105.806481,
                21.065748
              ],
              [
                105.806988,
                21.066601
              ],
              [
                105.807644,
                21.067775
              ],
              [
                105.808095,
                21.068663
              ],
              [
                105.808999,
                21.070387
              ],
              [
                105.809027,
                21.070445
              ],
              [
                105.809317,
                21.071042
              ],
              [
                105.809747,
                21.072109
              ],
              [
                105.810466,
                21.073954
              ],
              [
                105.811157,
                21.075658
              ],
              [
                105.811394,
                21.076168
              ],
              [
                105.811965,
                21.077131
              ],
              [
                105.812505,
                21.078018
              ],
              [
                105.813918,
                21.080301
              ],
              [
                105.814786,
                21.081621
              ],
              [
                105.815598,
                21.082946
              ],
              [
                105.816122,
                21.083766
              ],
              [
                105.816613,
                21.084566
              ],
              [
                105.816816,
                21.084015
              ],
              [
                105.817045,
                21.083275
              ],
              [
                105.817252,
                21.082657
              ],
              [
                105.817422,
                21.082312
              ],
              [
                105.817903,
                21.081514
              ],
              [
                105.818107,
                21.081179
              ],
              [
                105.818296,
                21.080874
              ],
              [
                105.81866,
                21.080284
              ],
              [
                105.819175,
                21.0795
              ],
              [
                105.819501,
                21.079039
              ],
              [
                105.819808,
                21.0786
              ],
              [
                105.820312,
                21.077852
              ],
              [
                105.820593,
                21.077456
              ],
              [
                105.820976,
                21.077049
              ],
              [
                105.82147,
                21.076537
              ],
              [
                105.82204,
                21.075965
              ],
              [
                105.822363,
                21.075644
              ],
              [
                105.822785,
                21.075294
              ],
              [
                105.823386,
                21.074811
              ],
              [
                105.824276,
                21.074118
              ],
              [
                105.82503,
                21.073523
              ],
              [
                105.825497,
                21.073054
              ],
              [
                105.825668,
                21.072781
              ],
              [
                105.825686,
                21.072746
              ],
              [
                105.825718,
                21.072677
              ],
              [
                105.825734,
                21.072642
              ],
              [
                105.825863,
                21.072314
              ],
              [
                105.82598,
                21.071929
              ],
              [
                105.826049,
                21.071352
              ],
              [
                105.826068,
                21.070854
              ],
              [
                105.826069,
                21.070818
              ],
              [
                105.826071,
                21.070707
              ],
              [
                105.826072,
                21.070608
              ],
              [
                105.826075,
                21.070503
              ],
              [
                105.826078,
                21.070399
              ],
              [
                105.826079,
                21.070289
              ],
              [
                105.82608,
                21.070185
              ],
              [
                105.826082,
                21.070087
              ],
              [
                105.826083,
                21.069995
              ],
              [
                105.826085,
                21.069901
              ],
              [
                105.826086,
                21.06982
              ],
              [
                105.826087,
                21.069739
              ],
              [
                105.826089,
                21.069635
              ],
              [
                105.82609,
                21.069524
              ],
              [
                105.826091,
                21.069411
              ],
              [
                105.826093,
                21.069323
              ],
              [
                105.826096,
                21.069245
              ],
              [
                105.826102,
                21.069134
              ],
              [
                105.826111,
                21.069027
              ],
              [
                105.82612,
                21.068928
              ],
              [
                105.826122,
                21.068911
              ],
              [
                105.826124,
                21.068892
              ],
              [
                105.826124,
                21.068891
              ],
              [
                105.82619,
                21.068664
              ],
              [
                105.826274,
                21.06845
              ],
              [
                105.82631,
                21.06839
              ],
              [
                105.826323,
                21.068368
              ],
              [
                105.826371,
                21.068287
              ],
              [
                105.826398,
                21.068246
              ],
              [
                105.826436,
                21.068187
              ],
              [
                105.8265,
                21.068101
              ],
              [
                105.82656,
                21.06803
              ],
              [
                105.82663,
                21.067948
              ],
              [
                105.826683,
                21.067887
              ],
              [
                105.826697,
                21.067872
              ],
              [
                105.826721,
                21.067843
              ],
              [
                105.827632,
                21.066751
              ],
              [
                105.829136,
                21.064886
              ],
              [
                105.829291,
                21.064788
              ],
              [
                105.829419,
                21.064753
              ],
              [
                105.830458,
                21.064693
              ],
              [
                105.830692,
                21.064565
              ],
              [
                105.831595,
                21.064071
              ],
              [
                105.831632,
                21.06402
              ],
              [
                105.831838,
                21.063498
              ],
              [
                105.832297,
                21.062195
              ],
              [
                105.832523,
                21.06159
              ],
              [
                105.832661,
                21.061153
              ],
              [
                105.832828,
                21.060936
              ],
              [
                105.83299,
                21.060747
              ],
              [
                105.833305,
                21.060369
              ],
              [
                105.833779,
                21.059812
              ],
              [
                105.834018,
                21.059452
              ],
              [
                105.834209,
                21.059179
              ],
              [
                105.834331,
                21.058995
              ],
              [
                105.834374,
                21.05895
              ],
              [
                105.834558,
                21.058719
              ],
              [
                105.834963,
                21.058249
              ],
              [
                105.835288,
                21.057696
              ],
              [
                105.835638,
                21.057086
              ],
              [
                105.835804,
                21.056782
              ],
              [
                105.83603,
                21.056355
              ],
              [
                105.836219,
                21.05602
              ],
              [
                105.836443,
                21.05562
              ],
              [
                105.836469,
                21.055573
              ],
              [
                105.836881,
                21.05483
              ],
              [
                105.837066,
                21.054495
              ],
              [
                105.837139,
                21.054363
              ],
              [
                105.837417,
                21.053862
              ],
              [
                105.837469,
                21.053768
              ],
              [
                105.837598,
                21.053536
              ],
              [
                105.837717,
                21.053314
              ],
              [
                105.837744,
                21.053264
              ],
              [
                105.837869,
                21.053067
              ],
              [
                105.838118,
                21.052727
              ],
              [
                105.838361,
                21.052449
              ],
              [
                105.83845,
                21.052356
              ],
              [
                105.838622,
                21.052175
              ],
              [
                105.838818,
                21.051993
              ],
              [
                105.839008,
                21.051816
              ],
              [
                105.839436,
                21.05142
              ],
              [
                105.839455,
                21.051403
              ],
              [
                105.839554,
                21.05131
              ],
              [
                105.839805,
                21.05106
              ],
              [
                105.839957,
                21.050886
              ],
              [
                105.840137,
                21.050637
              ],
              [
                105.840144,
                21.050628
              ],
              [
                105.839818,
                21.050346
              ],
              [
                105.839721,
                21.050319
              ],
              [
                105.839638,
                21.050262
              ],
              [
                105.839562,
                21.050195
              ],
              [
                105.839475,
                21.050118
              ],
              [
                105.839336,
                21.049991
              ],
              [
                105.83931,
                21.049958
              ],
              [
                105.839208,
                21.049822
              ],
              [
                105.839165,
                21.049761
              ],
              [
                105.839082,
                21.049642
              ],
              [
                105.839035,
                21.049559
              ],
              [
                105.838981,
                21.049468
              ],
              [
                105.838939,
                21.049389
              ],
              [
                105.838908,
                21.049319
              ],
              [
                105.838887,
                21.049273
              ],
              [
                105.838875,
                21.049241
              ],
              [
                105.838959,
                21.049207
              ],
              [
                105.838953,
                21.049203
              ],
              [
                105.838933,
                21.049189
              ],
              [
                105.838922,
                21.049173
              ],
              [
                105.838899,
                21.049137
              ],
              [
                105.838872,
                21.049097
              ],
              [
                105.838846,
                21.049043
              ],
              [
                105.838792,
                21.048933
              ],
              [
                105.838754,
                21.048853
              ],
              [
                105.838733,
                21.048809
              ],
              [
                105.838722,
                21.048788
              ],
              [
                105.838714,
                21.04877
              ],
              [
                105.838696,
                21.048749
              ],
              [
                105.838663,
                21.04871
              ],
              [
                105.838576,
                21.04861
              ],
              [
                105.838501,
                21.048522
              ],
              [
                105.838397,
                21.0484
              ],
              [
                105.838121,
                21.048078
              ],
              [
                105.83799,
                21.047944
              ],
              [
                105.837953,
                21.047709
              ],
              [
                105.837953,
                21.047709
              ]
            ]
          ]
        ]
      },
      "properties": {
        "code": "00103",
        "name": "Tây Hồ",
        "nameEn": "Tay Ho",
        "fullName": "Phường Tây Hồ",
        "fullNameEn": "Tay Ho Ward",
        "codeName": "tay_ho",
        "postalCode": "11214",
        "postalCodePrefix": "",
        "gisServerId": "diaphanhanhchinhcapxa_2025.3260",
        "areaKm2": 10.72
      }
    }
  ]
}