{
  "type": "FeatureCollection",
  "bbox": [
    105.840993,
    21.021044,
    105.890555,
    21.08116
  ],
  "features": [
    {
      "type": "Feature",
      "id": "00118",
      "bbox": [
        105.840993,
        21.021044,
        105.890555,
        21.08116
      ],
      "geometry": {
        "type": "MultiPolygon",
        "coordinates": [
          [
            [
              [
                105.890555,
                21.052064
              ],
              [
                105.890196,
                21.051307
              ],
              [
                105.890184,
                21.051276
              ],
              [
                105.890156,
                21.051214
              ],
              [
                105.890103,
                21.051097
              ],
              [
                105.889977,
                21.050819
              ],
              [
                105.889912,
                21.050679
              ],
              [
                105.889896,
                21.050645
              ],
              [
                105.889895,
                21.050642
              ],
              [
                105.88983,
                21.050503
              ],
              [
                105.889827,
                21.050495
              ],
              [
                105.889826,
                21.050492
              ],
              [
                105.889766,
                21.050364
              ],
              [
                105.88966,
                21.05013
              ],
              [
                105.889648,
                21.050105
              ],
              [
                105.889637,
                21.050079
              ],
              [
                105.889625,
                21.050054
              ],
              [
                105.889543,
                21.049876
              ],
              [
                105.889434,
                21.049635
              ],
              [
                105.889319,
                21.049385
              ],
              [
                105.889181,
                21.049085
              ],
              [
                105.889151,
                21.04902
              ],
              [
                105.889124,
                21.048961
              ],
              [
                105.889092,
                21.048891
              ],
              [
                105.889038,
                21.048774
              ],
              [
                105.888984,
                21.048656
              ],
              [
                105.888916,
                21.048511
              ],
              [
                105.888902,
                21.048483
              ],
              [
                105.888902,
                21.048482
              ],
              [
                105.888883,
                21.048443
              ],
              [
                105.888809,
                21.048282
              ],
              [
                105.888745,
                21.048148
              ],
              [
                105.888732,
                21.04812
              ],
              [
                105.888719,
                21.048092
              ],
              [
                105.888709,
                21.048071
              ],
              [
                105.888615,
                21.04787
              ],
              [
                105.888546,
                21.047721
              ],
              [
                105.888474,
                21.047577
              ],
              [
                105.888376,
                21.047362
              ],
              [
                105.888272,
                21.047142
              ],
              [
                105.888203,
                21.047026
              ],
              [
                105.888193,
                21.04694
              ],
              [
                105.888065,
                21.046696
              ],
              [
                105.887894,
                21.04638
              ],
              [
                105.887742,
                21.046101
              ],
              [
                105.887663,
                21.045962
              ],
              [
                105.887588,
                21.045827
              ],
              [
                105.887547,
                21.045743
              ],
              [
                105.88738,
                21.045435
              ],
              [
                105.887299,
                21.045284
              ],
              [
                105.887091,
                21.044907
              ],
              [
                105.88701,
                21.044758
              ],
              [
                105.886958,
                21.04478
              ],
              [
                105.886725,
                21.044341
              ],
              [
                105.886598,
                21.044101
              ],
              [
                105.886431,
                21.043788
              ],
              [
                105.886218,
                21.043384
              ],
              [
                105.886152,
                21.043258
              ],
              [
                105.886118,
                21.043197
              ],
              [
                105.886054,
                21.042998
              ],
              [
                105.885939,
                21.042772
              ],
              [
                105.88575,
                21.042393
              ],
              [
                105.885605,
                21.042132
              ],
              [
                105.885503,
                21.041943
              ],
              [
                105.885499,
                21.041935
              ],
              [
                105.885343,
                21.041646
              ],
              [
                105.885307,
                21.041576
              ],
              [
                105.885091,
                21.041084
              ],
              [
                105.885059,
                21.041012
              ],
              [
                105.884909,
                21.04068
              ],
              [
                105.884747,
                21.040337
              ],
              [
                105.884696,
                21.040228
              ],
              [
                105.884672,
                21.040179
              ],
              [
                105.884637,
                21.040104
              ],
              [
                105.884611,
                21.040054
              ],
              [
                105.884562,
                21.039949
              ],
              [
                105.884495,
                21.039803
              ],
              [
                105.884424,
                21.039649
              ],
              [
                105.88435,
                21.039495
              ],
              [
                105.884187,
                21.039154
              ],
              [
                105.884088,
                21.038954
              ],
              [
                105.88399,
                21.038759
              ],
              [
                105.883969,
                21.03872
              ],
              [
                105.883968,
                21.038719
              ],
              [
                105.883891,
                21.038573
              ],
              [
                105.883777,
                21.038377
              ],
              [
                105.883688,
                21.038186
              ],
              [
                105.883651,
                21.038119
              ],
              [
                105.883598,
                21.037975
              ],
              [
                105.883577,
                21.037919
              ],
              [
                105.883571,
                21.037906
              ],
              [
                105.88348,
                21.037771
              ],
              [
                105.883459,
                21.037737
              ],
              [
                105.883355,
                21.037479
              ],
              [
                105.883301,
                21.037341
              ],
              [
                105.88329,
                21.037311
              ],
              [
                105.883224,
                21.037143
              ],
              [
                105.883081,
                21.036785
              ],
              [
                105.882993,
                21.03656
              ],
              [
                105.882808,
                21.036201
              ],
              [
                105.882675,
                21.035902
              ],
              [
                105.882665,
                21.035881
              ],
              [
                105.882494,
                21.035508
              ],
              [
                105.882461,
                21.035434
              ],
              [
                105.882256,
                21.034985
              ],
              [
                105.882245,
                21.034963
              ],
              [
                105.88223,
                21.034933
              ],
              [
                105.882121,
                21.034713
              ],
              [
                105.881935,
                21.03433
              ],
              [
                105.881881,
                21.034221
              ],
              [
                105.881908,
                21.034208
              ],
              [
                105.881792,
                21.033968
              ],
              [
                105.881647,
                21.033673
              ],
              [
                105.881451,
                21.033273
              ],
              [
                105.881322,
                21.032982
              ],
              [
                105.879754,
                21.031208
              ],
              [
                105.87656,
                21.028582
              ],
              [
                105.872341,
                21.024876
              ],
              [
                105.87233,
                21.024866
              ],
              [
                105.869914,
                21.022744
              ],
              [
                105.869,
                21.021973
              ],
              [
                105.867461,
                21.021044
              ],
              [
                105.866789,
                21.023262
              ],
              [
                105.86652,
                21.024148
              ],
              [
                105.866466,
                21.024553
              ],
              [
                105.866454,
                21.024658
              ],
              [
                105.866367,
                21.025417
              ],
              [
                105.866262,
                21.026343
              ],
              [
                105.866206,
                21.026508
              ],
              [
                105.866003,
                21.027113
              ],
              [
                105.865921,
                21.027321
              ],
              [
                105.865921,
                21.027322
              ],
              [
                105.865876,
                21.027435
              ],
              [
                105.865548,
                21.028265
              ],
              [
                105.865489,
                21.02846
              ],
              [
                105.864944,
                21.030264
              ],
              [
                105.864114,
                21.033822
              ],
              [
                105.862752,
                21.038535
              ],
              [
                105.86243,
                21.039604
              ],
              [
                105.862411,
                21.044879
              ],
              [
                105.862395,
                21.049074
              ],
              [
                105.860998,
                21.05268
              ],
              [
                105.857881,
                21.056985
              ],
              [
                105.855115,
                21.06277
              ],
              [
                105.854326,
                21.063619
              ],
              [
                105.852775,
                21.06659
              ],
              [
                105.850448,
                21.069393
              ],
              [
                105.847187,
                21.072621
              ],
              [
                105.844738,
                21.075425
              ],
              [
                105.843605,
                21.076807
              ],
              [
                105.84226,
                21.078282
              ],
              [
                105.840993,
                21.08116
              ],
              [
                105.842121,
                21.081099
              ],
              [
                105.842628,
                21.081031
              ],
              [
                105.844184,
                21.080609
              ],
              [
                105.844866,
                21.080366
              ],
              [
                105.845722,
                21.079989
              ],
              [
                105.846363,
                21.079575
              ],
              [
                105.847389,
                21.078806
              ],
              [
                105.848356,
                21.078063
              ],
              [
                105.849118,
                21.077471
              ],
              [
                105.850072,
                21.076696
              ],
              [
                105.850475,
                21.076368
              ],
              [
                105.850686,
                21.076197
              ],
              [
                105.850754,
                21.076141
              ],
              [
                105.852846,
                21.074582
              ],
              [
                105.854294,
                21.073562
              ],
              [
                105.854443,
                21.073456
              ],
              [
                105.854935,
                21.073109
              ],
              [
                105.854982,
                21.073076
              ],
              [
                105.855095,
                21.072995
              ],
              [
                105.855318,
                21.072834
              ],
              [
                105.855407,
                21.07277
              ],
              [
                105.855452,
                21.072738
              ],
              [
                105.856404,
                21.072052
              ],
              [
                105.857126,
                21.071469
              ],
              [
                105.857154,
                21.071444
              ],
              [
                105.858102,
                21.070594
              ],
              [
                105.859172,
                21.0696
              ],
              [
                105.860505,
                21.068566
              ],
              [
                105.860526,
                21.068549
              ],
              [
                105.860554,
                21.068533
              ],
              [
                105.861643,
                21.067893
              ],
              [
                105.861757,
                21.067826
              ],
              [
                105.862127,
                21.067609
              ],
              [
                105.862257,
                21.067539
              ],
              [
                105.862539,
                21.067387
              ],
              [
                105.863002,
                21.067137
              ],
              [
                105.863146,
                21.067059
              ],
              [
                105.863167,
                21.067047
              ],
              [
                105.86361,
                21.066875
              ],
              [
                105.864264,
                21.06662
              ],
              [
                105.864748,
                21.06653
              ],
              [
                105.864808,
                21.066518
              ],
              [
                105.865266,
                21.066446
              ],
              [
                105.866295,
                21.06645
              ],
              [
                105.8663,
                21.066451
              ],
              [
                105.867886,
                21.066754
              ],
              [
                105.86831,
                21.066859
              ],
              [
                105.868975,
                21.067024
              ],
              [
                105.870309,
                21.067472
              ],
              [
                105.872112,
                21.068148
              ],
              [
                105.872352,
                21.068264
              ],
              [
                105.874972,
                21.069529
              ],
              [
                105.876883,
                21.070404
              ],
              [
                105.876883,
                21.070405
              ],
              [
                105.876883,
                21.070405
              ],
              [
                105.877842,
                21.071078
              ],
              [
                105.877909,
                21.071126
              ],
              [
                105.877954,
                21.071158
              ],
              [
                105.878063,
                21.071236
              ],
              [
                105.879023,
                21.069868
              ],
              [
                105.879888,
                21.068608
              ],
              [
                105.880272,
                21.067967
              ],
              [
                105.880524,
                21.067428
              ],
              [
                105.881075,
                21.065925
              ],
              [
                105.882088,
                21.06271
              ],
              [
                105.882707,
                21.060825
              ],
              [
                105.883263,
                21.059745
              ],
              [
                105.88334,
                21.059616
              ],
              [
                105.883819,
                21.058971
              ],
              [
                105.884262,
                21.058473
              ],
              [
                105.884461,
                21.058275
              ],
              [
                105.884791,
                21.05798
              ],
              [
                105.885797,
                21.05712
              ],
              [
                105.886855,
                21.056237
              ],
              [
                105.887625,
                21.055587
              ],
              [
                105.888283,
                21.054972
              ],
              [
                105.888586,
                21.054656
              ],
              [
                105.889117,
                21.053985
              ],
              [
                105.889584,
                21.053361
              ],
              [
                105.890517,
                21.052116
              ],
              [
                105.890555,
                21.052064
              ],
              [
                105.890555,
                21.052064
              ]
            ]
          ]
        ]
      },
      "properties": {
        "code": "00118",
        "name": "Bồ Đề",
        "nameEn": "Bo De",
        "fullName": "Phường Bồ Đề",
        "fullNameEn": "Bo De Ward",
        "codeName": "bo_de",
        "postalCode": "11813",
        "postalCodePrefix": "",
        "gisServerId": "diaphanhanhchinhcapxa_2025.3196",
        "areaKm2": 12.94
      }
    }
  ]
}