{
  "type": "FeatureCollection",
  "bbox": [
    105.867461,
    20.99374,
    105.929119,
    21.052064
  ],
  "features": [
    {
      "type": "Feature",
      "id": "00145",
      "bbox": [
        105.867461,
        20.99374,
        105.929119,
        21.052064
      ],
      "geometry": {
        "type": "MultiPolygon",
        "coordinates": [
          [
            [
              [
                105.894653,
                21.045757
              ],
              [
                105.894866,
                21.045427
              ],
              [
                105.895056,
                21.045127
              ],
              [
                105.895227,
                21.044856
              ],
              [
                105.895419,
                21.044558
              ],
              [
                105.895609,
                21.044271
              ],
              [
                105.895911,
                21.04381
              ],
              [
                105.896186,
                21.043382
              ],
              [
                105.896518,
                21.042875
              ],
              [
                105.896804,
                21.042411
              ],
              [
                105.896979,
                21.042102
              ],
              [
                105.897075,
                21.041907
              ],
              [
                105.897152,
                21.041742
              ],
              [
                105.89732,
                21.041333
              ],
              [
                105.897488,
                21.040895
              ],
              [
                105.897669,
                21.040396
              ],
              [
                105.898004,
                21.039512
              ],
              [
                105.898111,
                21.03923
              ],
              [
                105.898287,
                21.038777
              ],
              [
                105.898404,
                21.038496
              ],
              [
                105.898489,
                21.038317
              ],
              [
                105.898598,
                21.038116
              ],
              [
                105.898693,
                21.037965
              ],
              [
                105.898818,
                21.037774
              ],
              [
                105.898931,
                21.037629
              ],
              [
                105.89912,
                21.037402
              ],
              [
                105.899228,
                21.037293
              ],
              [
                105.89939,
                21.037137
              ],
              [
                105.899515,
                21.037041
              ],
              [
                105.899631,
                21.036971
              ],
              [
                105.899744,
                21.036916
              ],
              [
                105.901658,
                21.035999
              ],
              [
                105.901961,
                21.035845
              ],
              [
                105.902233,
                21.035708
              ],
              [
                105.903045,
                21.035313
              ],
              [
                105.903622,
                21.035025
              ],
              [
                105.90403,
                21.034793
              ],
              [
                105.904478,
                21.034536
              ],
              [
                105.904907,
                21.034284
              ],
              [
                105.905216,
                21.034122
              ],
              [
                105.90572,
                21.033869
              ],
              [
                105.906297,
                21.033594
              ],
              [
                105.906751,
                21.033376
              ],
              [
                105.907689,
                21.032928
              ],
              [
                105.908177,
                21.032694
              ],
              [
                105.909087,
                21.032262
              ],
              [
                105.909447,
                21.03209
              ],
              [
                105.910281,
                21.031689
              ],
              [
                105.911036,
                21.031327
              ],
              [
                105.911486,
                21.031112
              ],
              [
                105.912188,
                21.030779
              ],
              [
                105.912948,
                21.03042
              ],
              [
                105.913305,
                21.030266
              ],
              [
                105.914065,
                21.029992
              ],
              [
                105.91449,
                21.029865
              ],
              [
                105.915374,
                21.029612
              ],
              [
                105.916263,
                21.029356
              ],
              [
                105.917042,
                21.029135
              ],
              [
                105.918043,
                21.02885
              ],
              [
                105.919333,
                21.028485
              ],
              [
                105.920129,
                21.028258
              ],
              [
                105.920355,
                21.028193
              ],
              [
                105.921468,
                21.027857
              ],
              [
                105.921937,
                21.027695
              ],
              [
                105.922279,
                21.027573
              ],
              [
                105.922716,
                21.027411
              ],
              [
                105.923016,
                21.027289
              ],
              [
                105.923519,
                21.02709
              ],
              [
                105.924235,
                21.026788
              ],
              [
                105.925395,
                21.0263
              ],
              [
                105.926877,
                21.025679
              ],
              [
                105.928079,
                21.02518
              ],
              [
                105.928942,
                21.024808
              ],
              [
                105.929119,
                21.024736
              ],
              [
                105.929119,
                21.024735
              ],
              [
                105.929111,
                21.024719
              ],
              [
                105.9291,
                21.024696
              ],
              [
                105.929086,
                21.024666
              ],
              [
                105.929064,
                21.02462
              ],
              [
                105.929061,
                21.024613
              ],
              [
                105.929051,
                21.024592
              ],
              [
                105.929037,
                21.024563
              ],
              [
                105.929027,
                21.024541
              ],
              [
                105.929015,
                21.024515
              ],
              [
                105.929004,
                21.024493
              ],
              [
                105.928966,
                21.024412
              ],
              [
                105.928883,
                21.024234
              ],
              [
                105.928848,
                21.02416
              ],
              [
                105.928733,
                21.023925
              ],
              [
                105.928732,
                21.023924
              ],
              [
                105.928603,
                21.023673
              ],
              [
                105.928584,
                21.023638
              ],
              [
                105.92847,
                21.023425
              ],
              [
                105.928398,
                21.023298
              ],
              [
                105.928324,
                21.023165
              ],
              [
                105.928251,
                21.023046
              ],
              [
                105.928198,
                21.022961
              ],
              [
                105.928166,
                21.022909
              ],
              [
                105.928019,
                21.022688
              ],
              [
                105.927985,
                21.022636
              ],
              [
                105.927822,
                21.022406
              ],
              [
                105.927821,
                21.022404
              ],
              [
                105.92782,
                21.022403
              ],
              [
                105.927612,
                21.022129
              ],
              [
                105.927607,
                21.022122
              ],
              [
                105.927534,
                21.022034
              ],
              [
                105.927456,
                21.021941
              ],
              [
                105.927428,
                21.021908
              ],
              [
                105.927204,
                21.021649
              ],
              [
                105.927125,
                21.021566
              ],
              [
                105.926872,
                21.021302
              ],
              [
                105.926533,
                21.020981
              ],
              [
                105.926168,
                21.020675
              ],
              [
                105.925841,
                21.020405
              ],
              [
                105.925542,
                21.020185
              ],
              [
                105.924912,
                21.019716
              ],
              [
                105.924031,
                21.019073
              ],
              [
                105.923169,
                21.018413
              ],
              [
                105.922699,
                21.018029
              ],
              [
                105.922359,
                21.017732
              ],
              [
                105.921843,
                21.017271
              ],
              [
                105.921318,
                21.016746
              ],
              [
                105.920997,
                21.016398
              ],
              [
                105.920824,
                21.016198
              ],
              [
                105.920513,
                21.015846
              ],
              [
                105.920228,
                21.015503
              ],
              [
                105.91993,
                21.015117
              ],
              [
                105.91945,
                21.014473
              ],
              [
                105.919092,
                21.013971
              ],
              [
                105.918394,
                21.013003
              ],
              [
                105.917909,
                21.012319
              ],
              [
                105.917653,
                21.011958
              ],
              [
                105.91695,
                21.010994
              ],
              [
                105.916667,
                21.010615
              ],
              [
                105.915957,
                21.009686
              ],
              [
                105.915452,
                21.009077
              ],
              [
                105.915401,
                21.009018
              ],
              [
                105.914969,
                21.008512
              ],
              [
                105.914171,
                21.007593
              ],
              [
                105.91313,
                21.006422
              ],
              [
                105.912168,
                21.005338
              ],
              [
                105.911371,
                21.00444
              ],
              [
                105.911047,
                21.004069
              ],
              [
                105.909757,
                21.002621
              ],
              [
                105.909589,
                21.002434
              ],
              [
                105.909095,
                21.001884
              ],
              [
                105.907765,
                21.000389
              ],
              [
                105.906582,
                20.999072
              ],
              [
                105.906532,
                20.999016
              ],
              [
                105.905289,
                20.997622
              ],
              [
                105.904653,
                20.996903
              ],
              [
                105.904068,
                20.996243
              ],
              [
                105.903374,
                20.995463
              ],
              [
                105.902839,
                20.994859
              ],
              [
                105.902145,
                20.994085
              ],
              [
                105.901842,
                20.99374
              ],
              [
                105.901839,
                20.993742
              ],
              [
                105.901834,
                20.993746
              ],
              [
                105.901714,
                20.993837
              ],
              [
                105.900873,
                20.994472
              ],
              [
                105.898562,
                20.996214
              ],
              [
                105.898312,
                20.996403
              ],
              [
                105.897996,
                20.996641
              ],
              [
                105.897816,
                20.996733
              ],
              [
                105.897715,
                20.996785
              ],
              [
                105.897671,
                20.996807
              ],
              [
                105.897594,
                20.996847
              ],
              [
                105.895928,
                20.997702
              ],
              [
                105.893375,
                20.999016
              ],
              [
                105.892287,
                20.999711
              ],
              [
                105.891517,
                21.00002
              ],
              [
                105.891053,
                21.000211
              ],
              [
                105.88934,
                21.001095
              ],
              [
                105.887682,
                21.001827
              ],
              [
                105.887299,
                21.001997
              ],
              [
                105.886754,
                21.002237
              ],
              [
                105.884819,
                21.00307
              ],
              [
                105.882955,
                21.003684
              ],
              [
                105.882909,
                21.003712
              ],
              [
                105.882474,
                21.004066
              ],
              [
                105.878457,
                21.006077
              ],
              [
                105.878281,
                21.006165
              ],
              [
                105.878062,
                21.006284
              ],
              [
                105.876882,
                21.006924
              ],
              [
                105.875821,
                21.00755
              ],
              [
                105.874632,
                21.008278
              ],
              [
                105.873398,
                21.009363
              ],
              [
                105.872334,
                21.010577
              ],
              [
                105.871532,
                21.011789
              ],
              [
                105.871426,
                21.01195
              ],
              [
                105.87039,
                21.013804
              ],
              [
                105.867768,
                21.020028
              ],
              [
                105.867461,
                21.021044
              ],
              [
                105.869,
                21.021973
              ],
              [
                105.869914,
                21.022744
              ],
              [
                105.87233,
                21.024866
              ],
              [
                105.872341,
                21.024876
              ],
              [
                105.87656,
                21.028582
              ],
              [
                105.879754,
                21.031208
              ],
              [
                105.881322,
                21.032982
              ],
              [
                105.881451,
                21.033273
              ],
              [
                105.881647,
                21.033673
              ],
              [
                105.881792,
                21.033968
              ],
              [
                105.881908,
                21.034208
              ],
              [
                105.881881,
                21.034221
              ],
              [
                105.881935,
                21.03433
              ],
              [
                105.882121,
                21.034713
              ],
              [
                105.88223,
                21.034933
              ],
              [
                105.882245,
                21.034963
              ],
              [
                105.882256,
                21.034985
              ],
              [
                105.882461,
                21.035434
              ],
              [
                105.882494,
                21.035508
              ],
              [
                105.882665,
                21.035881
              ],
              [
                105.882675,
                21.035902
              ],
              [
                105.882808,
                21.036201
              ],
              [
                105.882993,
                21.03656
              ],
              [
                105.883081,
                21.036785
              ],
              [
                105.883224,
                21.037143
              ],
              [
                105.88329,
                21.037311
              ],
              [
                105.883301,
                21.037341
              ],
              [
                105.883355,
                21.037479
              ],
              [
                105.883459,
                21.037737
              ],
              [
                105.88348,
                21.037771
              ],
              [
                105.883571,
                21.037906
              ],
              [
                105.883577,
                21.037919
              ],
              [
                105.883598,
                21.037975
              ],
              [
                105.883651,
                21.038119
              ],
              [
                105.883688,
                21.038186
              ],
              [
                105.883777,
                21.038377
              ],
              [
                105.883891,
                21.038573
              ],
              [
                105.883968,
                21.038719
              ],
              [
                105.883969,
                21.03872
              ],
              [
                105.88399,
                21.038759
              ],
              [
                105.884088,
                21.038954
              ],
              [
                105.884187,
                21.039154
              ],
              [
                105.88435,
                21.039495
              ],
              [
                105.884424,
                21.039649
              ],
              [
                105.884495,
                21.039803
              ],
              [
                105.884562,
                21.039949
              ],
              [
                105.884611,
                21.040054
              ],
              [
                105.884637,
                21.040104
              ],
              [
                105.884672,
                21.040179
              ],
              [
                105.884696,
                21.040228
              ],
              [
                105.884747,
                21.040337
              ],
              [
                105.884909,
                21.04068
              ],
              [
                105.885059,
                21.041012
              ],
              [
                105.885091,
                21.041084
              ],
              [
                105.885307,
                21.041576
              ],
              [
                105.885343,
                21.041646
              ],
              [
                105.885499,
                21.041935
              ],
              [
                105.885503,
                21.041943
              ],
              [
                105.885605,
                21.042132
              ],
              [
                105.88575,
                21.042393
              ],
              [
                105.885939,
                21.042772
              ],
              [
                105.886054,
                21.042998
              ],
              [
                105.886118,
                21.043197
              ],
              [
                105.886152,
                21.043258
              ],
              [
                105.886218,
                21.043384
              ],
              [
                105.886431,
                21.043788
              ],
              [
                105.886598,
                21.044101
              ],
              [
                105.886725,
                21.044341
              ],
              [
                105.886958,
                21.04478
              ],
              [
                105.88701,
                21.044758
              ],
              [
                105.887091,
                21.044907
              ],
              [
                105.887299,
                21.045284
              ],
              [
                105.88738,
                21.045435
              ],
              [
                105.887547,
                21.045743
              ],
              [
                105.887588,
                21.045827
              ],
              [
                105.887663,
                21.045962
              ],
              [
                105.887742,
                21.046101
              ],
              [
                105.887894,
                21.04638
              ],
              [
                105.888065,
                21.046696
              ],
              [
                105.888193,
                21.04694
              ],
              [
                105.888203,
                21.047026
              ],
              [
                105.888272,
                21.047142
              ],
              [
                105.888376,
                21.047362
              ],
              [
                105.888474,
                21.047577
              ],
              [
                105.888546,
                21.047721
              ],
              [
                105.888615,
                21.04787
              ],
              [
                105.888709,
                21.048071
              ],
              [
                105.888719,
                21.048092
              ],
              [
                105.888732,
                21.04812
              ],
              [
                105.888745,
                21.048148
              ],
              [
                105.888809,
                21.048282
              ],
              [
                105.888883,
                21.048443
              ],
              [
                105.888902,
                21.048482
              ],
              [
                105.888902,
                21.048483
              ],
              [
                105.888916,
                21.048511
              ],
              [
                105.888984,
                21.048656
              ],
              [
                105.889038,
                21.048774
              ],
              [
                105.889092,
                21.048891
              ],
              [
                105.889124,
                21.048961
              ],
              [
                105.889151,
                21.04902
              ],
              [
                105.889181,
                21.049085
              ],
              [
                105.889319,
                21.049385
              ],
              [
                105.889434,
                21.049635
              ],
              [
                105.889543,
                21.049876
              ],
              [
                105.889625,
                21.050054
              ],
              [
                105.889637,
                21.050079
              ],
              [
                105.889648,
                21.050105
              ],
              [
                105.88966,
                21.05013
              ],
              [
                105.889766,
                21.050364
              ],
              [
                105.889826,
                21.050492
              ],
              [
                105.889827,
                21.050495
              ],
              [
                105.88983,
                21.050503
              ],
              [
                105.889895,
                21.050642
              ],
              [
                105.889896,
                21.050645
              ],
              [
                105.889912,
                21.050679
              ],
              [
                105.889977,
                21.050819
              ],
              [
                105.890103,
                21.051097
              ],
              [
                105.890156,
                21.051214
              ],
              [
                105.890184,
                21.051276
              ],
              [
                105.890196,
                21.051307
              ],
              [
                105.890555,
                21.052064
              ],
              [
                105.891045,
                21.051377
              ],
              [
                105.891896,
                21.050187
              ],
              [
                105.892836,
                21.048802
              ],
              [
                105.893061,
                21.048428
              ],
              [
                105.893197,
                21.048222
              ],
              [
                105.893385,
                21.047858
              ],
              [
                105.893541,
                21.047457
              ],
              [
                105.893804,
                21.047059
              ],
              [
                105.89403,
                21.046706
              ],
              [
                105.894306,
                21.046286
              ],
              [
                105.894556,
                21.045908
              ],
              [
                105.894653,
                21.045757
              ],
              [
                105.894653,
                21.045757
              ]
            ]
          ]
        ]
      },
      "properties": {
        "code": "00145",
        "name": "Long Biên",
        "nameEn": "Long Bien",
        "fullName": "Phường Long Biên",
        "fullNameEn": "Long Bien Ward",
        "codeName": "long_bien",
        "postalCode": "11814",
        "postalCodePrefix": "",
        "gisServerId": "diaphanhanhchinhcapxa_2025.3171",
        "areaKm2": 19.04
      }
    }
  ]
}