{
  "type": "FeatureCollection",
  "bbox": [
    105.778648,
    21.017657,
    105.801292,
    21.041853
  ],
  "features": [
    {
      "type": "Feature",
      "id": "00166",
      "bbox": [
        105.778648,
        21.017657,
        105.801292,
        21.041853
      ],
      "geometry": {
        "type": "MultiPolygon",
        "coordinates": [
          [
            [
              [
                105.786751,
                21.041627
              ],
              [
                105.787167,
                21.041621
              ],
              [
                105.787762,
                21.041621
              ],
              [
                105.788291,
                21.041623
              ],
              [
                105.78893,
                21.041625
              ],
              [
                105.789585,
                21.041625
              ],
              [
                105.790476,
                21.041635
              ],
              [
                105.790477,
                21.041518
              ],
              [
                105.790487,
                21.041201
              ],
              [
                105.790487,
                21.040779
              ],
              [
                105.790487,
                21.040681
              ],
              [
                105.790496,
                21.04058
              ],
              [
                105.790502,
                21.040535
              ],
              [
                105.790502,
                21.040373
              ],
              [
                105.790502,
                21.040334
              ],
              [
                105.7905,
                21.040245
              ],
              [
                105.790561,
                21.040182
              ],
              [
                105.791489,
                21.039458
              ],
              [
                105.792364,
                21.038769
              ],
              [
                105.793553,
                21.037861
              ],
              [
                105.793997,
                21.037581
              ],
              [
                105.794253,
                21.037455
              ],
              [
                105.794506,
                21.037565
              ],
              [
                105.794549,
                21.037582
              ],
              [
                105.794755,
                21.037663
              ],
              [
                105.794733,
                21.038761
              ],
              [
                105.794721,
                21.039202
              ],
              [
                105.79564,
                21.039211
              ],
              [
                105.795716,
                21.039198
              ],
              [
                105.795861,
                21.039078
              ],
              [
                105.796117,
                21.038809
              ],
              [
                105.796301,
                21.038874
              ],
              [
                105.796477,
                21.038906
              ],
              [
                105.797048,
                21.038971
              ],
              [
                105.797597,
                21.039023
              ],
              [
                105.797686,
                21.03903
              ],
              [
                105.797702,
                21.038674
              ],
              [
                105.797708,
                21.038521
              ],
              [
                105.79771,
                21.038483
              ],
              [
                105.797714,
                21.038384
              ],
              [
                105.797718,
                21.038291
              ],
              [
                105.797722,
                21.038214
              ],
              [
                105.797726,
                21.038114
              ],
              [
                105.79773,
                21.038008
              ],
              [
                105.797735,
                21.037917
              ],
              [
                105.797737,
                21.037886
              ],
              [
                105.797735,
                21.037834
              ],
              [
                105.797756,
                21.037446
              ],
              [
                105.797758,
                21.037401
              ],
              [
                105.797762,
                21.037298
              ],
              [
                105.797768,
                21.037201
              ],
              [
                105.797772,
                21.037113
              ],
              [
                105.797774,
                21.03703
              ],
              [
                105.797777,
                21.036954
              ],
              [
                105.797781,
                21.036839
              ],
              [
                105.797785,
                21.036715
              ],
              [
                105.797786,
                21.036618
              ],
              [
                105.797783,
                21.036509
              ],
              [
                105.797774,
                21.036385
              ],
              [
                105.797768,
                21.036307
              ],
              [
                105.797761,
                21.036249
              ],
              [
                105.797679,
                21.035619
              ],
              [
                105.797534,
                21.034693
              ],
              [
                105.797379,
                21.03385
              ],
              [
                105.797617,
                21.033669
              ],
              [
                105.798571,
                21.032758
              ],
              [
                105.79919,
                21.032141
              ],
              [
                105.800457,
                21.030964
              ],
              [
                105.800888,
                21.03055
              ],
              [
                105.801292,
                21.03027
              ],
              [
                105.800809,
                21.029633
              ],
              [
                105.800467,
                21.029211
              ],
              [
                105.800369,
                21.029104
              ],
              [
                105.798564,
                21.027123
              ],
              [
                105.7983,
                21.026789
              ],
              [
                105.798147,
                21.02649
              ],
              [
                105.797659,
                21.025103
              ],
              [
                105.797652,
                21.025038
              ],
              [
                105.79402,
                21.026166
              ],
              [
                105.792525,
                21.025018
              ],
              [
                105.790654,
                21.023616
              ],
              [
                105.788497,
                21.022092
              ],
              [
                105.786141,
                21.020444
              ],
              [
                105.784236,
                21.019095
              ],
              [
                105.784171,
                21.019048
              ],
              [
                105.78396,
                21.018901
              ],
              [
                105.783896,
                21.018854
              ],
              [
                105.783854,
                21.018824
              ],
              [
                105.783765,
                21.01876
              ],
              [
                105.78368,
                21.0187
              ],
              [
                105.783597,
                21.01864
              ],
              [
                105.783531,
                21.018593
              ],
              [
                105.783476,
                21.018555
              ],
              [
                105.78341,
                21.018508
              ],
              [
                105.783331,
                21.018452
              ],
              [
                105.783242,
                21.018389
              ],
              [
                105.783195,
                21.018356
              ],
              [
                105.783141,
                21.018318
              ],
              [
                105.783082,
                21.018276
              ],
              [
                105.783015,
                21.01823
              ],
              [
                105.782944,
                21.018179
              ],
              [
                105.782871,
                21.018128
              ],
              [
                105.782801,
                21.018078
              ],
              [
                105.782746,
                21.018039
              ],
              [
                105.782691,
                21.018001
              ],
              [
                105.782615,
                21.017947
              ],
              [
                105.78255,
                21.0179
              ],
              [
                105.782482,
                21.017853
              ],
              [
                105.78246,
                21.017838
              ],
              [
                105.78242,
                21.017812
              ],
              [
                105.782199,
                21.017657
              ],
              [
                105.780494,
                21.019757
              ],
              [
                105.77992,
                21.020514
              ],
              [
                105.77986,
                21.020595
              ],
              [
                105.779728,
                21.020811
              ],
              [
                105.779444,
                21.021296
              ],
              [
                105.779258,
                21.02167
              ],
              [
                105.779101,
                21.022054
              ],
              [
                105.779,
                21.022338
              ],
              [
                105.778885,
                21.022692
              ],
              [
                105.778781,
                21.02313
              ],
              [
                105.778697,
                21.023621
              ],
              [
                105.778652,
                21.024081
              ],
              [
                105.778649,
                21.024335
              ],
              [
                105.778648,
                21.024503
              ],
              [
                105.778652,
                21.024733
              ],
              [
                105.778677,
                21.025187
              ],
              [
                105.778751,
                21.02576
              ],
              [
                105.77902,
                21.027375
              ],
              [
                105.779522,
                21.030326
              ],
              [
                105.779735,
                21.031531
              ],
              [
                105.779813,
                21.031984
              ],
              [
                105.77982,
                21.032025
              ],
              [
                105.780041,
                21.033282
              ],
              [
                105.780108,
                21.033665
              ],
              [
                105.780163,
                21.033984
              ],
              [
                105.780226,
                21.03435
              ],
              [
                105.78024,
                21.034429
              ],
              [
                105.780315,
                21.034854
              ],
              [
                105.780401,
                21.035308
              ],
              [
                105.780432,
                21.035511
              ],
              [
                105.780504,
                21.035967
              ],
              [
                105.780511,
                21.03601
              ],
              [
                105.780537,
                21.03619
              ],
              [
                105.780568,
                21.036416
              ],
              [
                105.780593,
                21.036603
              ],
              [
                105.780567,
                21.036604
              ],
              [
                105.780608,
                21.036877
              ],
              [
                105.780668,
                21.037356
              ],
              [
                105.780733,
                21.037937
              ],
              [
                105.780732,
                21.037938
              ],
              [
                105.780802,
                21.038626
              ],
              [
                105.780845,
                21.039132
              ],
              [
                105.780857,
                21.039393
              ],
              [
                105.780874,
                21.040017
              ],
              [
                105.78091,
                21.040992
              ],
              [
                105.780959,
                21.041853
              ],
              [
                105.781151,
                21.041847
              ],
              [
                105.781259,
                21.041842
              ],
              [
                105.781737,
                21.041821
              ],
              [
                105.781797,
                21.041818
              ],
              [
                105.782711,
                21.041778
              ],
              [
                105.784023,
                21.041716
              ],
              [
                105.784416,
                21.041713
              ],
              [
                105.784788,
                21.041702
              ],
              [
                105.786183,
                21.041661
              ],
              [
                105.786259,
                21.041649
              ],
              [
                105.786303,
                21.041642
              ],
              [
                105.786751,
                21.041627
              ],
              [
                105.786751,
                21.041627
              ]
            ]
          ]
        ]
      },
      "properties": {
        "code": "00166",
        "name": "Cầu Giấy",
        "nameEn": "Cau Giay",
        "fullName": "Phường Cầu Giấy",
        "fullNameEn": "Cau Giay Ward",
        "codeName": "cau_giay",
        "postalCode": "11314",
        "postalCodePrefix": "",
        "gisServerId": "diaphanhanhchinhcapxa_2025.3264",
        "areaKm2": 3.74
      }
    }
  ]
}