{
  "type": "FeatureCollection",
  "bbox": [
    105.782199,
    21.002232,
    105.810785,
    21.026166
  ],
  "features": [
    {
      "type": "Feature",
      "id": "00175",
      "bbox": [
        105.782199,
        21.002232,
        105.810785,
        21.026166
      ],
      "geometry": {
        "type": "MultiPolygon",
        "coordinates": [
          [
            [
              [
                105.805142,
                21.005662
              ],
              [
                105.803318,
                21.004373
              ],
              [
                105.801493,
                21.00308
              ],
              [
                105.801004,
                21.002731
              ],
              [
                105.800296,
                21.002232
              ],
              [
                105.800233,
                21.002309
              ],
              [
                105.799207,
                21.003567
              ],
              [
                105.798882,
                21.003966
              ],
              [
                105.79886,
                21.003992
              ],
              [
                105.798794,
                21.004073
              ],
              [
                105.798786,
                21.004082
              ],
              [
                105.798424,
                21.00453
              ],
              [
                105.79833,
                21.004646
              ],
              [
                105.79799,
                21.005066
              ],
              [
                105.797896,
                21.005182
              ],
              [
                105.797652,
                21.005483
              ],
              [
                105.797636,
                21.005472
              ],
              [
                105.797629,
                21.005467
              ],
              [
                105.797547,
                21.005408
              ],
              [
                105.797514,
                21.005385
              ],
              [
                105.797399,
                21.005302
              ],
              [
                105.797318,
                21.005244
              ],
              [
                105.797176,
                21.005143
              ],
              [
                105.797054,
                21.005056
              ],
              [
                105.796943,
                21.004976
              ],
              [
                105.796788,
                21.004865
              ],
              [
                105.796723,
                21.004819
              ],
              [
                105.796633,
                21.004755
              ],
              [
                105.796517,
                21.004672
              ],
              [
                105.796478,
                21.004644
              ],
              [
                105.796263,
                21.00449
              ],
              [
                105.796142,
                21.004403
              ],
              [
                105.795978,
                21.004286
              ],
              [
                105.795963,
                21.004276
              ],
              [
                105.795916,
                21.004242
              ],
              [
                105.79591,
                21.004238
              ],
              [
                105.795848,
                21.004195
              ],
              [
                105.795822,
                21.004177
              ],
              [
                105.795753,
                21.004129
              ],
              [
                105.795682,
                21.004079
              ],
              [
                105.795632,
                21.004044
              ],
              [
                105.79561,
                21.004029
              ],
              [
                105.795566,
                21.003998
              ],
              [
                105.795522,
                21.003967
              ],
              [
                105.795468,
                21.003929
              ],
              [
                105.79536,
                21.003854
              ],
              [
                105.795279,
                21.003798
              ],
              [
                105.795256,
                21.003781
              ],
              [
                105.795005,
                21.003606
              ],
              [
                105.794763,
                21.003437
              ],
              [
                105.794726,
                21.003411
              ],
              [
                105.794717,
                21.003405
              ],
              [
                105.794417,
                21.003195
              ],
              [
                105.794291,
                21.003107
              ],
              [
                105.79428,
                21.0031
              ],
              [
                105.794273,
                21.003095
              ],
              [
                105.794267,
                21.00309
              ],
              [
                105.794251,
                21.003079
              ],
              [
                105.794093,
                21.002969
              ],
              [
                105.792314,
                21.005164
              ],
              [
                105.792122,
                21.005401
              ],
              [
                105.791564,
                21.006097
              ],
              [
                105.790809,
                21.007022
              ],
              [
                105.790209,
                21.00777
              ],
              [
                105.789085,
                21.00916
              ],
              [
                105.788027,
                21.010463
              ],
              [
                105.786839,
                21.011925
              ],
              [
                105.784378,
                21.014968
              ],
              [
                105.78291,
                21.016764
              ],
              [
                105.782199,
                21.017657
              ],
              [
                105.78242,
                21.017812
              ],
              [
                105.78246,
                21.017838
              ],
              [
                105.782482,
                21.017853
              ],
              [
                105.78255,
                21.0179
              ],
              [
                105.782615,
                21.017947
              ],
              [
                105.782691,
                21.018001
              ],
              [
                105.782746,
                21.018039
              ],
              [
                105.782801,
                21.018078
              ],
              [
                105.782871,
                21.018128
              ],
              [
                105.782944,
                21.018179
              ],
              [
                105.783015,
                21.01823
              ],
              [
                105.783082,
                21.018276
              ],
              [
                105.783141,
                21.018318
              ],
              [
                105.783195,
                21.018356
              ],
              [
                105.783242,
                21.018389
              ],
              [
                105.783331,
                21.018452
              ],
              [
                105.78341,
                21.018508
              ],
              [
                105.783476,
                21.018555
              ],
              [
                105.783531,
                21.018593
              ],
              [
                105.783597,
                21.01864
              ],
              [
                105.78368,
                21.0187
              ],
              [
                105.783765,
                21.01876
              ],
              [
                105.783854,
                21.018824
              ],
              [
                105.783896,
                21.018854
              ],
              [
                105.78396,
                21.018901
              ],
              [
                105.784171,
                21.019048
              ],
              [
                105.784236,
                21.019095
              ],
              [
                105.786141,
                21.020444
              ],
              [
                105.788497,
                21.022092
              ],
              [
                105.790654,
                21.023616
              ],
              [
                105.792525,
                21.025018
              ],
              [
                105.79402,
                21.026166
              ],
              [
                105.797652,
                21.025038
              ],
              [
                105.797617,
                21.02471
              ],
              [
                105.797664,
                21.02438
              ],
              [
                105.797804,
                21.024057
              ],
              [
                105.798072,
                21.023721
              ],
              [
                105.799605,
                21.022517
              ],
              [
                105.800004,
                21.022137
              ],
              [
                105.800215,
                21.021874
              ],
              [
                105.801266,
                21.020316
              ],
              [
                105.802727,
                21.017662
              ],
              [
                105.80288,
                21.017384
              ],
              [
                105.803209,
                21.016916
              ],
              [
                105.804157,
                21.015734
              ],
              [
                105.804965,
                21.015022
              ],
              [
                105.805106,
                21.014889
              ],
              [
                105.805186,
                21.014814
              ],
              [
                105.806408,
                21.01366
              ],
              [
                105.807811,
                21.012539
              ],
              [
                105.810622,
                21.010652
              ],
              [
                105.810785,
                21.01055
              ],
              [
                105.810455,
                21.010103
              ],
              [
                105.810417,
                21.01005
              ],
              [
                105.810285,
                21.009867
              ],
              [
                105.810098,
                21.009608
              ],
              [
                105.80968,
                21.009027
              ],
              [
                105.809564,
                21.008892
              ],
              [
                105.809564,
                21.008892
              ],
              [
                105.809497,
                21.008817
              ],
              [
                105.809487,
                21.008805
              ],
              [
                105.809332,
                21.008636
              ],
              [
                105.808881,
                21.008276
              ],
              [
                105.808609,
                21.008076
              ],
              [
                105.808517,
                21.008007
              ],
              [
                105.807582,
                21.007344
              ],
              [
                105.807187,
                21.007069
              ],
              [
                105.806688,
                21.006719
              ],
              [
                105.805142,
                21.005662
              ],
              [
                105.805142,
                21.005662
              ]
            ]
          ]
        ]
      },
      "properties": {
        "code": "00175",
        "name": "Yên Hoà",
        "nameEn": "Yen Hoa",
        "fullName": "Phường Yên Hoà",
        "fullNameEn": "Yen Hoa Ward",
        "codeName": "yen_hoa",
        "postalCode": "11312",
        "postalCodePrefix": "",
        "gisServerId": "diaphanhanhchinhcapxa_2025.3265",
        "areaKm2": 4.1
      }
    }
  ]
}