{
  "type": "FeatureCollection",
  "bbox": [
    105.797617,
    21.01055,
    105.814926,
    21.030351
  ],
  "features": [
    {
      "type": "Feature",
      "id": "00199",
      "bbox": [
        105.797617,
        21.01055,
        105.814926,
        21.030351
      ],
      "geometry": {
        "type": "MultiPolygon",
        "coordinates": [
          [
            [
              [
                105.80138,
                21.030334
              ],
              [
                105.801522,
                21.030243
              ],
              [
                105.801532,
                21.030237
              ],
              [
                105.801621,
                21.030178
              ],
              [
                105.801621,
                21.030178
              ],
              [
                105.801715,
                21.030136
              ],
              [
                105.801748,
                21.030122
              ],
              [
                105.801838,
                21.030081
              ],
              [
                105.801882,
                21.030062
              ],
              [
                105.80202,
                21.03
              ],
              [
                105.802667,
                21.029754
              ],
              [
                105.803216,
                21.029497
              ],
              [
                105.803649,
                21.029286
              ],
              [
                105.803823,
                21.029201
              ],
              [
                105.804389,
                21.028942
              ],
              [
                105.804779,
                21.028799
              ],
              [
                105.80528,
                21.028653
              ],
              [
                105.805375,
                21.028624
              ],
              [
                105.805474,
                21.028591
              ],
              [
                105.805827,
                21.028465
              ],
              [
                105.805896,
                21.02845
              ],
              [
                105.806094,
                21.028405
              ],
              [
                105.806154,
                21.02839
              ],
              [
                105.806205,
                21.028378
              ],
              [
                105.80665,
                21.028276
              ],
              [
                105.80809,
                21.02794
              ],
              [
                105.808193,
                21.027914
              ],
              [
                105.808744,
                21.027736
              ],
              [
                105.809023,
                21.02762
              ],
              [
                105.809303,
                21.027432
              ],
              [
                105.809534,
                21.027184
              ],
              [
                105.809706,
                21.026946
              ],
              [
                105.810276,
                21.026213
              ],
              [
                105.811184,
                21.025174
              ],
              [
                105.811252,
                21.025045
              ],
              [
                105.81115,
                21.024871
              ],
              [
                105.808232,
                21.019859
              ],
              [
                105.808341,
                21.019806
              ],
              [
                105.808843,
                21.019565
              ],
              [
                105.808904,
                21.019535
              ],
              [
                105.809382,
                21.019305
              ],
              [
                105.809963,
                21.019028
              ],
              [
                105.810602,
                21.01872
              ],
              [
                105.810716,
                21.018665
              ],
              [
                105.811302,
                21.018379
              ],
              [
                105.811797,
                21.018134
              ],
              [
                105.812633,
                21.017721
              ],
              [
                105.812789,
                21.017646
              ],
              [
                105.8131,
                21.017498
              ],
              [
                105.813592,
                21.017256
              ],
              [
                105.814418,
                21.016855
              ],
              [
                105.814849,
                21.016638
              ],
              [
                105.814926,
                21.016598
              ],
              [
                105.814125,
                21.015357
              ],
              [
                105.813901,
                21.015011
              ],
              [
                105.813887,
                21.014989
              ],
              [
                105.813838,
                21.014914
              ],
              [
                105.81378,
                21.014824
              ],
              [
                105.813719,
                21.014733
              ],
              [
                105.813677,
                21.01467
              ],
              [
                105.813639,
                21.014612
              ],
              [
                105.813588,
                21.014533
              ],
              [
                105.813535,
                21.01445
              ],
              [
                105.813474,
                21.014356
              ],
              [
                105.813419,
                21.014272
              ],
              [
                105.813383,
                21.014216
              ],
              [
                105.813341,
                21.014152
              ],
              [
                105.81329,
                21.014073
              ],
              [
                105.813239,
                21.013994
              ],
              [
                105.813201,
                21.013935
              ],
              [
                105.813192,
                21.013921
              ],
              [
                105.813044,
                21.013693
              ],
              [
                105.813003,
                21.013634
              ],
              [
                105.812967,
                21.013582
              ],
              [
                105.812932,
                21.01353
              ],
              [
                105.812898,
                21.013476
              ],
              [
                105.812864,
                21.013419
              ],
              [
                105.812818,
                21.013343
              ],
              [
                105.812779,
                21.013277
              ],
              [
                105.81274,
                21.013218
              ],
              [
                105.812695,
                21.013151
              ],
              [
                105.812642,
                21.013069
              ],
              [
                105.812587,
                21.012979
              ],
              [
                105.812543,
                21.012908
              ],
              [
                105.812495,
                21.012833
              ],
              [
                105.812447,
                21.012759
              ],
              [
                105.812403,
                21.012691
              ],
              [
                105.812336,
                21.012592
              ],
              [
                105.812314,
                21.012559
              ],
              [
                105.812177,
                21.01237
              ],
              [
                105.811956,
                21.012093
              ],
              [
                105.811556,
                21.01156
              ],
              [
                105.811253,
                21.011143
              ],
              [
                105.810785,
                21.01055
              ],
              [
                105.810622,
                21.010652
              ],
              [
                105.807811,
                21.012539
              ],
              [
                105.806408,
                21.01366
              ],
              [
                105.805186,
                21.014814
              ],
              [
                105.805106,
                21.014889
              ],
              [
                105.804965,
                21.015022
              ],
              [
                105.804157,
                21.015734
              ],
              [
                105.803209,
                21.016916
              ],
              [
                105.80288,
                21.017384
              ],
              [
                105.802727,
                21.017662
              ],
              [
                105.801266,
                21.020316
              ],
              [
                105.800215,
                21.021874
              ],
              [
                105.800004,
                21.022137
              ],
              [
                105.799605,
                21.022517
              ],
              [
                105.798072,
                21.023721
              ],
              [
                105.797804,
                21.024057
              ],
              [
                105.797664,
                21.02438
              ],
              [
                105.797617,
                21.02471
              ],
              [
                105.797652,
                21.025038
              ],
              [
                105.797659,
                21.025103
              ],
              [
                105.798147,
                21.02649
              ],
              [
                105.7983,
                21.026789
              ],
              [
                105.798564,
                21.027123
              ],
              [
                105.800369,
                21.029104
              ],
              [
                105.800467,
                21.029211
              ],
              [
                105.800809,
                21.029633
              ],
              [
                105.801292,
                21.03027
              ],
              [
                105.801353,
                21.030351
              ],
              [
                105.80138,
                21.030334
              ],
              [
                105.80138,
                21.030334
              ]
            ]
          ]
        ]
      },
      "properties": {
        "code": "00199",
        "name": "Láng",
        "nameEn": "Lang",
        "fullName": "Phường Láng",
        "fullNameEn": "Lang Ward",
        "codeName": "lang",
        "postalCode": "11528",
        "postalCodePrefix": "",
        "gisServerId": "diaphanhanhchinhcapxa_2025.3207",
        "areaKm2": 1.88
      }
    }
  ]
}