{
  "type": "FeatureCollection",
  "bbox": [
    105.860703,
    20.986643,
    105.874229,
    21.009028
  ],
  "features": [
    {
      "type": "Feature",
      "id": "00283",
      "bbox": [
        105.860703,
        20.986643,
        105.874229,
        21.009028
      ],
      "geometry": {
        "type": "MultiPolygon",
        "coordinates": [
          [
            [
              [
                105.874229,
                21.002414
              ],
              [
                105.874054,
                21.002263
              ],
              [
                105.87402,
                21.002227
              ],
              [
                105.87396,
                21.002165
              ],
              [
                105.873892,
                21.002097
              ],
              [
                105.873832,
                21.002041
              ],
              [
                105.873765,
                21.001978
              ],
              [
                105.873676,
                21.001894
              ],
              [
                105.873598,
                21.001819
              ],
              [
                105.873534,
                21.001758
              ],
              [
                105.873461,
                21.001688
              ],
              [
                105.873395,
                21.001624
              ],
              [
                105.873339,
                21.001569
              ],
              [
                105.873281,
                21.001513
              ],
              [
                105.873212,
                21.001445
              ],
              [
                105.873144,
                21.001378
              ],
              [
                105.873077,
                21.001313
              ],
              [
                105.872989,
                21.001228
              ],
              [
                105.872913,
                21.001154
              ],
              [
                105.872837,
                21.00108
              ],
              [
                105.872772,
                21.001016
              ],
              [
                105.872717,
                21.000962
              ],
              [
                105.872643,
                21.000891
              ],
              [
                105.872573,
                21.000826
              ],
              [
                105.872509,
                21.000765
              ],
              [
                105.872445,
                21.000703
              ],
              [
                105.872301,
                21.00057
              ],
              [
                105.872231,
                21.000504
              ],
              [
                105.87218,
                21.000457
              ],
              [
                105.872111,
                21.000396
              ],
              [
                105.872051,
                21.000344
              ],
              [
                105.871965,
                21.00027
              ],
              [
                105.871956,
                21.000264
              ],
              [
                105.872068,
                21.000169
              ],
              [
                105.872263,
                21.000004
              ],
              [
                105.872443,
                20.999919
              ],
              [
                105.872567,
                20.999826
              ],
              [
                105.872856,
                20.999359
              ],
              [
                105.87307,
                20.999014
              ],
              [
                105.873366,
                20.998537
              ],
              [
                105.87352,
                20.998174
              ],
              [
                105.873699,
                20.997652
              ],
              [
                105.873823,
                20.99709
              ],
              [
                105.874032,
                20.995872
              ],
              [
                105.874036,
                20.995816
              ],
              [
                105.874061,
                20.995301
              ],
              [
                105.874057,
                20.995198
              ],
              [
                105.873989,
                20.994277
              ],
              [
                105.873988,
                20.994257
              ],
              [
                105.873971,
                20.994109
              ],
              [
                105.87395,
                20.993912
              ],
              [
                105.873939,
                20.993804
              ],
              [
                105.873913,
                20.993553
              ],
              [
                105.87389,
                20.993329
              ],
              [
                105.873879,
                20.993281
              ],
              [
                105.873804,
                20.993035
              ],
              [
                105.873726,
                20.992777
              ],
              [
                105.873558,
                20.992494
              ],
              [
                105.872251,
                20.98968
              ],
              [
                105.871621,
                20.989054
              ],
              [
                105.870451,
                20.987682
              ],
              [
                105.870156,
                20.987397
              ],
              [
                105.869588,
                20.986975
              ],
              [
                105.868914,
                20.986643
              ],
              [
                105.868856,
                20.986683
              ],
              [
                105.868838,
                20.986694
              ],
              [
                105.868804,
                20.986716
              ],
              [
                105.868492,
                20.986913
              ],
              [
                105.867577,
                20.987458
              ],
              [
                105.867292,
                20.987644
              ],
              [
                105.86691,
                20.987915
              ],
              [
                105.866845,
                20.987975
              ],
              [
                105.866659,
                20.988165
              ],
              [
                105.86596,
                20.988904
              ],
              [
                105.865794,
                20.989079
              ],
              [
                105.865509,
                20.989365
              ],
              [
                105.865291,
                20.989601
              ],
              [
                105.865169,
                20.989739
              ],
              [
                105.864989,
                20.989942
              ],
              [
                105.86459,
                20.990347
              ],
              [
                105.864068,
                20.990893
              ],
              [
                105.863795,
                20.991176
              ],
              [
                105.86329,
                20.991699
              ],
              [
                105.862986,
                20.991987
              ],
              [
                105.862713,
                20.992128
              ],
              [
                105.862643,
                20.992812
              ],
              [
                105.862637,
                20.992863
              ],
              [
                105.86263,
                20.992915
              ],
              [
                105.862627,
                20.992945
              ],
              [
                105.862615,
                20.993046
              ],
              [
                105.862613,
                20.993067
              ],
              [
                105.862596,
                20.993209
              ],
              [
                105.862595,
                20.99322
              ],
              [
                105.862577,
                20.993372
              ],
              [
                105.862573,
                20.993405
              ],
              [
                105.862558,
                20.993529
              ],
              [
                105.862555,
                20.993553
              ],
              [
                105.86254,
                20.993679
              ],
              [
                105.862536,
                20.993718
              ],
              [
                105.862521,
                20.993841
              ],
              [
                105.862518,
                20.993873
              ],
              [
                105.862505,
                20.993975
              ],
              [
                105.862503,
                20.993997
              ],
              [
                105.86249,
                20.994106
              ],
              [
                105.862484,
                20.99416
              ],
              [
                105.862472,
                20.99426
              ],
              [
                105.862469,
                20.994287
              ],
              [
                105.862463,
                20.994335
              ],
              [
                105.862452,
                20.994431
              ],
              [
                105.86245,
                20.994448
              ],
              [
                105.86244,
                20.994527
              ],
              [
                105.862427,
                20.994643
              ],
              [
                105.862419,
                20.994708
              ],
              [
                105.862398,
                20.994885
              ],
              [
                105.862389,
                20.994966
              ],
              [
                105.862383,
                20.995013
              ],
              [
                105.862363,
                20.995184
              ],
              [
                105.862359,
                20.995214
              ],
              [
                105.862337,
                20.995404
              ],
              [
                105.862333,
                20.995442
              ],
              [
                105.862313,
                20.995608
              ],
              [
                105.862305,
                20.995676
              ],
              [
                105.862304,
                20.995682
              ],
              [
                105.862292,
                20.995784
              ],
              [
                105.862289,
                20.995815
              ],
              [
                105.862272,
                20.99596
              ],
              [
                105.862268,
                20.995988
              ],
              [
                105.862267,
                20.995996
              ],
              [
                105.862266,
                20.996004
              ],
              [
                105.862265,
                20.996018
              ],
              [
                105.862262,
                20.996041
              ],
              [
                105.862261,
                20.99605
              ],
              [
                105.862261,
                20.996052
              ],
              [
                105.862259,
                20.996068
              ],
              [
                105.862258,
                20.996077
              ],
              [
                105.862257,
                20.996084
              ],
              [
                105.862256,
                20.996091
              ],
              [
                105.862256,
                20.996092
              ],
              [
                105.862256,
                20.996094
              ],
              [
                105.862256,
                20.996095
              ],
              [
                105.862255,
                20.996096
              ],
              [
                105.862255,
                20.996098
              ],
              [
                105.862255,
                20.9961
              ],
              [
                105.862255,
                20.996101
              ],
              [
                105.862241,
                20.996215
              ],
              [
                105.86224,
                20.996218
              ],
              [
                105.86224,
                20.996218
              ],
              [
                105.862231,
                20.996301
              ],
              [
                105.862203,
                20.996541
              ],
              [
                105.862203,
                20.996541
              ],
              [
                105.862203,
                20.996542
              ],
              [
                105.862203,
                20.996543
              ],
              [
                105.862203,
                20.996544
              ],
              [
                105.862203,
                20.996545
              ],
              [
                105.862202,
                20.996546
              ],
              [
                105.862202,
                20.996546
              ],
              [
                105.862202,
                20.996547
              ],
              [
                105.862202,
                20.996547
              ],
              [
                105.862202,
                20.996547
              ],
              [
                105.862202,
                20.996548
              ],
              [
                105.862202,
                20.996548
              ],
              [
                105.862202,
                20.996548
              ],
              [
                105.862202,
                20.996549
              ],
              [
                105.862202,
                20.996551
              ],
              [
                105.862201,
                20.996555
              ],
              [
                105.862201,
                20.996559
              ],
              [
                105.8622,
                20.99657
              ],
              [
                105.862198,
                20.996588
              ],
              [
                105.862189,
                20.996661
              ],
              [
                105.862175,
                20.996775
              ],
              [
                105.862169,
                20.996834
              ],
              [
                105.862154,
                20.996953
              ],
              [
                105.862147,
                20.997016
              ],
              [
                105.862142,
                20.99706
              ],
              [
                105.862133,
                20.997136
              ],
              [
                105.862119,
                20.997253
              ],
              [
                105.8621,
                20.997412
              ],
              [
                105.862088,
                20.997513
              ],
              [
                105.862077,
                20.99762
              ],
              [
                105.862039,
                20.997986
              ],
              [
                105.862027,
                20.998093
              ],
              [
                105.862007,
                20.998287
              ],
              [
                105.861991,
                20.998433
              ],
              [
                105.861981,
                20.998529
              ],
              [
                105.861967,
                20.998659
              ],
              [
                105.86193,
                20.999016
              ],
              [
                105.861928,
                20.999037
              ],
              [
                105.861861,
                20.999665
              ],
              [
                105.861849,
                20.999781
              ],
              [
                105.861799,
                21.000256
              ],
              [
                105.861791,
                21.000328
              ],
              [
                105.86177,
                21.000528
              ],
              [
                105.861744,
                21.000778
              ],
              [
                105.861735,
                21.000858
              ],
              [
                105.861681,
                21.001368
              ],
              [
                105.861673,
                21.00145
              ],
              [
                105.861622,
                21.001934
              ],
              [
                105.86161,
                21.002044
              ],
              [
                105.861596,
                21.002175
              ],
              [
                105.861575,
                21.002375
              ],
              [
                105.861555,
                21.002566
              ],
              [
                105.861528,
                21.002824
              ],
              [
                105.861524,
                21.002862
              ],
              [
                105.86152,
                21.0029
              ],
              [
                105.861518,
                21.002917
              ],
              [
                105.861507,
                21.003019
              ],
              [
                105.861497,
                21.003116
              ],
              [
                105.861492,
                21.003166
              ],
              [
                105.86149,
                21.003179
              ],
              [
                105.861481,
                21.003271
              ],
              [
                105.861458,
                21.003481
              ],
              [
                105.861453,
                21.003528
              ],
              [
                105.861427,
                21.003781
              ],
              [
                105.861422,
                21.003823
              ],
              [
                105.861402,
                21.004016
              ],
              [
                105.861391,
                21.004122
              ],
              [
                105.861372,
                21.004298
              ],
              [
                105.861361,
                21.004403
              ],
              [
                105.86134,
                21.004602
              ],
              [
                105.861332,
                21.004674
              ],
              [
                105.861309,
                21.0049
              ],
              [
                105.861301,
                21.004972
              ],
              [
                105.861282,
                21.005151
              ],
              [
                105.861269,
                21.005274
              ],
              [
                105.861254,
                21.005419
              ],
              [
                105.861243,
                21.005523
              ],
              [
                105.861225,
                21.005691
              ],
              [
                105.861217,
                21.005769
              ],
              [
                105.861203,
                21.0059
              ],
              [
                105.861192,
                21.006001
              ],
              [
                105.86119,
                21.00602
              ],
              [
                105.861187,
                21.006049
              ],
              [
                105.861183,
                21.006092
              ],
              [
                105.86118,
                21.006114
              ],
              [
                105.861174,
                21.006172
              ],
              [
                105.861173,
                21.006185
              ],
              [
                105.861172,
                21.006193
              ],
              [
                105.861171,
                21.006202
              ],
              [
                105.86117,
                21.006209
              ],
              [
                105.861169,
                21.006221
              ],
              [
                105.861169,
                21.006221
              ],
              [
                105.861169,
                21.006223
              ],
              [
                105.861168,
                21.006232
              ],
              [
                105.861168,
                21.006235
              ],
              [
                105.861167,
                21.006237
              ],
              [
                105.861167,
                21.006237
              ],
              [
                105.861167,
                21.006237
              ],
              [
                105.861167,
                21.006238
              ],
              [
                105.861167,
                21.006238
              ],
              [
                105.861167,
                21.006239
              ],
              [
                105.861167,
                21.006239
              ],
              [
                105.861167,
                21.006239
              ],
              [
                105.861167,
                21.00624
              ],
              [
                105.861167,
                21.00624
              ],
              [
                105.861167,
                21.00624
              ],
              [
                105.861167,
                21.006241
              ],
              [
                105.861167,
                21.006242
              ],
              [
                105.861167,
                21.006242
              ],
              [
                105.861167,
                21.006242
              ],
              [
                105.861167,
                21.006242
              ],
              [
                105.861167,
                21.006242
              ],
              [
                105.861167,
                21.006243
              ],
              [
                105.861167,
                21.006244
              ],
              [
                105.861167,
                21.006245
              ],
              [
                105.861167,
                21.006246
              ],
              [
                105.861167,
                21.006246
              ],
              [
                105.861166,
                21.006247
              ],
              [
                105.861166,
                21.006248
              ],
              [
                105.861166,
                21.00625
              ],
              [
                105.861166,
                21.006251
              ],
              [
                105.861166,
                21.006251
              ],
              [
                105.861166,
                21.006254
              ],
              [
                105.861165,
                21.006257
              ],
              [
                105.861165,
                21.006264
              ],
              [
                105.861164,
                21.006266
              ],
              [
                105.861164,
                21.006269
              ],
              [
                105.861164,
                21.006274
              ],
              [
                105.861163,
                21.006276
              ],
              [
                105.861163,
                21.006279
              ],
              [
                105.861162,
                21.006284
              ],
              [
                105.861162,
                21.006291
              ],
              [
                105.861161,
                21.006297
              ],
              [
                105.86116,
                21.006304
              ],
              [
                105.86116,
                21.006307
              ],
              [
                105.861159,
                21.006312
              ],
              [
                105.861159,
                21.006319
              ],
              [
                105.861158,
                21.006327
              ],
              [
                105.861157,
                21.006334
              ],
              [
                105.861157,
                21.006335
              ],
              [
                105.861155,
                21.006359
              ],
              [
                105.861153,
                21.006376
              ],
              [
                105.861152,
                21.006381
              ],
              [
                105.861149,
                21.006411
              ],
              [
                105.861147,
                21.006433
              ],
              [
                105.861145,
                21.006447
              ],
              [
                105.861144,
                21.006463
              ],
              [
                105.861139,
                21.006509
              ],
              [
                105.861133,
                21.006561
              ],
              [
                105.861128,
                21.006606
              ],
              [
                105.861121,
                21.006677
              ],
              [
                105.861118,
                21.006707
              ],
              [
                105.861109,
                21.006793
              ],
              [
                105.861106,
                21.006816
              ],
              [
                105.861105,
                21.006833
              ],
              [
                105.861094,
                21.006893
              ],
              [
                105.861094,
                21.006893
              ],
              [
                105.861088,
                21.006924
              ],
              [
                105.861076,
                21.006989
              ],
              [
                105.861068,
                21.007034
              ],
              [
                105.861055,
                21.007104
              ],
              [
                105.861054,
                21.007108
              ],
              [
                105.861044,
                21.00714
              ],
              [
                105.861029,
                21.007188
              ],
              [
                105.861023,
                21.007204
              ],
              [
                105.861012,
                21.007228
              ],
              [
                105.860998,
                21.007255
              ],
              [
                105.86099,
                21.007273
              ],
              [
                105.860984,
                21.007285
              ],
              [
                105.860973,
                21.007306
              ],
              [
                105.860961,
                21.00733
              ],
              [
                105.860955,
                21.007342
              ],
              [
                105.860945,
                21.007357
              ],
              [
                105.860906,
                21.007412
              ],
              [
                105.860891,
                21.007434
              ],
              [
                105.860863,
                21.007474
              ],
              [
                105.860804,
                21.007545
              ],
              [
                105.860803,
                21.007556
              ],
              [
                105.860802,
                21.007569
              ],
              [
                105.860798,
                21.007594
              ],
              [
                105.860791,
                21.007639
              ],
              [
                105.860774,
                21.007757
              ],
              [
                105.860759,
                21.007895
              ],
              [
                105.860747,
                21.008005
              ],
              [
                105.860719,
                21.008255
              ],
              [
                105.860717,
                21.008311
              ],
              [
                105.860713,
                21.008452
              ],
              [
                105.860704,
                21.008693
              ],
              [
                105.860703,
                21.008719
              ],
              [
                105.860736,
                21.008925
              ],
              [
                105.860803,
                21.009028
              ],
              [
                105.861105,
                21.008975
              ],
              [
                105.862167,
                21.008778
              ],
              [
                105.862625,
                21.008719
              ],
              [
                105.862806,
                21.008715
              ],
              [
                105.863376,
                21.008726
              ],
              [
                105.863503,
                21.008717
              ],
              [
                105.863524,
                21.008716
              ],
              [
                105.863585,
                21.008714
              ],
              [
                105.863652,
                21.00871
              ],
              [
                105.863715,
                21.008707
              ],
              [
                105.863741,
                21.008706
              ],
              [
                105.863787,
                21.008703
              ],
              [
                105.863831,
                21.008701
              ],
              [
                105.863919,
                21.008697
              ],
              [
                105.864006,
                21.008693
              ],
              [
                105.86406,
                21.00869
              ],
              [
                105.864092,
                21.008688
              ],
              [
                105.864177,
                21.008684
              ],
              [
                105.864194,
                21.008684
              ],
              [
                105.864263,
                21.00868
              ],
              [
                105.864357,
                21.008676
              ],
              [
                105.864574,
                21.008664
              ],
              [
                105.864638,
                21.00866
              ],
              [
                105.864732,
                21.008655
              ],
              [
                105.864825,
                21.00865
              ],
              [
                105.864918,
                21.008645
              ],
              [
                105.864927,
                21.008644
              ],
              [
                105.86501,
                21.00864
              ],
              [
                105.865104,
                21.008635
              ],
              [
                105.865113,
                21.008635
              ],
              [
                105.865222,
                21.008629
              ],
              [
                105.865315,
                21.008624
              ],
              [
                105.865408,
                21.008619
              ],
              [
                105.86543,
                21.008618
              ],
              [
                105.86548,
                21.008615
              ],
              [
                105.865541,
                21.008615
              ],
              [
                105.865716,
                21.008716
              ],
              [
                105.865818,
                21.008769
              ],
              [
                105.865858,
                21.008795
              ],
              [
                105.866087,
                21.008551
              ],
              [
                105.866756,
                21.007861
              ],
              [
                105.867272,
                21.007329
              ],
              [
                105.867792,
                21.006793
              ],
              [
                105.868299,
                21.006264
              ],
              [
                105.868749,
                21.005801
              ],
              [
                105.869153,
                21.005384
              ],
              [
                105.869922,
                21.004627
              ],
              [
                105.87048,
                21.004056
              ],
              [
                105.870557,
                21.003972
              ],
              [
                105.870566,
                21.003964
              ],
              [
                105.870631,
                21.003911
              ],
              [
                105.870727,
                21.003837
              ],
              [
                105.870832,
                21.003767
              ],
              [
                105.870907,
                21.003717
              ],
              [
                105.870985,
                21.003667
              ],
              [
                105.871062,
                21.003618
              ],
              [
                105.871139,
                21.003569
              ],
              [
                105.871243,
                21.003503
              ],
              [
                105.871333,
                21.003445
              ],
              [
                105.871405,
                21.003397
              ],
              [
                105.871481,
                21.003347
              ],
              [
                105.871547,
                21.003309
              ],
              [
                105.871634,
                21.003266
              ],
              [
                105.87173,
                21.003217
              ],
              [
                105.871839,
                21.003169
              ],
              [
                105.871972,
                21.003115
              ],
              [
                105.872079,
                21.003074
              ],
              [
                105.87217,
                21.003041
              ],
              [
                105.872265,
                21.003009
              ],
              [
                105.872397,
                21.002964
              ],
              [
                105.872528,
                21.00292
              ],
              [
                105.872663,
                21.002876
              ],
              [
                105.872779,
                21.002837
              ],
              [
                105.872885,
                21.002802
              ],
              [
                105.87298,
                21.002771
              ],
              [
                105.87306,
                21.002745
              ],
              [
                105.873141,
                21.002719
              ],
              [
                105.873239,
                21.002688
              ],
              [
                105.873342,
                21.002655
              ],
              [
                105.873449,
                21.002622
              ],
              [
                105.873542,
                21.002595
              ],
              [
                105.873637,
                21.002569
              ],
              [
                105.873769,
                21.002533
              ],
              [
                105.873893,
                21.002501
              ],
              [
                105.87399,
                21.002476
              ],
              [
                105.874066,
                21.002456
              ],
              [
                105.874144,
                21.002436
              ],
              [
                105.874229,
                21.002414
              ],
              [
                105.874229,
                21.002414
              ]
            ]
          ]
        ]
      },
      "properties": {
        "code": "00283",
        "name": "Vĩnh Tuy",
        "nameEn": "Vinh Tuy",
        "fullName": "Phường Vĩnh Tuy",
        "fullNameEn": "Vinh Tuy Ward",
        "codeName": "vinh_tuy",
        "postalCode": "11622",
        "postalCodePrefix": "",
        "gisServerId": "diaphanhanhchinhcapxa_2025.3200",
        "areaKm2": 2.33
      }
    }
  ]
}