{
  "type": "FeatureCollection",
  "bbox": [
    105.868914,
    20.979572,
    105.895015,
    21.002414
  ],
  "features": [
    {
      "type": "Feature",
      "id": "00301",
      "bbox": [
        105.868914,
        20.979572,
        105.895015,
        21.002414
      ],
      "geometry": {
        "type": "MultiPolygon",
        "coordinates": [
          [
            [
              [
                105.875477,
                20.983596
              ],
              [
                105.875079,
                20.983747
              ],
              [
                105.874635,
                20.983927
              ],
              [
                105.87426,
                20.984077
              ],
              [
                105.873702,
                20.984293
              ],
              [
                105.873518,
                20.984368
              ],
              [
                105.873239,
                20.984479
              ],
              [
                105.872395,
                20.984799
              ],
              [
                105.872022,
                20.984941
              ],
              [
                105.871578,
                20.985106
              ],
              [
                105.871268,
                20.985239
              ],
              [
                105.870788,
                20.985436
              ],
              [
                105.870568,
                20.985574
              ],
              [
                105.870033,
                20.985922
              ],
              [
                105.868992,
                20.98659
              ],
              [
                105.868989,
                20.986592
              ],
              [
                105.868968,
                20.986606
              ],
              [
                105.868914,
                20.986643
              ],
              [
                105.869588,
                20.986975
              ],
              [
                105.870156,
                20.987397
              ],
              [
                105.870451,
                20.987682
              ],
              [
                105.871621,
                20.989054
              ],
              [
                105.872251,
                20.98968
              ],
              [
                105.873558,
                20.992494
              ],
              [
                105.873726,
                20.992777
              ],
              [
                105.873804,
                20.993035
              ],
              [
                105.873879,
                20.993281
              ],
              [
                105.87389,
                20.993329
              ],
              [
                105.873913,
                20.993553
              ],
              [
                105.873939,
                20.993804
              ],
              [
                105.87395,
                20.993912
              ],
              [
                105.873971,
                20.994109
              ],
              [
                105.873988,
                20.994257
              ],
              [
                105.873989,
                20.994277
              ],
              [
                105.874057,
                20.995198
              ],
              [
                105.874061,
                20.995301
              ],
              [
                105.874036,
                20.995816
              ],
              [
                105.874032,
                20.995872
              ],
              [
                105.873823,
                20.99709
              ],
              [
                105.873699,
                20.997652
              ],
              [
                105.87352,
                20.998174
              ],
              [
                105.873366,
                20.998537
              ],
              [
                105.87307,
                20.999014
              ],
              [
                105.872856,
                20.999359
              ],
              [
                105.872567,
                20.999826
              ],
              [
                105.872443,
                20.999919
              ],
              [
                105.872263,
                21.000004
              ],
              [
                105.872068,
                21.000169
              ],
              [
                105.871956,
                21.000264
              ],
              [
                105.871965,
                21.00027
              ],
              [
                105.872051,
                21.000344
              ],
              [
                105.872111,
                21.000396
              ],
              [
                105.87218,
                21.000457
              ],
              [
                105.872231,
                21.000504
              ],
              [
                105.872301,
                21.00057
              ],
              [
                105.872445,
                21.000703
              ],
              [
                105.872509,
                21.000765
              ],
              [
                105.872573,
                21.000826
              ],
              [
                105.872643,
                21.000891
              ],
              [
                105.872717,
                21.000962
              ],
              [
                105.872772,
                21.001016
              ],
              [
                105.872837,
                21.00108
              ],
              [
                105.872913,
                21.001154
              ],
              [
                105.872989,
                21.001228
              ],
              [
                105.873077,
                21.001313
              ],
              [
                105.873144,
                21.001378
              ],
              [
                105.873212,
                21.001445
              ],
              [
                105.873281,
                21.001513
              ],
              [
                105.873339,
                21.001569
              ],
              [
                105.873395,
                21.001624
              ],
              [
                105.873461,
                21.001688
              ],
              [
                105.873534,
                21.001758
              ],
              [
                105.873598,
                21.001819
              ],
              [
                105.873676,
                21.001894
              ],
              [
                105.873765,
                21.001978
              ],
              [
                105.873832,
                21.002041
              ],
              [
                105.873892,
                21.002097
              ],
              [
                105.87396,
                21.002165
              ],
              [
                105.87402,
                21.002227
              ],
              [
                105.874054,
                21.002263
              ],
              [
                105.874229,
                21.002414
              ],
              [
                105.874241,
                21.002411
              ],
              [
                105.874301,
                21.002396
              ],
              [
                105.874324,
                21.00239
              ],
              [
                105.874416,
                21.002367
              ],
              [
                105.874424,
                21.002365
              ],
              [
                105.874508,
                21.002343
              ],
              [
                105.874609,
                21.002319
              ],
              [
                105.874741,
                21.002291
              ],
              [
                105.874857,
                21.002267
              ],
              [
                105.874974,
                21.002243
              ],
              [
                105.875118,
                21.002216
              ],
              [
                105.87518,
                21.002205
              ],
              [
                105.875243,
                21.002195
              ],
              [
                105.875327,
                21.002187
              ],
              [
                105.875428,
                21.002176
              ],
              [
                105.875543,
                21.002164
              ],
              [
                105.87566,
                21.002154
              ],
              [
                105.875805,
                21.002141
              ],
              [
                105.875953,
                21.002128
              ],
              [
                105.87608,
                21.002117
              ],
              [
                105.876171,
                21.002108
              ],
              [
                105.876257,
                21.002098
              ],
              [
                105.876279,
                21.002096
              ],
              [
                105.876826,
                21.00202
              ],
              [
                105.876997,
                21.001929
              ],
              [
                105.87729,
                21.001774
              ],
              [
                105.877358,
                21.001737
              ],
              [
                105.877517,
                21.00165
              ],
              [
                105.877633,
                21.001586
              ],
              [
                105.877721,
                21.001538
              ],
              [
                105.877967,
                21.001402
              ],
              [
                105.878173,
                21.001289
              ],
              [
                105.878325,
                21.001206
              ],
              [
                105.878486,
                21.001117
              ],
              [
                105.878574,
                21.001069
              ],
              [
                105.878823,
                21.000932
              ],
              [
                105.878854,
                21.000915
              ],
              [
                105.879127,
                21.000777
              ],
              [
                105.879139,
                21.000771
              ],
              [
                105.879241,
                21.000719
              ],
              [
                105.879347,
                21.000666
              ],
              [
                105.879366,
                21.000661
              ],
              [
                105.87943,
                21.000644
              ],
              [
                105.879472,
                21.000646
              ],
              [
                105.879494,
                21.000647
              ],
              [
                105.879626,
                21.000652
              ],
              [
                105.879776,
                21.000687
              ],
              [
                105.879786,
                21.000689
              ],
              [
                105.879875,
                21.000709
              ],
              [
                105.880085,
                21.000758
              ],
              [
                105.880108,
                21.000763
              ],
              [
                105.880132,
                21.000768
              ],
              [
                105.880197,
                21.000783
              ],
              [
                105.880221,
                21.000789
              ],
              [
                105.88034,
                21.000816
              ],
              [
                105.880441,
                21.000839
              ],
              [
                105.880649,
                21.000887
              ],
              [
                105.880686,
                21.000895
              ],
              [
                105.88084,
                21.00093
              ],
              [
                105.880856,
                21.000934
              ],
              [
                105.880931,
                21.000951
              ],
              [
                105.880938,
                21.000953
              ],
              [
                105.881104,
                21.00101
              ],
              [
                105.881209,
                21.001045
              ],
              [
                105.881214,
                21.001047
              ],
              [
                105.881428,
                21.001119
              ],
              [
                105.881466,
                21.001132
              ],
              [
                105.881574,
                21.001169
              ],
              [
                105.881705,
                21.001214
              ],
              [
                105.881752,
                21.00123
              ],
              [
                105.881905,
                21.001251
              ],
              [
                105.882115,
                21.00124
              ],
              [
                105.882755,
                21.001142
              ],
              [
                105.883613,
                21.000983
              ],
              [
                105.88439,
                21.000693
              ],
              [
                105.88509,
                21.000425
              ],
              [
                105.88523,
                21.000364
              ],
              [
                105.885352,
                21.000283
              ],
              [
                105.885865,
                20.999811
              ],
              [
                105.886465,
                20.999293
              ],
              [
                105.88684,
                20.999015
              ],
              [
                105.886888,
                20.998979
              ],
              [
                105.887272,
                20.998756
              ],
              [
                105.887413,
                20.998693
              ],
              [
                105.887602,
                20.998609
              ],
              [
                105.888641,
                20.998163
              ],
              [
                105.889733,
                20.997653
              ],
              [
                105.890735,
                20.997206
              ],
              [
                105.891776,
                20.996756
              ],
              [
                105.891972,
                20.996644
              ],
              [
                105.892131,
                20.996481
              ],
              [
                105.892363,
                20.996094
              ],
              [
                105.892428,
                20.995953
              ],
              [
                105.892449,
                20.995855
              ],
              [
                105.892451,
                20.993384
              ],
              [
                105.892423,
                20.993189
              ],
              [
                105.892342,
                20.993051
              ],
              [
                105.892121,
                20.992928
              ],
              [
                105.892056,
                20.992865
              ],
              [
                105.892013,
                20.992684
              ],
              [
                105.892026,
                20.992466
              ],
              [
                105.892094,
                20.992244
              ],
              [
                105.892229,
                20.992014
              ],
              [
                105.89332,
                20.990506
              ],
              [
                105.893603,
                20.989975
              ],
              [
                105.894,
                20.989048
              ],
              [
                105.894252,
                20.988404
              ],
              [
                105.894571,
                20.987679
              ],
              [
                105.894934,
                20.986897
              ],
              [
                105.894992,
                20.986729
              ],
              [
                105.895015,
                20.986495
              ],
              [
                105.895004,
                20.98618
              ],
              [
                105.894999,
                20.986061
              ],
              [
                105.894971,
                20.986031
              ],
              [
                105.894957,
                20.986016
              ],
              [
                105.894953,
                20.986011
              ],
              [
                105.8949,
                20.985948
              ],
              [
                105.894848,
                20.985888
              ],
              [
                105.894794,
                20.985827
              ],
              [
                105.894742,
                20.985768
              ],
              [
                105.894671,
                20.985688
              ],
              [
                105.894576,
                20.985581
              ],
              [
                105.894481,
                20.985474
              ],
              [
                105.894386,
                20.985368
              ],
              [
                105.894315,
                20.985288
              ],
              [
                105.894243,
                20.985208
              ],
              [
                105.894172,
                20.985128
              ],
              [
                105.894118,
                20.985068
              ],
              [
                105.894065,
                20.985008
              ],
              [
                105.894011,
                20.984948
              ],
              [
                105.893957,
                20.984888
              ],
              [
                105.893903,
                20.984828
              ],
              [
                105.893849,
                20.984768
              ],
              [
                105.893795,
                20.984708
              ],
              [
                105.893742,
                20.984648
              ],
              [
                105.893688,
                20.984588
              ],
              [
                105.893634,
                20.984528
              ],
              [
                105.893559,
                20.984444
              ],
              [
                105.89346,
                20.984332
              ],
              [
                105.893385,
                20.984249
              ],
              [
                105.893311,
                20.984165
              ],
              [
                105.893211,
                20.984053
              ],
              [
                105.893136,
                20.98397
              ],
              [
                105.89306,
                20.983884
              ],
              [
                105.892959,
                20.983769
              ],
              [
                105.892858,
                20.983654
              ],
              [
                105.892782,
                20.983568
              ],
              [
                105.892727,
                20.983504
              ],
              [
                105.892684,
                20.983461
              ],
              [
                105.892615,
                20.983383
              ],
              [
                105.892523,
                20.98328
              ],
              [
                105.892453,
                20.983203
              ],
              [
                105.892372,
                20.983112
              ],
              [
                105.892302,
                20.983033
              ],
              [
                105.892241,
                20.982965
              ],
              [
                105.892192,
                20.982911
              ],
              [
                105.892118,
                20.982829
              ],
              [
                105.892043,
                20.982746
              ],
              [
                105.891979,
                20.982675
              ],
              [
                105.891895,
                20.982582
              ],
              [
                105.8918,
                20.982476
              ],
              [
                105.8917,
                20.982364
              ],
              [
                105.8916,
                20.982251
              ],
              [
                105.891499,
                20.982139
              ],
              [
                105.891399,
                20.982026
              ],
              [
                105.891299,
                20.981914
              ],
              [
                105.891198,
                20.981801
              ],
              [
                105.891098,
                20.981689
              ],
              [
                105.890998,
                20.981576
              ],
              [
                105.890919,
                20.981493
              ],
              [
                105.890864,
                20.981431
              ],
              [
                105.890808,
                20.981366
              ],
              [
                105.890753,
                20.981303
              ],
              [
                105.890697,
                20.981239
              ],
              [
                105.890641,
                20.981176
              ],
              [
                105.890568,
                20.981094
              ],
              [
                105.890471,
                20.980985
              ],
              [
                105.890374,
                20.980876
              ],
              [
                105.890277,
                20.980766
              ],
              [
                105.890202,
                20.980683
              ],
              [
                105.890127,
                20.980598
              ],
              [
                105.890026,
                20.980484
              ],
              [
                105.889925,
                20.980371
              ],
              [
                105.889825,
                20.980258
              ],
              [
                105.889724,
                20.980145
              ],
              [
                105.889624,
                20.980031
              ],
              [
                105.889523,
                20.979918
              ],
              [
                105.889441,
                20.979825
              ],
              [
                105.889379,
                20.979757
              ],
              [
                105.889323,
                20.979694
              ],
              [
                105.889263,
                20.979626
              ],
              [
                105.889215,
                20.979572
              ],
              [
                105.889215,
                20.979572
              ],
              [
                105.889215,
                20.979572
              ],
              [
                105.889201,
                20.979575
              ],
              [
                105.889154,
                20.979584
              ],
              [
                105.889145,
                20.979586
              ],
              [
                105.889136,
                20.979587
              ],
              [
                105.88909,
                20.979596
              ],
              [
                105.889081,
                20.979598
              ],
              [
                105.889075,
                20.979599
              ],
              [
                105.889039,
                20.979606
              ],
              [
                105.888987,
                20.979616
              ],
              [
                105.888811,
                20.97965
              ],
              [
                105.888776,
                20.979656
              ],
              [
                105.888701,
                20.979672
              ],
              [
                105.888529,
                20.979707
              ],
              [
                105.88851,
                20.979711
              ],
              [
                105.888392,
                20.979736
              ],
              [
                105.888155,
                20.979769
              ],
              [
                105.888049,
                20.979784
              ],
              [
                105.888012,
                20.979789
              ],
              [
                105.887823,
                20.979818
              ],
              [
                105.887661,
                20.979842
              ],
              [
                105.887541,
                20.979861
              ],
              [
                105.887427,
                20.979878
              ],
              [
                105.887313,
                20.979896
              ],
              [
                105.887251,
                20.979905
              ],
              [
                105.887071,
                20.979933
              ],
              [
                105.886984,
                20.979946
              ],
              [
                105.886871,
                20.979964
              ],
              [
                105.886457,
                20.980028
              ],
              [
                105.886447,
                20.98003
              ],
              [
                105.885285,
                20.980193
              ],
              [
                105.885241,
                20.980198
              ],
              [
                105.885191,
                20.980203
              ],
              [
                105.885174,
                20.980205
              ],
              [
                105.885145,
                20.980209
              ],
              [
                105.885134,
                20.98021
              ],
              [
                105.884611,
                20.980269
              ],
              [
                105.884425,
                20.98029
              ],
              [
                105.884373,
                20.980295
              ],
              [
                105.884119,
                20.980328
              ],
              [
                105.883959,
                20.980349
              ],
              [
                105.883663,
                20.980387
              ],
              [
                105.883524,
                20.980405
              ],
              [
                105.883512,
                20.980407
              ],
              [
                105.883326,
                20.980465
              ],
              [
                105.883306,
                20.980474
              ],
              [
                105.883091,
                20.980568
              ],
              [
                105.883072,
                20.980577
              ],
              [
                105.882926,
                20.980641
              ],
              [
                105.882779,
                20.980704
              ],
              [
                105.882453,
                20.980846
              ],
              [
                105.882434,
                20.980854
              ],
              [
                105.882393,
                20.980871
              ],
              [
                105.88188,
                20.981093
              ],
              [
                105.881843,
                20.981109
              ],
              [
                105.881592,
                20.981217
              ],
              [
                105.881392,
                20.981304
              ],
              [
                105.881338,
                20.981328
              ],
              [
                105.881108,
                20.981429
              ],
              [
                105.881081,
                20.981441
              ],
              [
                105.881003,
                20.981475
              ],
              [
                105.880915,
                20.981514
              ],
              [
                105.880635,
                20.98164
              ],
              [
                105.88054,
                20.981682
              ],
              [
                105.879784,
                20.981981
              ],
              [
                105.879515,
                20.982087
              ],
              [
                105.879226,
                20.982191
              ],
              [
                105.878808,
                20.982342
              ],
              [
                105.878623,
                20.982407
              ],
              [
                105.878299,
                20.982534
              ],
              [
                105.878147,
                20.982592
              ],
              [
                105.878096,
                20.982612
              ],
              [
                105.877705,
                20.982762
              ],
              [
                105.876883,
                20.983056
              ],
              [
                105.876534,
                20.983203
              ],
              [
                105.876393,
                20.983262
              ],
              [
                105.87611,
                20.983384
              ],
              [
                105.875851,
                20.983467
              ],
              [
                105.875547,
                20.98357
              ],
              [
                105.875477,
                20.983596
              ],
              [
                105.875477,
                20.983596
              ]
            ]
          ]
        ]
      },
      "properties": {
        "code": "00301",
        "name": "Vĩnh Hưng",
        "nameEn": "Vinh Hung",
        "fullName": "Phường Vĩnh Hưng",
        "fullNameEn": "Vinh Hung Ward",
        "codeName": "vinh_hung",
        "postalCode": "11712",
        "postalCodePrefix": "",
        "gisServerId": "diaphanhanhchinhcapxa_2025.3192",
        "areaKm2": 4.47
      }
    }
  ]
}