{
  "type": "FeatureCollection",
  "bbox": [
    105.841977,
    20.943261,
    105.876782,
    20.966442
  ],
  "features": [
    {
      "type": "Feature",
      "id": "00340",
      "bbox": [
        105.841977,
        20.943261,
        105.876782,
        20.966442
      ],
      "geometry": {
        "type": "MultiPolygon",
        "coordinates": [
          [
            [
              [
                105.871081,
                20.956624
              ],
              [
                105.870766,
                20.956185
              ],
              [
                105.870762,
                20.95618
              ],
              [
                105.87074,
                20.956148
              ],
              [
                105.870725,
                20.956126
              ],
              [
                105.870691,
                20.956074
              ],
              [
                105.870676,
                20.956052
              ],
              [
                105.870658,
                20.956026
              ],
              [
                105.870359,
                20.955607
              ],
              [
                105.870167,
                20.955324
              ],
              [
                105.870111,
                20.955241
              ],
              [
                105.870051,
                20.955158
              ],
              [
                105.869996,
                20.955082
              ],
              [
                105.869991,
                20.955075
              ],
              [
                105.869957,
                20.955028
              ],
              [
                105.86986,
                20.954892
              ],
              [
                105.86968,
                20.954627
              ],
              [
                105.869646,
                20.954583
              ],
              [
                105.869619,
                20.954554
              ],
              [
                105.869566,
                20.95451
              ],
              [
                105.869499,
                20.954463
              ],
              [
                105.869438,
                20.954422
              ],
              [
                105.869335,
                20.954363
              ],
              [
                105.869183,
                20.954282
              ],
              [
                105.869014,
                20.95419
              ],
              [
                105.868918,
                20.954143
              ],
              [
                105.868589,
                20.954008
              ],
              [
                105.868493,
                20.953968
              ],
              [
                105.86843,
                20.953948
              ],
              [
                105.868392,
                20.953941
              ],
              [
                105.868354,
                20.953938
              ],
              [
                105.86829,
                20.953931
              ],
              [
                105.868216,
                20.953925
              ],
              [
                105.86814,
                20.953916
              ],
              [
                105.867991,
                20.953872
              ],
              [
                105.867877,
                20.953821
              ],
              [
                105.867775,
                20.953754
              ],
              [
                105.867745,
                20.953716
              ],
              [
                105.867705,
                20.953671
              ],
              [
                105.867679,
                20.953634
              ],
              [
                105.867612,
                20.953512
              ],
              [
                105.867534,
                20.953374
              ],
              [
                105.867383,
                20.953094
              ],
              [
                105.867123,
                20.952673
              ],
              [
                105.866949,
                20.952388
              ],
              [
                105.866936,
                20.952365
              ],
              [
                105.866914,
                20.952325
              ],
              [
                105.866789,
                20.952092
              ],
              [
                105.866593,
                20.95173
              ],
              [
                105.86648,
                20.951484
              ],
              [
                105.866465,
                20.951445
              ],
              [
                105.866424,
                20.951341
              ],
              [
                105.86635,
                20.951116
              ],
              [
                105.866324,
                20.951001
              ],
              [
                105.86631,
                20.950831
              ],
              [
                105.866313,
                20.950689
              ],
              [
                105.866315,
                20.950623
              ],
              [
                105.866322,
                20.950476
              ],
              [
                105.866308,
                20.950274
              ],
              [
                105.866293,
                20.950156
              ],
              [
                105.866267,
                20.950095
              ],
              [
                105.866232,
                20.950044
              ],
              [
                105.866179,
                20.949992
              ],
              [
                105.866082,
                20.949936
              ],
              [
                105.86577,
                20.949788
              ],
              [
                105.865395,
                20.949603
              ],
              [
                105.865165,
                20.94948
              ],
              [
                105.865023,
                20.949394
              ],
              [
                105.864933,
                20.949324
              ],
              [
                105.86487,
                20.94927
              ],
              [
                105.864812,
                20.949202
              ],
              [
                105.86476,
                20.94911
              ],
              [
                105.864713,
                20.949014
              ],
              [
                105.864556,
                20.948603
              ],
              [
                105.864433,
                20.948256
              ],
              [
                105.864384,
                20.94809
              ],
              [
                105.864346,
                20.947926
              ],
              [
                105.86434,
                20.94786
              ],
              [
                105.864341,
                20.947799
              ],
              [
                105.86436,
                20.94773
              ],
              [
                105.864444,
                20.947507
              ],
              [
                105.864465,
                20.947422
              ],
              [
                105.864473,
                20.947354
              ],
              [
                105.86447,
                20.947257
              ],
              [
                105.864457,
                20.947165
              ],
              [
                105.864445,
                20.947075
              ],
              [
                105.86442,
                20.946955
              ],
              [
                105.864411,
                20.94693
              ],
              [
                105.864373,
                20.946815
              ],
              [
                105.864335,
                20.946718
              ],
              [
                105.864218,
                20.946548
              ],
              [
                105.864131,
                20.946425
              ],
              [
                105.86408,
                20.946345
              ],
              [
                105.864046,
                20.946268
              ],
              [
                105.864009,
                20.946163
              ],
              [
                105.863975,
                20.946009
              ],
              [
                105.863948,
                20.945841
              ],
              [
                105.863934,
                20.945656
              ],
              [
                105.863926,
                20.945319
              ],
              [
                105.863929,
                20.945075
              ],
              [
                105.863943,
                20.944614
              ],
              [
                105.863962,
                20.944182
              ],
              [
                105.863969,
                20.94398
              ],
              [
                105.863971,
                20.943915
              ],
              [
                105.863975,
                20.943843
              ],
              [
                105.864003,
                20.943323
              ],
              [
                105.864007,
                20.943261
              ],
              [
                105.863957,
                20.943275
              ],
              [
                105.863847,
                20.943306
              ],
              [
                105.863714,
                20.943343
              ],
              [
                105.863615,
                20.943379
              ],
              [
                105.863571,
                20.943394
              ],
              [
                105.863553,
                20.9434
              ],
              [
                105.863332,
                20.943478
              ],
              [
                105.863315,
                20.943483
              ],
              [
                105.863297,
                20.94349
              ],
              [
                105.863053,
                20.943575
              ],
              [
                105.862327,
                20.94382
              ],
              [
                105.862139,
                20.943885
              ],
              [
                105.861933,
                20.943965
              ],
              [
                105.861783,
                20.944033
              ],
              [
                105.86166,
                20.944083
              ],
              [
                105.861306,
                20.944225
              ],
              [
                105.861248,
                20.944248
              ],
              [
                105.86083,
                20.944393
              ],
              [
                105.860255,
                20.944568
              ],
              [
                105.860233,
                20.944575
              ],
              [
                105.859872,
                20.944686
              ],
              [
                105.859838,
                20.944697
              ],
              [
                105.859802,
                20.944708
              ],
              [
                105.859646,
                20.944756
              ],
              [
                105.859621,
                20.944764
              ],
              [
                105.859269,
                20.944882
              ],
              [
                105.859188,
                20.944917
              ],
              [
                105.858925,
                20.945036
              ],
              [
                105.858925,
                20.945036
              ],
              [
                105.858636,
                20.94517
              ],
              [
                105.858178,
                20.945362
              ],
              [
                105.858095,
                20.945404
              ],
              [
                105.857893,
                20.945506
              ],
              [
                105.857807,
                20.945549
              ],
              [
                105.857427,
                20.945716
              ],
              [
                105.857374,
                20.945739
              ],
              [
                105.85607,
                20.946335
              ],
              [
                105.856048,
                20.946346
              ],
              [
                105.855763,
                20.946484
              ],
              [
                105.855741,
                20.946494
              ],
              [
                105.855719,
                20.946505
              ],
              [
                105.855677,
                20.946525
              ],
              [
                105.855677,
                20.946525
              ],
              [
                105.855613,
                20.946556
              ],
              [
                105.855529,
                20.946597
              ],
              [
                105.855252,
                20.946726
              ],
              [
                105.855217,
                20.946742
              ],
              [
                105.855195,
                20.946752
              ],
              [
                105.855149,
                20.946773
              ],
              [
                105.8549,
                20.946888
              ],
              [
                105.854805,
                20.94693
              ],
              [
                105.854622,
                20.947011
              ],
              [
                105.854302,
                20.947144
              ],
              [
                105.85426,
                20.947167
              ],
              [
                105.85422,
                20.94719
              ],
              [
                105.854197,
                20.947193
              ],
              [
                105.854083,
                20.947179
              ],
              [
                105.854017,
                20.947175
              ],
              [
                105.853861,
                20.947165
              ],
              [
                105.853652,
                20.947134
              ],
              [
                105.853623,
                20.94713
              ],
              [
                105.853576,
                20.947123
              ],
              [
                105.853534,
                20.947116
              ],
              [
                105.852984,
                20.947034
              ],
              [
                105.852941,
                20.947028
              ],
              [
                105.852885,
                20.94702
              ],
              [
                105.852851,
                20.947015
              ],
              [
                105.85278,
                20.947005
              ],
              [
                105.85274,
                20.946999
              ],
              [
                105.852712,
                20.946997
              ],
              [
                105.852642,
                20.946992
              ],
              [
                105.852456,
                20.946977
              ],
              [
                105.85242,
                20.946977
              ],
              [
                105.852366,
                20.946977
              ],
              [
                105.852315,
                20.946988
              ],
              [
                105.852314,
                20.946989
              ],
              [
                105.852022,
                20.94706
              ],
              [
                105.851258,
                20.947245
              ],
              [
                105.850151,
                20.947497
              ],
              [
                105.850088,
                20.947511
              ],
              [
                105.850056,
                20.947518
              ],
              [
                105.850034,
                20.947524
              ],
              [
                105.84962,
                20.947618
              ],
              [
                105.849551,
                20.947634
              ],
              [
                105.849507,
                20.947647
              ],
              [
                105.849277,
                20.947712
              ],
              [
                105.849171,
                20.947761
              ],
              [
                105.849054,
                20.947849
              ],
              [
                105.849015,
                20.947876
              ],
              [
                105.848912,
                20.947947
              ],
              [
                105.848884,
                20.947972
              ],
              [
                105.848873,
                20.948125
              ],
              [
                105.848815,
                20.948366
              ],
              [
                105.848767,
                20.948478
              ],
              [
                105.848764,
                20.948484
              ],
              [
                105.848669,
                20.948663
              ],
              [
                105.848576,
                20.948836
              ],
              [
                105.848328,
                20.949301
              ],
              [
                105.848308,
                20.949338
              ],
              [
                105.848117,
                20.949696
              ],
              [
                105.84805,
                20.949847
              ],
              [
                105.848003,
                20.949969
              ],
              [
                105.847962,
                20.950098
              ],
              [
                105.847928,
                20.950246
              ],
              [
                105.847882,
                20.950489
              ],
              [
                105.847772,
                20.951067
              ],
              [
                105.847686,
                20.951529
              ],
              [
                105.847685,
                20.951536
              ],
              [
                105.847541,
                20.952123
              ],
              [
                105.847335,
                20.952053
              ],
              [
                105.847093,
                20.951971
              ],
              [
                105.846912,
                20.951909
              ],
              [
                105.846761,
                20.951858
              ],
              [
                105.846605,
                20.951805
              ],
              [
                105.846417,
                20.951742
              ],
              [
                105.846229,
                20.951678
              ],
              [
                105.84604,
                20.951615
              ],
              [
                105.845852,
                20.951551
              ],
              [
                105.845664,
                20.951488
              ],
              [
                105.845446,
                20.951417
              ],
              [
                105.845293,
                20.95137
              ],
              [
                105.845124,
                20.951333
              ],
              [
                105.845006,
                20.951312
              ],
              [
                105.844697,
                20.951255
              ],
              [
                105.84415,
                20.951194
              ],
              [
                105.844122,
                20.951391
              ],
              [
                105.84405,
                20.95184
              ],
              [
                105.84394,
                20.952375
              ],
              [
                105.843939,
                20.95238
              ],
              [
                105.843916,
                20.952489
              ],
              [
                105.843895,
                20.952587
              ],
              [
                105.843826,
                20.952912
              ],
              [
                105.843807,
                20.953003
              ],
              [
                105.843791,
                20.953079
              ],
              [
                105.843783,
                20.953116
              ],
              [
                105.843771,
                20.953175
              ],
              [
                105.843759,
                20.953232
              ],
              [
                105.843741,
                20.953315
              ],
              [
                105.843731,
                20.953361
              ],
              [
                105.843618,
                20.95389
              ],
              [
                105.843551,
                20.95421
              ],
              [
                105.843511,
                20.954394
              ],
              [
                105.843505,
                20.954424
              ],
              [
                105.843482,
                20.954528
              ],
              [
                105.843464,
                20.954612
              ],
              [
                105.843436,
                20.954744
              ],
              [
                105.843331,
                20.955235
              ],
              [
                105.843312,
                20.955324
              ],
              [
                105.843291,
                20.955421
              ],
              [
                105.84318,
                20.955949
              ],
              [
                105.843094,
                20.95634
              ],
              [
                105.843081,
                20.956399
              ],
              [
                105.843066,
                20.956469
              ],
              [
                105.842975,
                20.95689
              ],
              [
                105.842908,
                20.957208
              ],
              [
                105.842907,
                20.957212
              ],
              [
                105.842866,
                20.957407
              ],
              [
                105.842704,
                20.95816
              ],
              [
                105.842688,
                20.958233
              ],
              [
                105.842626,
                20.958522
              ],
              [
                105.842541,
                20.958922
              ],
              [
                105.842513,
                20.959053
              ],
              [
                105.842404,
                20.959557
              ],
              [
                105.842284,
                20.960113
              ],
              [
                105.842269,
                20.960184
              ],
              [
                105.84221,
                20.960457
              ],
              [
                105.842204,
                20.960489
              ],
              [
                105.842171,
                20.960656
              ],
              [
                105.842154,
                20.960742
              ],
              [
                105.842134,
                20.960847
              ],
              [
                105.842122,
                20.960905
              ],
              [
                105.842108,
                20.960988
              ],
              [
                105.842102,
                20.961028
              ],
              [
                105.842066,
                20.961257
              ],
              [
                105.842053,
                20.96136
              ],
              [
                105.84204,
                20.96147
              ],
              [
                105.842035,
                20.961512
              ],
              [
                105.842021,
                20.961632
              ],
              [
                105.842018,
                20.96166
              ],
              [
                105.842004,
                20.961834
              ],
              [
                105.841998,
                20.961914
              ],
              [
                105.841985,
                20.962191
              ],
              [
                105.841983,
                20.962264
              ],
              [
                105.841981,
                20.962304
              ],
              [
                105.841979,
                20.962637
              ],
              [
                105.841977,
                20.962956
              ],
              [
                105.841977,
                20.962965
              ],
              [
                105.841977,
                20.96331
              ],
              [
                105.841977,
                20.963364
              ],
              [
                105.841977,
                20.963437
              ],
              [
                105.841978,
                20.963706
              ],
              [
                105.841978,
                20.963762
              ],
              [
                105.841978,
                20.964197
              ],
              [
                105.841978,
                20.964225
              ],
              [
                105.841978,
                20.964255
              ],
              [
                105.841978,
                20.964531
              ],
              [
                105.841978,
                20.964587
              ],
              [
                105.841979,
                20.965115
              ],
              [
                105.841979,
                20.965147
              ],
              [
                105.841979,
                20.965228
              ],
              [
                105.841979,
                20.965317
              ],
              [
                105.841979,
                20.965732
              ],
              [
                105.842065,
                20.965732
              ],
              [
                105.84223,
                20.965732
              ],
              [
                105.842242,
                20.965732
              ],
              [
                105.843144,
                20.965734
              ],
              [
                105.844155,
                20.965746
              ],
              [
                105.844734,
                20.965748
              ],
              [
                105.847185,
                20.965745
              ],
              [
                105.848844,
                20.965768
              ],
              [
                105.849764,
                20.965778
              ],
              [
                105.850306,
                20.96575
              ],
              [
                105.850924,
                20.965708
              ],
              [
                105.851435,
                20.965648
              ],
              [
                105.852606,
                20.965457
              ],
              [
                105.852614,
                20.965455
              ],
              [
                105.852857,
                20.965416
              ],
              [
                105.853331,
                20.965333
              ],
              [
                105.853819,
                20.965246
              ],
              [
                105.854279,
                20.96517
              ],
              [
                105.854841,
                20.965074
              ],
              [
                105.855408,
                20.964977
              ],
              [
                105.855917,
                20.964894
              ],
              [
                105.856025,
                20.964875
              ],
              [
                105.856049,
                20.964871
              ],
              [
                105.856077,
                20.964866
              ],
              [
                105.856221,
                20.964842
              ],
              [
                105.856411,
                20.964811
              ],
              [
                105.856526,
                20.964792
              ],
              [
                105.856579,
                20.964783
              ],
              [
                105.856834,
                20.964739
              ],
              [
                105.857091,
                20.964694
              ],
              [
                105.857358,
                20.964649
              ],
              [
                105.857566,
                20.964614
              ],
              [
                105.857787,
                20.964577
              ],
              [
                105.858044,
                20.964532
              ],
              [
                105.858293,
                20.964492
              ],
              [
                105.858506,
                20.964453
              ],
              [
                105.858707,
                20.964421
              ],
              [
                105.858989,
                20.964372
              ],
              [
                105.859283,
                20.96432
              ],
              [
                105.859637,
                20.96426
              ],
              [
                105.859946,
                20.964207
              ],
              [
                105.860244,
                20.964158
              ],
              [
                105.860592,
                20.964105
              ],
              [
                105.860878,
                20.964059
              ],
              [
                105.861171,
                20.964023
              ],
              [
                105.861416,
                20.963996
              ],
              [
                105.86159,
                20.963982
              ],
              [
                105.861796,
                20.963968
              ],
              [
                105.861996,
                20.963953
              ],
              [
                105.862205,
                20.963942
              ],
              [
                105.862394,
                20.963937
              ],
              [
                105.862599,
                20.963936
              ],
              [
                105.862866,
                20.963942
              ],
              [
                105.863111,
                20.963949
              ],
              [
                105.863412,
                20.963958
              ],
              [
                105.863685,
                20.963967
              ],
              [
                105.863834,
                20.963973
              ],
              [
                105.863958,
                20.963976
              ],
              [
                105.863982,
                20.963977
              ],
              [
                105.864006,
                20.963978
              ],
              [
                105.864032,
                20.963979
              ],
              [
                105.864378,
                20.963985
              ],
              [
                105.86458,
                20.963992
              ],
              [
                105.864827,
                20.964
              ],
              [
                105.865051,
                20.964008
              ],
              [
                105.865282,
                20.964017
              ],
              [
                105.865362,
                20.96402
              ],
              [
                105.865439,
                20.964022
              ],
              [
                105.865474,
                20.964023
              ],
              [
                105.865598,
                20.964027
              ],
              [
                105.865703,
                20.964031
              ],
              [
                105.865901,
                20.964038
              ],
              [
                105.865956,
                20.964039
              ],
              [
                105.866265,
                20.964049
              ],
              [
                105.866465,
                20.964056
              ],
              [
                105.866553,
                20.964059
              ],
              [
                105.866769,
                20.96407
              ],
              [
                105.867039,
                20.96408
              ],
              [
                105.867384,
                20.964093
              ],
              [
                105.867681,
                20.964102
              ],
              [
                105.867987,
                20.964111
              ],
              [
                105.868363,
                20.964126
              ],
              [
                105.868817,
                20.964143
              ],
              [
                105.868827,
                20.964143
              ],
              [
                105.868933,
                20.964146
              ],
              [
                105.869024,
                20.964149
              ],
              [
                105.869312,
                20.964158
              ],
              [
                105.869645,
                20.964172
              ],
              [
                105.869962,
                20.964191
              ],
              [
                105.870326,
                20.964214
              ],
              [
                105.870704,
                20.964247
              ],
              [
                105.871055,
                20.96428
              ],
              [
                105.871245,
                20.964303
              ],
              [
                105.871596,
                20.964357
              ],
              [
                105.871956,
                20.964416
              ],
              [
                105.872332,
                20.964496
              ],
              [
                105.872696,
                20.964586
              ],
              [
                105.873043,
                20.964686
              ],
              [
                105.873283,
                20.964761
              ],
              [
                105.873499,
                20.964837
              ],
              [
                105.873736,
                20.964926
              ],
              [
                105.873962,
                20.965019
              ],
              [
                105.874229,
                20.965135
              ],
              [
                105.874426,
                20.965224
              ],
              [
                105.874757,
                20.96539
              ],
              [
                105.875033,
                20.96554
              ],
              [
                105.875286,
                20.965697
              ],
              [
                105.875522,
                20.965842
              ],
              [
                105.875753,
                20.965998
              ],
              [
                105.875942,
                20.966131
              ],
              [
                105.876153,
                20.966291
              ],
              [
                105.876343,
                20.966442
              ],
              [
                105.876423,
                20.966079
              ],
              [
                105.876782,
                20.964937
              ],
              [
                105.876781,
                20.964937
              ],
              [
                105.876747,
                20.964933
              ],
              [
                105.876591,
                20.964916
              ],
              [
                105.876538,
                20.96491
              ],
              [
                105.876367,
                20.964875
              ],
              [
                105.876252,
                20.964851
              ],
              [
                105.875995,
                20.964803
              ],
              [
                105.875881,
                20.964768
              ],
              [
                105.875741,
                20.964712
              ],
              [
                105.875626,
                20.964648
              ],
              [
                105.875504,
                20.964578
              ],
              [
                105.875407,
                20.964507
              ],
              [
                105.875342,
                20.964437
              ],
              [
                105.87531,
                20.964403
              ],
              [
                105.875296,
                20.964378
              ],
              [
                105.875242,
                20.964284
              ],
              [
                105.875098,
                20.963974
              ],
              [
                105.875048,
                20.963841
              ],
              [
                105.875,
                20.963694
              ],
              [
                105.874943,
                20.963495
              ],
              [
                105.874926,
                20.963433
              ],
              [
                105.874888,
                20.963295
              ],
              [
                105.87486,
                20.963061
              ],
              [
                105.874856,
                20.96303
              ],
              [
                105.874838,
                20.962781
              ],
              [
                105.874826,
                20.962394
              ],
              [
                105.874817,
                20.962103
              ],
              [
                105.874805,
                20.961994
              ],
              [
                105.874782,
                20.961847
              ],
              [
                105.874725,
                20.961599
              ],
              [
                105.874629,
                20.961311
              ],
              [
                105.874574,
                20.961173
              ],
              [
                105.874493,
                20.961054
              ],
              [
                105.874362,
                20.960941
              ],
              [
                105.874216,
                20.960843
              ],
              [
                105.873985,
                20.960687
              ],
              [
                105.873793,
                20.960557
              ],
              [
                105.873651,
                20.960456
              ],
              [
                105.873556,
                20.960382
              ],
              [
                105.873444,
                20.960269
              ],
              [
                105.873379,
                20.960181
              ],
              [
                105.87324,
                20.960004
              ],
              [
                105.873101,
                20.959814
              ],
              [
                105.873002,
                20.959664
              ],
              [
                105.872924,
                20.959508
              ],
              [
                105.872853,
                20.959298
              ],
              [
                105.872789,
                20.959062
              ],
              [
                105.872722,
                20.958862
              ],
              [
                105.872674,
                20.95875
              ],
              [
                105.872601,
                20.958591
              ],
              [
                105.872509,
                20.958446
              ],
              [
                105.872384,
                20.958284
              ],
              [
                105.872243,
                20.958106
              ],
              [
                105.872079,
                20.957906
              ],
              [
                105.871845,
                20.957623
              ],
              [
                105.871638,
                20.957366
              ],
              [
                105.871623,
                20.957347
              ],
              [
                105.871594,
                20.957311
              ],
              [
                105.871448,
                20.957119
              ],
              [
                105.871427,
                20.957091
              ],
              [
                105.871423,
                20.957085
              ],
              [
                105.871404,
                20.957061
              ],
              [
                105.871198,
                20.956787
              ],
              [
                105.871081,
                20.956624
              ],
              [
                105.871081,
                20.956624
              ]
            ]
          ]
        ]
      },
      "properties": {
        "code": "00340",
        "name": "Yên Sở",
        "nameEn": "Yen So",
        "fullName": "Phường Yên Sở",
        "fullNameEn": "Yen So Ward",
        "codeName": "yen_so",
        "postalCode": "11707",
        "postalCodePrefix": "",
        "gisServerId": "diaphanhanhchinhcapxa_2025.3189",
        "areaKm2": 5.62
      }
    }
  ]
}