{
  "type": "FeatureCollection",
  "bbox": [
    105.827091,
    21.066446,
    105.915112,
    21.153571
  ],
  "features": [
    {
      "type": "Feature",
      "id": "00454",
      "bbox": [
        105.827091,
        21.066446,
        105.915112,
        21.153571
      ],
      "geometry": {
        "type": "MultiPolygon",
        "coordinates": [
          [
            [
              [
                105.840993,
                21.08116
              ],
              [
                105.846013,
                21.086321
              ],
              [
                105.846008,
                21.086757
              ],
              [
                105.846211,
                21.086832
              ],
              [
                105.846264,
                21.086785
              ],
              [
                105.84633,
                21.086807
              ],
              [
                105.846456,
                21.086849
              ],
              [
                105.846674,
                21.087072
              ],
              [
                105.846851,
                21.087172
              ],
              [
                105.846949,
                21.087244
              ],
              [
                105.847053,
                21.087341
              ],
              [
                105.847125,
                21.087423
              ],
              [
                105.847183,
                21.087564
              ],
              [
                105.847197,
                21.087685
              ],
              [
                105.847198,
                21.087716
              ],
              [
                105.847169,
                21.08777
              ],
              [
                105.84717,
                21.087784
              ],
              [
                105.847249,
                21.087923
              ],
              [
                105.847288,
                21.087937
              ],
              [
                105.847465,
                21.088324
              ],
              [
                105.847496,
                21.088319
              ],
              [
                105.847552,
                21.08842
              ],
              [
                105.84762,
                21.088609
              ],
              [
                105.847666,
                21.08878
              ],
              [
                105.847664,
                21.088869
              ],
              [
                105.847647,
                21.088976
              ],
              [
                105.847815,
                21.089051
              ],
              [
                105.847841,
                21.089197
              ],
              [
                105.847847,
                21.089249
              ],
              [
                105.847834,
                21.089349
              ],
              [
                105.847837,
                21.08941
              ],
              [
                105.847868,
                21.089472
              ],
              [
                105.847899,
                21.089494
              ],
              [
                105.847909,
                21.089523
              ],
              [
                105.847944,
                21.089701
              ],
              [
                105.847901,
                21.089717
              ],
              [
                105.847961,
                21.08992
              ],
              [
                105.848052,
                21.090044
              ],
              [
                105.848183,
                21.090355
              ],
              [
                105.848311,
                21.090673
              ],
              [
                105.848296,
                21.090723
              ],
              [
                105.848247,
                21.09082
              ],
              [
                105.848323,
                21.091077
              ],
              [
                105.848401,
                21.091361
              ],
              [
                105.848432,
                21.091447
              ],
              [
                105.848502,
                21.091765
              ],
              [
                105.848518,
                21.091876
              ],
              [
                105.848567,
                21.092051
              ],
              [
                105.848679,
                21.092226
              ],
              [
                105.848809,
                21.092388
              ],
              [
                105.848851,
                21.092513
              ],
              [
                105.848856,
                21.092751
              ],
              [
                105.84882,
                21.09279
              ],
              [
                105.848837,
                21.09286
              ],
              [
                105.848845,
                21.092912
              ],
              [
                105.848814,
                21.092989
              ],
              [
                105.848796,
                21.093115
              ],
              [
                105.848813,
                21.093297
              ],
              [
                105.848817,
                21.093561
              ],
              [
                105.848807,
                21.093665
              ],
              [
                105.848835,
                21.09384
              ],
              [
                105.848768,
                21.094111
              ],
              [
                105.848691,
                21.094202
              ],
              [
                105.848676,
                21.094338
              ],
              [
                105.848695,
                21.094381
              ],
              [
                105.848718,
                21.094391
              ],
              [
                105.848749,
                21.094381
              ],
              [
                105.84877,
                21.094392
              ],
              [
                105.84877,
                21.094408
              ],
              [
                105.848761,
                21.094434
              ],
              [
                105.84872,
                21.094485
              ],
              [
                105.848669,
                21.094549
              ],
              [
                105.848671,
                21.094579
              ],
              [
                105.848656,
                21.094637
              ],
              [
                105.848574,
                21.09492
              ],
              [
                105.848592,
                21.094948
              ],
              [
                105.848559,
                21.095043
              ],
              [
                105.848563,
                21.095064
              ],
              [
                105.848593,
                21.095103
              ],
              [
                105.848583,
                21.095223
              ],
              [
                105.848603,
                21.095248
              ],
              [
                105.848608,
                21.095343
              ],
              [
                105.848595,
                21.095513
              ],
              [
                105.848585,
                21.095564
              ],
              [
                105.848618,
                21.095592
              ],
              [
                105.848651,
                21.095619
              ],
              [
                105.848647,
                21.095647
              ],
              [
                105.848495,
                21.096019
              ],
              [
                105.848463,
                21.096036
              ],
              [
                105.848425,
                21.096178
              ],
              [
                105.848391,
                21.096228
              ],
              [
                105.84839,
                21.096254
              ],
              [
                105.848385,
                21.096281
              ],
              [
                105.848356,
                21.096293
              ],
              [
                105.848341,
                21.09645
              ],
              [
                105.848333,
                21.096466
              ],
              [
                105.848302,
                21.096497
              ],
              [
                105.848268,
                21.096602
              ],
              [
                105.848233,
                21.096656
              ],
              [
                105.848224,
                21.096691
              ],
              [
                105.848232,
                21.096708
              ],
              [
                105.848265,
                21.096729
              ],
              [
                105.848269,
                21.096736
              ],
              [
                105.848268,
                21.09675
              ],
              [
                105.848252,
                21.09677
              ],
              [
                105.848234,
                21.0968
              ],
              [
                105.848231,
                21.096878
              ],
              [
                105.848214,
                21.096914
              ],
              [
                105.848197,
                21.096949
              ],
              [
                105.848191,
                21.096985
              ],
              [
                105.848192,
                21.096994
              ],
              [
                105.848209,
                21.097015
              ],
              [
                105.848217,
                21.097046
              ],
              [
                105.848062,
                21.097538
              ],
              [
                105.848067,
                21.097568
              ],
              [
                105.848075,
                21.09759
              ],
              [
                105.848058,
                21.097674
              ],
              [
                105.848025,
                21.097736
              ],
              [
                105.847985,
                21.097727
              ],
              [
                105.847963,
                21.097741
              ],
              [
                105.847822,
                21.097954
              ],
              [
                105.847784,
                21.098088
              ],
              [
                105.847472,
                21.098636
              ],
              [
                105.847454,
                21.0988
              ],
              [
                105.846822,
                21.100018
              ],
              [
                105.846846,
                21.100038
              ],
              [
                105.846869,
                21.100057
              ],
              [
                105.8469,
                21.100082
              ],
              [
                105.846937,
                21.100105
              ],
              [
                105.846994,
                21.100117
              ],
              [
                105.847026,
                21.100117
              ],
              [
                105.847066,
                21.100116
              ],
              [
                105.847103,
                21.100115
              ],
              [
                105.84757,
                21.100218
              ],
              [
                105.847563,
                21.100229
              ],
              [
                105.847557,
                21.100244
              ],
              [
                105.847542,
                21.100288
              ],
              [
                105.847446,
                21.100534
              ],
              [
                105.847427,
                21.100583
              ],
              [
                105.84742,
                21.100602
              ],
              [
                105.847407,
                21.100635
              ],
              [
                105.847382,
                21.100701
              ],
              [
                105.847362,
                21.100749
              ],
              [
                105.847348,
                21.100776
              ],
              [
                105.847338,
                21.100792
              ],
              [
                105.847322,
                21.100812
              ],
              [
                105.847288,
                21.100852
              ],
              [
                105.847261,
                21.100887
              ],
              [
                105.847227,
                21.100935
              ],
              [
                105.84718,
                21.101005
              ],
              [
                105.846974,
                21.101343
              ],
              [
                105.846868,
                21.101509
              ],
              [
                105.846867,
                21.101511
              ],
              [
                105.846815,
                21.101593
              ],
              [
                105.846662,
                21.101831
              ],
              [
                105.846519,
                21.102057
              ],
              [
                105.846434,
                21.102198
              ],
              [
                105.846402,
                21.102255
              ],
              [
                105.846379,
                21.102295
              ],
              [
                105.846364,
                21.102325
              ],
              [
                105.846357,
                21.102345
              ],
              [
                105.846354,
                21.102358
              ],
              [
                105.846351,
                21.102372
              ],
              [
                105.84635,
                21.102385
              ],
              [
                105.84635,
                21.102407
              ],
              [
                105.84635,
                21.10243
              ],
              [
                105.846352,
                21.102509
              ],
              [
                105.846355,
                21.102728
              ],
              [
                105.846355,
                21.103018
              ],
              [
                105.846351,
                21.103073
              ],
              [
                105.846348,
                21.103127
              ],
              [
                105.846346,
                21.103181
              ],
              [
                105.84633,
                21.103347
              ],
              [
                105.846316,
                21.103469
              ],
              [
                105.846296,
                21.103572
              ],
              [
                105.84628,
                21.103652
              ],
              [
                105.846255,
                21.103752
              ],
              [
                105.846235,
                21.103843
              ],
              [
                105.846207,
                21.10393
              ],
              [
                105.846177,
                21.104004
              ],
              [
                105.846132,
                21.10409
              ],
              [
                105.846086,
                21.104173
              ],
              [
                105.846041,
                21.104255
              ],
              [
                105.846017,
                21.104297
              ],
              [
                105.846008,
                21.104313
              ],
              [
                105.845998,
                21.104329
              ],
              [
                105.845997,
                21.104332
              ],
              [
                105.845944,
                21.104419
              ],
              [
                105.845897,
                21.104489
              ],
              [
                105.846138,
                21.104683
              ],
              [
                105.846257,
                21.104761
              ],
              [
                105.846325,
                21.104808
              ],
              [
                105.846459,
                21.1049
              ],
              [
                105.846667,
                21.105042
              ],
              [
                105.846999,
                21.10526
              ],
              [
                105.847364,
                21.105502
              ],
              [
                105.847595,
                21.105645
              ],
              [
                105.847615,
                21.105657
              ],
              [
                105.847635,
                21.105669
              ],
              [
                105.847652,
                21.10568
              ],
              [
                105.847891,
                21.10584
              ],
              [
                105.847908,
                21.105852
              ],
              [
                105.847925,
                21.105863
              ],
              [
                105.847957,
                21.105884
              ],
              [
                105.84803,
                21.105933
              ],
              [
                105.848215,
                21.106055
              ],
              [
                105.84822,
                21.106059
              ],
              [
                105.848234,
                21.106068
              ],
              [
                105.848253,
                21.106081
              ],
              [
                105.848433,
                21.106204
              ],
              [
                105.848474,
                21.106232
              ],
              [
                105.848574,
                21.106301
              ],
              [
                105.848632,
                21.10634
              ],
              [
                105.848644,
                21.106348
              ],
              [
                105.848673,
                21.106368
              ],
              [
                105.848706,
                21.10639
              ],
              [
                105.849368,
                21.106855
              ],
              [
                105.849447,
                21.106904
              ],
              [
                105.849572,
                21.10698
              ],
              [
                105.84984,
                21.107145
              ],
              [
                105.850009,
                21.10725
              ],
              [
                105.850134,
                21.107327
              ],
              [
                105.849773,
                21.107812
              ],
              [
                105.84949,
                21.108191
              ],
              [
                105.848989,
                21.108795
              ],
              [
                105.848008,
                21.109975
              ],
              [
                105.846791,
                21.111458
              ],
              [
                105.845395,
                21.113154
              ],
              [
                105.8452,
                21.113397
              ],
              [
                105.843698,
                21.115194
              ],
              [
                105.842814,
                21.116245
              ],
              [
                105.842195,
                21.116966
              ],
              [
                105.841167,
                21.11824
              ],
              [
                105.840388,
                21.119122
              ],
              [
                105.839682,
                21.120004
              ],
              [
                105.839094,
                21.120724
              ],
              [
                105.838517,
                21.121391
              ],
              [
                105.838099,
                21.121841
              ],
              [
                105.837709,
                21.122184
              ],
              [
                105.837184,
                21.122624
              ],
              [
                105.836758,
                21.12292
              ],
              [
                105.836103,
                21.123318
              ],
              [
                105.835516,
                21.123622
              ],
              [
                105.834975,
                21.123868
              ],
              [
                105.834204,
                21.124137
              ],
              [
                105.833632,
                21.124291
              ],
              [
                105.83309,
                21.124415
              ],
              [
                105.83241,
                21.124533
              ],
              [
                105.831677,
                21.124573
              ],
              [
                105.830806,
                21.124599
              ],
              [
                105.827091,
                21.124624
              ],
              [
                105.827148,
                21.12763
              ],
              [
                105.827131,
                21.129173
              ],
              [
                105.827141,
                21.130096
              ],
              [
                105.827133,
                21.130425
              ],
              [
                105.827114,
                21.130754
              ],
              [
                105.831991,
                21.130856
              ],
              [
                105.834317,
                21.13129
              ],
              [
                105.837843,
                21.131939
              ],
              [
                105.839384,
                21.132209
              ],
              [
                105.840526,
                21.132261
              ],
              [
                105.84165,
                21.132142
              ],
              [
                105.841757,
                21.132193
              ],
              [
                105.842008,
                21.132314
              ],
              [
                105.84219,
                21.132402
              ],
              [
                105.842225,
                21.132419
              ],
              [
                105.842329,
                21.13247
              ],
              [
                105.842804,
                21.132708
              ],
              [
                105.842881,
                21.132745
              ],
              [
                105.843045,
                21.13284
              ],
              [
                105.843142,
                21.132918
              ],
              [
                105.843209,
                21.132972
              ],
              [
                105.843272,
                21.133029
              ],
              [
                105.843363,
                21.133111
              ],
              [
                105.843367,
                21.133114
              ],
              [
                105.843416,
                21.133158
              ],
              [
                105.843438,
                21.133178
              ],
              [
                105.84346,
                21.133198
              ],
              [
                105.843473,
                21.133209
              ],
              [
                105.843527,
                21.13325
              ],
              [
                105.843563,
                21.133277
              ],
              [
                105.843576,
                21.133287
              ],
              [
                105.843646,
                21.133339
              ],
              [
                105.843655,
                21.133402
              ],
              [
                105.843711,
                21.133811
              ],
              [
                105.84378,
                21.134304
              ],
              [
                105.843856,
                21.134298
              ],
              [
                105.843879,
                21.134299
              ],
              [
                105.843926,
                21.134665
              ],
              [
                105.844037,
                21.135367
              ],
              [
                105.844322,
                21.137284
              ],
              [
                105.844378,
                21.137665
              ],
              [
                105.844428,
                21.137991
              ],
              [
                105.84449,
                21.138454
              ],
              [
                105.844566,
                21.13891
              ],
              [
                105.844595,
                21.1391
              ],
              [
                105.84477,
                21.140059
              ],
              [
                105.844984,
                21.141309
              ],
              [
                105.844993,
                21.1416
              ],
              [
                105.845106,
                21.142567
              ],
              [
                105.845245,
                21.143531
              ],
              [
                105.8454,
                21.144613
              ],
              [
                105.84561,
                21.146
              ],
              [
                105.845674,
                21.146405
              ],
              [
                105.845773,
                21.147053
              ],
              [
                105.846038,
                21.148979
              ],
              [
                105.846337,
                21.151253
              ],
              [
                105.846337,
                21.151397
              ],
              [
                105.84624,
                21.151423
              ],
              [
                105.846246,
                21.151515
              ],
              [
                105.846256,
                21.151654
              ],
              [
                105.846269,
                21.151769
              ],
              [
                105.846288,
                21.151942
              ],
              [
                105.846296,
                21.152012
              ],
              [
                105.846307,
                21.152116
              ],
              [
                105.846308,
                21.15212
              ],
              [
                105.846337,
                21.152423
              ],
              [
                105.846349,
                21.152564
              ],
              [
                105.846363,
                21.152748
              ],
              [
                105.846377,
                21.153096
              ],
              [
                105.846377,
                21.153238
              ],
              [
                105.846377,
                21.153356
              ],
              [
                105.846377,
                21.153453
              ],
              [
                105.846377,
                21.153571
              ],
              [
                105.854805,
                21.150658
              ],
              [
                105.859959,
                21.149527
              ],
              [
                105.862758,
                21.148975
              ],
              [
                105.86778,
                21.147037
              ],
              [
                105.877535,
                21.143132
              ],
              [
                105.891675,
                21.13756
              ],
              [
                105.895519,
                21.135926
              ],
              [
                105.8979,
                21.134599
              ],
              [
                105.899104,
                21.133636
              ],
              [
                105.901227,
                21.131802
              ],
              [
                105.905831,
                21.127572
              ],
              [
                105.906433,
                21.126977
              ],
              [
                105.907015,
                21.126424
              ],
              [
                105.907701,
                21.1258
              ],
              [
                105.908257,
                21.125267
              ],
              [
                105.909108,
                21.124492
              ],
              [
                105.910046,
                21.12362
              ],
              [
                105.910929,
                21.122797
              ],
              [
                105.91149,
                21.122271
              ],
              [
                105.912342,
                21.121478
              ],
              [
                105.913573,
                21.120326
              ],
              [
                105.914587,
                21.119383
              ],
              [
                105.915112,
                21.118897
              ],
              [
                105.914997,
                21.118878
              ],
              [
                105.914981,
                21.118875
              ],
              [
                105.914941,
                21.118866
              ],
              [
                105.914746,
                21.118826
              ],
              [
                105.914738,
                21.118824
              ],
              [
                105.914564,
                21.118791
              ],
              [
                105.91451,
                21.118793
              ],
              [
                105.914316,
                21.118748
              ],
              [
                105.913748,
                21.1186
              ],
              [
                105.913667,
                21.118579
              ],
              [
                105.913535,
                21.11848
              ],
              [
                105.913381,
                21.11843
              ],
              [
                105.912785,
                21.118263
              ],
              [
                105.912351,
                21.11817
              ],
              [
                105.912015,
                21.118104
              ],
              [
                105.911942,
                21.118088
              ],
              [
                105.911462,
                21.117981
              ],
              [
                105.911215,
                21.1179
              ],
              [
                105.911116,
                21.117864
              ],
              [
                105.910849,
                21.117766
              ],
              [
                105.910473,
                21.117602
              ],
              [
                105.910438,
                21.11759
              ],
              [
                105.910232,
                21.117523
              ],
              [
                105.910038,
                21.117443
              ],
              [
                105.909826,
                21.11733
              ],
              [
                105.909611,
                21.117218
              ],
              [
                105.909238,
                21.116978
              ],
              [
                105.909186,
                21.11694
              ],
              [
                105.909169,
                21.116929
              ],
              [
                105.909047,
                21.116842
              ],
              [
                105.908902,
                21.116739
              ],
              [
                105.908705,
                21.116619
              ],
              [
                105.908304,
                21.116343
              ],
              [
                105.908134,
                21.11623
              ],
              [
                105.907753,
                21.115972
              ],
              [
                105.907643,
                21.115902
              ],
              [
                105.907419,
                21.115755
              ],
              [
                105.907262,
                21.115643
              ],
              [
                105.907134,
                21.115534
              ],
              [
                105.906794,
                21.115232
              ],
              [
                105.906555,
                21.115013
              ],
              [
                105.906458,
                21.114918
              ],
              [
                105.906315,
                21.11477
              ],
              [
                105.906159,
                21.114629
              ],
              [
                105.90591,
                21.1144
              ],
              [
                105.905868,
                21.114369
              ],
              [
                105.905859,
                21.114362
              ],
              [
                105.905723,
                21.114247
              ],
              [
                105.905668,
                21.114212
              ],
              [
                105.905631,
                21.114194
              ],
              [
                105.905599,
                21.114169
              ],
              [
                105.905552,
                21.114129
              ],
              [
                105.905497,
                21.11406
              ],
              [
                105.905519,
                21.114042
              ],
              [
                105.90565,
                21.113939
              ],
              [
                105.905678,
                21.113895
              ],
              [
                105.905669,
                21.113763
              ],
              [
                105.905638,
                21.113598
              ],
              [
                105.905638,
                21.113598
              ],
              [
                105.905637,
                21.113595
              ],
              [
                105.905637,
                21.113595
              ],
              [
                105.905629,
                21.113482
              ],
              [
                105.905622,
                21.11338
              ],
              [
                105.905608,
                21.11323
              ],
              [
                105.905604,
                21.113176
              ],
              [
                105.905594,
                21.112942
              ],
              [
                105.905593,
                21.112916
              ],
              [
                105.905589,
                21.112849
              ],
              [
                105.905587,
                21.11281
              ],
              [
                105.905586,
                21.112681
              ],
              [
                105.905583,
                21.112533
              ],
              [
                105.905583,
                21.11253
              ],
              [
                105.905541,
                21.112529
              ],
              [
                105.905416,
                21.112528
              ],
              [
                105.905384,
                21.112525
              ],
              [
                105.905236,
                21.112334
              ],
              [
                105.905147,
                21.112217
              ],
              [
                105.905142,
                21.11221
              ],
              [
                105.905137,
                21.112203
              ],
              [
                105.905132,
                21.112198
              ],
              [
                105.905089,
                21.112142
              ],
              [
                105.905089,
                21.112141
              ],
              [
                105.905075,
                21.112124
              ],
              [
                105.905043,
                21.112087
              ],
              [
                105.905017,
                21.112048
              ],
              [
                105.904962,
                21.111979
              ],
              [
                105.904961,
                21.111979
              ],
              [
                105.904938,
                21.11195
              ],
              [
                105.904932,
                21.111943
              ],
              [
                105.904926,
                21.111936
              ],
              [
                105.904869,
                21.111866
              ],
              [
                105.904866,
                21.111863
              ],
              [
                105.904843,
                21.111834
              ],
              [
                105.90472,
                21.111688
              ],
              [
                105.904659,
                21.111587
              ],
              [
                105.904605,
                21.111523
              ],
              [
                105.904438,
                21.111264
              ],
              [
                105.904264,
                21.111
              ],
              [
                105.904239,
                21.110964
              ],
              [
                105.904201,
                21.110907
              ],
              [
                105.904162,
                21.110849
              ],
              [
                105.904134,
                21.110808
              ],
              [
                105.904106,
                21.110766
              ],
              [
                105.904067,
                21.110708
              ],
              [
                105.904028,
                21.110651
              ],
              [
                105.904,
                21.110609
              ],
              [
                105.903973,
                21.110568
              ],
              [
                105.903934,
                21.11051
              ],
              [
                105.903894,
                21.110448
              ],
              [
                105.903865,
                21.110403
              ],
              [
                105.903837,
                21.110358
              ],
              [
                105.903797,
                21.110296
              ],
              [
                105.903756,
                21.110233
              ],
              [
                105.903728,
                21.110189
              ],
              [
                105.903699,
                21.110144
              ],
              [
                105.903659,
                21.110082
              ],
              [
                105.903639,
                21.110044
              ],
              [
                105.903386,
                21.109567
              ],
              [
                105.903383,
                21.109563
              ],
              [
                105.903357,
                21.109515
              ],
              [
                105.903332,
                21.109462
              ],
              [
                105.903307,
                21.10941
              ],
              [
                105.903282,
                21.109357
              ],
              [
                105.903257,
                21.109305
              ],
              [
                105.903227,
                21.109242
              ],
              [
                105.903197,
                21.109179
              ],
              [
                105.903167,
                21.109116
              ],
              [
                105.903137,
                21.109053
              ],
              [
                105.903112,
                21.108996
              ],
              [
                105.9031,
                21.108968
              ],
              [
                105.903088,
                21.108939
              ],
              [
                105.903064,
                21.108883
              ],
              [
                105.903059,
                21.10887
              ],
              [
                105.902901,
                21.108531
              ],
              [
                105.902895,
                21.108518
              ],
              [
                105.902862,
                21.108453
              ],
              [
                105.902835,
                21.108387
              ],
              [
                105.902573,
                21.107794
              ],
              [
                105.902458,
                21.107555
              ],
              [
                105.90236,
                21.107344
              ],
              [
                105.902256,
                21.107096
              ],
              [
                105.902253,
                21.107088
              ],
              [
                105.902232,
                21.107039
              ],
              [
                105.902203,
                21.106971
              ],
              [
                105.9022,
                21.106963
              ],
              [
                105.902194,
                21.106942
              ],
              [
                105.902185,
                21.106916
              ],
              [
                105.902074,
                21.106663
              ],
              [
                105.90205,
                21.106618
              ],
              [
                105.901903,
                21.106254
              ],
              [
                105.901752,
                21.105912
              ],
              [
                105.90162,
                21.105665
              ],
              [
                105.901582,
                21.105595
              ],
              [
                105.901421,
                21.105386
              ],
              [
                105.901408,
                21.105399
              ],
              [
                105.90137,
                21.105436
              ],
              [
                105.901089,
                21.105717
              ],
              [
                105.900791,
                21.105999
              ],
              [
                105.900401,
                21.106381
              ],
              [
                105.9003,
                21.106481
              ],
              [
                105.900219,
                21.106176
              ],
              [
                105.899696,
                21.103452
              ],
              [
                105.899666,
                21.103324
              ],
              [
                105.8994,
                21.101859
              ],
              [
                105.899239,
                21.100936
              ],
              [
                105.899208,
                21.100938
              ],
              [
                105.898959,
                21.100937
              ],
              [
                105.898761,
                21.100948
              ],
              [
                105.898659,
                21.100941
              ],
              [
                105.898375,
                21.100983
              ],
              [
                105.898312,
                21.100995
              ],
              [
                105.898175,
                21.101035
              ],
              [
                105.898,
                21.101089
              ],
              [
                105.897813,
                21.101162
              ],
              [
                105.897718,
                21.100962
              ],
              [
                105.897686,
                21.1009
              ],
              [
                105.897516,
                21.100505
              ],
              [
                105.89733,
                21.100107
              ],
              [
                105.897123,
                21.099692
              ],
              [
                105.896928,
                21.099283
              ],
              [
                105.896747,
                21.098892
              ],
              [
                105.896644,
                21.098674
              ],
              [
                105.896453,
                21.098316
              ],
              [
                105.896866,
                21.098052
              ],
              [
                105.897004,
                21.09796
              ],
              [
                105.897129,
                21.097867
              ],
              [
                105.897128,
                21.097863
              ],
              [
                105.897122,
                21.097853
              ],
              [
                105.897113,
                21.097845
              ],
              [
                105.897112,
                21.097845
              ],
              [
                105.89709,
                21.097826
              ],
              [
                105.89709,
                21.097824
              ],
              [
                105.897099,
                21.097819
              ],
              [
                105.897111,
                21.097811
              ],
              [
                105.897113,
                21.097815
              ],
              [
                105.897117,
                21.09782
              ],
              [
                105.897117,
                21.09782
              ],
              [
                105.89712,
                21.097822
              ],
              [
                105.897126,
                21.097821
              ],
              [
                105.897131,
                21.097817
              ],
              [
                105.897178,
                21.097782
              ],
              [
                105.897197,
                21.097767
              ],
              [
                105.897213,
                21.097756
              ],
              [
                105.897342,
                21.09766
              ],
              [
                105.897683,
                21.097407
              ],
              [
                105.897717,
                21.097378
              ],
              [
                105.897938,
                21.097197
              ],
              [
                105.897989,
                21.097151
              ],
              [
                105.898028,
                21.097117
              ],
              [
                105.898289,
                21.096888
              ],
              [
                105.898319,
                21.096858
              ],
              [
                105.898347,
                21.096844
              ],
              [
                105.898355,
                21.096844
              ],
              [
                105.898375,
                21.096852
              ],
              [
                105.89842,
                21.096875
              ],
              [
                105.898513,
                21.096727
              ],
              [
                105.898615,
                21.096552
              ],
              [
                105.898713,
                21.096405
              ],
              [
                105.899067,
                21.095957
              ],
              [
                105.899116,
                21.095891
              ],
              [
                105.899141,
                21.09584
              ],
              [
                105.899157,
                21.09576
              ],
              [
                105.899205,
                21.095684
              ],
              [
                105.899321,
                21.095547
              ],
              [
                105.89959,
                21.095252
              ],
              [
                105.899619,
                21.095219
              ],
              [
                105.899846,
                21.094963
              ],
              [
                105.900413,
                21.094333
              ],
              [
                105.90103,
                21.093606
              ],
              [
                105.901042,
                21.093592
              ],
              [
                105.901055,
                21.093577
              ],
              [
                105.901132,
                21.093486
              ],
              [
                105.901248,
                21.093349
              ],
              [
                105.901344,
                21.093242
              ],
              [
                105.901389,
                21.093177
              ],
              [
                105.901392,
                21.093172
              ],
              [
                105.901406,
                21.093152
              ],
              [
                105.901479,
                21.09302
              ],
              [
                105.901611,
                21.092778
              ],
              [
                105.90173,
                21.092567
              ],
              [
                105.901798,
                21.092445
              ],
              [
                105.901858,
                21.092299
              ],
              [
                105.901964,
                21.091978
              ],
              [
                105.901972,
                21.091951
              ],
              [
                105.901943,
                21.09183
              ],
              [
                105.902019,
                21.091739
              ],
              [
                105.90248,
                21.091184
              ],
              [
                105.902706,
                21.090949
              ],
              [
                105.902743,
                21.090902
              ],
              [
                105.902926,
                21.090671
              ],
              [
                105.903137,
                21.090411
              ],
              [
                105.90327,
                21.090253
              ],
              [
                105.903315,
                21.090203
              ],
              [
                105.90332,
                21.090197
              ],
              [
                105.903338,
                21.090179
              ],
              [
                105.903494,
                21.090024
              ],
              [
                105.903547,
                21.089972
              ],
              [
                105.903796,
                21.089741
              ],
              [
                105.903942,
                21.089618
              ],
              [
                105.903958,
                21.089604
              ],
              [
                105.904081,
                21.089494
              ],
              [
                105.904148,
                21.089432
              ],
              [
                105.904202,
                21.089381
              ],
              [
                105.904307,
                21.089261
              ],
              [
                105.904443,
                21.089356
              ],
              [
                105.904673,
                21.089571
              ],
              [
                105.904677,
                21.089574
              ],
              [
                105.904889,
                21.089867
              ],
              [
                105.905071,
                21.089764
              ],
              [
                105.905269,
                21.089652
              ],
              [
                105.905276,
                21.089652
              ],
              [
                105.905623,
                21.089739
              ],
              [
                105.905734,
                21.089755
              ],
              [
                105.905726,
                21.089726
              ],
              [
                105.9057,
                21.089674
              ],
              [
                105.905675,
                21.089626
              ],
              [
                105.90567,
                21.089618
              ],
              [
                105.905618,
                21.089529
              ],
              [
                105.905612,
                21.089518
              ],
              [
                105.905561,
                21.089456
              ],
              [
                105.905516,
                21.089392
              ],
              [
                105.905512,
                21.089387
              ],
              [
                105.905468,
                21.089331
              ],
              [
                105.905463,
                21.089325
              ],
              [
                105.905445,
                21.089303
              ],
              [
                105.905419,
                21.089269
              ],
              [
                105.905378,
                21.089215
              ],
              [
                105.905332,
                21.089158
              ],
              [
                105.9053,
                21.089117
              ],
              [
                105.905293,
                21.089106
              ],
              [
                105.905284,
                21.089096
              ],
              [
                105.905263,
                21.089068
              ],
              [
                105.905221,
                21.089005
              ],
              [
                105.905192,
                21.088952
              ],
              [
                105.905159,
                21.088889
              ],
              [
                105.905147,
                21.088868
              ],
              [
                105.90514,
                21.088852
              ],
              [
                105.905114,
                21.088796
              ],
              [
                105.9051,
                21.088765
              ],
              [
                105.905084,
                21.088726
              ],
              [
                105.905069,
                21.08868
              ],
              [
                105.905057,
                21.088644
              ],
              [
                105.905015,
                21.088506
              ],
              [
                105.904983,
                21.088401
              ],
              [
                105.90498,
                21.088393
              ],
              [
                105.904923,
                21.088238
              ],
              [
                105.904894,
                21.088148
              ],
              [
                105.90488,
                21.088075
              ],
              [
                105.90488,
                21.088056
              ],
              [
                105.904878,
                21.088014
              ],
              [
                105.904878,
                21.087995
              ],
              [
                105.904881,
                21.08784
              ],
              [
                105.904889,
                21.08777
              ],
              [
                105.904889,
                21.087743
              ],
              [
                105.90489,
                21.087571
              ],
              [
                105.904888,
                21.087528
              ],
              [
                105.90489,
                21.087451
              ],
              [
                105.904893,
                21.087334
              ],
              [
                105.904898,
                21.087098
              ],
              [
                105.904903,
                21.086947
              ],
              [
                105.904906,
                21.086885
              ],
              [
                105.904912,
                21.086829
              ],
              [
                105.904917,
                21.086811
              ],
              [
                105.904921,
                21.086794
              ],
              [
                105.904959,
                21.086646
              ],
              [
                105.904968,
                21.086419
              ],
              [
                105.904996,
                21.086302
              ],
              [
                105.905029,
                21.086145
              ],
              [
                105.905032,
                21.086107
              ],
              [
                105.905039,
                21.086045
              ],
              [
                105.905046,
                21.085976
              ],
              [
                105.905045,
                21.085963
              ],
              [
                105.905045,
                21.085956
              ],
              [
                105.905046,
                21.085943
              ],
              [
                105.905048,
                21.085909
              ],
              [
                105.905048,
                21.085902
              ],
              [
                105.905046,
                21.085855
              ],
              [
                105.905046,
                21.085848
              ],
              [
                105.905042,
                21.085811
              ],
              [
                105.905041,
                21.085796
              ],
              [
                105.905034,
                21.085767
              ],
              [
                105.905027,
                21.085738
              ],
              [
                105.905017,
                21.085697
              ],
              [
                105.904995,
                21.085603
              ],
              [
                105.904988,
                21.085575
              ],
              [
                105.904986,
                21.085564
              ],
              [
                105.904973,
                21.08551
              ],
              [
                105.904953,
                21.085435
              ],
              [
                105.904951,
                21.085422
              ],
              [
                105.904944,
                21.085373
              ],
              [
                105.90494,
                21.08535
              ],
              [
                105.904928,
                21.085236
              ],
              [
                105.90491,
                21.085151
              ],
              [
                105.90491,
                21.085151
              ],
              [
                105.904906,
                21.085128
              ],
              [
                105.904898,
                21.085075
              ],
              [
                105.90489,
                21.085023
              ],
              [
                105.904877,
                21.084937
              ],
              [
                105.90487,
                21.084891
              ],
              [
                105.904855,
                21.084716
              ],
              [
                105.90485,
                21.084656
              ],
              [
                105.904835,
                21.084479
              ],
              [
                105.904813,
                21.084128
              ],
              [
                105.904819,
                21.083991
              ],
              [
                105.904843,
                21.083855
              ],
              [
                105.90487,
                21.083743
              ],
              [
                105.904886,
                21.083631
              ],
              [
                105.90489,
                21.083579
              ],
              [
                105.904895,
                21.083498
              ],
              [
                105.904898,
                21.083482
              ],
              [
                105.9049,
                21.083444
              ],
              [
                105.904907,
                21.083403
              ],
              [
                105.904898,
                21.083244
              ],
              [
                105.904861,
                21.083136
              ],
              [
                105.904849,
                21.0831
              ],
              [
                105.904779,
                21.08292
              ],
              [
                105.904654,
                21.082652
              ],
              [
                105.904635,
                21.08257
              ],
              [
                105.904622,
                21.082486
              ],
              [
                105.904623,
                21.082403
              ],
              [
                105.904628,
                21.082344
              ],
              [
                105.90463,
                21.082316
              ],
              [
                105.90467,
                21.082166
              ],
              [
                105.904671,
                21.082132
              ],
              [
                105.904667,
                21.082123
              ],
              [
                105.90466,
                21.082109
              ],
              [
                105.904612,
                21.081993
              ],
              [
                105.904537,
                21.081796
              ],
              [
                105.904502,
                21.08171
              ],
              [
                105.904499,
                21.081703
              ],
              [
                105.904487,
                21.081673
              ],
              [
                105.904486,
                21.081672
              ],
              [
                105.904393,
                21.081502
              ],
              [
                105.904345,
                21.081413
              ],
              [
                105.904038,
                21.080663
              ],
              [
                105.903955,
                21.080567
              ],
              [
                105.903955,
                21.080567
              ],
              [
                105.903805,
                21.080245
              ],
              [
                105.903723,
                21.080069
              ],
              [
                105.903643,
                21.079883
              ],
              [
                105.903569,
                21.079735
              ],
              [
                105.903505,
                21.079596
              ],
              [
                105.903369,
                21.079427
              ],
              [
                105.903238,
                21.079278
              ],
              [
                105.9032,
                21.079228
              ],
              [
                105.902725,
                21.078603
              ],
              [
                105.902415,
                21.078662
              ],
              [
                105.902148,
                21.078728
              ],
              [
                105.901901,
                21.078806
              ],
              [
                105.901605,
                21.078904
              ],
              [
                105.901118,
                21.079059
              ],
              [
                105.900813,
                21.079148
              ],
              [
                105.900198,
                21.079344
              ],
              [
                105.899899,
                21.079446
              ],
              [
                105.899343,
                21.079593
              ],
              [
                105.899142,
                21.079629
              ],
              [
                105.898789,
                21.079697
              ],
              [
                105.898504,
                21.079729
              ],
              [
                105.898168,
                21.079756
              ],
              [
                105.897993,
                21.079774
              ],
              [
                105.897717,
                21.07979
              ],
              [
                105.897017,
                21.079755
              ],
              [
                105.896293,
                21.079692
              ],
              [
                105.895374,
                21.079589
              ],
              [
                105.894606,
                21.07945
              ],
              [
                105.893719,
                21.079266
              ],
              [
                105.893332,
                21.079174
              ],
              [
                105.892946,
                21.079088
              ],
              [
                105.892559,
                21.078983
              ],
              [
                105.892059,
                21.078852
              ],
              [
                105.891624,
                21.078733
              ],
              [
                105.890735,
                21.078455
              ],
              [
                105.890205,
                21.07826
              ],
              [
                105.888926,
                21.077769
              ],
              [
                105.8873,
                21.077096
              ],
              [
                105.887059,
                21.077014
              ],
              [
                105.88548,
                21.076285
              ],
              [
                105.885228,
                21.076138
              ],
              [
                105.883867,
                21.075318
              ],
              [
                105.883636,
                21.075163
              ],
              [
                105.883089,
                21.0748
              ],
              [
                105.882708,
                21.074562
              ],
              [
                105.882457,
                21.074392
              ],
              [
                105.882068,
                21.074106
              ],
              [
                105.881964,
                21.074035
              ],
              [
                105.881593,
                21.073762
              ],
              [
                105.881384,
                21.073619
              ],
              [
                105.880886,
                21.073255
              ],
              [
                105.880758,
                21.073161
              ],
              [
                105.880162,
                21.072729
              ],
              [
                105.879746,
                21.072421
              ],
              [
                105.879205,
                21.072055
              ],
              [
                105.87903,
                21.071931
              ],
              [
                105.878262,
                21.071379
              ],
              [
                105.878262,
                21.071379
              ],
              [
                105.878063,
                21.071236
              ],
              [
                105.877954,
                21.071158
              ],
              [
                105.877909,
                21.071126
              ],
              [
                105.877842,
                21.071078
              ],
              [
                105.876883,
                21.070405
              ],
              [
                105.876883,
                21.070405
              ],
              [
                105.876883,
                21.070404
              ],
              [
                105.874972,
                21.069529
              ],
              [
                105.872352,
                21.068264
              ],
              [
                105.872112,
                21.068148
              ],
              [
                105.870309,
                21.067472
              ],
              [
                105.868975,
                21.067024
              ],
              [
                105.86831,
                21.066859
              ],
              [
                105.867886,
                21.066754
              ],
              [
                105.8663,
                21.066451
              ],
              [
                105.866295,
                21.06645
              ],
              [
                105.865266,
                21.066446
              ],
              [
                105.864808,
                21.066518
              ],
              [
                105.864748,
                21.06653
              ],
              [
                105.864264,
                21.06662
              ],
              [
                105.86361,
                21.066875
              ],
              [
                105.863167,
                21.067047
              ],
              [
                105.863146,
                21.067059
              ],
              [
                105.863002,
                21.067137
              ],
              [
                105.862539,
                21.067387
              ],
              [
                105.862257,
                21.067539
              ],
              [
                105.862127,
                21.067609
              ],
              [
                105.861757,
                21.067826
              ],
              [
                105.861643,
                21.067893
              ],
              [
                105.860554,
                21.068533
              ],
              [
                105.860526,
                21.068549
              ],
              [
                105.860505,
                21.068566
              ],
              [
                105.859172,
                21.0696
              ],
              [
                105.858102,
                21.070594
              ],
              [
                105.857154,
                21.071444
              ],
              [
                105.857126,
                21.071469
              ],
              [
                105.856404,
                21.072052
              ],
              [
                105.855452,
                21.072738
              ],
              [
                105.855407,
                21.07277
              ],
              [
                105.855318,
                21.072834
              ],
              [
                105.855095,
                21.072995
              ],
              [
                105.854982,
                21.073076
              ],
              [
                105.854935,
                21.073109
              ],
              [
                105.854443,
                21.073456
              ],
              [
                105.854294,
                21.073562
              ],
              [
                105.852846,
                21.074582
              ],
              [
                105.850754,
                21.076141
              ],
              [
                105.850686,
                21.076197
              ],
              [
                105.850475,
                21.076368
              ],
              [
                105.850072,
                21.076696
              ],
              [
                105.849118,
                21.077471
              ],
              [
                105.848356,
                21.078063
              ],
              [
                105.847389,
                21.078806
              ],
              [
                105.846363,
                21.079575
              ],
              [
                105.845722,
                21.079989
              ],
              [
                105.844866,
                21.080366
              ],
              [
                105.844184,
                21.080609
              ],
              [
                105.842628,
                21.081031
              ],
              [
                105.842121,
                21.081099
              ],
              [
                105.840993,
                21.08116
              ],
              [
                105.840993,
                21.08116
              ]
            ]
          ]
        ]
      },
      "properties": {
        "code": "00454",
        "name": "Đông Anh",
        "nameEn": "Dong Anh",
        "fullName": "Xã Đông Anh",
        "fullNameEn": "Dong Anh Commune",
        "codeName": "dong_anh",
        "postalCode": "12306",
        "postalCodePrefix": "",
        "gisServerId": "diaphanhanhchinhcapxa_2025.3244",
        "areaKm2": 48.68
      }
    }
  ]
}