{
  "type": "FeatureCollection",
  "bbox": [
    105.731857,
    21.097728,
    105.808958,
    21.154575
  ],
  "features": [
    {
      "type": "Feature",
      "id": "00493",
      "bbox": [
        105.731857,
        21.097728,
        105.808958,
        21.154575
      ],
      "geometry": {
        "type": "MultiPolygon",
        "coordinates": [
          [
            [
              [
                105.807493,
                21.124612
              ],
              [
                105.805958,
                21.124613
              ],
              [
                105.801688,
                21.124611
              ],
              [
                105.800729,
                21.124616
              ],
              [
                105.798994,
                21.124621
              ],
              [
                105.797106,
                21.124622
              ],
              [
                105.796025,
                21.124613
              ],
              [
                105.794657,
                21.124652
              ],
              [
                105.793861,
                21.124748
              ],
              [
                105.793131,
                21.124918
              ],
              [
                105.792029,
                21.125181
              ],
              [
                105.791191,
                21.125366
              ],
              [
                105.790329,
                21.12556
              ],
              [
                105.789873,
                21.125631
              ],
              [
                105.789454,
                21.125675
              ],
              [
                105.788721,
                21.12575
              ],
              [
                105.788399,
                21.125755
              ],
              [
                105.786889,
                21.125875
              ],
              [
                105.785742,
                21.125948
              ],
              [
                105.784646,
                21.126043
              ],
              [
                105.784428,
                21.126062
              ],
              [
                105.783805,
                21.126054
              ],
              [
                105.783302,
                21.126005
              ],
              [
                105.782561,
                21.12583
              ],
              [
                105.78203,
                21.125686
              ],
              [
                105.781722,
                21.125597
              ],
              [
                105.781271,
                21.125453
              ],
              [
                105.781409,
                21.125055
              ],
              [
                105.781435,
                21.124976
              ],
              [
                105.781855,
                21.12377
              ],
              [
                105.782213,
                21.122688
              ],
              [
                105.782527,
                21.121799
              ],
              [
                105.782868,
                21.120786
              ],
              [
                105.783172,
                21.119812
              ],
              [
                105.783599,
                21.118545
              ],
              [
                105.783853,
                21.117792
              ],
              [
                105.784056,
                21.11719
              ],
              [
                105.784282,
                21.116515
              ],
              [
                105.784344,
                21.116334
              ],
              [
                105.784451,
                21.116017
              ],
              [
                105.784634,
                21.115476
              ],
              [
                105.784923,
                21.114655
              ],
              [
                105.785123,
                21.113956
              ],
              [
                105.78551,
                21.11286
              ],
              [
                105.785562,
                21.112704
              ],
              [
                105.785567,
                21.11269
              ],
              [
                105.785591,
                21.112618
              ],
              [
                105.785618,
                21.112536
              ],
              [
                105.785625,
                21.112515
              ],
              [
                105.785625,
                21.112515
              ],
              [
                105.785644,
                21.112459
              ],
              [
                105.78572,
                21.112229
              ],
              [
                105.785727,
                21.11221
              ],
              [
                105.785737,
                21.11218
              ],
              [
                105.785737,
                21.112178
              ],
              [
                105.785761,
                21.112108
              ],
              [
                105.785785,
                21.112035
              ],
              [
                105.785786,
                21.112034
              ],
              [
                105.7858,
                21.111991
              ],
              [
                105.785827,
                21.111911
              ],
              [
                105.785888,
                21.111732
              ],
              [
                105.78598,
                21.111456
              ],
              [
                105.786074,
                21.111176
              ],
              [
                105.786075,
                21.111172
              ],
              [
                105.78616,
                21.110923
              ],
              [
                105.786233,
                21.110704
              ],
              [
                105.786289,
                21.110528
              ],
              [
                105.786367,
                21.110273
              ],
              [
                105.78645,
                21.110019
              ],
              [
                105.786529,
                21.10979
              ],
              [
                105.786612,
                21.109539
              ],
              [
                105.786613,
                21.109537
              ],
              [
                105.786613,
                21.109537
              ],
              [
                105.786616,
                21.109528
              ],
              [
                105.786619,
                21.10952
              ],
              [
                105.786619,
                21.109519
              ],
              [
                105.786636,
                21.109467
              ],
              [
                105.786697,
                21.109288
              ],
              [
                105.786708,
                21.109256
              ],
              [
                105.786798,
                21.108987
              ],
              [
                105.786855,
                21.108814
              ],
              [
                105.786884,
                21.108729
              ],
              [
                105.786963,
                21.10849
              ],
              [
                105.787019,
                21.108303
              ],
              [
                105.787061,
                21.108136
              ],
              [
                105.787086,
                21.10801
              ],
              [
                105.7871,
                21.107926
              ],
              [
                105.787102,
                21.10791
              ],
              [
                105.787105,
                21.107894
              ],
              [
                105.78711,
                21.107841
              ],
              [
                105.787117,
                21.107775
              ],
              [
                105.787122,
                21.107728
              ],
              [
                105.787124,
                21.107707
              ],
              [
                105.787129,
                21.107657
              ],
              [
                105.787132,
                21.107552
              ],
              [
                105.787133,
                21.107511
              ],
              [
                105.787133,
                21.107493
              ],
              [
                105.787133,
                21.107411
              ],
              [
                105.787131,
                21.107336
              ],
              [
                105.787131,
                21.107327
              ],
              [
                105.787129,
                21.107275
              ],
              [
                105.787129,
                21.107266
              ],
              [
                105.787128,
                21.107256
              ],
              [
                105.787127,
                21.107219
              ],
              [
                105.787122,
                21.107155
              ],
              [
                105.78711,
                21.107001
              ],
              [
                105.787102,
                21.106885
              ],
              [
                105.787097,
                21.106806
              ],
              [
                105.787094,
                21.10676
              ],
              [
                105.787078,
                21.106531
              ],
              [
                105.787076,
                21.106494
              ],
              [
                105.787074,
                21.106471
              ],
              [
                105.787064,
                21.106294
              ],
              [
                105.787059,
                21.106222
              ],
              [
                105.787059,
                21.106222
              ],
              [
                105.787057,
                21.106199
              ],
              [
                105.787056,
                21.106177
              ],
              [
                105.787056,
                21.106177
              ],
              [
                105.787048,
                21.106067
              ],
              [
                105.787041,
                21.105977
              ],
              [
                105.787027,
                21.105823
              ],
              [
                105.787008,
                21.105564
              ],
              [
                105.787006,
                21.105538
              ],
              [
                105.786988,
                21.105331
              ],
              [
                105.786986,
                21.105305
              ],
              [
                105.786971,
                21.105102
              ],
              [
                105.786958,
                21.104912
              ],
              [
                105.786941,
                21.104683
              ],
              [
                105.786919,
                21.104426
              ],
              [
                105.786901,
                21.104182
              ],
              [
                105.786898,
                21.104144
              ],
              [
                105.786897,
                21.104131
              ],
              [
                105.786896,
                21.104122
              ],
              [
                105.786896,
                21.104118
              ],
              [
                105.786883,
                21.103953
              ],
              [
                105.786882,
                21.103932
              ],
              [
                105.78686,
                21.10365
              ],
              [
                105.786843,
                21.103436
              ],
              [
                105.786843,
                21.103429
              ],
              [
                105.786842,
                21.10342
              ],
              [
                105.786841,
                21.103411
              ],
              [
                105.786833,
                21.103298
              ],
              [
                105.786825,
                21.103182
              ],
              [
                105.786809,
                21.102985
              ],
              [
                105.786795,
                21.102784
              ],
              [
                105.786792,
                21.102739
              ],
              [
                105.78678,
                21.102563
              ],
              [
                105.786761,
                21.102327
              ],
              [
                105.786746,
                21.102129
              ],
              [
                105.786732,
                21.101951
              ],
              [
                105.786708,
                21.101636
              ],
              [
                105.786704,
                21.101579
              ],
              [
                105.786683,
                21.101319
              ],
              [
                105.786665,
                21.101076
              ],
              [
                105.786658,
                21.100992
              ],
              [
                105.786631,
                21.100647
              ],
              [
                105.786604,
                21.100358
              ],
              [
                105.786575,
                21.099994
              ],
              [
                105.786556,
                21.09974
              ],
              [
                105.78654,
                21.099517
              ],
              [
                105.786522,
                21.099262
              ],
              [
                105.786511,
                21.099134
              ],
              [
                105.786499,
                21.098998
              ],
              [
                105.786479,
                21.098728
              ],
              [
                105.786464,
                21.098533
              ],
              [
                105.786438,
                21.098149
              ],
              [
                105.786411,
                21.097825
              ],
              [
                105.786404,
                21.097728
              ],
              [
                105.78015,
                21.09804
              ],
              [
                105.780125,
                21.098041
              ],
              [
                105.775616,
                21.098265
              ],
              [
                105.77443,
                21.09839
              ],
              [
                105.772712,
                21.098495
              ],
              [
                105.772514,
                21.098494
              ],
              [
                105.764358,
                21.098954
              ],
              [
                105.7623,
                21.09902
              ],
              [
                105.75208,
                21.098731
              ],
              [
                105.751884,
                21.098725
              ],
              [
                105.751124,
                21.098691
              ],
              [
                105.748866,
                21.099474
              ],
              [
                105.745649,
                21.103182
              ],
              [
                105.744795,
                21.104191
              ],
              [
                105.742434,
                21.106876
              ],
              [
                105.74183,
                21.107581
              ],
              [
                105.741599,
                21.10785
              ],
              [
                105.741467,
                21.108003
              ],
              [
                105.741432,
                21.108044
              ],
              [
                105.740754,
                21.108592
              ],
              [
                105.738936,
                21.110234
              ],
              [
                105.738442,
                21.110664
              ],
              [
                105.737647,
                21.111375
              ],
              [
                105.737227,
                21.111734
              ],
              [
                105.736716,
                21.112198
              ],
              [
                105.736236,
                21.112628
              ],
              [
                105.736,
                21.112839
              ],
              [
                105.735546,
                21.113236
              ],
              [
                105.735437,
                21.113339
              ],
              [
                105.735629,
                21.113495
              ],
              [
                105.735774,
                21.113599
              ],
              [
                105.736079,
                21.113752
              ],
              [
                105.735055,
                21.115798
              ],
              [
                105.735051,
                21.115808
              ],
              [
                105.73389,
                21.118243
              ],
              [
                105.732959,
                21.12011
              ],
              [
                105.731857,
                21.122104
              ],
              [
                105.733089,
                21.122021
              ],
              [
                105.733924,
                21.121705
              ],
              [
                105.733924,
                21.121705
              ],
              [
                105.734006,
                21.121702
              ],
              [
                105.734101,
                21.121719
              ],
              [
                105.734248,
                21.121761
              ],
              [
                105.734435,
                21.121794
              ],
              [
                105.734436,
                21.121794
              ],
              [
                105.734544,
                21.121801
              ],
              [
                105.734544,
                21.121801
              ],
              [
                105.734659,
                21.12179
              ],
              [
                105.734659,
                21.12179
              ],
              [
                105.734783,
                21.121802
              ],
              [
                105.734969,
                21.12185
              ],
              [
                105.735048,
                21.121859
              ],
              [
                105.735049,
                21.121859
              ],
              [
                105.735049,
                21.121859
              ],
              [
                105.735103,
                21.121854
              ],
              [
                105.735245,
                21.121833
              ],
              [
                105.735245,
                21.121833
              ],
              [
                105.735462,
                21.12182
              ],
              [
                105.735548,
                21.121803
              ],
              [
                105.735585,
                21.121782
              ],
              [
                105.735651,
                21.121744
              ],
              [
                105.735704,
                21.121735
              ],
              [
                105.735704,
                21.121735
              ],
              [
                105.735744,
                21.121757
              ],
              [
                105.735798,
                21.12179
              ],
              [
                105.735819,
                21.121803
              ],
              [
                105.735844,
                21.121823
              ],
              [
                105.735885,
                21.121854
              ],
              [
                105.73596,
                21.121921
              ],
              [
                105.736007,
                21.121987
              ],
              [
                105.736017,
                21.122036
              ],
              [
                105.736019,
                21.122048
              ],
              [
                105.736021,
                21.122059
              ],
              [
                105.736022,
                21.122064
              ],
              [
                105.736038,
                21.122171
              ],
              [
                105.736059,
                21.122239
              ],
              [
                105.736062,
                21.122249
              ],
              [
                105.736103,
                21.122426
              ],
              [
                105.736116,
                21.122547
              ],
              [
                105.736111,
                21.122559
              ],
              [
                105.736104,
                21.122578
              ],
              [
                105.736093,
                21.122583
              ],
              [
                105.735958,
                21.122641
              ],
              [
                105.735737,
                21.122736
              ],
              [
                105.735534,
                21.122821
              ],
              [
                105.735408,
                21.122875
              ],
              [
                105.735354,
                21.122908
              ],
              [
                105.735344,
                21.122924
              ],
              [
                105.735333,
                21.122945
              ],
              [
                105.735328,
                21.122966
              ],
              [
                105.735323,
                21.122987
              ],
              [
                105.735323,
                21.123027
              ],
              [
                105.73533,
                21.123085
              ],
              [
                105.735348,
                21.123141
              ],
              [
                105.735383,
                21.123231
              ],
              [
                105.735408,
                21.123318
              ],
              [
                105.735424,
                21.123378
              ],
              [
                105.73545,
                21.12344
              ],
              [
                105.735462,
                21.123492
              ],
              [
                105.735465,
                21.123505
              ],
              [
                105.735469,
                21.123519
              ],
              [
                105.735472,
                21.123529
              ],
              [
                105.735478,
                21.123563
              ],
              [
                105.735483,
                21.123634
              ],
              [
                105.735483,
                21.123724
              ],
              [
                105.735486,
                21.123859
              ],
              [
                105.735483,
                21.123875
              ],
              [
                105.735477,
                21.123885
              ],
              [
                105.735473,
                21.123904
              ],
              [
                105.735467,
                21.123971
              ],
              [
                105.735466,
                21.123986
              ],
              [
                105.735466,
                21.123986
              ],
              [
                105.735481,
                21.123985
              ],
              [
                105.73554,
                21.123979
              ],
              [
                105.73554,
                21.123979
              ],
              [
                105.735668,
                21.123973
              ],
              [
                105.735668,
                21.123973
              ],
              [
                105.735668,
                21.123973
              ],
              [
                105.735685,
                21.123973
              ],
              [
                105.735721,
                21.124016
              ],
              [
                105.735722,
                21.124017
              ],
              [
                105.735722,
                21.124018
              ],
              [
                105.73585,
                21.124184
              ],
              [
                105.736011,
                21.124411
              ],
              [
                105.736038,
                21.124453
              ],
              [
                105.736046,
                21.124465
              ],
              [
                105.736053,
                21.124475
              ],
              [
                105.736112,
                21.124565
              ],
              [
                105.73612,
                21.124569
              ],
              [
                105.73612,
                21.124569
              ],
              [
                105.736135,
                21.124568
              ],
              [
                105.736282,
                21.124506
              ],
              [
                105.736291,
                21.124508
              ],
              [
                105.736298,
                21.124515
              ],
              [
                105.736307,
                21.124535
              ],
              [
                105.736315,
                21.124578
              ],
              [
                105.736363,
                21.124777
              ],
              [
                105.736403,
                21.124889
              ],
              [
                105.736472,
                21.125073
              ],
              [
                105.736491,
                21.125127
              ],
              [
                105.736507,
                21.125172
              ],
              [
                105.736506,
                21.125181
              ],
              [
                105.736497,
                21.125187
              ],
              [
                105.736459,
                21.125202
              ],
              [
                105.736445,
                21.125211
              ],
              [
                105.73644,
                21.125224
              ],
              [
                105.736438,
                21.12524
              ],
              [
                105.736461,
                21.12529
              ],
              [
                105.736489,
                21.125349
              ],
              [
                105.73649,
                21.125353
              ],
              [
                105.73649,
                21.125355
              ],
              [
                105.736486,
                21.125362
              ],
              [
                105.736817,
                21.125227
              ],
              [
                105.736901,
                21.125186
              ],
              [
                105.736924,
                21.125194
              ],
              [
                105.736942,
                21.12523
              ],
              [
                105.736965,
                21.125276
              ],
              [
                105.737021,
                21.125376
              ],
              [
                105.737075,
                21.125471
              ],
              [
                105.7371,
                21.125507
              ],
              [
                105.737113,
                21.125518
              ],
              [
                105.737123,
                21.125521
              ],
              [
                105.737227,
                21.125741
              ],
              [
                105.737404,
                21.12567
              ],
              [
                105.737515,
                21.125629
              ],
              [
                105.737857,
                21.125504
              ],
              [
                105.738637,
                21.125191
              ],
              [
                105.738647,
                21.125187
              ],
              [
                105.738832,
                21.125597
              ],
              [
                105.738832,
                21.125601
              ],
              [
                105.738679,
                21.125691
              ],
              [
                105.738715,
                21.126138
              ],
              [
                105.738733,
                21.126236
              ],
              [
                105.738777,
                21.126315
              ],
              [
                105.738868,
                21.126338
              ],
              [
                105.738915,
                21.126373
              ],
              [
                105.73893,
                21.126383
              ],
              [
                105.738921,
                21.126425
              ],
              [
                105.738917,
                21.126441
              ],
              [
                105.738871,
                21.126769
              ],
              [
                105.738958,
                21.126979
              ],
              [
                105.739054,
                21.127066
              ],
              [
                105.739133,
                21.127137
              ],
              [
                105.739119,
                21.127286
              ],
              [
                105.739096,
                21.127525
              ],
              [
                105.739011,
                21.12775
              ],
              [
                105.738891,
                21.127741
              ],
              [
                105.738866,
                21.127837
              ],
              [
                105.738934,
                21.12795
              ],
              [
                105.739057,
                21.128147
              ],
              [
                105.739051,
                21.128181
              ],
              [
                105.738733,
                21.128484
              ],
              [
                105.738791,
                21.128502
              ],
              [
                105.739154,
                21.128618
              ],
              [
                105.7395,
                21.12872
              ],
              [
                105.739742,
                21.128793
              ],
              [
                105.739785,
                21.128806
              ],
              [
                105.740056,
                21.128888
              ],
              [
                105.740083,
                21.128895
              ],
              [
                105.740116,
                21.128898
              ],
              [
                105.740143,
                21.128899
              ],
              [
                105.740171,
                21.1289
              ],
              [
                105.740255,
                21.128896
              ],
              [
                105.740435,
                21.128881
              ],
              [
                105.740712,
                21.128857
              ],
              [
                105.740991,
                21.128832
              ],
              [
                105.741066,
                21.128824
              ],
              [
                105.741064,
                21.128941
              ],
              [
                105.741085,
                21.128941
              ],
              [
                105.741116,
                21.129161
              ],
              [
                105.741183,
                21.129471
              ],
              [
                105.74123,
                21.129674
              ],
              [
                105.741243,
                21.129707
              ],
              [
                105.741268,
                21.12971
              ],
              [
                105.741281,
                21.12971
              ],
              [
                105.741313,
                21.129711
              ],
              [
                105.741335,
                21.129757
              ],
              [
                105.741467,
                21.130058
              ],
              [
                105.741487,
                21.130112
              ],
              [
                105.741502,
                21.130158
              ],
              [
                105.741502,
                21.130178
              ],
              [
                105.741491,
                21.13019
              ],
              [
                105.741482,
                21.130195
              ],
              [
                105.741468,
                21.130201
              ],
              [
                105.741454,
                21.130205
              ],
              [
                105.741432,
                21.130216
              ],
              [
                105.741424,
                21.130226
              ],
              [
                105.74142,
                21.130238
              ],
              [
                105.74142,
                21.130256
              ],
              [
                105.741424,
                21.130277
              ],
              [
                105.741454,
                21.130381
              ],
              [
                105.741468,
                21.130429
              ],
              [
                105.741497,
                21.130586
              ],
              [
                105.741519,
                21.130728
              ],
              [
                105.741528,
                21.1308
              ],
              [
                105.741535,
                21.130871
              ],
              [
                105.741544,
                21.130942
              ],
              [
                105.741553,
                21.131009
              ],
              [
                105.741573,
                21.131081
              ],
              [
                105.741594,
                21.131148
              ],
              [
                105.741618,
                21.131217
              ],
              [
                105.741641,
                21.131287
              ],
              [
                105.741667,
                21.131356
              ],
              [
                105.741695,
                21.131423
              ],
              [
                105.741723,
                21.131493
              ],
              [
                105.741754,
                21.131562
              ],
              [
                105.741782,
                21.131632
              ],
              [
                105.741804,
                21.131701
              ],
              [
                105.741828,
                21.131769
              ],
              [
                105.741842,
                21.131842
              ],
              [
                105.741875,
                21.131984
              ],
              [
                105.741911,
                21.132126
              ],
              [
                105.741943,
                21.132267
              ],
              [
                105.741977,
                21.132404
              ],
              [
                105.742012,
                21.132573
              ],
              [
                105.74204,
                21.132679
              ],
              [
                105.742042,
                21.132694
              ],
              [
                105.74204,
                21.1327
              ],
              [
                105.742035,
                21.132706
              ],
              [
                105.742008,
                21.132714
              ],
              [
                105.742007,
                21.132721
              ],
              [
                105.742011,
                21.132746
              ],
              [
                105.742015,
                21.132781
              ],
              [
                105.742042,
                21.132882
              ],
              [
                105.742232,
                21.132834
              ],
              [
                105.742253,
                21.132829
              ],
              [
                105.742254,
                21.132829
              ],
              [
                105.742538,
                21.132766
              ],
              [
                105.742787,
                21.132711
              ],
              [
                105.742951,
                21.132668
              ],
              [
                105.743037,
                21.132646
              ],
              [
                105.743178,
                21.132615
              ],
              [
                105.743195,
                21.13268
              ],
              [
                105.743205,
                21.132721
              ],
              [
                105.743244,
                21.132886
              ],
              [
                105.743247,
                21.132902
              ],
              [
                105.743263,
                21.132979
              ],
              [
                105.743266,
                21.132997
              ],
              [
                105.743281,
                21.133084
              ],
              [
                105.743307,
                21.133219
              ],
              [
                105.743353,
                21.133417
              ],
              [
                105.743403,
                21.133618
              ],
              [
                105.743454,
                21.133825
              ],
              [
                105.743499,
                21.134015
              ],
              [
                105.74353,
                21.134142
              ],
              [
                105.743561,
                21.134293
              ],
              [
                105.743596,
                21.134432
              ],
              [
                105.743635,
                21.134567
              ],
              [
                105.743675,
                21.134722
              ],
              [
                105.743752,
                21.134706
              ],
              [
                105.747222,
                21.134261
              ],
              [
                105.750106,
                21.134239
              ],
              [
                105.750684,
                21.134132
              ],
              [
                105.751172,
                21.133881
              ],
              [
                105.751753,
                21.133764
              ],
              [
                105.752069,
                21.133811
              ],
              [
                105.75317,
                21.133968
              ],
              [
                105.755483,
                21.133756
              ],
              [
                105.758487,
                21.133754
              ],
              [
                105.75971,
                21.133762
              ],
              [
                105.75968,
                21.133999
              ],
              [
                105.759621,
                21.134362
              ],
              [
                105.759562,
                21.13466
              ],
              [
                105.75956,
                21.134782
              ],
              [
                105.759594,
                21.134788
              ],
              [
                105.75964,
                21.134797
              ],
              [
                105.75987,
                21.134826
              ],
              [
                105.759982,
                21.134853
              ],
              [
                105.760049,
                21.134894
              ],
              [
                105.760115,
                21.134969
              ],
              [
                105.760137,
                21.135076
              ],
              [
                105.760219,
                21.135448
              ],
              [
                105.760295,
                21.135604
              ],
              [
                105.760303,
                21.13562
              ],
              [
                105.760333,
                21.135666
              ],
              [
                105.760351,
                21.135694
              ],
              [
                105.760402,
                21.135754
              ],
              [
                105.760472,
                21.135795
              ],
              [
                105.760562,
                21.135816
              ],
              [
                105.760587,
                21.135814
              ],
              [
                105.760788,
                21.135803
              ],
              [
                105.761008,
                21.135811
              ],
              [
                105.76127,
                21.135884
              ],
              [
                105.761384,
                21.135917
              ],
              [
                105.761428,
                21.135921
              ],
              [
                105.761472,
                21.135925
              ],
              [
                105.761585,
                21.135912
              ],
              [
                105.76168,
                21.135912
              ],
              [
                105.761713,
                21.135915
              ],
              [
                105.761721,
                21.135924
              ],
              [
                105.761833,
                21.135917
              ],
              [
                105.762046,
                21.135905
              ],
              [
                105.762183,
                21.13588
              ],
              [
                105.762262,
                21.135853
              ],
              [
                105.762377,
                21.135813
              ],
              [
                105.762523,
                21.135741
              ],
              [
                105.762682,
                21.135657
              ],
              [
                105.762815,
                21.135596
              ],
              [
                105.76293,
                21.135557
              ],
              [
                105.763182,
                21.13547
              ],
              [
                105.763489,
                21.135458
              ],
              [
                105.763602,
                21.135462
              ],
              [
                105.763693,
                21.135471
              ],
              [
                105.764039,
                21.135528
              ],
              [
                105.764348,
                21.13559
              ],
              [
                105.764596,
                21.135649
              ],
              [
                105.764839,
                21.135715
              ],
              [
                105.765333,
                21.135859
              ],
              [
                105.76578,
                21.136051
              ],
              [
                105.765978,
                21.136177
              ],
              [
                105.766246,
                21.136343
              ],
              [
                105.766672,
                21.136688
              ],
              [
                105.767501,
                21.137472
              ],
              [
                105.767579,
                21.137551
              ],
              [
                105.768271,
                21.138389
              ],
              [
                105.768752,
                21.139239
              ],
              [
                105.769049,
                21.139858
              ],
              [
                105.769225,
                21.140141
              ],
              [
                105.769502,
                21.140524
              ],
              [
                105.769738,
                21.140821
              ],
              [
                105.770498,
                21.14181
              ],
              [
                105.770787,
                21.142128
              ],
              [
                105.770899,
                21.142242
              ],
              [
                105.770968,
                21.142324
              ],
              [
                105.770984,
                21.142374
              ],
              [
                105.770996,
                21.142474
              ],
              [
                105.770996,
                21.142625
              ],
              [
                105.77104,
                21.142991
              ],
              [
                105.771042,
                21.143299
              ],
              [
                105.771002,
                21.143633
              ],
              [
                105.770995,
                21.143758
              ],
              [
                105.771024,
                21.143891
              ],
              [
                105.771159,
                21.144153
              ],
              [
                105.771442,
                21.144595
              ],
              [
                105.772201,
                21.145425
              ],
              [
                105.772581,
                21.145852
              ],
              [
                105.772947,
                21.146386
              ],
              [
                105.773129,
                21.146547
              ],
              [
                105.773351,
                21.146983
              ],
              [
                105.773577,
                21.147284
              ],
              [
                105.773903,
                21.147563
              ],
              [
                105.774207,
                21.14775
              ],
              [
                105.774601,
                21.147922
              ],
              [
                105.775055,
                21.148224
              ],
              [
                105.775525,
                21.148569
              ],
              [
                105.775765,
                21.148712
              ],
              [
                105.776124,
                21.148912
              ],
              [
                105.77642,
                21.149064
              ],
              [
                105.776804,
                21.149243
              ],
              [
                105.777929,
                21.149959
              ],
              [
                105.778344,
                21.150244
              ],
              [
                105.778566,
                21.150336
              ],
              [
                105.778826,
                21.150378
              ],
              [
                105.779147,
                21.150391
              ],
              [
                105.779212,
                21.150405
              ],
              [
                105.779385,
                21.150497
              ],
              [
                105.779615,
                21.150711
              ],
              [
                105.779899,
                21.150939
              ],
              [
                105.780221,
                21.151124
              ],
              [
                105.780604,
                21.15123
              ],
              [
                105.781315,
                21.151371
              ],
              [
                105.781492,
                21.151438
              ],
              [
                105.781698,
                21.151556
              ],
              [
                105.781793,
                21.151623
              ],
              [
                105.781983,
                21.151803
              ],
              [
                105.782056,
                21.151886
              ],
              [
                105.782116,
                21.151931
              ],
              [
                105.782203,
                21.151969
              ],
              [
                105.783123,
                21.152176
              ],
              [
                105.784086,
                21.152172
              ],
              [
                105.785963,
                21.151714
              ],
              [
                105.786726,
                21.151491
              ],
              [
                105.787347,
                21.151301
              ],
              [
                105.787457,
                21.151267
              ],
              [
                105.789598,
                21.15061
              ],
              [
                105.789656,
                21.150592
              ],
              [
                105.790885,
                21.150098
              ],
              [
                105.791711,
                21.14967
              ],
              [
                105.792556,
                21.149377
              ],
              [
                105.792825,
                21.149366
              ],
              [
                105.793291,
                21.149407
              ],
              [
                105.793551,
                21.14943
              ],
              [
                105.794035,
                21.150103
              ],
              [
                105.794677,
                21.150995
              ],
              [
                105.795333,
                21.151857
              ],
              [
                105.796485,
                21.152771
              ],
              [
                105.797123,
                21.153257
              ],
              [
                105.797709,
                21.153802
              ],
              [
                105.798915,
                21.154463
              ],
              [
                105.799187,
                21.154558
              ],
              [
                105.799479,
                21.154575
              ],
              [
                105.799776,
                21.154548
              ],
              [
                105.799967,
                21.154462
              ],
              [
                105.800072,
                21.154382
              ],
              [
                105.800332,
                21.154121
              ],
              [
                105.800885,
                21.153463
              ],
              [
                105.801307,
                21.153262
              ],
              [
                105.801739,
                21.153128
              ],
              [
                105.802558,
                21.152842
              ],
              [
                105.802769,
                21.152667
              ],
              [
                105.8029,
                21.152426
              ],
              [
                105.803011,
                21.15168
              ],
              [
                105.803153,
                21.150237
              ],
              [
                105.803282,
                21.149499
              ],
              [
                105.80333,
                21.149426
              ],
              [
                105.803396,
                21.149374
              ],
              [
                105.80366,
                21.149348
              ],
              [
                105.80397,
                21.149364
              ],
              [
                105.804069,
                21.149305
              ],
              [
                105.804184,
                21.14922
              ],
              [
                105.804282,
                21.149107
              ],
              [
                105.804368,
                21.148988
              ],
              [
                105.804397,
                21.148927
              ],
              [
                105.804426,
                21.148841
              ],
              [
                105.804465,
                21.148734
              ],
              [
                105.804521,
                21.148592
              ],
              [
                105.804613,
                21.148265
              ],
              [
                105.804728,
                21.148078
              ],
              [
                105.804895,
                21.147879
              ],
              [
                105.805217,
                21.147354
              ],
              [
                105.805323,
                21.14716
              ],
              [
                105.805408,
                21.147026
              ],
              [
                105.805546,
                21.146821
              ],
              [
                105.805746,
                21.146496
              ],
              [
                105.805852,
                21.146292
              ],
              [
                105.80592,
                21.14613
              ],
              [
                105.805983,
                21.145966
              ],
              [
                105.806025,
                21.145813
              ],
              [
                105.806066,
                21.145518
              ],
              [
                105.806099,
                21.145239
              ],
              [
                105.806111,
                21.14502
              ],
              [
                105.806102,
                21.144794
              ],
              [
                105.806074,
                21.14463
              ],
              [
                105.806057,
                21.144535
              ],
              [
                105.806058,
                21.144324
              ],
              [
                105.806081,
                21.144037
              ],
              [
                105.806114,
                21.143861
              ],
              [
                105.806164,
                21.143676
              ],
              [
                105.806225,
                21.143537
              ],
              [
                105.806245,
                21.143456
              ],
              [
                105.806272,
                21.143318
              ],
              [
                105.80635,
                21.142966
              ],
              [
                105.806446,
                21.142613
              ],
              [
                105.806467,
                21.142503
              ],
              [
                105.806507,
                21.142241
              ],
              [
                105.806536,
                21.14189
              ],
              [
                105.806549,
                21.141752
              ],
              [
                105.806548,
                21.141585
              ],
              [
                105.806515,
                21.141387
              ],
              [
                105.806476,
                21.141325
              ],
              [
                105.806379,
                21.141227
              ],
              [
                105.806248,
                21.141115
              ],
              [
                105.806103,
                21.140983
              ],
              [
                105.805997,
                21.140847
              ],
              [
                105.805785,
                21.140604
              ],
              [
                105.805567,
                21.14039
              ],
              [
                105.805472,
                21.140285
              ],
              [
                105.805315,
                21.140099
              ],
              [
                105.805192,
                21.139904
              ],
              [
                105.80514,
                21.139803
              ],
              [
                105.805107,
                21.139715
              ],
              [
                105.80509,
                21.139614
              ],
              [
                105.805056,
                21.139365
              ],
              [
                105.805001,
                21.139114
              ],
              [
                105.804851,
                21.138519
              ],
              [
                105.804782,
                21.138346
              ],
              [
                105.804719,
                21.138206
              ],
              [
                105.804641,
                21.138088
              ],
              [
                105.804558,
                21.137958
              ],
              [
                105.804493,
                21.137861
              ],
              [
                105.804328,
                21.137501
              ],
              [
                105.804163,
                21.137204
              ],
              [
                105.803986,
                21.136259
              ],
              [
                105.804007,
                21.135351
              ],
              [
                105.804144,
                21.13492
              ],
              [
                105.804512,
                21.134667
              ],
              [
                105.805071,
                21.134354
              ],
              [
                105.805783,
                21.134063
              ],
              [
                105.806452,
                21.133739
              ],
              [
                105.806639,
                21.133648
              ],
              [
                105.806831,
                21.133453
              ],
              [
                105.806906,
                21.133322
              ],
              [
                105.806914,
                21.133306
              ],
              [
                105.806923,
                21.13329
              ],
              [
                105.806945,
                21.133241
              ],
              [
                105.806951,
                21.133227
              ],
              [
                105.807005,
                21.133033
              ],
              [
                105.807042,
                21.132902
              ],
              [
                105.807052,
                21.132866
              ],
              [
                105.807154,
                21.132566
              ],
              [
                105.807192,
                21.132455
              ],
              [
                105.807396,
                21.132126
              ],
              [
                105.807419,
                21.13209
              ],
              [
                105.807528,
                21.131956
              ],
              [
                105.807826,
                21.131637
              ],
              [
                105.808532,
                21.131114
              ],
              [
                105.808855,
                21.130748
              ],
              [
                105.808899,
                21.130623
              ],
              [
                105.808924,
                21.130472
              ],
              [
                105.808927,
                21.130405
              ],
              [
                105.808918,
                21.130354
              ],
              [
                105.808885,
                21.130285
              ],
              [
                105.808797,
                21.130149
              ],
              [
                105.808712,
                21.130011
              ],
              [
                105.808635,
                21.129863
              ],
              [
                105.808593,
                21.129746
              ],
              [
                105.808584,
                21.129656
              ],
              [
                105.808589,
                21.129584
              ],
              [
                105.80863,
                21.129489
              ],
              [
                105.808689,
                21.129402
              ],
              [
                105.808803,
                21.129296
              ],
              [
                105.808958,
                21.129173
              ],
              [
                105.808935,
                21.128796
              ],
              [
                105.808893,
                21.128653
              ],
              [
                105.808831,
                21.128491
              ],
              [
                105.808657,
                21.12831
              ],
              [
                105.808452,
                21.128034
              ],
              [
                105.808165,
                21.127863
              ],
              [
                105.807879,
                21.127606
              ],
              [
                105.807693,
                21.127196
              ],
              [
                105.80763,
                21.126909
              ],
              [
                105.807536,
                21.12648
              ],
              [
                105.807534,
                21.126155
              ],
              [
                105.807493,
                21.124612
              ],
              [
                105.807493,
                21.124612
              ]
            ]
          ]
        ]
      },
      "properties": {
        "code": "00493",
        "name": "Thiên Lộc",
        "nameEn": "Thien Loc",
        "fullName": "Xã Thiên Lộc",
        "fullNameEn": "Thien Loc Commune",
        "codeName": "thien_loc",
        "postalCode": "12332",
        "postalCodePrefix": "",
        "gisServerId": "diaphanhanhchinhcapxa_2025.3245",
        "areaKm2": 27.96
      }
    }
  ]
}