{
  "type": "FeatureCollection",
  "bbox": [
    105.781271,
    21.08116,
    105.850134,
    21.126062
  ],
  "features": [
    {
      "type": "Feature",
      "id": "00508",
      "bbox": [
        105.781271,
        21.08116,
        105.850134,
        21.126062
      ],
      "geometry": {
        "type": "MultiPolygon",
        "coordinates": [
          [
            [
              [
                105.807493,
                21.124612
              ],
              [
                105.808432,
                21.124611
              ],
              [
                105.813173,
                21.124605
              ],
              [
                105.814938,
                21.124597
              ],
              [
                105.82359,
                21.124598
              ],
              [
                105.827091,
                21.124624
              ],
              [
                105.830806,
                21.124599
              ],
              [
                105.831677,
                21.124573
              ],
              [
                105.83241,
                21.124533
              ],
              [
                105.83309,
                21.124415
              ],
              [
                105.833632,
                21.124291
              ],
              [
                105.834204,
                21.124137
              ],
              [
                105.834975,
                21.123868
              ],
              [
                105.835516,
                21.123622
              ],
              [
                105.836103,
                21.123318
              ],
              [
                105.836758,
                21.12292
              ],
              [
                105.837184,
                21.122624
              ],
              [
                105.837709,
                21.122184
              ],
              [
                105.838099,
                21.121841
              ],
              [
                105.838517,
                21.121391
              ],
              [
                105.839094,
                21.120724
              ],
              [
                105.839682,
                21.120004
              ],
              [
                105.840388,
                21.119122
              ],
              [
                105.841167,
                21.11824
              ],
              [
                105.842195,
                21.116966
              ],
              [
                105.842814,
                21.116245
              ],
              [
                105.843698,
                21.115194
              ],
              [
                105.8452,
                21.113397
              ],
              [
                105.845395,
                21.113154
              ],
              [
                105.846791,
                21.111458
              ],
              [
                105.848008,
                21.109975
              ],
              [
                105.848989,
                21.108795
              ],
              [
                105.84949,
                21.108191
              ],
              [
                105.849773,
                21.107812
              ],
              [
                105.850134,
                21.107327
              ],
              [
                105.850009,
                21.10725
              ],
              [
                105.84984,
                21.107145
              ],
              [
                105.849572,
                21.10698
              ],
              [
                105.849447,
                21.106904
              ],
              [
                105.849368,
                21.106855
              ],
              [
                105.848706,
                21.10639
              ],
              [
                105.848673,
                21.106368
              ],
              [
                105.848644,
                21.106348
              ],
              [
                105.848632,
                21.10634
              ],
              [
                105.848574,
                21.106301
              ],
              [
                105.848474,
                21.106232
              ],
              [
                105.848433,
                21.106204
              ],
              [
                105.848253,
                21.106081
              ],
              [
                105.848234,
                21.106068
              ],
              [
                105.84822,
                21.106059
              ],
              [
                105.848215,
                21.106055
              ],
              [
                105.84803,
                21.105933
              ],
              [
                105.847957,
                21.105884
              ],
              [
                105.847925,
                21.105863
              ],
              [
                105.847908,
                21.105852
              ],
              [
                105.847891,
                21.10584
              ],
              [
                105.847652,
                21.10568
              ],
              [
                105.847635,
                21.105669
              ],
              [
                105.847615,
                21.105657
              ],
              [
                105.847595,
                21.105645
              ],
              [
                105.847364,
                21.105502
              ],
              [
                105.846999,
                21.10526
              ],
              [
                105.846667,
                21.105042
              ],
              [
                105.846459,
                21.1049
              ],
              [
                105.846325,
                21.104808
              ],
              [
                105.846257,
                21.104761
              ],
              [
                105.846138,
                21.104683
              ],
              [
                105.845897,
                21.104489
              ],
              [
                105.845944,
                21.104419
              ],
              [
                105.845997,
                21.104332
              ],
              [
                105.845998,
                21.104329
              ],
              [
                105.846008,
                21.104313
              ],
              [
                105.846017,
                21.104297
              ],
              [
                105.846041,
                21.104255
              ],
              [
                105.846086,
                21.104173
              ],
              [
                105.846132,
                21.10409
              ],
              [
                105.846177,
                21.104004
              ],
              [
                105.846207,
                21.10393
              ],
              [
                105.846235,
                21.103843
              ],
              [
                105.846255,
                21.103752
              ],
              [
                105.84628,
                21.103652
              ],
              [
                105.846296,
                21.103572
              ],
              [
                105.846316,
                21.103469
              ],
              [
                105.84633,
                21.103347
              ],
              [
                105.846346,
                21.103181
              ],
              [
                105.846348,
                21.103127
              ],
              [
                105.846351,
                21.103073
              ],
              [
                105.846355,
                21.103018
              ],
              [
                105.846355,
                21.102728
              ],
              [
                105.846352,
                21.102509
              ],
              [
                105.84635,
                21.10243
              ],
              [
                105.84635,
                21.102407
              ],
              [
                105.84635,
                21.102385
              ],
              [
                105.846351,
                21.102372
              ],
              [
                105.846354,
                21.102358
              ],
              [
                105.846357,
                21.102345
              ],
              [
                105.846364,
                21.102325
              ],
              [
                105.846379,
                21.102295
              ],
              [
                105.846402,
                21.102255
              ],
              [
                105.846434,
                21.102198
              ],
              [
                105.846519,
                21.102057
              ],
              [
                105.846662,
                21.101831
              ],
              [
                105.846815,
                21.101593
              ],
              [
                105.846867,
                21.101511
              ],
              [
                105.846868,
                21.101509
              ],
              [
                105.846974,
                21.101343
              ],
              [
                105.84718,
                21.101005
              ],
              [
                105.847227,
                21.100935
              ],
              [
                105.847261,
                21.100887
              ],
              [
                105.847288,
                21.100852
              ],
              [
                105.847322,
                21.100812
              ],
              [
                105.847338,
                21.100792
              ],
              [
                105.847348,
                21.100776
              ],
              [
                105.847362,
                21.100749
              ],
              [
                105.847382,
                21.100701
              ],
              [
                105.847407,
                21.100635
              ],
              [
                105.84742,
                21.100602
              ],
              [
                105.847427,
                21.100583
              ],
              [
                105.847446,
                21.100534
              ],
              [
                105.847542,
                21.100288
              ],
              [
                105.847557,
                21.100244
              ],
              [
                105.847563,
                21.100229
              ],
              [
                105.84757,
                21.100218
              ],
              [
                105.847103,
                21.100115
              ],
              [
                105.847066,
                21.100116
              ],
              [
                105.847026,
                21.100117
              ],
              [
                105.846994,
                21.100117
              ],
              [
                105.846937,
                21.100105
              ],
              [
                105.8469,
                21.100082
              ],
              [
                105.846869,
                21.100057
              ],
              [
                105.846846,
                21.100038
              ],
              [
                105.846822,
                21.100018
              ],
              [
                105.847454,
                21.0988
              ],
              [
                105.847472,
                21.098636
              ],
              [
                105.847784,
                21.098088
              ],
              [
                105.847822,
                21.097954
              ],
              [
                105.847963,
                21.097741
              ],
              [
                105.847985,
                21.097727
              ],
              [
                105.848025,
                21.097736
              ],
              [
                105.848058,
                21.097674
              ],
              [
                105.848075,
                21.09759
              ],
              [
                105.848067,
                21.097568
              ],
              [
                105.848062,
                21.097538
              ],
              [
                105.848217,
                21.097046
              ],
              [
                105.848209,
                21.097015
              ],
              [
                105.848192,
                21.096994
              ],
              [
                105.848191,
                21.096985
              ],
              [
                105.848197,
                21.096949
              ],
              [
                105.848214,
                21.096914
              ],
              [
                105.848231,
                21.096878
              ],
              [
                105.848234,
                21.0968
              ],
              [
                105.848252,
                21.09677
              ],
              [
                105.848268,
                21.09675
              ],
              [
                105.848269,
                21.096736
              ],
              [
                105.848265,
                21.096729
              ],
              [
                105.848232,
                21.096708
              ],
              [
                105.848224,
                21.096691
              ],
              [
                105.848233,
                21.096656
              ],
              [
                105.848268,
                21.096602
              ],
              [
                105.848302,
                21.096497
              ],
              [
                105.848333,
                21.096466
              ],
              [
                105.848341,
                21.09645
              ],
              [
                105.848356,
                21.096293
              ],
              [
                105.848385,
                21.096281
              ],
              [
                105.84839,
                21.096254
              ],
              [
                105.848391,
                21.096228
              ],
              [
                105.848425,
                21.096178
              ],
              [
                105.848463,
                21.096036
              ],
              [
                105.848495,
                21.096019
              ],
              [
                105.848647,
                21.095647
              ],
              [
                105.848651,
                21.095619
              ],
              [
                105.848618,
                21.095592
              ],
              [
                105.848585,
                21.095564
              ],
              [
                105.848595,
                21.095513
              ],
              [
                105.848608,
                21.095343
              ],
              [
                105.848603,
                21.095248
              ],
              [
                105.848583,
                21.095223
              ],
              [
                105.848593,
                21.095103
              ],
              [
                105.848563,
                21.095064
              ],
              [
                105.848559,
                21.095043
              ],
              [
                105.848592,
                21.094948
              ],
              [
                105.848574,
                21.09492
              ],
              [
                105.848656,
                21.094637
              ],
              [
                105.848671,
                21.094579
              ],
              [
                105.848669,
                21.094549
              ],
              [
                105.84872,
                21.094485
              ],
              [
                105.848761,
                21.094434
              ],
              [
                105.84877,
                21.094408
              ],
              [
                105.84877,
                21.094392
              ],
              [
                105.848749,
                21.094381
              ],
              [
                105.848718,
                21.094391
              ],
              [
                105.848695,
                21.094381
              ],
              [
                105.848676,
                21.094338
              ],
              [
                105.848691,
                21.094202
              ],
              [
                105.848768,
                21.094111
              ],
              [
                105.848835,
                21.09384
              ],
              [
                105.848807,
                21.093665
              ],
              [
                105.848817,
                21.093561
              ],
              [
                105.848813,
                21.093297
              ],
              [
                105.848796,
                21.093115
              ],
              [
                105.848814,
                21.092989
              ],
              [
                105.848845,
                21.092912
              ],
              [
                105.848837,
                21.09286
              ],
              [
                105.84882,
                21.09279
              ],
              [
                105.848856,
                21.092751
              ],
              [
                105.848851,
                21.092513
              ],
              [
                105.848809,
                21.092388
              ],
              [
                105.848679,
                21.092226
              ],
              [
                105.848567,
                21.092051
              ],
              [
                105.848518,
                21.091876
              ],
              [
                105.848502,
                21.091765
              ],
              [
                105.848432,
                21.091447
              ],
              [
                105.848401,
                21.091361
              ],
              [
                105.848323,
                21.091077
              ],
              [
                105.848247,
                21.09082
              ],
              [
                105.848296,
                21.090723
              ],
              [
                105.848311,
                21.090673
              ],
              [
                105.848183,
                21.090355
              ],
              [
                105.848052,
                21.090044
              ],
              [
                105.847961,
                21.08992
              ],
              [
                105.847901,
                21.089717
              ],
              [
                105.847944,
                21.089701
              ],
              [
                105.847909,
                21.089523
              ],
              [
                105.847899,
                21.089494
              ],
              [
                105.847868,
                21.089472
              ],
              [
                105.847837,
                21.08941
              ],
              [
                105.847834,
                21.089349
              ],
              [
                105.847847,
                21.089249
              ],
              [
                105.847841,
                21.089197
              ],
              [
                105.847815,
                21.089051
              ],
              [
                105.847647,
                21.088976
              ],
              [
                105.847664,
                21.088869
              ],
              [
                105.847666,
                21.08878
              ],
              [
                105.84762,
                21.088609
              ],
              [
                105.847552,
                21.08842
              ],
              [
                105.847496,
                21.088319
              ],
              [
                105.847465,
                21.088324
              ],
              [
                105.847288,
                21.087937
              ],
              [
                105.847249,
                21.087923
              ],
              [
                105.84717,
                21.087784
              ],
              [
                105.847169,
                21.08777
              ],
              [
                105.847198,
                21.087716
              ],
              [
                105.847197,
                21.087685
              ],
              [
                105.847183,
                21.087564
              ],
              [
                105.847125,
                21.087423
              ],
              [
                105.847053,
                21.087341
              ],
              [
                105.846949,
                21.087244
              ],
              [
                105.846851,
                21.087172
              ],
              [
                105.846674,
                21.087072
              ],
              [
                105.846456,
                21.086849
              ],
              [
                105.84633,
                21.086807
              ],
              [
                105.846264,
                21.086785
              ],
              [
                105.846211,
                21.086832
              ],
              [
                105.846008,
                21.086757
              ],
              [
                105.846013,
                21.086321
              ],
              [
                105.840993,
                21.08116
              ],
              [
                105.839381,
                21.082348
              ],
              [
                105.835217,
                21.085805
              ],
              [
                105.835186,
                21.085818
              ],
              [
                105.834778,
                21.086014
              ],
              [
                105.833432,
                21.086656
              ],
              [
                105.833191,
                21.086764
              ],
              [
                105.832736,
                21.087036
              ],
              [
                105.832394,
                21.08727
              ],
              [
                105.831876,
                21.087635
              ],
              [
                105.831577,
                21.087857
              ],
              [
                105.831,
                21.088305
              ],
              [
                105.830523,
                21.088675
              ],
              [
                105.830374,
                21.088792
              ],
              [
                105.830045,
                21.089045
              ],
              [
                105.829777,
                21.089258
              ],
              [
                105.829392,
                21.089493
              ],
              [
                105.829337,
                21.089527
              ],
              [
                105.828987,
                21.089751
              ],
              [
                105.828462,
                21.09009
              ],
              [
                105.827856,
                21.090475
              ],
              [
                105.827555,
                21.090671
              ],
              [
                105.827019,
                21.091014
              ],
              [
                105.82666,
                21.091227
              ],
              [
                105.82626,
                21.091423
              ],
              [
                105.826182,
                21.091462
              ],
              [
                105.825568,
                21.091723
              ],
              [
                105.825095,
                21.091917
              ],
              [
                105.8248,
                21.092025
              ],
              [
                105.824,
                21.092251
              ],
              [
                105.823332,
                21.092456
              ],
              [
                105.822674,
                21.092649
              ],
              [
                105.82226,
                21.092765
              ],
              [
                105.821461,
                21.093029
              ],
              [
                105.820877,
                21.093222
              ],
              [
                105.820293,
                21.093414
              ],
              [
                105.819476,
                21.093693
              ],
              [
                105.818514,
                21.094013
              ],
              [
                105.817901,
                21.094218
              ],
              [
                105.816846,
                21.094571
              ],
              [
                105.816545,
                21.094666
              ],
              [
                105.816018,
                21.094703
              ],
              [
                105.814854,
                21.094782
              ],
              [
                105.814384,
                21.094808
              ],
              [
                105.813445,
                21.094879
              ],
              [
                105.813054,
                21.094912
              ],
              [
                105.812366,
                21.094955
              ],
              [
                105.811912,
                21.094995
              ],
              [
                105.810876,
                21.095064
              ],
              [
                105.809935,
                21.095137
              ],
              [
                105.808935,
                21.095213
              ],
              [
                105.807915,
                21.095289
              ],
              [
                105.807096,
                21.095345
              ],
              [
                105.806228,
                21.09542
              ],
              [
                105.805287,
                21.095487
              ],
              [
                105.803967,
                21.095589
              ],
              [
                105.802919,
                21.095748
              ],
              [
                105.802587,
                21.095803
              ],
              [
                105.801753,
                21.095954
              ],
              [
                105.801231,
                21.096043
              ],
              [
                105.800479,
                21.096177
              ],
              [
                105.800075,
                21.096251
              ],
              [
                105.79931,
                21.09639
              ],
              [
                105.799043,
                21.096442
              ],
              [
                105.797807,
                21.096655
              ],
              [
                105.797571,
                21.096705
              ],
              [
                105.796893,
                21.096821
              ],
              [
                105.796477,
                21.096896
              ],
              [
                105.795842,
                21.097007
              ],
              [
                105.794992,
                21.097158
              ],
              [
                105.794592,
                21.097247
              ],
              [
                105.79394,
                21.097369
              ],
              [
                105.79355,
                21.097426
              ],
              [
                105.79274,
                21.097455
              ],
              [
                105.791679,
                21.097494
              ],
              [
                105.789924,
                21.097561
              ],
              [
                105.789179,
                21.09759
              ],
              [
                105.788418,
                21.097628
              ],
              [
                105.786404,
                21.097728
              ],
              [
                105.786411,
                21.097825
              ],
              [
                105.786438,
                21.098149
              ],
              [
                105.786464,
                21.098533
              ],
              [
                105.786479,
                21.098728
              ],
              [
                105.786499,
                21.098998
              ],
              [
                105.786511,
                21.099134
              ],
              [
                105.786522,
                21.099262
              ],
              [
                105.78654,
                21.099517
              ],
              [
                105.786556,
                21.09974
              ],
              [
                105.786575,
                21.099994
              ],
              [
                105.786604,
                21.100358
              ],
              [
                105.786631,
                21.100647
              ],
              [
                105.786658,
                21.100992
              ],
              [
                105.786665,
                21.101076
              ],
              [
                105.786683,
                21.101319
              ],
              [
                105.786704,
                21.101579
              ],
              [
                105.786708,
                21.101636
              ],
              [
                105.786732,
                21.101951
              ],
              [
                105.786746,
                21.102129
              ],
              [
                105.786761,
                21.102327
              ],
              [
                105.78678,
                21.102563
              ],
              [
                105.786792,
                21.102739
              ],
              [
                105.786795,
                21.102784
              ],
              [
                105.786809,
                21.102985
              ],
              [
                105.786825,
                21.103182
              ],
              [
                105.786833,
                21.103298
              ],
              [
                105.786841,
                21.103411
              ],
              [
                105.786842,
                21.10342
              ],
              [
                105.786843,
                21.103429
              ],
              [
                105.786843,
                21.103436
              ],
              [
                105.78686,
                21.10365
              ],
              [
                105.786882,
                21.103932
              ],
              [
                105.786883,
                21.103953
              ],
              [
                105.786896,
                21.104118
              ],
              [
                105.786896,
                21.104122
              ],
              [
                105.786897,
                21.104131
              ],
              [
                105.786898,
                21.104144
              ],
              [
                105.786901,
                21.104182
              ],
              [
                105.786919,
                21.104426
              ],
              [
                105.786941,
                21.104683
              ],
              [
                105.786958,
                21.104912
              ],
              [
                105.786971,
                21.105102
              ],
              [
                105.786986,
                21.105305
              ],
              [
                105.786988,
                21.105331
              ],
              [
                105.787006,
                21.105538
              ],
              [
                105.787008,
                21.105564
              ],
              [
                105.787027,
                21.105823
              ],
              [
                105.787041,
                21.105977
              ],
              [
                105.787048,
                21.106067
              ],
              [
                105.787056,
                21.106177
              ],
              [
                105.787056,
                21.106177
              ],
              [
                105.787057,
                21.106199
              ],
              [
                105.787059,
                21.106222
              ],
              [
                105.787059,
                21.106222
              ],
              [
                105.787064,
                21.106294
              ],
              [
                105.787074,
                21.106471
              ],
              [
                105.787076,
                21.106494
              ],
              [
                105.787078,
                21.106531
              ],
              [
                105.787094,
                21.10676
              ],
              [
                105.787097,
                21.106806
              ],
              [
                105.787102,
                21.106885
              ],
              [
                105.78711,
                21.107001
              ],
              [
                105.787122,
                21.107155
              ],
              [
                105.787127,
                21.107219
              ],
              [
                105.787128,
                21.107256
              ],
              [
                105.787129,
                21.107266
              ],
              [
                105.787129,
                21.107275
              ],
              [
                105.787131,
                21.107327
              ],
              [
                105.787131,
                21.107336
              ],
              [
                105.787133,
                21.107411
              ],
              [
                105.787133,
                21.107493
              ],
              [
                105.787133,
                21.107511
              ],
              [
                105.787132,
                21.107552
              ],
              [
                105.787129,
                21.107657
              ],
              [
                105.787124,
                21.107707
              ],
              [
                105.787122,
                21.107728
              ],
              [
                105.787117,
                21.107775
              ],
              [
                105.78711,
                21.107841
              ],
              [
                105.787105,
                21.107894
              ],
              [
                105.787102,
                21.10791
              ],
              [
                105.7871,
                21.107926
              ],
              [
                105.787086,
                21.10801
              ],
              [
                105.787061,
                21.108136
              ],
              [
                105.787019,
                21.108303
              ],
              [
                105.786963,
                21.10849
              ],
              [
                105.786884,
                21.108729
              ],
              [
                105.786855,
                21.108814
              ],
              [
                105.786798,
                21.108987
              ],
              [
                105.786708,
                21.109256
              ],
              [
                105.786697,
                21.109288
              ],
              [
                105.786636,
                21.109467
              ],
              [
                105.786619,
                21.109519
              ],
              [
                105.786619,
                21.10952
              ],
              [
                105.786616,
                21.109528
              ],
              [
                105.786613,
                21.109537
              ],
              [
                105.786613,
                21.109537
              ],
              [
                105.786612,
                21.109539
              ],
              [
                105.786529,
                21.10979
              ],
              [
                105.78645,
                21.110019
              ],
              [
                105.786367,
                21.110273
              ],
              [
                105.786289,
                21.110528
              ],
              [
                105.786233,
                21.110704
              ],
              [
                105.78616,
                21.110923
              ],
              [
                105.786075,
                21.111172
              ],
              [
                105.786074,
                21.111176
              ],
              [
                105.78598,
                21.111456
              ],
              [
                105.785888,
                21.111732
              ],
              [
                105.785827,
                21.111911
              ],
              [
                105.7858,
                21.111991
              ],
              [
                105.785786,
                21.112034
              ],
              [
                105.785785,
                21.112035
              ],
              [
                105.785761,
                21.112108
              ],
              [
                105.785737,
                21.112178
              ],
              [
                105.785737,
                21.11218
              ],
              [
                105.785727,
                21.11221
              ],
              [
                105.78572,
                21.112229
              ],
              [
                105.785644,
                21.112459
              ],
              [
                105.785625,
                21.112515
              ],
              [
                105.785625,
                21.112515
              ],
              [
                105.785618,
                21.112536
              ],
              [
                105.785591,
                21.112618
              ],
              [
                105.785567,
                21.11269
              ],
              [
                105.785562,
                21.112704
              ],
              [
                105.78551,
                21.11286
              ],
              [
                105.785123,
                21.113956
              ],
              [
                105.784923,
                21.114655
              ],
              [
                105.784634,
                21.115476
              ],
              [
                105.784451,
                21.116017
              ],
              [
                105.784344,
                21.116334
              ],
              [
                105.784282,
                21.116515
              ],
              [
                105.784056,
                21.11719
              ],
              [
                105.783853,
                21.117792
              ],
              [
                105.783599,
                21.118545
              ],
              [
                105.783172,
                21.119812
              ],
              [
                105.782868,
                21.120786
              ],
              [
                105.782527,
                21.121799
              ],
              [
                105.782213,
                21.122688
              ],
              [
                105.781855,
                21.12377
              ],
              [
                105.781435,
                21.124976
              ],
              [
                105.781409,
                21.125055
              ],
              [
                105.781271,
                21.125453
              ],
              [
                105.781722,
                21.125597
              ],
              [
                105.78203,
                21.125686
              ],
              [
                105.782561,
                21.12583
              ],
              [
                105.783302,
                21.126005
              ],
              [
                105.783805,
                21.126054
              ],
              [
                105.784428,
                21.126062
              ],
              [
                105.784646,
                21.126043
              ],
              [
                105.785742,
                21.125948
              ],
              [
                105.786889,
                21.125875
              ],
              [
                105.788399,
                21.125755
              ],
              [
                105.788721,
                21.12575
              ],
              [
                105.789454,
                21.125675
              ],
              [
                105.789873,
                21.125631
              ],
              [
                105.790329,
                21.12556
              ],
              [
                105.791191,
                21.125366
              ],
              [
                105.792029,
                21.125181
              ],
              [
                105.793131,
                21.124918
              ],
              [
                105.793861,
                21.124748
              ],
              [
                105.794657,
                21.124652
              ],
              [
                105.796025,
                21.124613
              ],
              [
                105.797106,
                21.124622
              ],
              [
                105.798994,
                21.124621
              ],
              [
                105.800729,
                21.124616
              ],
              [
                105.801688,
                21.124611
              ],
              [
                105.805958,
                21.124613
              ],
              [
                105.807493,
                21.124612
              ],
              [
                105.807493,
                21.124612
              ]
            ]
          ]
        ]
      },
      "properties": {
        "code": "00508",
        "name": "Vĩnh Thanh",
        "nameEn": "Vinh Thanh",
        "fullName": "Xã Vĩnh Thanh",
        "fullNameEn": "Vinh Thanh Commune",
        "codeName": "vinh_thanh",
        "postalCode": "12333",
        "postalCodePrefix": "",
        "gisServerId": "diaphanhanhchinhcapxa_2025.3280",
        "areaKm2": 22.52
      }
    }
  ]
}