{
  "type": "FeatureCollection",
  "bbox": [
    105.755513,
    21.05429,
    105.78846,
    21.098495
  ],
  "features": [
    {
      "type": "Feature",
      "id": "00602",
      "bbox": [
        105.755513,
        21.05429,
        105.78846,
        21.098495
      ],
      "geometry": {
        "type": "MultiPolygon",
        "coordinates": [
          [
            [
              [
                105.786404,
                21.097728
              ],
              [
                105.786402,
                21.097707
              ],
              [
                105.786353,
                21.097068
              ],
              [
                105.786321,
                21.096654
              ],
              [
                105.786204,
                21.095131
              ],
              [
                105.786172,
                21.094709
              ],
              [
                105.786075,
                21.093452
              ],
              [
                105.786055,
                21.093199
              ],
              [
                105.786026,
                21.092816
              ],
              [
                105.785932,
                21.091596
              ],
              [
                105.785919,
                21.091434
              ],
              [
                105.785911,
                21.091329
              ],
              [
                105.785867,
                21.090751
              ],
              [
                105.785854,
                21.090579
              ],
              [
                105.785841,
                21.090102
              ],
              [
                105.785843,
                21.090075
              ],
              [
                105.785861,
                21.089817
              ],
              [
                105.785914,
                21.089499
              ],
              [
                105.786072,
                21.088953
              ],
              [
                105.786193,
                21.088593
              ],
              [
                105.786209,
                21.088546
              ],
              [
                105.786329,
                21.088191
              ],
              [
                105.786543,
                21.087558
              ],
              [
                105.787214,
                21.085578
              ],
              [
                105.787237,
                21.08551
              ],
              [
                105.78724,
                21.085503
              ],
              [
                105.787388,
                21.085062
              ],
              [
                105.787612,
                21.084377
              ],
              [
                105.78772,
                21.084075
              ],
              [
                105.787861,
                21.08363
              ],
              [
                105.788021,
                21.08317
              ],
              [
                105.788146,
                21.082775
              ],
              [
                105.788269,
                21.082395
              ],
              [
                105.788364,
                21.082019
              ],
              [
                105.788391,
                21.081851
              ],
              [
                105.788452,
                21.081411
              ],
              [
                105.78846,
                21.080981
              ],
              [
                105.788428,
                21.08072
              ],
              [
                105.788394,
                21.080486
              ],
              [
                105.788274,
                21.079966
              ],
              [
                105.788207,
                21.079819
              ],
              [
                105.788091,
                21.079514
              ],
              [
                105.787955,
                21.079235
              ],
              [
                105.787896,
                21.079122
              ],
              [
                105.787838,
                21.079009
              ],
              [
                105.787181,
                21.077996
              ],
              [
                105.786765,
                21.077343
              ],
              [
                105.786415,
                21.076752
              ],
              [
                105.786132,
                21.07617
              ],
              [
                105.785987,
                21.07575
              ],
              [
                105.785867,
                21.075238
              ],
              [
                105.785804,
                21.07478
              ],
              [
                105.785712,
                21.0738
              ],
              [
                105.785576,
                21.072132
              ],
              [
                105.785456,
                21.07055
              ],
              [
                105.785352,
                21.069164
              ],
              [
                105.785244,
                21.06792
              ],
              [
                105.785133,
                21.067154
              ],
              [
                105.785047,
                21.066727
              ],
              [
                105.784708,
                21.065373
              ],
              [
                105.784429,
                21.064318
              ],
              [
                105.784423,
                21.064294
              ],
              [
                105.784399,
                21.064202
              ],
              [
                105.784374,
                21.064105
              ],
              [
                105.784348,
                21.064008
              ],
              [
                105.784332,
                21.063943
              ],
              [
                105.784315,
                21.06387
              ],
              [
                105.784292,
                21.063776
              ],
              [
                105.784269,
                21.063681
              ],
              [
                105.784243,
                21.063578
              ],
              [
                105.784217,
                21.063474
              ],
              [
                105.784193,
                21.06338
              ],
              [
                105.784167,
                21.063279
              ],
              [
                105.784138,
                21.063172
              ],
              [
                105.784108,
                21.063061
              ],
              [
                105.784081,
                21.062958
              ],
              [
                105.784055,
                21.062859
              ],
              [
                105.784034,
                21.062779
              ],
              [
                105.784012,
                21.062698
              ],
              [
                105.783983,
                21.062589
              ],
              [
                105.783954,
                21.06248
              ],
              [
                105.783927,
                21.062376
              ],
              [
                105.783903,
                21.06228
              ],
              [
                105.783879,
                21.062183
              ],
              [
                105.783856,
                21.062087
              ],
              [
                105.783835,
                21.062002
              ],
              [
                105.783818,
                21.061936
              ],
              [
                105.783799,
                21.061862
              ],
              [
                105.783775,
                21.061769
              ],
              [
                105.783751,
                21.061677
              ],
              [
                105.783726,
                21.061584
              ],
              [
                105.783703,
                21.061494
              ],
              [
                105.783685,
                21.061422
              ],
              [
                105.78367,
                21.061359
              ],
              [
                105.78365,
                21.061277
              ],
              [
                105.78363,
                21.061198
              ],
              [
                105.783608,
                21.061107
              ],
              [
                105.783581,
                21.061
              ],
              [
                105.783559,
                21.060919
              ],
              [
                105.783538,
                21.060838
              ],
              [
                105.78352,
                21.06077
              ],
              [
                105.7835,
                21.060689
              ],
              [
                105.783479,
                21.060604
              ],
              [
                105.783457,
                21.060515
              ],
              [
                105.783432,
                21.060422
              ],
              [
                105.783406,
                21.060318
              ],
              [
                105.783385,
                21.060236
              ],
              [
                105.783365,
                21.060156
              ],
              [
                105.783338,
                21.060049
              ],
              [
                105.783312,
                21.059946
              ],
              [
                105.783286,
                21.059843
              ],
              [
                105.783264,
                21.059757
              ],
              [
                105.783246,
                21.059687
              ],
              [
                105.783229,
                21.059618
              ],
              [
                105.783209,
                21.059544
              ],
              [
                105.783187,
                21.059462
              ],
              [
                105.783154,
                21.059342
              ],
              [
                105.783127,
                21.059243
              ],
              [
                105.783114,
                21.059191
              ],
              [
                105.78309,
                21.059098
              ],
              [
                105.783062,
                21.058985
              ],
              [
                105.783033,
                21.058872
              ],
              [
                105.783005,
                21.058759
              ],
              [
                105.78299,
                21.058702
              ],
              [
                105.782976,
                21.058645
              ],
              [
                105.782955,
                21.058564
              ],
              [
                105.782938,
                21.058496
              ],
              [
                105.782921,
                21.058429
              ],
              [
                105.782898,
                21.058342
              ],
              [
                105.782868,
                21.058222
              ],
              [
                105.782838,
                21.058106
              ],
              [
                105.78282,
                21.058037
              ],
              [
                105.782802,
                21.057965
              ],
              [
                105.782776,
                21.057865
              ],
              [
                105.782751,
                21.057765
              ],
              [
                105.782731,
                21.057689
              ],
              [
                105.782718,
                21.057636
              ],
              [
                105.782703,
                21.057579
              ],
              [
                105.782684,
                21.057505
              ],
              [
                105.782659,
                21.057408
              ],
              [
                105.782634,
                21.05731
              ],
              [
                105.782608,
                21.057212
              ],
              [
                105.782583,
                21.057114
              ],
              [
                105.782563,
                21.057035
              ],
              [
                105.782547,
                21.056975
              ],
              [
                105.782527,
                21.056897
              ],
              [
                105.782501,
                21.056793
              ],
              [
                105.782481,
                21.056715
              ],
              [
                105.782465,
                21.056651
              ],
              [
                105.782445,
                21.056576
              ],
              [
                105.782428,
                21.056508
              ],
              [
                105.782413,
                21.056452
              ],
              [
                105.782409,
                21.056436
              ],
              [
                105.782362,
                21.056245
              ],
              [
                105.782342,
                21.056164
              ],
              [
                105.782337,
                21.056139
              ],
              [
                105.782315,
                21.05605
              ],
              [
                105.782298,
                21.055977
              ],
              [
                105.782281,
                21.055903
              ],
              [
                105.782263,
                21.055829
              ],
              [
                105.782245,
                21.055753
              ],
              [
                105.782233,
                21.055702
              ],
              [
                105.782018,
                21.055687
              ],
              [
                105.781827,
                21.055664
              ],
              [
                105.779842,
                21.055389
              ],
              [
                105.773813,
                21.054546
              ],
              [
                105.773175,
                21.054451
              ],
              [
                105.772856,
                21.054403
              ],
              [
                105.772717,
                21.054382
              ],
              [
                105.772394,
                21.054334
              ],
              [
                105.772267,
                21.054315
              ],
              [
                105.772101,
                21.05429
              ],
              [
                105.772126,
                21.05434
              ],
              [
                105.772326,
                21.054858
              ],
              [
                105.772463,
                21.055138
              ],
              [
                105.772585,
                21.055601
              ],
              [
                105.772734,
                21.056297
              ],
              [
                105.772739,
                21.056564
              ],
              [
                105.772659,
                21.057084
              ],
              [
                105.772111,
                21.05716
              ],
              [
                105.771915,
                21.057144
              ],
              [
                105.771605,
                21.057068
              ],
              [
                105.77108,
                21.056822
              ],
              [
                105.770925,
                21.056782
              ],
              [
                105.770715,
                21.056783
              ],
              [
                105.770337,
                21.056839
              ],
              [
                105.769637,
                21.057018
              ],
              [
                105.769435,
                21.057164
              ],
              [
                105.76914,
                21.057284
              ],
              [
                105.76874,
                21.057323
              ],
              [
                105.768509,
                21.057309
              ],
              [
                105.768292,
                21.057322
              ],
              [
                105.768112,
                21.05736
              ],
              [
                105.767882,
                21.05745
              ],
              [
                105.76759,
                21.057624
              ],
              [
                105.767244,
                21.05779
              ],
              [
                105.766673,
                21.058048
              ],
              [
                105.765388,
                21.058528
              ],
              [
                105.763653,
                21.059226
              ],
              [
                105.762143,
                21.05977
              ],
              [
                105.761904,
                21.059878
              ],
              [
                105.76145,
                21.060044
              ],
              [
                105.761226,
                21.060143
              ],
              [
                105.761044,
                21.060248
              ],
              [
                105.760872,
                21.060405
              ],
              [
                105.76069,
                21.060571
              ],
              [
                105.760039,
                21.061194
              ],
              [
                105.759417,
                21.061782
              ],
              [
                105.759125,
                21.062054
              ],
              [
                105.758706,
                21.06242
              ],
              [
                105.7581,
                21.062983
              ],
              [
                105.757809,
                21.063238
              ],
              [
                105.757347,
                21.063619
              ],
              [
                105.756671,
                21.064143
              ],
              [
                105.756067,
                21.064687
              ],
              [
                105.755714,
                21.064961
              ],
              [
                105.755513,
                21.065051
              ],
              [
                105.755526,
                21.0651
              ],
              [
                105.75602,
                21.066969
              ],
              [
                105.759531,
                21.065795
              ],
              [
                105.759781,
                21.06594
              ],
              [
                105.759458,
                21.066097
              ],
              [
                105.759451,
                21.0661
              ],
              [
                105.759818,
                21.066288
              ],
              [
                105.760288,
                21.066474
              ],
              [
                105.760554,
                21.066575
              ],
              [
                105.760518,
                21.066676
              ],
              [
                105.760465,
                21.066826
              ],
              [
                105.760421,
                21.066948
              ],
              [
                105.760392,
                21.067031
              ],
              [
                105.760486,
                21.06706
              ],
              [
                105.760536,
                21.067075
              ],
              [
                105.760537,
                21.067076
              ],
              [
                105.760539,
                21.067081
              ],
              [
                105.760545,
                21.067094
              ],
              [
                105.76053,
                21.067139
              ],
              [
                105.760501,
                21.067228
              ],
              [
                105.760475,
                21.067234
              ],
              [
                105.76042,
                21.067246
              ],
              [
                105.760418,
                21.067246
              ],
              [
                105.760403,
                21.067277
              ],
              [
                105.760393,
                21.0673
              ],
              [
                105.760378,
                21.067331
              ],
              [
                105.760371,
                21.067345
              ],
              [
                105.760365,
                21.067409
              ],
              [
                105.760361,
                21.067448
              ],
              [
                105.760359,
                21.067475
              ],
              [
                105.760359,
                21.067498
              ],
              [
                105.76043,
                21.067512
              ],
              [
                105.760545,
                21.067534
              ],
              [
                105.760588,
                21.067543
              ],
              [
                105.760985,
                21.067633
              ],
              [
                105.761064,
                21.067646
              ],
              [
                105.761134,
                21.067663
              ],
              [
                105.761132,
                21.067675
              ],
              [
                105.761119,
                21.067766
              ],
              [
                105.761085,
                21.067899
              ],
              [
                105.761076,
                21.067935
              ],
              [
                105.760957,
                21.068381
              ],
              [
                105.760873,
                21.068392
              ],
              [
                105.760871,
                21.069212
              ],
              [
                105.760967,
                21.069217
              ],
              [
                105.760965,
                21.069379
              ],
              [
                105.760964,
                21.069429
              ],
              [
                105.76096,
                21.06968
              ],
              [
                105.760957,
                21.069904
              ],
              [
                105.76129,
                21.069914
              ],
              [
                105.76129,
                21.070178
              ],
              [
                105.761289,
                21.070368
              ],
              [
                105.761303,
                21.070384
              ],
              [
                105.761302,
                21.070496
              ],
              [
                105.761275,
                21.07087
              ],
              [
                105.761272,
                21.070985
              ],
              [
                105.761252,
                21.070985
              ],
              [
                105.761237,
                21.071211
              ],
              [
                105.761214,
                21.071359
              ],
              [
                105.761206,
                21.071389
              ],
              [
                105.761334,
                21.071388
              ],
              [
                105.761365,
                21.071387
              ],
              [
                105.761466,
                21.071385
              ],
              [
                105.761729,
                21.07138
              ],
              [
                105.761975,
                21.071344
              ],
              [
                105.762266,
                21.071293
              ],
              [
                105.762307,
                21.071286
              ],
              [
                105.762434,
                21.071264
              ],
              [
                105.762723,
                21.071213
              ],
              [
                105.762764,
                21.071206
              ],
              [
                105.762764,
                21.071206
              ],
              [
                105.762745,
                21.07138
              ],
              [
                105.762734,
                21.071639
              ],
              [
                105.763085,
                21.071583
              ],
              [
                105.763117,
                21.071582
              ],
              [
                105.763148,
                21.071581
              ],
              [
                105.763781,
                21.071563
              ],
              [
                105.76437,
                21.071546
              ],
              [
                105.764718,
                21.071536
              ],
              [
                105.764855,
                21.071534
              ],
              [
                105.764966,
                21.071532
              ],
              [
                105.765178,
                21.071528
              ],
              [
                105.76623,
                21.071537
              ],
              [
                105.766477,
                21.071536
              ],
              [
                105.766862,
                21.071534
              ],
              [
                105.768079,
                21.07153
              ],
              [
                105.768156,
                21.07153
              ],
              [
                105.768485,
                21.071528
              ],
              [
                105.768545,
                21.071529
              ],
              [
                105.769017,
                21.071529
              ],
              [
                105.770337,
                21.071529
              ],
              [
                105.7707,
                21.07153
              ],
              [
                105.77131,
                21.07153
              ],
              [
                105.771406,
                21.071532
              ],
              [
                105.771429,
                21.071532
              ],
              [
                105.771508,
                21.071533
              ],
              [
                105.77172,
                21.071537
              ],
              [
                105.771736,
                21.071537
              ],
              [
                105.771705,
                21.071922
              ],
              [
                105.771636,
                21.072762
              ],
              [
                105.771626,
                21.072889
              ],
              [
                105.771584,
                21.073971
              ],
              [
                105.771511,
                21.075091
              ],
              [
                105.771324,
                21.077951
              ],
              [
                105.771268,
                21.079368
              ],
              [
                105.771201,
                21.080011
              ],
              [
                105.771172,
                21.08091
              ],
              [
                105.771155,
                21.081432
              ],
              [
                105.771057,
                21.082695
              ],
              [
                105.771062,
                21.083202
              ],
              [
                105.771064,
                21.08334
              ],
              [
                105.771064,
                21.083361
              ],
              [
                105.771066,
                21.083509
              ],
              [
                105.771001,
                21.084437
              ],
              [
                105.770773,
                21.08772
              ],
              [
                105.77072,
                21.08825
              ],
              [
                105.770615,
                21.089293
              ],
              [
                105.770601,
                21.089435
              ],
              [
                105.77059,
                21.089541
              ],
              [
                105.770535,
                21.090097
              ],
              [
                105.770571,
                21.090364
              ],
              [
                105.771098,
                21.091345
              ],
              [
                105.771359,
                21.092167
              ],
              [
                105.7714,
                21.092464
              ],
              [
                105.771365,
                21.092678
              ],
              [
                105.771364,
                21.092762
              ],
              [
                105.771824,
                21.095006
              ],
              [
                105.771887,
                21.095324
              ],
              [
                105.772306,
                21.097444
              ],
              [
                105.772356,
                21.097699
              ],
              [
                105.772514,
                21.098494
              ],
              [
                105.772712,
                21.098495
              ],
              [
                105.77443,
                21.09839
              ],
              [
                105.775616,
                21.098265
              ],
              [
                105.780125,
                21.098041
              ],
              [
                105.78015,
                21.09804
              ],
              [
                105.786404,
                21.097728
              ],
              [
                105.786404,
                21.097728
              ]
            ]
          ]
        ]
      },
      "properties": {
        "code": "00602",
        "name": "Đông Ngạc",
        "nameEn": "Dong Ngac",
        "fullName": "Phường Đông Ngạc",
        "fullNameEn": "Dong Ngac Ward",
        "codeName": "dong_ngac",
        "postalCode": "11909",
        "postalCodePrefix": "",
        "gisServerId": "diaphanhanhchinhcapxa_2025.3269",
        "areaKm2": 8.85
      }
    }
  ]
}