{
  "type": "FeatureCollection",
  "bbox": [
    105.782362,
    21.051816,
    105.809027,
    21.079122
  ],
  "features": [
    {
      "type": "Feature",
      "id": "00611",
      "bbox": [
        105.782362,
        21.051816,
        105.809027,
        21.079122
      ],
      "geometry": {
        "type": "MultiPolygon",
        "coordinates": [
          [
            [
              [
                105.792954,
                21.076568
              ],
              [
                105.793859,
                21.076216
              ],
              [
                105.793911,
                21.076258
              ],
              [
                105.794324,
                21.077176
              ],
              [
                105.79438,
                21.077306
              ],
              [
                105.794408,
                21.077295
              ],
              [
                105.798415,
                21.075752
              ],
              [
                105.798832,
                21.075591
              ],
              [
                105.798833,
                21.075591
              ],
              [
                105.798791,
                21.075501
              ],
              [
                105.798645,
                21.075191
              ],
              [
                105.798369,
                21.074468
              ],
              [
                105.799896,
                21.073878
              ],
              [
                105.799933,
                21.073864
              ],
              [
                105.799943,
                21.07386
              ],
              [
                105.80002,
                21.073831
              ],
              [
                105.802451,
                21.072906
              ],
              [
                105.803052,
                21.072666
              ],
              [
                105.803537,
                21.072467
              ],
              [
                105.803728,
                21.072389
              ],
              [
                105.803813,
                21.072354
              ],
              [
                105.804653,
                21.072039
              ],
              [
                105.804881,
                21.07196
              ],
              [
                105.804963,
                21.071931
              ],
              [
                105.805999,
                21.071596
              ],
              [
                105.806494,
                21.071435
              ],
              [
                105.806864,
                21.07129
              ],
              [
                105.807649,
                21.070957
              ],
              [
                105.808508,
                21.070616
              ],
              [
                105.808706,
                21.07055
              ],
              [
                105.808893,
                21.070488
              ],
              [
                105.809027,
                21.070445
              ],
              [
                105.808999,
                21.070387
              ],
              [
                105.808095,
                21.068663
              ],
              [
                105.807644,
                21.067775
              ],
              [
                105.806988,
                21.066601
              ],
              [
                105.806481,
                21.065748
              ],
              [
                105.805877,
                21.064825
              ],
              [
                105.805351,
                21.063997
              ],
              [
                105.804901,
                21.063276
              ],
              [
                105.804676,
                21.062769
              ],
              [
                105.804546,
                21.062405
              ],
              [
                105.804448,
                21.061909
              ],
              [
                105.80442,
                21.061378
              ],
              [
                105.804424,
                21.060965
              ],
              [
                105.804425,
                21.060057
              ],
              [
                105.804439,
                21.057893
              ],
              [
                105.804433,
                21.056607
              ],
              [
                105.80444,
                21.055743
              ],
              [
                105.804423,
                21.054682
              ],
              [
                105.804415,
                21.053997
              ],
              [
                105.804427,
                21.053287
              ],
              [
                105.804425,
                21.052623
              ],
              [
                105.804426,
                21.052529
              ],
              [
                105.804429,
                21.051962
              ],
              [
                105.80443,
                21.051816
              ],
              [
                105.801912,
                21.051878
              ],
              [
                105.801118,
                21.051876
              ],
              [
                105.800482,
                21.051879
              ],
              [
                105.798269,
                21.051863
              ],
              [
                105.796735,
                21.051888
              ],
              [
                105.794887,
                21.051879
              ],
              [
                105.794332,
                21.051883
              ],
              [
                105.794167,
                21.051883
              ],
              [
                105.794122,
                21.051883
              ],
              [
                105.79374,
                21.051874
              ],
              [
                105.793315,
                21.051874
              ],
              [
                105.792975,
                21.051875
              ],
              [
                105.792061,
                21.05188
              ],
              [
                105.790392,
                21.051877
              ],
              [
                105.790113,
                21.051896
              ],
              [
                105.789972,
                21.05203
              ],
              [
                105.789943,
                21.052245
              ],
              [
                105.789947,
                21.05303
              ],
              [
                105.789943,
                21.054255
              ],
              [
                105.789955,
                21.05528
              ],
              [
                105.789961,
                21.055834
              ],
              [
                105.789942,
                21.056597
              ],
              [
                105.789948,
                21.056785
              ],
              [
                105.789604,
                21.05679
              ],
              [
                105.788946,
                21.056778
              ],
              [
                105.788298,
                21.056752
              ],
              [
                105.78765,
                21.056681
              ],
              [
                105.787321,
                21.056639
              ],
              [
                105.786419,
                21.056583
              ],
              [
                105.786409,
                21.056519
              ],
              [
                105.78637,
                21.056454
              ],
              [
                105.786266,
                21.056395
              ],
              [
                105.78615,
                21.056344
              ],
              [
                105.786023,
                21.056326
              ],
              [
                105.785846,
                21.056345
              ],
              [
                105.785559,
                21.056416
              ],
              [
                105.785388,
                21.056432
              ],
              [
                105.785168,
                21.056446
              ],
              [
                105.785137,
                21.056451
              ],
              [
                105.785132,
                21.056451
              ],
              [
                105.78503,
                21.056466
              ],
              [
                105.784908,
                21.056489
              ],
              [
                105.784794,
                21.056512
              ],
              [
                105.784639,
                21.056546
              ],
              [
                105.784495,
                21.056562
              ],
              [
                105.784401,
                21.056604
              ],
              [
                105.784351,
                21.056574
              ],
              [
                105.784326,
                21.056559
              ],
              [
                105.78431,
                21.056538
              ],
              [
                105.784286,
                21.056506
              ],
              [
                105.784036,
                21.05639
              ],
              [
                105.784018,
                21.056382
              ],
              [
                105.783964,
                21.056357
              ],
              [
                105.783881,
                21.056363
              ],
              [
                105.783023,
                21.05627
              ],
              [
                105.782704,
                21.05626
              ],
              [
                105.782564,
                21.056256
              ],
              [
                105.782362,
                21.056245
              ],
              [
                105.782409,
                21.056436
              ],
              [
                105.782413,
                21.056452
              ],
              [
                105.782428,
                21.056508
              ],
              [
                105.782445,
                21.056576
              ],
              [
                105.782465,
                21.056651
              ],
              [
                105.782481,
                21.056715
              ],
              [
                105.782501,
                21.056793
              ],
              [
                105.782527,
                21.056897
              ],
              [
                105.782547,
                21.056975
              ],
              [
                105.782563,
                21.057035
              ],
              [
                105.782583,
                21.057114
              ],
              [
                105.782608,
                21.057212
              ],
              [
                105.782634,
                21.05731
              ],
              [
                105.782659,
                21.057408
              ],
              [
                105.782684,
                21.057505
              ],
              [
                105.782703,
                21.057579
              ],
              [
                105.782718,
                21.057636
              ],
              [
                105.782731,
                21.057689
              ],
              [
                105.782751,
                21.057765
              ],
              [
                105.782776,
                21.057865
              ],
              [
                105.782802,
                21.057965
              ],
              [
                105.78282,
                21.058037
              ],
              [
                105.782838,
                21.058106
              ],
              [
                105.782868,
                21.058222
              ],
              [
                105.782898,
                21.058342
              ],
              [
                105.782921,
                21.058429
              ],
              [
                105.782938,
                21.058496
              ],
              [
                105.782955,
                21.058564
              ],
              [
                105.782976,
                21.058645
              ],
              [
                105.78299,
                21.058702
              ],
              [
                105.783005,
                21.058759
              ],
              [
                105.783033,
                21.058872
              ],
              [
                105.783062,
                21.058985
              ],
              [
                105.78309,
                21.059098
              ],
              [
                105.783114,
                21.059191
              ],
              [
                105.783127,
                21.059243
              ],
              [
                105.783154,
                21.059342
              ],
              [
                105.783187,
                21.059462
              ],
              [
                105.783209,
                21.059544
              ],
              [
                105.783229,
                21.059618
              ],
              [
                105.783246,
                21.059687
              ],
              [
                105.783264,
                21.059757
              ],
              [
                105.783286,
                21.059843
              ],
              [
                105.783312,
                21.059946
              ],
              [
                105.783338,
                21.060049
              ],
              [
                105.783365,
                21.060156
              ],
              [
                105.783385,
                21.060236
              ],
              [
                105.783406,
                21.060318
              ],
              [
                105.783432,
                21.060422
              ],
              [
                105.783457,
                21.060515
              ],
              [
                105.783479,
                21.060604
              ],
              [
                105.7835,
                21.060689
              ],
              [
                105.78352,
                21.06077
              ],
              [
                105.783538,
                21.060838
              ],
              [
                105.783559,
                21.060919
              ],
              [
                105.783581,
                21.061
              ],
              [
                105.783608,
                21.061107
              ],
              [
                105.78363,
                21.061198
              ],
              [
                105.78365,
                21.061277
              ],
              [
                105.78367,
                21.061359
              ],
              [
                105.783685,
                21.061422
              ],
              [
                105.783703,
                21.061494
              ],
              [
                105.783726,
                21.061584
              ],
              [
                105.783751,
                21.061677
              ],
              [
                105.783775,
                21.061769
              ],
              [
                105.783799,
                21.061862
              ],
              [
                105.783818,
                21.061936
              ],
              [
                105.783835,
                21.062002
              ],
              [
                105.783856,
                21.062087
              ],
              [
                105.783879,
                21.062183
              ],
              [
                105.783903,
                21.06228
              ],
              [
                105.783927,
                21.062376
              ],
              [
                105.783954,
                21.06248
              ],
              [
                105.783983,
                21.062589
              ],
              [
                105.784012,
                21.062698
              ],
              [
                105.784034,
                21.062779
              ],
              [
                105.784055,
                21.062859
              ],
              [
                105.784081,
                21.062958
              ],
              [
                105.784108,
                21.063061
              ],
              [
                105.784138,
                21.063172
              ],
              [
                105.784167,
                21.063279
              ],
              [
                105.784193,
                21.06338
              ],
              [
                105.784217,
                21.063474
              ],
              [
                105.784243,
                21.063578
              ],
              [
                105.784269,
                21.063681
              ],
              [
                105.784292,
                21.063776
              ],
              [
                105.784315,
                21.06387
              ],
              [
                105.784332,
                21.063943
              ],
              [
                105.784348,
                21.064008
              ],
              [
                105.784374,
                21.064105
              ],
              [
                105.784399,
                21.064202
              ],
              [
                105.784423,
                21.064294
              ],
              [
                105.784429,
                21.064318
              ],
              [
                105.784708,
                21.065373
              ],
              [
                105.785047,
                21.066727
              ],
              [
                105.785133,
                21.067154
              ],
              [
                105.785244,
                21.06792
              ],
              [
                105.785352,
                21.069164
              ],
              [
                105.785456,
                21.07055
              ],
              [
                105.785576,
                21.072132
              ],
              [
                105.785712,
                21.0738
              ],
              [
                105.785804,
                21.07478
              ],
              [
                105.785867,
                21.075238
              ],
              [
                105.785987,
                21.07575
              ],
              [
                105.786132,
                21.07617
              ],
              [
                105.786415,
                21.076752
              ],
              [
                105.786765,
                21.077343
              ],
              [
                105.787181,
                21.077996
              ],
              [
                105.787838,
                21.079009
              ],
              [
                105.787896,
                21.079122
              ],
              [
                105.788061,
                21.078927
              ],
              [
                105.788105,
                21.07889
              ],
              [
                105.788161,
                21.078812
              ],
              [
                105.788425,
                21.078447
              ],
              [
                105.788617,
                21.078289
              ],
              [
                105.788994,
                21.078103
              ],
              [
                105.790038,
                21.077696
              ],
              [
                105.790238,
                21.077614
              ],
              [
                105.790927,
                21.077357
              ],
              [
                105.792954,
                21.076568
              ],
              [
                105.792954,
                21.076568
              ]
            ]
          ]
        ]
      },
      "properties": {
        "code": "00611",
        "name": "Xuân Đỉnh",
        "nameEn": "Xuan Dinh",
        "fullName": "Phường Xuân Đỉnh",
        "fullNameEn": "Xuan Dinh Ward",
        "codeName": "xuan_dinh",
        "postalCode": "11908",
        "postalCodePrefix": "",
        "gisServerId": "diaphanhanhchinhcapxa_2025.3261",
        "areaKm2": 5.46
      }
    }
  ]
}