{
  "type": "FeatureCollection",
  "bbox": [
    105.726562,
    21.006432,
    105.763278,
    21.056473
  ],
  "features": [
    {
      "type": "Feature",
      "id": "00622",
      "bbox": [
        105.726562,
        21.006432,
        105.763278,
        21.056473
      ],
      "geometry": {
        "type": "MultiPolygon",
        "coordinates": [
          [
            [
              [
                105.744015,
                21.048312
              ],
              [
                105.74438,
                21.048157
              ],
              [
                105.745357,
                21.047784
              ],
              [
                105.746801,
                21.047242
              ],
              [
                105.748639,
                21.046492
              ],
              [
                105.751163,
                21.045516
              ],
              [
                105.753752,
                21.044512
              ],
              [
                105.756586,
                21.043439
              ],
              [
                105.757421,
                21.04313
              ],
              [
                105.757511,
                21.043097
              ],
              [
                105.759168,
                21.042483
              ],
              [
                105.759276,
                21.042443
              ],
              [
                105.75965,
                21.042305
              ],
              [
                105.760748,
                21.041909
              ],
              [
                105.760794,
                21.041893
              ],
              [
                105.761424,
                21.041666
              ],
              [
                105.761411,
                21.041629
              ],
              [
                105.76125,
                21.041181
              ],
              [
                105.76096,
                21.040544
              ],
              [
                105.760617,
                21.040002
              ],
              [
                105.760311,
                21.039703
              ],
              [
                105.759281,
                21.039073
              ],
              [
                105.758852,
                21.038709
              ],
              [
                105.758577,
                21.038402
              ],
              [
                105.758567,
                21.038379
              ],
              [
                105.758567,
                21.038379
              ],
              [
                105.758412,
                21.038012
              ],
              [
                105.758366,
                21.037499
              ],
              [
                105.758794,
                21.034845
              ],
              [
                105.758832,
                21.034153
              ],
              [
                105.758799,
                21.033088
              ],
              [
                105.758666,
                21.031469
              ],
              [
                105.758529,
                21.03063
              ],
              [
                105.758322,
                21.030126
              ],
              [
                105.758051,
                21.029724
              ],
              [
                105.754939,
                21.026596
              ],
              [
                105.754548,
                21.026099
              ],
              [
                105.7543,
                21.025677
              ],
              [
                105.754181,
                21.025364
              ],
              [
                105.754168,
                21.024904
              ],
              [
                105.754218,
                21.024621
              ],
              [
                105.754399,
                21.024219
              ],
              [
                105.755096,
                21.023132
              ],
              [
                105.755231,
                21.022671
              ],
              [
                105.755245,
                21.022429
              ],
              [
                105.755191,
                21.02201
              ],
              [
                105.755101,
                21.021777
              ],
              [
                105.755035,
                21.021606
              ],
              [
                105.754494,
                21.020573
              ],
              [
                105.754463,
                21.020514
              ],
              [
                105.754326,
                21.020252
              ],
              [
                105.754261,
                21.020129
              ],
              [
                105.754251,
                21.020109
              ],
              [
                105.754098,
                21.019817
              ],
              [
                105.754034,
                21.019675
              ],
              [
                105.753821,
                21.0192
              ],
              [
                105.753795,
                21.019142
              ],
              [
                105.753784,
                21.01907
              ],
              [
                105.753778,
                21.019033
              ],
              [
                105.753737,
                21.018762
              ],
              [
                105.753738,
                21.018681
              ],
              [
                105.753741,
                21.018496
              ],
              [
                105.753791,
                21.018346
              ],
              [
                105.753794,
                21.018335
              ],
              [
                105.753895,
                21.018033
              ],
              [
                105.753919,
                21.017971
              ],
              [
                105.754074,
                21.017697
              ],
              [
                105.754101,
                21.01766
              ],
              [
                105.754209,
                21.017545
              ],
              [
                105.755651,
                21.016013
              ],
              [
                105.755832,
                21.015821
              ],
              [
                105.756177,
                21.015454
              ],
              [
                105.756394,
                21.015237
              ],
              [
                105.756771,
                21.014859
              ],
              [
                105.757649,
                21.013864
              ],
              [
                105.758328,
                21.013182
              ],
              [
                105.759283,
                21.012374
              ],
              [
                105.760827,
                21.011296
              ],
              [
                105.761264,
                21.010977
              ],
              [
                105.762034,
                21.010372
              ],
              [
                105.762563,
                21.009801
              ],
              [
                105.762834,
                21.009382
              ],
              [
                105.763061,
                21.008922
              ],
              [
                105.763224,
                21.008488
              ],
              [
                105.763278,
                21.00819
              ],
              [
                105.763269,
                21.007896
              ],
              [
                105.76321,
                21.00761
              ],
              [
                105.76283,
                21.006818
              ],
              [
                105.762703,
                21.006432
              ],
              [
                105.762089,
                21.006559
              ],
              [
                105.759195,
                21.007157
              ],
              [
                105.755988,
                21.007819
              ],
              [
                105.749456,
                21.009158
              ],
              [
                105.747749,
                21.0094
              ],
              [
                105.74454,
                21.009653
              ],
              [
                105.738493,
                21.010052
              ],
              [
                105.733009,
                21.010398
              ],
              [
                105.733017,
                21.01055
              ],
              [
                105.733033,
                21.010854
              ],
              [
                105.733037,
                21.010925
              ],
              [
                105.733037,
                21.010929
              ],
              [
                105.733041,
                21.010966
              ],
              [
                105.733057,
                21.011291
              ],
              [
                105.733032,
                21.011409
              ],
              [
                105.732973,
                21.011537
              ],
              [
                105.732833,
                21.011697
              ],
              [
                105.732353,
                21.012074
              ],
              [
                105.732623,
                21.01288
              ],
              [
                105.732837,
                21.013268
              ],
              [
                105.733048,
                21.013655
              ],
              [
                105.733283,
                21.014103
              ],
              [
                105.733432,
                21.014377
              ],
              [
                105.733671,
                21.01483
              ],
              [
                105.733839,
                21.015158
              ],
              [
                105.733965,
                21.015394
              ],
              [
                105.733971,
                21.015434
              ],
              [
                105.73397,
                21.015465
              ],
              [
                105.733954,
                21.015477
              ],
              [
                105.733798,
                21.015615
              ],
              [
                105.733668,
                21.015744
              ],
              [
                105.733635,
                21.015778
              ],
              [
                105.733455,
                21.015942
              ],
              [
                105.733331,
                21.01607
              ],
              [
                105.733315,
                21.016094
              ],
              [
                105.733261,
                21.016147
              ],
              [
                105.733241,
                21.016162
              ],
              [
                105.733109,
                21.016255
              ],
              [
                105.733064,
                21.016301
              ],
              [
                105.733029,
                21.016336
              ],
              [
                105.732869,
                21.0165
              ],
              [
                105.732572,
                21.016804
              ],
              [
                105.73254,
                21.016805
              ],
              [
                105.732434,
                21.016789
              ],
              [
                105.732314,
                21.016791
              ],
              [
                105.732313,
                21.016791
              ],
              [
                105.732266,
                21.016803
              ],
              [
                105.732228,
                21.01682
              ],
              [
                105.732115,
                21.016842
              ],
              [
                105.732066,
                21.016857
              ],
              [
                105.732018,
                21.016863
              ],
              [
                105.731995,
                21.016861
              ],
              [
                105.731965,
                21.01686
              ],
              [
                105.731903,
                21.016882
              ],
              [
                105.731756,
                21.016934
              ],
              [
                105.731578,
                21.016992
              ],
              [
                105.7314,
                21.017007
              ],
              [
                105.731319,
                21.016566
              ],
              [
                105.731305,
                21.016491
              ],
              [
                105.731276,
                21.016529
              ],
              [
                105.731206,
                21.016618
              ],
              [
                105.730764,
                21.01706
              ],
              [
                105.730597,
                21.017259
              ],
              [
                105.730586,
                21.017273
              ],
              [
                105.730476,
                21.017352
              ],
              [
                105.730366,
                21.017431
              ],
              [
                105.730287,
                21.017521
              ],
              [
                105.730034,
                21.017808
              ],
              [
                105.729977,
                21.017934
              ],
              [
                105.730392,
                21.018445
              ],
              [
                105.730478,
                21.018551
              ],
              [
                105.73067,
                21.018638
              ],
              [
                105.73067,
                21.018638
              ],
              [
                105.731231,
                21.019046
              ],
              [
                105.731374,
                21.019174
              ],
              [
                105.731562,
                21.019343
              ],
              [
                105.73168,
                21.019328
              ],
              [
                105.731734,
                21.019383
              ],
              [
                105.731779,
                21.019435
              ],
              [
                105.731782,
                21.019438
              ],
              [
                105.731874,
                21.019545
              ],
              [
                105.732352,
                21.020095
              ],
              [
                105.732672,
                21.020462
              ],
              [
                105.732797,
                21.020606
              ],
              [
                105.733338,
                21.02119
              ],
              [
                105.733517,
                21.021354
              ],
              [
                105.733908,
                21.021434
              ],
              [
                105.733936,
                21.021468
              ],
              [
                105.73418,
                21.021985
              ],
              [
                105.734384,
                21.022466
              ],
              [
                105.734456,
                21.022589
              ],
              [
                105.734595,
                21.022618
              ],
              [
                105.734846,
                21.022601
              ],
              [
                105.734967,
                21.022516
              ],
              [
                105.734979,
                21.022503
              ],
              [
                105.735095,
                21.022353
              ],
              [
                105.735039,
                21.022273
              ],
              [
                105.734973,
                21.022174
              ],
              [
                105.734948,
                21.022135
              ],
              [
                105.735025,
                21.022077
              ],
              [
                105.734939,
                21.021822
              ],
              [
                105.735213,
                21.02179
              ],
              [
                105.735596,
                21.021735
              ],
              [
                105.735648,
                21.02175
              ],
              [
                105.735719,
                21.021766
              ],
              [
                105.735807,
                21.0218
              ],
              [
                105.735905,
                21.021854
              ],
              [
                105.736031,
                21.021909
              ],
              [
                105.73596,
                21.022233
              ],
              [
                105.736078,
                21.022639
              ],
              [
                105.736194,
                21.022629
              ],
              [
                105.736229,
                21.022621
              ],
              [
                105.736281,
                21.022589
              ],
              [
                105.736436,
                21.022498
              ],
              [
                105.736508,
                21.022442
              ],
              [
                105.736746,
                21.022831
              ],
              [
                105.737015,
                21.02338
              ],
              [
                105.737073,
                21.023486
              ],
              [
                105.736896,
                21.023521
              ],
              [
                105.736694,
                21.023582
              ],
              [
                105.73662,
                21.023621
              ],
              [
                105.736354,
                21.023818
              ],
              [
                105.735594,
                21.024382
              ],
              [
                105.735325,
                21.024548
              ],
              [
                105.734668,
                21.025039
              ],
              [
                105.734751,
                21.025161
              ],
              [
                105.734869,
                21.0254
              ],
              [
                105.734928,
                21.025591
              ],
              [
                105.734957,
                21.025757
              ],
              [
                105.734906,
                21.026152
              ],
              [
                105.734846,
                21.026313
              ],
              [
                105.737366,
                21.027295
              ],
              [
                105.738016,
                21.027554
              ],
              [
                105.738366,
                21.027705
              ],
              [
                105.73854,
                21.027788
              ],
              [
                105.738446,
                21.027976
              ],
              [
                105.738347,
                21.028186
              ],
              [
                105.738277,
                21.028334
              ],
              [
                105.73825,
                21.028405
              ],
              [
                105.738187,
                21.028538
              ],
              [
                105.738178,
                21.028546
              ],
              [
                105.738207,
                21.028587
              ],
              [
                105.738034,
                21.028949
              ],
              [
                105.73797,
                21.028963
              ],
              [
                105.73782,
                21.028926
              ],
              [
                105.73773,
                21.028895
              ],
              [
                105.73773,
                21.028895
              ],
              [
                105.737631,
                21.028862
              ],
              [
                105.737629,
                21.028861
              ],
              [
                105.73755,
                21.028961
              ],
              [
                105.737557,
                21.028965
              ],
              [
                105.73752,
                21.029
              ],
              [
                105.7374,
                21.029116
              ],
              [
                105.737383,
                21.029133
              ],
              [
                105.737319,
                21.029211
              ],
              [
                105.737475,
                21.029358
              ],
              [
                105.737463,
                21.029418
              ],
              [
                105.737432,
                21.029468
              ],
              [
                105.737456,
                21.029533
              ],
              [
                105.73751,
                21.029669
              ],
              [
                105.737539,
                21.029736
              ],
              [
                105.737568,
                21.029792
              ],
              [
                105.737583,
                21.02988
              ],
              [
                105.737558,
                21.029881
              ],
              [
                105.737554,
                21.029909
              ],
              [
                105.737547,
                21.029917
              ],
              [
                105.737514,
                21.029941
              ],
              [
                105.737497,
                21.029949
              ],
              [
                105.737481,
                21.029958
              ],
              [
                105.73747,
                21.029968
              ],
              [
                105.737455,
                21.029978
              ],
              [
                105.737439,
                21.029984
              ],
              [
                105.737421,
                21.029988
              ],
              [
                105.737406,
                21.029989
              ],
              [
                105.737397,
                21.029986
              ],
              [
                105.737376,
                21.029989
              ],
              [
                105.737336,
                21.030004
              ],
              [
                105.73732,
                21.030015
              ],
              [
                105.737301,
                21.030027
              ],
              [
                105.73729,
                21.030037
              ],
              [
                105.737287,
                21.030048
              ],
              [
                105.7373,
                21.030083
              ],
              [
                105.73733,
                21.030161
              ],
              [
                105.73734,
                21.030265
              ],
              [
                105.737337,
                21.030287
              ],
              [
                105.73733,
                21.030305
              ],
              [
                105.737321,
                21.030321
              ],
              [
                105.737305,
                21.030341
              ],
              [
                105.737282,
                21.030371
              ],
              [
                105.737277,
                21.03038
              ],
              [
                105.73727,
                21.030412
              ],
              [
                105.73726,
                21.03044
              ],
              [
                105.737249,
                21.030472
              ],
              [
                105.737238,
                21.030494
              ],
              [
                105.737182,
                21.030588
              ],
              [
                105.737191,
                21.030655
              ],
              [
                105.737204,
                21.030733
              ],
              [
                105.737205,
                21.030762
              ],
              [
                105.7372,
                21.030789
              ],
              [
                105.737195,
                21.03081
              ],
              [
                105.737188,
                21.030823
              ],
              [
                105.737176,
                21.030837
              ],
              [
                105.737161,
                21.030852
              ],
              [
                105.737149,
                21.030864
              ],
              [
                105.737138,
                21.030884
              ],
              [
                105.737132,
                21.030901
              ],
              [
                105.73713,
                21.030912
              ],
              [
                105.73713,
                21.030942
              ],
              [
                105.73713,
                21.030958
              ],
              [
                105.737135,
                21.030965
              ],
              [
                105.737142,
                21.030969
              ],
              [
                105.737161,
                21.030979
              ],
              [
                105.737195,
                21.030995
              ],
              [
                105.737223,
                21.031015
              ],
              [
                105.737276,
                21.031061
              ],
              [
                105.737303,
                21.031092
              ],
              [
                105.737307,
                21.031101
              ],
              [
                105.737304,
                21.031137
              ],
              [
                105.73729,
                21.031178
              ],
              [
                105.737283,
                21.031206
              ],
              [
                105.737282,
                21.031216
              ],
              [
                105.737282,
                21.031229
              ],
              [
                105.737283,
                21.031232
              ],
              [
                105.737303,
                21.031338
              ],
              [
                105.737309,
                21.031377
              ],
              [
                105.737303,
                21.031409
              ],
              [
                105.737382,
                21.031481
              ],
              [
                105.738733,
                21.031807
              ],
              [
                105.738433,
                21.032623
              ],
              [
                105.738421,
                21.032655
              ],
              [
                105.738485,
                21.032658
              ],
              [
                105.738936,
                21.032749
              ],
              [
                105.738861,
                21.033045
              ],
              [
                105.738769,
                21.033406
              ],
              [
                105.738697,
                21.033694
              ],
              [
                105.738696,
                21.033697
              ],
              [
                105.73857,
                21.034254
              ],
              [
                105.738532,
                21.034449
              ],
              [
                105.738397,
                21.034951
              ],
              [
                105.738207,
                21.035808
              ],
              [
                105.738167,
                21.036007
              ],
              [
                105.738119,
                21.036207
              ],
              [
                105.738057,
                21.03647
              ],
              [
                105.737899,
                21.036461
              ],
              [
                105.737454,
                21.036555
              ],
              [
                105.735154,
                21.036741
              ],
              [
                105.734737,
                21.036813
              ],
              [
                105.734812,
                21.037184
              ],
              [
                105.73481,
                21.03725
              ],
              [
                105.734778,
                21.037293
              ],
              [
                105.734664,
                21.037329
              ],
              [
                105.734504,
                21.03735
              ],
              [
                105.734496,
                21.037432
              ],
              [
                105.734489,
                21.037445
              ],
              [
                105.734483,
                21.037467
              ],
              [
                105.734473,
                21.037481
              ],
              [
                105.734467,
                21.03749
              ],
              [
                105.734453,
                21.037515
              ],
              [
                105.734449,
                21.037525
              ],
              [
                105.734432,
                21.037609
              ],
              [
                105.734418,
                21.037638
              ],
              [
                105.734412,
                21.037648
              ],
              [
                105.734388,
                21.037675
              ],
              [
                105.734378,
                21.037689
              ],
              [
                105.734362,
                21.037718
              ],
              [
                105.734335,
                21.037739
              ],
              [
                105.734296,
                21.037749
              ],
              [
                105.734262,
                21.037761
              ],
              [
                105.734242,
                21.037783
              ],
              [
                105.734217,
                21.037805
              ],
              [
                105.734174,
                21.037833
              ],
              [
                105.734173,
                21.037834
              ],
              [
                105.734172,
                21.037843
              ],
              [
                105.734173,
                21.037866
              ],
              [
                105.734145,
                21.037922
              ],
              [
                105.734139,
                21.037929
              ],
              [
                105.734115,
                21.037945
              ],
              [
                105.73407,
                21.03797
              ],
              [
                105.734052,
                21.037983
              ],
              [
                105.734027,
                21.038011
              ],
              [
                105.734022,
                21.038018
              ],
              [
                105.734011,
                21.038038
              ],
              [
                105.734007,
                21.038057
              ],
              [
                105.734007,
                21.038066
              ],
              [
                105.734011,
                21.038091
              ],
              [
                105.734011,
                21.038107
              ],
              [
                105.734008,
                21.038144
              ],
              [
                105.734009,
                21.038255
              ],
              [
                105.733959,
                21.038313
              ],
              [
                105.733884,
                21.038333
              ],
              [
                105.733832,
                21.038346
              ],
              [
                105.733734,
                21.038358
              ],
              [
                105.73368,
                21.038365
              ],
              [
                105.733658,
                21.038373
              ],
              [
                105.733635,
                21.038384
              ],
              [
                105.733629,
                21.038396
              ],
              [
                105.73364,
                21.038434
              ],
              [
                105.733647,
                21.038453
              ],
              [
                105.733668,
                21.03849
              ],
              [
                105.733688,
                21.038526
              ],
              [
                105.733729,
                21.038592
              ],
              [
                105.733759,
                21.038639
              ],
              [
                105.73377,
                21.038652
              ],
              [
                105.733802,
                21.038688
              ],
              [
                105.733818,
                21.038706
              ],
              [
                105.733881,
                21.038811
              ],
              [
                105.733908,
                21.038862
              ],
              [
                105.733902,
                21.039023
              ],
              [
                105.733915,
                21.039233
              ],
              [
                105.733916,
                21.039237
              ],
              [
                105.733915,
                21.03938
              ],
              [
                105.733914,
                21.03959
              ],
              [
                105.733913,
                21.039721
              ],
              [
                105.733913,
                21.03978
              ],
              [
                105.733912,
                21.039948
              ],
              [
                105.73391,
                21.039989
              ],
              [
                105.733895,
                21.040068
              ],
              [
                105.733894,
                21.040071
              ],
              [
                105.733841,
                21.040108
              ],
              [
                105.733838,
                21.040109
              ],
              [
                105.733835,
                21.040109
              ],
              [
                105.733802,
                21.040114
              ],
              [
                105.733715,
                21.040127
              ],
              [
                105.733716,
                21.040132
              ],
              [
                105.733711,
                21.040279
              ],
              [
                105.733919,
                21.040286
              ],
              [
                105.733941,
                21.040656
              ],
              [
                105.733942,
                21.040668
              ],
              [
                105.733951,
                21.040682
              ],
              [
                105.733985,
                21.040785
              ],
              [
                105.733981,
                21.040819
              ],
              [
                105.73398,
                21.040862
              ],
              [
                105.733974,
                21.04087
              ],
              [
                105.733947,
                21.040892
              ],
              [
                105.73389,
                21.040941
              ],
              [
                105.733853,
                21.040982
              ],
              [
                105.733817,
                21.041032
              ],
              [
                105.733775,
                21.041117
              ],
              [
                105.733731,
                21.041263
              ],
              [
                105.73371,
                21.041287
              ],
              [
                105.733647,
                21.041333
              ],
              [
                105.73355,
                21.041413
              ],
              [
                105.733518,
                21.041453
              ],
              [
                105.733494,
                21.041491
              ],
              [
                105.733485,
                21.041523
              ],
              [
                105.73348,
                21.041563
              ],
              [
                105.733512,
                21.041638
              ],
              [
                105.733536,
                21.041725
              ],
              [
                105.733538,
                21.041795
              ],
              [
                105.73354,
                21.041929
              ],
              [
                105.73356,
                21.042213
              ],
              [
                105.733545,
                21.042443
              ],
              [
                105.733543,
                21.042675
              ],
              [
                105.733548,
                21.042817
              ],
              [
                105.733549,
                21.04286
              ],
              [
                105.733548,
                21.043356
              ],
              [
                105.733559,
                21.043406
              ],
              [
                105.733406,
                21.043429
              ],
              [
                105.732997,
                21.043727
              ],
              [
                105.732798,
                21.043835
              ],
              [
                105.732755,
                21.04381
              ],
              [
                105.73273,
                21.043809
              ],
              [
                105.732448,
                21.043806
              ],
              [
                105.732402,
                21.043817
              ],
              [
                105.73233,
                21.043827
              ],
              [
                105.732325,
                21.043986
              ],
              [
                105.732323,
                21.044057
              ],
              [
                105.732317,
                21.044252
              ],
              [
                105.732294,
                21.044297
              ],
              [
                105.732243,
                21.04433
              ],
              [
                105.732177,
                21.044427
              ],
              [
                105.7321,
                21.044566
              ],
              [
                105.73206,
                21.044656
              ],
              [
                105.732045,
                21.044735
              ],
              [
                105.732043,
                21.044756
              ],
              [
                105.73205,
                21.044776
              ],
              [
                105.732076,
                21.044797
              ],
              [
                105.732168,
                21.044853
              ],
              [
                105.732225,
                21.044878
              ],
              [
                105.732271,
                21.044887
              ],
              [
                105.732306,
                21.044887
              ],
              [
                105.732349,
                21.044891
              ],
              [
                105.732369,
                21.044897
              ],
              [
                105.732416,
                21.044919
              ],
              [
                105.732495,
                21.044972
              ],
              [
                105.732537,
                21.045002
              ],
              [
                105.7326,
                21.045064
              ],
              [
                105.73264,
                21.045126
              ],
              [
                105.732647,
                21.04515
              ],
              [
                105.73265,
                21.045188
              ],
              [
                105.732649,
                21.045255
              ],
              [
                105.732646,
                21.045287
              ],
              [
                105.732633,
                21.04531
              ],
              [
                105.732602,
                21.045348
              ],
              [
                105.732561,
                21.045418
              ],
              [
                105.732519,
                21.045476
              ],
              [
                105.732439,
                21.045558
              ],
              [
                105.732261,
                21.045695
              ],
              [
                105.732195,
                21.045788
              ],
              [
                105.732058,
                21.046014
              ],
              [
                105.731993,
                21.046117
              ],
              [
                105.731871,
                21.046275
              ],
              [
                105.731811,
                21.046325
              ],
              [
                105.731741,
                21.046367
              ],
              [
                105.731687,
                21.046426
              ],
              [
                105.731668,
                21.046449
              ],
              [
                105.731638,
                21.046475
              ],
              [
                105.731614,
                21.046488
              ],
              [
                105.731593,
                21.046489
              ],
              [
                105.731551,
                21.046477
              ],
              [
                105.731526,
                21.04646
              ],
              [
                105.731498,
                21.046477
              ],
              [
                105.73131,
                21.046684
              ],
              [
                105.730975,
                21.046385
              ],
              [
                105.730568,
                21.046727
              ],
              [
                105.730178,
                21.046927
              ],
              [
                105.730215,
                21.047031
              ],
              [
                105.730128,
                21.047033
              ],
              [
                105.730087,
                21.046946
              ],
              [
                105.729867,
                21.046983
              ],
              [
                105.729866,
                21.046984
              ],
              [
                105.729686,
                21.047027
              ],
              [
                105.729505,
                21.047071
              ],
              [
                105.729325,
                21.04713
              ],
              [
                105.729341,
                21.047161
              ],
              [
                105.729362,
                21.047196
              ],
              [
                105.729378,
                21.047207
              ],
              [
                105.729383,
                21.04722
              ],
              [
                105.729396,
                21.047258
              ],
              [
                105.729401,
                21.047273
              ],
              [
                105.729374,
                21.047325
              ],
              [
                105.729371,
                21.047453
              ],
              [
                105.729393,
                21.047601
              ],
              [
                105.72947,
                21.047755
              ],
              [
                105.729517,
                21.048056
              ],
              [
                105.729444,
                21.048047
              ],
              [
                105.72877,
                21.048243
              ],
              [
                105.728743,
                21.048231
              ],
              [
                105.728388,
                21.048305
              ],
              [
                105.728003,
                21.048394
              ],
              [
                105.727967,
                21.048405
              ],
              [
                105.728205,
                21.049148
              ],
              [
                105.728309,
                21.049457
              ],
              [
                105.728453,
                21.049908
              ],
              [
                105.72858,
                21.050273
              ],
              [
                105.728657,
                21.050519
              ],
              [
                105.72866,
                21.050539
              ],
              [
                105.728342,
                21.050727
              ],
              [
                105.728206,
                21.050807
              ],
              [
                105.728229,
                21.051022
              ],
              [
                105.728233,
                21.051099
              ],
              [
                105.728252,
                21.051188
              ],
              [
                105.72787,
                21.051513
              ],
              [
                105.727758,
                21.051608
              ],
              [
                105.727716,
                21.051644
              ],
              [
                105.72762,
                21.051726
              ],
              [
                105.727428,
                21.051897
              ],
              [
                105.727304,
                21.052013
              ],
              [
                105.72693,
                21.052327
              ],
              [
                105.726675,
                21.052547
              ],
              [
                105.726623,
                21.052655
              ],
              [
                105.726583,
                21.052691
              ],
              [
                105.726562,
                21.05271
              ],
              [
                105.726565,
                21.052714
              ],
              [
                105.726599,
                21.052754
              ],
              [
                105.726646,
                21.052808
              ],
              [
                105.726823,
                21.053004
              ],
              [
                105.726827,
                21.053007
              ],
              [
                105.726827,
                21.053008
              ],
              [
                105.726886,
                21.053082
              ],
              [
                105.726999,
                21.053221
              ],
              [
                105.727126,
                21.05338
              ],
              [
                105.727237,
                21.053518
              ],
              [
                105.727346,
                21.053653
              ],
              [
                105.727424,
                21.05375
              ],
              [
                105.727527,
                21.053878
              ],
              [
                105.727648,
                21.054028
              ],
              [
                105.727789,
                21.054204
              ],
              [
                105.727917,
                21.054363
              ],
              [
                105.72806,
                21.054541
              ],
              [
                105.728061,
                21.054542
              ],
              [
                105.728125,
                21.054622
              ],
              [
                105.728165,
                21.054672
              ],
              [
                105.728172,
                21.054679
              ],
              [
                105.728176,
                21.054685
              ],
              [
                105.728193,
                21.054703
              ],
              [
                105.728217,
                21.054732
              ],
              [
                105.728265,
                21.054793
              ],
              [
                105.728276,
                21.054806
              ],
              [
                105.728393,
                21.054954
              ],
              [
                105.728528,
                21.055123
              ],
              [
                105.728528,
                21.055124
              ],
              [
                105.728529,
                21.055125
              ],
              [
                105.72853,
                21.055126
              ],
              [
                105.728666,
                21.055301
              ],
              [
                105.72868,
                21.055318
              ],
              [
                105.728683,
                21.055322
              ],
              [
                105.7287,
                21.055343
              ],
              [
                105.729078,
                21.055827
              ],
              [
                105.729367,
                21.056196
              ],
              [
                105.729367,
                21.056196
              ],
              [
                105.729368,
                21.056197
              ],
              [
                105.729412,
                21.05625
              ],
              [
                105.729458,
                21.056304
              ],
              [
                105.729586,
                21.056473
              ],
              [
                105.729638,
                21.056438
              ],
              [
                105.729721,
                21.056381
              ],
              [
                105.729797,
                21.056329
              ],
              [
                105.729897,
                21.05626
              ],
              [
                105.729986,
                21.0562
              ],
              [
                105.730076,
                21.056138
              ],
              [
                105.730166,
                21.056077
              ],
              [
                105.730256,
                21.056016
              ],
              [
                105.730344,
                21.055955
              ],
              [
                105.73042,
                21.055902
              ],
              [
                105.730519,
                21.055834
              ],
              [
                105.730615,
                21.055767
              ],
              [
                105.730685,
                21.055719
              ],
              [
                105.730753,
                21.055672
              ],
              [
                105.730818,
                21.055628
              ],
              [
                105.730885,
                21.055583
              ],
              [
                105.730954,
                21.055536
              ],
              [
                105.731037,
                21.055479
              ],
              [
                105.73114,
                21.055409
              ],
              [
                105.731237,
                21.055342
              ],
              [
                105.731341,
                21.055271
              ],
              [
                105.731457,
                21.055191
              ],
              [
                105.731557,
                21.055123
              ],
              [
                105.731626,
                21.055076
              ],
              [
                105.731692,
                21.05503
              ],
              [
                105.731713,
                21.055016
              ],
              [
                105.731869,
                21.054909
              ],
              [
                105.731925,
                21.054871
              ],
              [
                105.731983,
                21.054831
              ],
              [
                105.732051,
                21.054786
              ],
              [
                105.732116,
                21.054742
              ],
              [
                105.732171,
                21.054704
              ],
              [
                105.732227,
                21.054666
              ],
              [
                105.7323,
                21.054616
              ],
              [
                105.732376,
                21.054564
              ],
              [
                105.732444,
                21.054518
              ],
              [
                105.73251,
                21.054472
              ],
              [
                105.732577,
                21.054426
              ],
              [
                105.7326,
                21.05441
              ],
              [
                105.7326,
                21.05441
              ],
              [
                105.73265,
                21.054375
              ],
              [
                105.732734,
                21.054318
              ],
              [
                105.732805,
                21.054269
              ],
              [
                105.732872,
                21.054224
              ],
              [
                105.732969,
                21.05416
              ],
              [
                105.733012,
                21.054131
              ],
              [
                105.733163,
                21.053996
              ],
              [
                105.733168,
                21.053992
              ],
              [
                105.735979,
                21.052084
              ],
              [
                105.737397,
                21.051099
              ],
              [
                105.737682,
                21.050912
              ],
              [
                105.738063,
                21.050695
              ],
              [
                105.738635,
                21.050436
              ],
              [
                105.74152,
                21.0493
              ],
              [
                105.744015,
                21.048312
              ],
              [
                105.744015,
                21.048312
              ]
            ]
          ]
        ]
      },
      "properties": {
        "code": "00622",
        "name": "Xuân Phương",
        "nameEn": "Xuan Phuong",
        "fullName": "Phường Xuân Phương",
        "fullNameEn": "Xuan Phuong Ward",
        "codeName": "xuan_phuong",
        "postalCode": "12008",
        "postalCodePrefix": "",
        "gisServerId": "diaphanhanhchinhcapxa_2025.3266",
        "areaKm2": 10.81
      }
    }
  ]
}