{
  "type": "FeatureCollection",
  "bbox": [
    105.730485,
    20.989572,
    105.762648,
    21.010558
  ],
  "features": [
    {
      "type": "Feature",
      "id": "00634",
      "bbox": [
        105.730485,
        20.989572,
        105.762648,
        21.010558
      ],
      "geometry": {
        "type": "MultiPolygon",
        "coordinates": [
          [
            [
              [
                105.733009,
                21.010398
              ],
              [
                105.738493,
                21.010052
              ],
              [
                105.74454,
                21.009653
              ],
              [
                105.747749,
                21.0094
              ],
              [
                105.749456,
                21.009158
              ],
              [
                105.755988,
                21.007819
              ],
              [
                105.759195,
                21.007157
              ],
              [
                105.762089,
                21.006559
              ],
              [
                105.762061,
                21.006438
              ],
              [
                105.76206,
                21.006436
              ],
              [
                105.762049,
                21.006381
              ],
              [
                105.762035,
                21.006311
              ],
              [
                105.762035,
                21.006309
              ],
              [
                105.76201,
                21.006169
              ],
              [
                105.762024,
                21.006118
              ],
              [
                105.762065,
                21.005973
              ],
              [
                105.762087,
                21.005894
              ],
              [
                105.762088,
                21.005894
              ],
              [
                105.76224,
                21.00554
              ],
              [
                105.762288,
                21.005369
              ],
              [
                105.762219,
                21.00499
              ],
              [
                105.762105,
                21.004736
              ],
              [
                105.761822,
                21.004376
              ],
              [
                105.761582,
                21.004013
              ],
              [
                105.761506,
                21.00379
              ],
              [
                105.761462,
                21.003567
              ],
              [
                105.761418,
                21.003344
              ],
              [
                105.761409,
                21.003212
              ],
              [
                105.76144,
                21.003024
              ],
              [
                105.761477,
                21.002888
              ],
              [
                105.76149,
                21.002629
              ],
              [
                105.761496,
                21.002522
              ],
              [
                105.761551,
                21.002166
              ],
              [
                105.76158,
                21.002096
              ],
              [
                105.761941,
                21.001459
              ],
              [
                105.762052,
                21.001256
              ],
              [
                105.762066,
                21.001225
              ],
              [
                105.762125,
                21.001091
              ],
              [
                105.76215,
                21.000882
              ],
              [
                105.762143,
                21.000742
              ],
              [
                105.762129,
                21.000673
              ],
              [
                105.762065,
                21.000466
              ],
              [
                105.761845,
                20.999824
              ],
              [
                105.761587,
                20.999016
              ],
              [
                105.761465,
                20.998635
              ],
              [
                105.761502,
                20.998596
              ],
              [
                105.761538,
                20.998557
              ],
              [
                105.761576,
                20.998205
              ],
              [
                105.761614,
                20.998114
              ],
              [
                105.76176,
                20.997935
              ],
              [
                105.761899,
                20.997221
              ],
              [
                105.762053,
                20.997011
              ],
              [
                105.762218,
                20.996841
              ],
              [
                105.762288,
                20.99679
              ],
              [
                105.762629,
                20.996628
              ],
              [
                105.762648,
                20.996619
              ],
              [
                105.762608,
                20.996555
              ],
              [
                105.762423,
                20.99626
              ],
              [
                105.762365,
                20.996157
              ],
              [
                105.762001,
                20.995405
              ],
              [
                105.761754,
                20.994938
              ],
              [
                105.761584,
                20.994657
              ],
              [
                105.761482,
                20.994489
              ],
              [
                105.761209,
                20.99404
              ],
              [
                105.761104,
                20.993882
              ],
              [
                105.760941,
                20.993638
              ],
              [
                105.760786,
                20.99344
              ],
              [
                105.760085,
                20.992373
              ],
              [
                105.75988,
                20.992087
              ],
              [
                105.759854,
                20.991972
              ],
              [
                105.759632,
                20.992007
              ],
              [
                105.758738,
                20.99198
              ],
              [
                105.758609,
                20.991924
              ],
              [
                105.758413,
                20.991915
              ],
              [
                105.757339,
                20.991865
              ],
              [
                105.757262,
                20.991862
              ],
              [
                105.756069,
                20.991806
              ],
              [
                105.755903,
                20.99183
              ],
              [
                105.755414,
                20.991811
              ],
              [
                105.755388,
                20.991809
              ],
              [
                105.755073,
                20.99179
              ],
              [
                105.755057,
                20.99179
              ],
              [
                105.752982,
                20.991683
              ],
              [
                105.752665,
                20.99162
              ],
              [
                105.752347,
                20.991557
              ],
              [
                105.751506,
                20.991286
              ],
              [
                105.750738,
                20.991039
              ],
              [
                105.749211,
                20.990541
              ],
              [
                105.749168,
                20.990528
              ],
              [
                105.748753,
                20.990393
              ],
              [
                105.746688,
                20.989704
              ],
              [
                105.746332,
                20.989572
              ],
              [
                105.743191,
                20.992453
              ],
              [
                105.742507,
                20.99308
              ],
              [
                105.742016,
                20.993708
              ],
              [
                105.741834,
                20.994225
              ],
              [
                105.741682,
                20.99489
              ],
              [
                105.741468,
                20.994836
              ],
              [
                105.741282,
                20.994786
              ],
              [
                105.740164,
                20.994508
              ],
              [
                105.739803,
                20.994404
              ],
              [
                105.739364,
                20.994245
              ],
              [
                105.738992,
                20.994129
              ],
              [
                105.738423,
                20.993987
              ],
              [
                105.738047,
                20.993919
              ],
              [
                105.737752,
                20.993863
              ],
              [
                105.737474,
                20.993788
              ],
              [
                105.736584,
                20.993546
              ],
              [
                105.735861,
                20.993351
              ],
              [
                105.735785,
                20.993331
              ],
              [
                105.734839,
                20.996408
              ],
              [
                105.734282,
                20.99817
              ],
              [
                105.733876,
                20.999528
              ],
              [
                105.733199,
                21.001718
              ],
              [
                105.73256,
                21.003765
              ],
              [
                105.732026,
                21.00551
              ],
              [
                105.731349,
                21.007621
              ],
              [
                105.730876,
                21.009179
              ],
              [
                105.730485,
                21.010558
              ],
              [
                105.733009,
                21.010398
              ],
              [
                105.733009,
                21.010398
              ]
            ]
          ]
        ]
      },
      "properties": {
        "code": "00634",
        "name": "Tây Mỗ",
        "nameEn": "Tay Mo",
        "fullName": "Phường Tây Mỗ",
        "fullNameEn": "Tay Mo Ward",
        "codeName": "tay_mo",
        "postalCode": "12009",
        "postalCodePrefix": "",
        "gisServerId": "diaphanhanhchinhcapxa_2025.3273",
        "areaKm2": 5.56
      }
    }
  ]
}