{
  "type": "FeatureCollection",
  "bbox": [
    105.752665,
    20.979787,
    105.798736,
    21.006559
  ],
  "features": [
    {
      "type": "Feature",
      "id": "00637",
      "bbox": [
        105.752665,
        20.979787,
        105.798736,
        21.006559
      ],
      "geometry": {
        "type": "MultiPolygon",
        "coordinates": [
          [
            [
              [
                105.783985,
                21.002057
              ],
              [
                105.784794,
                21.002017
              ],
              [
                105.785741,
                21.002063
              ],
              [
                105.786536,
                21.002189
              ],
              [
                105.787087,
                21.002301
              ],
              [
                105.788135,
                21.002611
              ],
              [
                105.788954,
                21.002952
              ],
              [
                105.789735,
                21.003371
              ],
              [
                105.790808,
                21.004062
              ],
              [
                105.791223,
                21.004372
              ],
              [
                105.792308,
                21.00516
              ],
              [
                105.792314,
                21.005164
              ],
              [
                105.794093,
                21.002969
              ],
              [
                105.794105,
                21.002955
              ],
              [
                105.794112,
                21.002946
              ],
              [
                105.794146,
                21.002904
              ],
              [
                105.794276,
                21.002741
              ],
              [
                105.79431,
                21.0027
              ],
              [
                105.794436,
                21.002542
              ],
              [
                105.794462,
                21.002509
              ],
              [
                105.79452,
                21.002438
              ],
              [
                105.794608,
                21.002327
              ],
              [
                105.794667,
                21.002254
              ],
              [
                105.794883,
                21.001986
              ],
              [
                105.796026,
                21.000565
              ],
              [
                105.796929,
                20.999448
              ],
              [
                105.796831,
                20.999371
              ],
              [
                105.796665,
                20.99926
              ],
              [
                105.795331,
                20.998334
              ],
              [
                105.794755,
                20.997936
              ],
              [
                105.79379,
                20.997263
              ],
              [
                105.7921,
                20.996083
              ],
              [
                105.790946,
                20.995292
              ],
              [
                105.79021,
                20.994787
              ],
              [
                105.790212,
                20.994786
              ],
              [
                105.790294,
                20.994748
              ],
              [
                105.790363,
                20.994698
              ],
              [
                105.790923,
                20.994363
              ],
              [
                105.792057,
                20.993725
              ],
              [
                105.792792,
                20.993301
              ],
              [
                105.793204,
                20.993064
              ],
              [
                105.793808,
                20.992711
              ],
              [
                105.794407,
                20.992355
              ],
              [
                105.794434,
                20.99234
              ],
              [
                105.795105,
                20.991967
              ],
              [
                105.795363,
                20.991799
              ],
              [
                105.795567,
                20.991617
              ],
              [
                105.79565,
                20.991531
              ],
              [
                105.796055,
                20.991113
              ],
              [
                105.796281,
                20.99088
              ],
              [
                105.796302,
                20.990858
              ],
              [
                105.796303,
                20.990858
              ],
              [
                105.796644,
                20.990497
              ],
              [
                105.796653,
                20.990487
              ],
              [
                105.797209,
                20.989912
              ],
              [
                105.797776,
                20.989317
              ],
              [
                105.797928,
                20.98916
              ],
              [
                105.798654,
                20.988394
              ],
              [
                105.798736,
                20.988307
              ],
              [
                105.798731,
                20.988303
              ],
              [
                105.798726,
                20.988299
              ],
              [
                105.798232,
                20.987944
              ],
              [
                105.798022,
                20.987803
              ],
              [
                105.797267,
                20.98727
              ],
              [
                105.796617,
                20.986811
              ],
              [
                105.796018,
                20.986393
              ],
              [
                105.795432,
                20.985982
              ],
              [
                105.794816,
                20.985545
              ],
              [
                105.794223,
                20.985124
              ],
              [
                105.7936,
                20.984673
              ],
              [
                105.793549,
                20.984638
              ],
              [
                105.793476,
                20.984585
              ],
              [
                105.793312,
                20.984466
              ],
              [
                105.793239,
                20.984407
              ],
              [
                105.793237,
                20.984405
              ],
              [
                105.793237,
                20.984405
              ],
              [
                105.793192,
                20.984372
              ],
              [
                105.792938,
                20.984183
              ],
              [
                105.792714,
                20.984017
              ],
              [
                105.792663,
                20.983979
              ],
              [
                105.79238,
                20.983764
              ],
              [
                105.791093,
                20.985062
              ],
              [
                105.791064,
                20.985196
              ],
              [
                105.791062,
                20.985273
              ],
              [
                105.790916,
                20.985275
              ],
              [
                105.790804,
                20.985261
              ],
              [
                105.790662,
                20.985258
              ],
              [
                105.790489,
                20.985263
              ],
              [
                105.790277,
                20.985269
              ],
              [
                105.79016,
                20.985271
              ],
              [
                105.790082,
                20.985268
              ],
              [
                105.789941,
                20.985267
              ],
              [
                105.789867,
                20.985269
              ],
              [
                105.789817,
                20.985276
              ],
              [
                105.789775,
                20.985281
              ],
              [
                105.789515,
                20.985332
              ],
              [
                105.789484,
                20.985339
              ],
              [
                105.789489,
                20.985232
              ],
              [
                105.789489,
                20.985226
              ],
              [
                105.789458,
                20.98522
              ],
              [
                105.787577,
                20.985438
              ],
              [
                105.787565,
                20.985439
              ],
              [
                105.787462,
                20.985451
              ],
              [
                105.787301,
                20.985476
              ],
              [
                105.786885,
                20.985527
              ],
              [
                105.786612,
                20.985586
              ],
              [
                105.786182,
                20.985697
              ],
              [
                105.785738,
                20.985854
              ],
              [
                105.785244,
                20.986049
              ],
              [
                105.784862,
                20.986201
              ],
              [
                105.784444,
                20.986359
              ],
              [
                105.783994,
                20.986521
              ],
              [
                105.783778,
                20.98662
              ],
              [
                105.783546,
                20.9867
              ],
              [
                105.783834,
                20.986909
              ],
              [
                105.783669,
                20.986998
              ],
              [
                105.783305,
                20.987137
              ],
              [
                105.783064,
                20.987253
              ],
              [
                105.782628,
                20.98751
              ],
              [
                105.782133,
                20.987869
              ],
              [
                105.78183,
                20.988056
              ],
              [
                105.781387,
                20.988421
              ],
              [
                105.781057,
                20.989082
              ],
              [
                105.780454,
                20.988671
              ],
              [
                105.780453,
                20.988672
              ],
              [
                105.778617,
                20.987399
              ],
              [
                105.776094,
                20.985649
              ],
              [
                105.77572,
                20.985874
              ],
              [
                105.775651,
                20.985802
              ],
              [
                105.775642,
                20.985811
              ],
              [
                105.775587,
                20.98586
              ],
              [
                105.775495,
                20.985933
              ],
              [
                105.77545,
                20.985965
              ],
              [
                105.775441,
                20.985968
              ],
              [
                105.775295,
                20.985955
              ],
              [
                105.775225,
                20.985948
              ],
              [
                105.77505,
                20.985906
              ],
              [
                105.775018,
                20.985899
              ],
              [
                105.774972,
                20.985886
              ],
              [
                105.774906,
                20.985858
              ],
              [
                105.774854,
                20.985831
              ],
              [
                105.774837,
                20.985811
              ],
              [
                105.774865,
                20.985773
              ],
              [
                105.774838,
                20.985751
              ],
              [
                105.774812,
                20.985731
              ],
              [
                105.774801,
                20.985724
              ],
              [
                105.774801,
                20.985723
              ],
              [
                105.774741,
                20.98568
              ],
              [
                105.77474,
                20.985679
              ],
              [
                105.774739,
                20.985678
              ],
              [
                105.774709,
                20.985658
              ],
              [
                105.774549,
                20.985553
              ],
              [
                105.774495,
                20.985518
              ],
              [
                105.774409,
                20.985461
              ],
              [
                105.774314,
                20.985399
              ],
              [
                105.774191,
                20.985318
              ],
              [
                105.774099,
                20.985257
              ],
              [
                105.774026,
                20.985209
              ],
              [
                105.774025,
                20.98521
              ],
              [
                105.773948,
                20.985176
              ],
              [
                105.773862,
                20.985138
              ],
              [
                105.773841,
                20.985171
              ],
              [
                105.773768,
                20.985237
              ],
              [
                105.773659,
                20.98534
              ],
              [
                105.773568,
                20.985253
              ],
              [
                105.773532,
                20.985233
              ],
              [
                105.773456,
                20.985126
              ],
              [
                105.773411,
                20.98508
              ],
              [
                105.773374,
                20.985041
              ],
              [
                105.773307,
                20.985074
              ],
              [
                105.773285,
                20.985085
              ],
              [
                105.773245,
                20.985151
              ],
              [
                105.773182,
                20.985225
              ],
              [
                105.773144,
                20.985258
              ],
              [
                105.772887,
                20.985484
              ],
              [
                105.77288,
                20.985557
              ],
              [
                105.772833,
                20.985697
              ],
              [
                105.772807,
                20.985792
              ],
              [
                105.772716,
                20.985715
              ],
              [
                105.772577,
                20.985577
              ],
              [
                105.772533,
                20.985599
              ],
              [
                105.772438,
                20.985563
              ],
              [
                105.772434,
                20.985543
              ],
              [
                105.772371,
                20.985459
              ],
              [
                105.772365,
                20.985444
              ],
              [
                105.772362,
                20.985436
              ],
              [
                105.772357,
                20.985428
              ],
              [
                105.772306,
                20.985378
              ],
              [
                105.772299,
                20.985376
              ],
              [
                105.772275,
                20.985373
              ],
              [
                105.772257,
                20.985361
              ],
              [
                105.772249,
                20.985348
              ],
              [
                105.772245,
                20.98534
              ],
              [
                105.772238,
                20.98533
              ],
              [
                105.772116,
                20.985268
              ],
              [
                105.772097,
                20.985259
              ],
              [
                105.771943,
                20.985457
              ],
              [
                105.771922,
                20.985482
              ],
              [
                105.771908,
                20.985501
              ],
              [
                105.771903,
                20.985508
              ],
              [
                105.771638,
                20.985848
              ],
              [
                105.771574,
                20.985927
              ],
              [
                105.771542,
                20.985896
              ],
              [
                105.771121,
                20.985589
              ],
              [
                105.770848,
                20.985397
              ],
              [
                105.770792,
                20.985364
              ],
              [
                105.770749,
                20.985334
              ],
              [
                105.769648,
                20.984564
              ],
              [
                105.769159,
                20.984248
              ],
              [
                105.769148,
                20.984263
              ],
              [
                105.769099,
                20.984232
              ],
              [
                105.768504,
                20.983855
              ],
              [
                105.768439,
                20.98386
              ],
              [
                105.768276,
                20.98376
              ],
              [
                105.768225,
                20.983816
              ],
              [
                105.767789,
                20.983607
              ],
              [
                105.767684,
                20.983557
              ],
              [
                105.767608,
                20.983517
              ],
              [
                105.767607,
                20.983516
              ],
              [
                105.767361,
                20.983424
              ],
              [
                105.767361,
                20.983425
              ],
              [
                105.767305,
                20.983591
              ],
              [
                105.767299,
                20.983607
              ],
              [
                105.767259,
                20.983726
              ],
              [
                105.767244,
                20.983771
              ],
              [
                105.767208,
                20.983878
              ],
              [
                105.767196,
                20.983912
              ],
              [
                105.767179,
                20.983965
              ],
              [
                105.767179,
                20.983965
              ],
              [
                105.767179,
                20.983971
              ],
              [
                105.767187,
                20.983974
              ],
              [
                105.767197,
                20.983978
              ],
              [
                105.767321,
                20.984027
              ],
              [
                105.76733,
                20.984031
              ],
              [
                105.767322,
                20.984047
              ],
              [
                105.767174,
                20.984316
              ],
              [
                105.767155,
                20.984351
              ],
              [
                105.76704,
                20.98456
              ],
              [
                105.766992,
                20.984648
              ],
              [
                105.766938,
                20.984747
              ],
              [
                105.765934,
                20.98456
              ],
              [
                105.765958,
                20.984377
              ],
              [
                105.766006,
                20.984039
              ],
              [
                105.766031,
                20.983803
              ],
              [
                105.766113,
                20.983038
              ],
              [
                105.764751,
                20.982923
              ],
              [
                105.764662,
                20.982859
              ],
              [
                105.764647,
                20.982505
              ],
              [
                105.764585,
                20.981762
              ],
              [
                105.764538,
                20.981209
              ],
              [
                105.764538,
                20.981209
              ],
              [
                105.764519,
                20.981209
              ],
              [
                105.764213,
                20.981218
              ],
              [
                105.764191,
                20.981134
              ],
              [
                105.764145,
                20.980082
              ],
              [
                105.763951,
                20.980106
              ],
              [
                105.763917,
                20.97995
              ],
              [
                105.763461,
                20.980003
              ],
              [
                105.76346,
                20.979999
              ],
              [
                105.763438,
                20.980001
              ],
              [
                105.763339,
                20.980015
              ],
              [
                105.763318,
                20.980014
              ],
              [
                105.763293,
                20.979991
              ],
              [
                105.763253,
                20.979975
              ],
              [
                105.763229,
                20.979969
              ],
              [
                105.763206,
                20.979966
              ],
              [
                105.763128,
                20.979976
              ],
              [
                105.76311,
                20.979975
              ],
              [
                105.763097,
                20.979899
              ],
              [
                105.762955,
                20.979925
              ],
              [
                105.762931,
                20.97992
              ],
              [
                105.762924,
                20.979787
              ],
              [
                105.762852,
                20.979789
              ],
              [
                105.762458,
                20.979809
              ],
              [
                105.762299,
                20.979827
              ],
              [
                105.762032,
                20.979837
              ],
              [
                105.76178,
                20.979845
              ],
              [
                105.761392,
                20.979859
              ],
              [
                105.761306,
                20.979862
              ],
              [
                105.761267,
                20.979863
              ],
              [
                105.761234,
                20.979886
              ],
              [
                105.761145,
                20.97995
              ],
              [
                105.761083,
                20.979993
              ],
              [
                105.761019,
                20.980039
              ],
              [
                105.760932,
                20.9801
              ],
              [
                105.760845,
                20.980162
              ],
              [
                105.760752,
                20.980228
              ],
              [
                105.760651,
                20.9803
              ],
              [
                105.760619,
                20.980323
              ],
              [
                105.760012,
                20.980761
              ],
              [
                105.759935,
                20.980816
              ],
              [
                105.758457,
                20.981871
              ],
              [
                105.756185,
                20.983483
              ],
              [
                105.755089,
                20.984291
              ],
              [
                105.754451,
                20.984983
              ],
              [
                105.754166,
                20.985467
              ],
              [
                105.754143,
                20.985505
              ],
              [
                105.753887,
                20.98607
              ],
              [
                105.753742,
                20.986606
              ],
              [
                105.753508,
                20.987736
              ],
              [
                105.753425,
                20.988111
              ],
              [
                105.753494,
                20.988163
              ],
              [
                105.754268,
                20.988768
              ],
              [
                105.754603,
                20.989042
              ],
              [
                105.754747,
                20.989137
              ],
              [
                105.755148,
                20.989363
              ],
              [
                105.7554,
                20.989504
              ],
              [
                105.755381,
                20.989501
              ],
              [
                105.754273,
                20.99017
              ],
              [
                105.752835,
                20.990796
              ],
              [
                105.752671,
                20.991552
              ],
              [
                105.752665,
                20.99162
              ],
              [
                105.752982,
                20.991683
              ],
              [
                105.755057,
                20.99179
              ],
              [
                105.755073,
                20.99179
              ],
              [
                105.755388,
                20.991809
              ],
              [
                105.755414,
                20.991811
              ],
              [
                105.755903,
                20.99183
              ],
              [
                105.756069,
                20.991806
              ],
              [
                105.757262,
                20.991862
              ],
              [
                105.757339,
                20.991865
              ],
              [
                105.758413,
                20.991915
              ],
              [
                105.758609,
                20.991924
              ],
              [
                105.758738,
                20.99198
              ],
              [
                105.759632,
                20.992007
              ],
              [
                105.759854,
                20.991972
              ],
              [
                105.75988,
                20.992087
              ],
              [
                105.760085,
                20.992373
              ],
              [
                105.760786,
                20.99344
              ],
              [
                105.760941,
                20.993638
              ],
              [
                105.761104,
                20.993882
              ],
              [
                105.761209,
                20.99404
              ],
              [
                105.761482,
                20.994489
              ],
              [
                105.761584,
                20.994657
              ],
              [
                105.761754,
                20.994938
              ],
              [
                105.762001,
                20.995405
              ],
              [
                105.762365,
                20.996157
              ],
              [
                105.762423,
                20.99626
              ],
              [
                105.762608,
                20.996555
              ],
              [
                105.762648,
                20.996619
              ],
              [
                105.762629,
                20.996628
              ],
              [
                105.762288,
                20.99679
              ],
              [
                105.762218,
                20.996841
              ],
              [
                105.762053,
                20.997011
              ],
              [
                105.761899,
                20.997221
              ],
              [
                105.76176,
                20.997935
              ],
              [
                105.761614,
                20.998114
              ],
              [
                105.761576,
                20.998205
              ],
              [
                105.761538,
                20.998557
              ],
              [
                105.761502,
                20.998596
              ],
              [
                105.761465,
                20.998635
              ],
              [
                105.761587,
                20.999016
              ],
              [
                105.761845,
                20.999824
              ],
              [
                105.762065,
                21.000466
              ],
              [
                105.762129,
                21.000673
              ],
              [
                105.762143,
                21.000742
              ],
              [
                105.76215,
                21.000882
              ],
              [
                105.762125,
                21.001091
              ],
              [
                105.762066,
                21.001225
              ],
              [
                105.762052,
                21.001256
              ],
              [
                105.761941,
                21.001459
              ],
              [
                105.76158,
                21.002096
              ],
              [
                105.761551,
                21.002166
              ],
              [
                105.761496,
                21.002522
              ],
              [
                105.76149,
                21.002629
              ],
              [
                105.761477,
                21.002888
              ],
              [
                105.76144,
                21.003024
              ],
              [
                105.761409,
                21.003212
              ],
              [
                105.761418,
                21.003344
              ],
              [
                105.761462,
                21.003567
              ],
              [
                105.761506,
                21.00379
              ],
              [
                105.761582,
                21.004013
              ],
              [
                105.761822,
                21.004376
              ],
              [
                105.762105,
                21.004736
              ],
              [
                105.762219,
                21.00499
              ],
              [
                105.762288,
                21.005369
              ],
              [
                105.76224,
                21.00554
              ],
              [
                105.762088,
                21.005894
              ],
              [
                105.762087,
                21.005894
              ],
              [
                105.762065,
                21.005973
              ],
              [
                105.762024,
                21.006118
              ],
              [
                105.76201,
                21.006169
              ],
              [
                105.762035,
                21.006309
              ],
              [
                105.762035,
                21.006311
              ],
              [
                105.762049,
                21.006381
              ],
              [
                105.76206,
                21.006436
              ],
              [
                105.762061,
                21.006438
              ],
              [
                105.762089,
                21.006559
              ],
              [
                105.762703,
                21.006432
              ],
              [
                105.767834,
                21.00533
              ],
              [
                105.769026,
                21.005071
              ],
              [
                105.773439,
                21.004137
              ],
              [
                105.776261,
                21.003574
              ],
              [
                105.780216,
                21.002755
              ],
              [
                105.781993,
                21.002353
              ],
              [
                105.782947,
                21.002176
              ],
              [
                105.783344,
                21.002124
              ],
              [
                105.783985,
                21.002057
              ],
              [
                105.783985,
                21.002057
              ]
            ]
          ]
        ]
      },
      "properties": {
        "code": "00637",
        "name": "Đại Mỗ",
        "nameEn": "Dai Mo",
        "fullName": "Phường Đại Mỗ",
        "fullNameEn": "Dai Mo Ward",
        "codeName": "dai_mo",
        "postalCode": "12010",
        "postalCodePrefix": "",
        "gisServerId": "diaphanhanhchinhcapxa_2025.3267",
        "areaKm2": 8.1
      }
    }
  ]
}