{
  "type": "FeatureCollection",
  "bbox": [
    105.835836,
    20.922179,
    105.886167,
    20.956624
  ],
  "features": [
    {
      "type": "Feature",
      "id": "00640",
      "bbox": [
        105.835836,
        20.922179,
        105.886167,
        20.956624
      ],
      "geometry": {
        "type": "MultiPolygon",
        "coordinates": [
          [
            [
              [
                105.886167,
                20.945519
              ],
              [
                105.886022,
                20.945339
              ],
              [
                105.885106,
                20.944194
              ],
              [
                105.884695,
                20.94368
              ],
              [
                105.882824,
                20.94143
              ],
              [
                105.882819,
                20.941423
              ],
              [
                105.882109,
                20.940342
              ],
              [
                105.881691,
                20.939033
              ],
              [
                105.88152,
                20.936601
              ],
              [
                105.881514,
                20.936514
              ],
              [
                105.881514,
                20.936513
              ],
              [
                105.881495,
                20.936218
              ],
              [
                105.881472,
                20.935865
              ],
              [
                105.881463,
                20.935726
              ],
              [
                105.865738,
                20.934099
              ],
              [
                105.864047,
                20.93386
              ],
              [
                105.862342,
                20.933477
              ],
              [
                105.859117,
                20.932379
              ],
              [
                105.859158,
                20.93174
              ],
              [
                105.859499,
                20.928705
              ],
              [
                105.859763,
                20.926354
              ],
              [
                105.859862,
                20.924912
              ],
              [
                105.859899,
                20.923363
              ],
              [
                105.859888,
                20.922179
              ],
              [
                105.859671,
                20.922256
              ],
              [
                105.859127,
                20.922436
              ],
              [
                105.858349,
                20.922655
              ],
              [
                105.857889,
                20.922718
              ],
              [
                105.85766,
                20.922736
              ],
              [
                105.857415,
                20.922756
              ],
              [
                105.857148,
                20.922824
              ],
              [
                105.85667,
                20.922955
              ],
              [
                105.856594,
                20.922967
              ],
              [
                105.856398,
                20.923004
              ],
              [
                105.856202,
                20.923061
              ],
              [
                105.856026,
                20.923132
              ],
              [
                105.855856,
                20.923159
              ],
              [
                105.855711,
                20.923175
              ],
              [
                105.855502,
                20.923218
              ],
              [
                105.855288,
                20.923273
              ],
              [
                105.855135,
                20.923314
              ],
              [
                105.854916,
                20.923386
              ],
              [
                105.854748,
                20.923437
              ],
              [
                105.854647,
                20.923468
              ],
              [
                105.854541,
                20.923501
              ],
              [
                105.854404,
                20.923542
              ],
              [
                105.854238,
                20.923595
              ],
              [
                105.854108,
                20.923649
              ],
              [
                105.853986,
                20.923708
              ],
              [
                105.853841,
                20.923741
              ],
              [
                105.853652,
                20.923773
              ],
              [
                105.853467,
                20.923809
              ],
              [
                105.853241,
                20.923856
              ],
              [
                105.853103,
                20.923892
              ],
              [
                105.852976,
                20.92391
              ],
              [
                105.852832,
                20.923966
              ],
              [
                105.852615,
                20.924066
              ],
              [
                105.852426,
                20.924149
              ],
              [
                105.852326,
                20.924196
              ],
              [
                105.852182,
                20.92425
              ],
              [
                105.852031,
                20.924303
              ],
              [
                105.851867,
                20.924349
              ],
              [
                105.851767,
                20.924382
              ],
              [
                105.851659,
                20.924422
              ],
              [
                105.851528,
                20.924464
              ],
              [
                105.851405,
                20.924501
              ],
              [
                105.85124,
                20.924539
              ],
              [
                105.850708,
                20.924526
              ],
              [
                105.850552,
                20.924508
              ],
              [
                105.850473,
                20.92451
              ],
              [
                105.85032,
                20.924587
              ],
              [
                105.850209,
                20.924649
              ],
              [
                105.85006,
                20.924739
              ],
              [
                105.849882,
                20.924833
              ],
              [
                105.849733,
                20.924904
              ],
              [
                105.849607,
                20.924963
              ],
              [
                105.849498,
                20.925009
              ],
              [
                105.849379,
                20.925053
              ],
              [
                105.8492,
                20.925123
              ],
              [
                105.849026,
                20.925143
              ],
              [
                105.848913,
                20.925141
              ],
              [
                105.848809,
                20.925128
              ],
              [
                105.848659,
                20.925088
              ],
              [
                105.848486,
                20.925022
              ],
              [
                105.848315,
                20.924954
              ],
              [
                105.84814,
                20.92489
              ],
              [
                105.847957,
                20.924821
              ],
              [
                105.847762,
                20.924739
              ],
              [
                105.8476,
                20.924607
              ],
              [
                105.8475,
                20.924552
              ],
              [
                105.847408,
                20.924499
              ],
              [
                105.847301,
                20.924446
              ],
              [
                105.847202,
                20.924406
              ],
              [
                105.84709,
                20.92437
              ],
              [
                105.846997,
                20.924322
              ],
              [
                105.846897,
                20.924276
              ],
              [
                105.846723,
                20.924176
              ],
              [
                105.846407,
                20.924029
              ],
              [
                105.846385,
                20.92401
              ],
              [
                105.84634,
                20.923971
              ],
              [
                105.846301,
                20.923938
              ],
              [
                105.846215,
                20.923861
              ],
              [
                105.846108,
                20.923757
              ],
              [
                105.846004,
                20.923669
              ],
              [
                105.845859,
                20.923592
              ],
              [
                105.845729,
                20.923533
              ],
              [
                105.845616,
                20.923475
              ],
              [
                105.845498,
                20.923372
              ],
              [
                105.845366,
                20.923321
              ],
              [
                105.845242,
                20.923287
              ],
              [
                105.845089,
                20.923268
              ],
              [
                105.844873,
                20.923261
              ],
              [
                105.844684,
                20.923265
              ],
              [
                105.844556,
                20.923286
              ],
              [
                105.844406,
                20.923325
              ],
              [
                105.844178,
                20.923372
              ],
              [
                105.844012,
                20.923432
              ],
              [
                105.843816,
                20.923542
              ],
              [
                105.843684,
                20.923596
              ],
              [
                105.843581,
                20.923644
              ],
              [
                105.843451,
                20.923706
              ],
              [
                105.843288,
                20.923791
              ],
              [
                105.843171,
                20.923854
              ],
              [
                105.843066,
                20.923909
              ],
              [
                105.842947,
                20.923973
              ],
              [
                105.842843,
                20.924073
              ],
              [
                105.842501,
                20.924255
              ],
              [
                105.842365,
                20.924363
              ],
              [
                105.842248,
                20.924471
              ],
              [
                105.841975,
                20.924602
              ],
              [
                105.841837,
                20.924676
              ],
              [
                105.841744,
                20.924717
              ],
              [
                105.841614,
                20.924793
              ],
              [
                105.841436,
                20.924892
              ],
              [
                105.841329,
                20.924963
              ],
              [
                105.841168,
                20.925024
              ],
              [
                105.841038,
                20.925079
              ],
              [
                105.840914,
                20.925154
              ],
              [
                105.840761,
                20.92526
              ],
              [
                105.840612,
                20.925341
              ],
              [
                105.84045,
                20.925515
              ],
              [
                105.840294,
                20.925604
              ],
              [
                105.840162,
                20.925636
              ],
              [
                105.840045,
                20.92564
              ],
              [
                105.839999,
                20.925644
              ],
              [
                105.839922,
                20.925685
              ],
              [
                105.83981,
                20.925818
              ],
              [
                105.839718,
                20.925904
              ],
              [
                105.839593,
                20.926013
              ],
              [
                105.839427,
                20.926135
              ],
              [
                105.839313,
                20.926242
              ],
              [
                105.839049,
                20.926405
              ],
              [
                105.838901,
                20.926527
              ],
              [
                105.838756,
                20.926642
              ],
              [
                105.838629,
                20.92675
              ],
              [
                105.838506,
                20.926835
              ],
              [
                105.83834,
                20.92692
              ],
              [
                105.838176,
                20.927003
              ],
              [
                105.838052,
                20.927065
              ],
              [
                105.837953,
                20.927111
              ],
              [
                105.837855,
                20.927153
              ],
              [
                105.837733,
                20.927206
              ],
              [
                105.837583,
                20.927258
              ],
              [
                105.837446,
                20.927303
              ],
              [
                105.837303,
                20.927323
              ],
              [
                105.837205,
                20.927411
              ],
              [
                105.837109,
                20.927455
              ],
              [
                105.83701,
                20.927506
              ],
              [
                105.836823,
                20.927619
              ],
              [
                105.836643,
                20.927724
              ],
              [
                105.836518,
                20.927781
              ],
              [
                105.836407,
                20.92782
              ],
              [
                105.836322,
                20.927874
              ],
              [
                105.836236,
                20.927955
              ],
              [
                105.836142,
                20.928095
              ],
              [
                105.836082,
                20.928213
              ],
              [
                105.836034,
                20.928351
              ],
              [
                105.835975,
                20.928535
              ],
              [
                105.835916,
                20.92872
              ],
              [
                105.835881,
                20.928877
              ],
              [
                105.835846,
                20.929043
              ],
              [
                105.835845,
                20.929199
              ],
              [
                105.835853,
                20.929573
              ],
              [
                105.835905,
                20.929921
              ],
              [
                105.83593,
                20.93029
              ],
              [
                105.835924,
                20.930487
              ],
              [
                105.835895,
                20.930828
              ],
              [
                105.835847,
                20.93114
              ],
              [
                105.835836,
                20.931223
              ],
              [
                105.835837,
                20.931284
              ],
              [
                105.835837,
                20.931348
              ],
              [
                105.835846,
                20.931592
              ],
              [
                105.835874,
                20.931753
              ],
              [
                105.835924,
                20.931864
              ],
              [
                105.836151,
                20.932272
              ],
              [
                105.836475,
                20.932858
              ],
              [
                105.836802,
                20.933355
              ],
              [
                105.83733,
                20.934177
              ],
              [
                105.837372,
                20.934238
              ],
              [
                105.837507,
                20.934517
              ],
              [
                105.837719,
                20.934878
              ],
              [
                105.837831,
                20.935046
              ],
              [
                105.837919,
                20.935171
              ],
              [
                105.838127,
                20.935446
              ],
              [
                105.838674,
                20.936319
              ],
              [
                105.839062,
                20.93684
              ],
              [
                105.839235,
                20.937044
              ],
              [
                105.839331,
                20.937144
              ],
              [
                105.839488,
                20.937286
              ],
              [
                105.839615,
                20.937404
              ],
              [
                105.839711,
                20.937511
              ],
              [
                105.839796,
                20.937636
              ],
              [
                105.840088,
                20.938108
              ],
              [
                105.840265,
                20.938398
              ],
              [
                105.840308,
                20.938476
              ],
              [
                105.840439,
                20.93877
              ],
              [
                105.840741,
                20.939432
              ],
              [
                105.840837,
                20.939618
              ],
              [
                105.840872,
                20.939696
              ],
              [
                105.840899,
                20.93975
              ],
              [
                105.840918,
                20.939811
              ],
              [
                105.840954,
                20.939968
              ],
              [
                105.841184,
                20.940749
              ],
              [
                105.841494,
                20.941662
              ],
              [
                105.84159,
                20.941946
              ],
              [
                105.841629,
                20.942021
              ],
              [
                105.841713,
                20.942161
              ],
              [
                105.842022,
                20.942658
              ],
              [
                105.842302,
                20.943011
              ],
              [
                105.842456,
                20.943217
              ],
              [
                105.842519,
                20.943201
              ],
              [
                105.842674,
                20.94316
              ],
              [
                105.842693,
                20.943155
              ],
              [
                105.842722,
                20.943149
              ],
              [
                105.842954,
                20.943098
              ],
              [
                105.842984,
                20.943091
              ],
              [
                105.843012,
                20.943088
              ],
              [
                105.84314,
                20.943073
              ],
              [
                105.843166,
                20.94307
              ],
              [
                105.843199,
                20.943066
              ],
              [
                105.843245,
                20.94306
              ],
              [
                105.843636,
                20.943044
              ],
              [
                105.843651,
                20.943043
              ],
              [
                105.84367,
                20.943042
              ],
              [
                105.843746,
                20.943039
              ],
              [
                105.843789,
                20.943037
              ],
              [
                105.843797,
                20.943037
              ],
              [
                105.843841,
                20.943034
              ],
              [
                105.843997,
                20.943025
              ],
              [
                105.844166,
                20.943007
              ],
              [
                105.844215,
                20.943248
              ],
              [
                105.844284,
                20.943572
              ],
              [
                105.844326,
                20.943767
              ],
              [
                105.844357,
                20.943913
              ],
              [
                105.844368,
                20.943974
              ],
              [
                105.844376,
                20.944014
              ],
              [
                105.844386,
                20.944064
              ],
              [
                105.844407,
                20.944187
              ],
              [
                105.844427,
                20.944331
              ],
              [
                105.84444,
                20.944448
              ],
              [
                105.844447,
                20.944564
              ],
              [
                105.844453,
                20.944677
              ],
              [
                105.844455,
                20.944761
              ],
              [
                105.844452,
                20.94492
              ],
              [
                105.844451,
                20.944945
              ],
              [
                105.84445,
                20.944964
              ],
              [
                105.844449,
                20.944973
              ],
              [
                105.844436,
                20.945248
              ],
              [
                105.844428,
                20.945341
              ],
              [
                105.844414,
                20.945515
              ],
              [
                105.8444,
                20.945674
              ],
              [
                105.844379,
                20.945915
              ],
              [
                105.84436,
                20.946134
              ],
              [
                105.844348,
                20.946284
              ],
              [
                105.844339,
                20.946395
              ],
              [
                105.844332,
                20.946506
              ],
              [
                105.844326,
                20.94661
              ],
              [
                105.844325,
                20.94663
              ],
              [
                105.844322,
                20.946739
              ],
              [
                105.844321,
                20.946777
              ],
              [
                105.844319,
                20.946895
              ],
              [
                105.844319,
                20.946928
              ],
              [
                105.844317,
                20.947139
              ],
              [
                105.844322,
                20.947434
              ],
              [
                105.84433,
                20.947969
              ],
              [
                105.84434,
                20.948272
              ],
              [
                105.844346,
                20.948571
              ],
              [
                105.844353,
                20.948885
              ],
              [
                105.844352,
                20.94917
              ],
              [
                105.844352,
                20.949174
              ],
              [
                105.844343,
                20.949364
              ],
              [
                105.844337,
                20.949469
              ],
              [
                105.844332,
                20.949543
              ],
              [
                105.844326,
                20.949627
              ],
              [
                105.844322,
                20.949692
              ],
              [
                105.844316,
                20.94975
              ],
              [
                105.844314,
                20.949771
              ],
              [
                105.84427,
                20.950174
              ],
              [
                105.844261,
                20.950251
              ],
              [
                105.844246,
                20.950385
              ],
              [
                105.844213,
                20.950688
              ],
              [
                105.844195,
                20.950855
              ],
              [
                105.844188,
                20.95092
              ],
              [
                105.844182,
                20.950972
              ],
              [
                105.844182,
                20.950977
              ],
              [
                105.84415,
                20.951194
              ],
              [
                105.844697,
                20.951255
              ],
              [
                105.845006,
                20.951312
              ],
              [
                105.845124,
                20.951333
              ],
              [
                105.845293,
                20.95137
              ],
              [
                105.845446,
                20.951417
              ],
              [
                105.845664,
                20.951488
              ],
              [
                105.845852,
                20.951551
              ],
              [
                105.84604,
                20.951615
              ],
              [
                105.846229,
                20.951678
              ],
              [
                105.846417,
                20.951742
              ],
              [
                105.846605,
                20.951805
              ],
              [
                105.846761,
                20.951858
              ],
              [
                105.846912,
                20.951909
              ],
              [
                105.847093,
                20.951971
              ],
              [
                105.847335,
                20.952053
              ],
              [
                105.847541,
                20.952123
              ],
              [
                105.847685,
                20.951536
              ],
              [
                105.847686,
                20.951529
              ],
              [
                105.847772,
                20.951067
              ],
              [
                105.847882,
                20.950489
              ],
              [
                105.847928,
                20.950246
              ],
              [
                105.847962,
                20.950098
              ],
              [
                105.848003,
                20.949969
              ],
              [
                105.84805,
                20.949847
              ],
              [
                105.848117,
                20.949696
              ],
              [
                105.848308,
                20.949338
              ],
              [
                105.848328,
                20.949301
              ],
              [
                105.848576,
                20.948836
              ],
              [
                105.848669,
                20.948663
              ],
              [
                105.848764,
                20.948484
              ],
              [
                105.848767,
                20.948478
              ],
              [
                105.848815,
                20.948366
              ],
              [
                105.848873,
                20.948125
              ],
              [
                105.848884,
                20.947972
              ],
              [
                105.848912,
                20.947947
              ],
              [
                105.849015,
                20.947876
              ],
              [
                105.849054,
                20.947849
              ],
              [
                105.849171,
                20.947761
              ],
              [
                105.849277,
                20.947712
              ],
              [
                105.849507,
                20.947647
              ],
              [
                105.849551,
                20.947634
              ],
              [
                105.84962,
                20.947618
              ],
              [
                105.850034,
                20.947524
              ],
              [
                105.850056,
                20.947518
              ],
              [
                105.850088,
                20.947511
              ],
              [
                105.850151,
                20.947497
              ],
              [
                105.851258,
                20.947245
              ],
              [
                105.852022,
                20.94706
              ],
              [
                105.852314,
                20.946989
              ],
              [
                105.852315,
                20.946988
              ],
              [
                105.852366,
                20.946977
              ],
              [
                105.85242,
                20.946977
              ],
              [
                105.852456,
                20.946977
              ],
              [
                105.852642,
                20.946992
              ],
              [
                105.852712,
                20.946997
              ],
              [
                105.85274,
                20.946999
              ],
              [
                105.85278,
                20.947005
              ],
              [
                105.852851,
                20.947015
              ],
              [
                105.852885,
                20.94702
              ],
              [
                105.852941,
                20.947028
              ],
              [
                105.852984,
                20.947034
              ],
              [
                105.853534,
                20.947116
              ],
              [
                105.853576,
                20.947123
              ],
              [
                105.853623,
                20.94713
              ],
              [
                105.853652,
                20.947134
              ],
              [
                105.853861,
                20.947165
              ],
              [
                105.854017,
                20.947175
              ],
              [
                105.854083,
                20.947179
              ],
              [
                105.854197,
                20.947193
              ],
              [
                105.85422,
                20.94719
              ],
              [
                105.85426,
                20.947167
              ],
              [
                105.854302,
                20.947144
              ],
              [
                105.854622,
                20.947011
              ],
              [
                105.854805,
                20.94693
              ],
              [
                105.8549,
                20.946888
              ],
              [
                105.855149,
                20.946773
              ],
              [
                105.855195,
                20.946752
              ],
              [
                105.855217,
                20.946742
              ],
              [
                105.855252,
                20.946726
              ],
              [
                105.855529,
                20.946597
              ],
              [
                105.855613,
                20.946556
              ],
              [
                105.855677,
                20.946525
              ],
              [
                105.855677,
                20.946525
              ],
              [
                105.855719,
                20.946505
              ],
              [
                105.855741,
                20.946494
              ],
              [
                105.855763,
                20.946484
              ],
              [
                105.856048,
                20.946346
              ],
              [
                105.85607,
                20.946335
              ],
              [
                105.857374,
                20.945739
              ],
              [
                105.857427,
                20.945716
              ],
              [
                105.857807,
                20.945549
              ],
              [
                105.857893,
                20.945506
              ],
              [
                105.858095,
                20.945404
              ],
              [
                105.858178,
                20.945362
              ],
              [
                105.858636,
                20.94517
              ],
              [
                105.858925,
                20.945036
              ],
              [
                105.858925,
                20.945036
              ],
              [
                105.859188,
                20.944917
              ],
              [
                105.859269,
                20.944882
              ],
              [
                105.859621,
                20.944764
              ],
              [
                105.859646,
                20.944756
              ],
              [
                105.859802,
                20.944708
              ],
              [
                105.859838,
                20.944697
              ],
              [
                105.859872,
                20.944686
              ],
              [
                105.860233,
                20.944575
              ],
              [
                105.860255,
                20.944568
              ],
              [
                105.86083,
                20.944393
              ],
              [
                105.861248,
                20.944248
              ],
              [
                105.861306,
                20.944225
              ],
              [
                105.86166,
                20.944083
              ],
              [
                105.861783,
                20.944033
              ],
              [
                105.861933,
                20.943965
              ],
              [
                105.862139,
                20.943885
              ],
              [
                105.862327,
                20.94382
              ],
              [
                105.863053,
                20.943575
              ],
              [
                105.863297,
                20.94349
              ],
              [
                105.863315,
                20.943483
              ],
              [
                105.863332,
                20.943478
              ],
              [
                105.863553,
                20.9434
              ],
              [
                105.863571,
                20.943394
              ],
              [
                105.863615,
                20.943379
              ],
              [
                105.863714,
                20.943343
              ],
              [
                105.863847,
                20.943306
              ],
              [
                105.863957,
                20.943275
              ],
              [
                105.864007,
                20.943261
              ],
              [
                105.864003,
                20.943323
              ],
              [
                105.863975,
                20.943843
              ],
              [
                105.863971,
                20.943915
              ],
              [
                105.863969,
                20.94398
              ],
              [
                105.863962,
                20.944182
              ],
              [
                105.863943,
                20.944614
              ],
              [
                105.863929,
                20.945075
              ],
              [
                105.863926,
                20.945319
              ],
              [
                105.863934,
                20.945656
              ],
              [
                105.863948,
                20.945841
              ],
              [
                105.863975,
                20.946009
              ],
              [
                105.864009,
                20.946163
              ],
              [
                105.864046,
                20.946268
              ],
              [
                105.86408,
                20.946345
              ],
              [
                105.864131,
                20.946425
              ],
              [
                105.864218,
                20.946548
              ],
              [
                105.864335,
                20.946718
              ],
              [
                105.864373,
                20.946815
              ],
              [
                105.864411,
                20.94693
              ],
              [
                105.86442,
                20.946955
              ],
              [
                105.864445,
                20.947075
              ],
              [
                105.864457,
                20.947165
              ],
              [
                105.86447,
                20.947257
              ],
              [
                105.864473,
                20.947354
              ],
              [
                105.864465,
                20.947422
              ],
              [
                105.864444,
                20.947507
              ],
              [
                105.86436,
                20.94773
              ],
              [
                105.864341,
                20.947799
              ],
              [
                105.86434,
                20.94786
              ],
              [
                105.864346,
                20.947926
              ],
              [
                105.864384,
                20.94809
              ],
              [
                105.864433,
                20.948256
              ],
              [
                105.864556,
                20.948603
              ],
              [
                105.864713,
                20.949014
              ],
              [
                105.86476,
                20.94911
              ],
              [
                105.864812,
                20.949202
              ],
              [
                105.86487,
                20.94927
              ],
              [
                105.864933,
                20.949324
              ],
              [
                105.865023,
                20.949394
              ],
              [
                105.865165,
                20.94948
              ],
              [
                105.865395,
                20.949603
              ],
              [
                105.86577,
                20.949788
              ],
              [
                105.866082,
                20.949936
              ],
              [
                105.866179,
                20.949992
              ],
              [
                105.866232,
                20.950044
              ],
              [
                105.866267,
                20.950095
              ],
              [
                105.866293,
                20.950156
              ],
              [
                105.866308,
                20.950274
              ],
              [
                105.866322,
                20.950476
              ],
              [
                105.866315,
                20.950623
              ],
              [
                105.866313,
                20.950689
              ],
              [
                105.86631,
                20.950831
              ],
              [
                105.866324,
                20.951001
              ],
              [
                105.86635,
                20.951116
              ],
              [
                105.866424,
                20.951341
              ],
              [
                105.866465,
                20.951445
              ],
              [
                105.86648,
                20.951484
              ],
              [
                105.866593,
                20.95173
              ],
              [
                105.866789,
                20.952092
              ],
              [
                105.866914,
                20.952325
              ],
              [
                105.866936,
                20.952365
              ],
              [
                105.866949,
                20.952388
              ],
              [
                105.867123,
                20.952673
              ],
              [
                105.867383,
                20.953094
              ],
              [
                105.867534,
                20.953374
              ],
              [
                105.867612,
                20.953512
              ],
              [
                105.867679,
                20.953634
              ],
              [
                105.867705,
                20.953671
              ],
              [
                105.867745,
                20.953716
              ],
              [
                105.867775,
                20.953754
              ],
              [
                105.867877,
                20.953821
              ],
              [
                105.867991,
                20.953872
              ],
              [
                105.86814,
                20.953916
              ],
              [
                105.868216,
                20.953925
              ],
              [
                105.86829,
                20.953931
              ],
              [
                105.868354,
                20.953938
              ],
              [
                105.868392,
                20.953941
              ],
              [
                105.86843,
                20.953948
              ],
              [
                105.868493,
                20.953968
              ],
              [
                105.868589,
                20.954008
              ],
              [
                105.868918,
                20.954143
              ],
              [
                105.869014,
                20.95419
              ],
              [
                105.869183,
                20.954282
              ],
              [
                105.869335,
                20.954363
              ],
              [
                105.869438,
                20.954422
              ],
              [
                105.869499,
                20.954463
              ],
              [
                105.869566,
                20.95451
              ],
              [
                105.869619,
                20.954554
              ],
              [
                105.869646,
                20.954583
              ],
              [
                105.86968,
                20.954627
              ],
              [
                105.86986,
                20.954892
              ],
              [
                105.869957,
                20.955028
              ],
              [
                105.869991,
                20.955075
              ],
              [
                105.869996,
                20.955082
              ],
              [
                105.870051,
                20.955158
              ],
              [
                105.870111,
                20.955241
              ],
              [
                105.870167,
                20.955324
              ],
              [
                105.870359,
                20.955607
              ],
              [
                105.870658,
                20.956026
              ],
              [
                105.870676,
                20.956052
              ],
              [
                105.870691,
                20.956074
              ],
              [
                105.870725,
                20.956126
              ],
              [
                105.87074,
                20.956148
              ],
              [
                105.870762,
                20.95618
              ],
              [
                105.870766,
                20.956185
              ],
              [
                105.871081,
                20.956624
              ],
              [
                105.873256,
                20.955159
              ],
              [
                105.873262,
                20.955155
              ],
              [
                105.87346,
                20.955027
              ],
              [
                105.873566,
                20.954955
              ],
              [
                105.873702,
                20.954863
              ],
              [
                105.873882,
                20.954742
              ],
              [
                105.874062,
                20.954621
              ],
              [
                105.874242,
                20.954499
              ],
              [
                105.874422,
                20.954378
              ],
              [
                105.874608,
                20.954253
              ],
              [
                105.874751,
                20.954158
              ],
              [
                105.874899,
                20.954059
              ],
              [
                105.875097,
                20.953926
              ],
              [
                105.875295,
                20.953794
              ],
              [
                105.875493,
                20.953661
              ],
              [
                105.875686,
                20.953532
              ],
              [
                105.875829,
                20.953436
              ],
              [
                105.875961,
                20.953347
              ],
              [
                105.876135,
                20.953229
              ],
              [
                105.87631,
                20.953111
              ],
              [
                105.876485,
                20.952993
              ],
              [
                105.876659,
                20.952874
              ],
              [
                105.876836,
                20.952758
              ],
              [
                105.87703,
                20.952636
              ],
              [
                105.877224,
                20.952513
              ],
              [
                105.877417,
                20.95239
              ],
              [
                105.877611,
                20.952268
              ],
              [
                105.877798,
                20.952148
              ],
              [
                105.877936,
                20.952061
              ],
              [
                105.878077,
                20.95197
              ],
              [
                105.878264,
                20.951851
              ],
              [
                105.878406,
                20.95176
              ],
              [
                105.878549,
                20.951669
              ],
              [
                105.878692,
                20.951577
              ],
              [
                105.878828,
                20.951491
              ],
              [
                105.879017,
                20.951371
              ],
              [
                105.879186,
                20.95126
              ],
              [
                105.879285,
                20.951172
              ],
              [
                105.879403,
                20.951062
              ],
              [
                105.879553,
                20.950919
              ],
              [
                105.8797,
                20.950785
              ],
              [
                105.879814,
                20.950684
              ],
              [
                105.879945,
                20.95058
              ],
              [
                105.880115,
                20.950442
              ],
              [
                105.880284,
                20.950303
              ],
              [
                105.880453,
                20.950163
              ],
              [
                105.880622,
                20.950024
              ],
              [
                105.880791,
                20.949885
              ],
              [
                105.88096,
                20.949747
              ],
              [
                105.881095,
                20.949637
              ],
              [
                105.881217,
                20.949538
              ],
              [
                105.881393,
                20.949395
              ],
              [
                105.881568,
                20.949252
              ],
              [
                105.881742,
                20.949111
              ],
              [
                105.884963,
                20.946496
              ],
              [
                105.886167,
                20.945519
              ],
              [
                105.886167,
                20.945519
              ]
            ]
          ]
        ]
      },
      "properties": {
        "code": "00640",
        "name": "Thanh Trì",
        "nameEn": "Thanh Tri",
        "fullName": "Xã Thanh Trì",
        "fullNameEn": "Thanh Tri Commune",
        "codeName": "thanh_tri",
        "postalCode": "12522",
        "postalCodePrefix": "",
        "gisServerId": "diaphanhanhchinhcapxa_2025.3183",
        "areaKm2": 9.94
      }
    }
  ]
}