{
  "type": "FeatureCollection",
  "bbox": [
    105.859117,
    20.903022,
    105.913266,
    20.935726
  ],
  "features": [
    {
      "type": "Feature",
      "id": "00685",
      "bbox": [
        105.859117,
        20.903022,
        105.913266,
        20.935726
      ],
      "geometry": {
        "type": "MultiPolygon",
        "coordinates": [
          [
            [
              [
                105.884203,
                20.928815
              ],
              [
                105.886826,
                20.928514
              ],
              [
                105.889066,
                20.928789
              ],
              [
                105.892039,
                20.92908
              ],
              [
                105.892505,
                20.929091
              ],
              [
                105.897,
                20.929197
              ],
              [
                105.897366,
                20.929265
              ],
              [
                105.897715,
                20.929279
              ],
              [
                105.900016,
                20.929155
              ],
              [
                105.90282,
                20.928741
              ],
              [
                105.907133,
                20.92761
              ],
              [
                105.908131,
                20.927113
              ],
              [
                105.908206,
                20.927075
              ],
              [
                105.90864,
                20.926789
              ],
              [
                105.908644,
                20.926787
              ],
              [
                105.90969,
                20.926096
              ],
              [
                105.910531,
                20.925542
              ],
              [
                105.910844,
                20.925143
              ],
              [
                105.912038,
                20.923626
              ],
              [
                105.912086,
                20.923497
              ],
              [
                105.912157,
                20.923306
              ],
              [
                105.913266,
                20.920309
              ],
              [
                105.913255,
                20.920005
              ],
              [
                105.913096,
                20.91568
              ],
              [
                105.913092,
                20.915589
              ],
              [
                105.913094,
                20.915398
              ],
              [
                105.913054,
                20.915212
              ],
              [
                105.912934,
                20.915027
              ],
              [
                105.912039,
                20.914163
              ],
              [
                105.911635,
                20.913818
              ],
              [
                105.911222,
                20.913466
              ],
              [
                105.91095,
                20.913251
              ],
              [
                105.91095,
                20.913251
              ],
              [
                105.909553,
                20.912146
              ],
              [
                105.90858,
                20.911539
              ],
              [
                105.908504,
                20.911492
              ],
              [
                105.908262,
                20.91134
              ],
              [
                105.908131,
                20.911283
              ],
              [
                105.907599,
                20.911052
              ],
              [
                105.906701,
                20.910563
              ],
              [
                105.905065,
                20.909671
              ],
              [
                105.904575,
                20.909326
              ],
              [
                105.904572,
                20.909325
              ],
              [
                105.903679,
                20.908695
              ],
              [
                105.902706,
                20.90801
              ],
              [
                105.902517,
                20.907876
              ],
              [
                105.902389,
                20.907771
              ],
              [
                105.902386,
                20.907768
              ],
              [
                105.899367,
                20.905263
              ],
              [
                105.899231,
                20.90515
              ],
              [
                105.899179,
                20.905081
              ],
              [
                105.897538,
                20.906419
              ],
              [
                105.897508,
                20.906451
              ],
              [
                105.897495,
                20.906461
              ],
              [
                105.89712,
                20.906755
              ],
              [
                105.896663,
                20.907073
              ],
              [
                105.896377,
                20.907285
              ],
              [
                105.896308,
                20.907337
              ],
              [
                105.896067,
                20.907519
              ],
              [
                105.895367,
                20.908053
              ],
              [
                105.895291,
                20.908111
              ],
              [
                105.895199,
                20.908175
              ],
              [
                105.895196,
                20.908177
              ],
              [
                105.895148,
                20.908208
              ],
              [
                105.895,
                20.908317
              ],
              [
                105.894883,
                20.9084
              ],
              [
                105.894721,
                20.908508
              ],
              [
                105.894631,
                20.908561
              ],
              [
                105.894471,
                20.908651
              ],
              [
                105.894378,
                20.908703
              ],
              [
                105.894309,
                20.908742
              ],
              [
                105.894242,
                20.908779
              ],
              [
                105.893953,
                20.908942
              ],
              [
                105.893926,
                20.908957
              ],
              [
                105.893773,
                20.909034
              ],
              [
                105.893666,
                20.909084
              ],
              [
                105.893629,
                20.9091
              ],
              [
                105.893364,
                20.909202
              ],
              [
                105.893291,
                20.909228
              ],
              [
                105.893063,
                20.909308
              ],
              [
                105.892884,
                20.909358
              ],
              [
                105.892856,
                20.909365
              ],
              [
                105.892687,
                20.90939
              ],
              [
                105.892402,
                20.909401
              ],
              [
                105.8924,
                20.909401
              ],
              [
                105.892368,
                20.909399
              ],
              [
                105.892368,
                20.909396
              ],
              [
                105.892369,
                20.909363
              ],
              [
                105.892369,
                20.909331
              ],
              [
                105.892362,
                20.909266
              ],
              [
                105.892361,
                20.909255
              ],
              [
                105.892362,
                20.909197
              ],
              [
                105.892359,
                20.909133
              ],
              [
                105.892343,
                20.909068
              ],
              [
                105.892318,
                20.908996
              ],
              [
                105.892283,
                20.908919
              ],
              [
                105.892248,
                20.908862
              ],
              [
                105.892196,
                20.908799
              ],
              [
                105.89215,
                20.908735
              ],
              [
                105.892112,
                20.908669
              ],
              [
                105.892083,
                20.908611
              ],
              [
                105.892055,
                20.908546
              ],
              [
                105.89203,
                20.90847
              ],
              [
                105.891997,
                20.908377
              ],
              [
                105.891962,
                20.908252
              ],
              [
                105.891942,
                20.90817
              ],
              [
                105.891929,
                20.908106
              ],
              [
                105.891927,
                20.908051
              ],
              [
                105.891936,
                20.907915
              ],
              [
                105.891958,
                20.907833
              ],
              [
                105.891963,
                20.907812
              ],
              [
                105.891971,
                20.907765
              ],
              [
                105.89198,
                20.90767
              ],
              [
                105.891985,
                20.90763
              ],
              [
                105.891991,
                20.907563
              ],
              [
                105.891987,
                20.907466
              ],
              [
                105.891978,
                20.90739
              ],
              [
                105.891951,
                20.907254
              ],
              [
                105.891905,
                20.907067
              ],
              [
                105.891864,
                20.90691
              ],
              [
                105.891853,
                20.90687
              ],
              [
                105.891851,
                20.906863
              ],
              [
                105.891842,
                20.906829
              ],
              [
                105.891792,
                20.906653
              ],
              [
                105.89179,
                20.906646
              ],
              [
                105.891782,
                20.906613
              ],
              [
                105.891756,
                20.90661
              ],
              [
                105.891746,
                20.906603
              ],
              [
                105.891741,
                20.9066
              ],
              [
                105.89167,
                20.906527
              ],
              [
                105.891611,
                20.906477
              ],
              [
                105.891609,
                20.906475
              ],
              [
                105.891582,
                20.906457
              ],
              [
                105.891558,
                20.90644
              ],
              [
                105.891524,
                20.906417
              ],
              [
                105.891398,
                20.906329
              ],
              [
                105.891286,
                20.906252
              ],
              [
                105.891203,
                20.906205
              ],
              [
                105.891186,
                20.906194
              ],
              [
                105.891158,
                20.906201
              ],
              [
                105.891142,
                20.906205
              ],
              [
                105.890587,
                20.906385
              ],
              [
                105.890572,
                20.906389
              ],
              [
                105.890554,
                20.906395
              ],
              [
                105.890399,
                20.906448
              ],
              [
                105.890165,
                20.906521
              ],
              [
                105.890086,
                20.90654
              ],
              [
                105.890044,
                20.90654
              ],
              [
                105.889998,
                20.906521
              ],
              [
                105.889967,
                20.906495
              ],
              [
                105.889863,
                20.906301
              ],
              [
                105.889772,
                20.906132
              ],
              [
                105.889748,
                20.906081
              ],
              [
                105.889709,
                20.906023
              ],
              [
                105.889673,
                20.905985
              ],
              [
                105.889671,
                20.905983
              ],
              [
                105.889644,
                20.905969
              ],
              [
                105.889622,
                20.905963
              ],
              [
                105.889608,
                20.90596
              ],
              [
                105.889543,
                20.905955
              ],
              [
                105.889475,
                20.905956
              ],
              [
                105.889424,
                20.905959
              ],
              [
                105.889269,
                20.90598
              ],
              [
                105.889241,
                20.905984
              ],
              [
                105.889203,
                20.905991
              ],
              [
                105.888893,
                20.906049
              ],
              [
                105.888291,
                20.906165
              ],
              [
                105.88815,
                20.906189
              ],
              [
                105.888088,
                20.906202
              ],
              [
                105.888039,
                20.90621
              ],
              [
                105.888035,
                20.90621
              ],
              [
                105.88801,
                20.906211
              ],
              [
                105.887984,
                20.906212
              ],
              [
                105.88798,
                20.906213
              ],
              [
                105.887875,
                20.906213
              ],
              [
                105.887808,
                20.90621
              ],
              [
                105.887756,
                20.906208
              ],
              [
                105.887723,
                20.906207
              ],
              [
                105.887723,
                20.906241
              ],
              [
                105.887723,
                20.906638
              ],
              [
                105.88773,
                20.906933
              ],
              [
                105.887728,
                20.906997
              ],
              [
                105.887727,
                20.90703
              ],
              [
                105.887725,
                20.907039
              ],
              [
                105.887698,
                20.907151
              ],
              [
                105.887605,
                20.90749
              ],
              [
                105.887599,
                20.907511
              ],
              [
                105.887597,
                20.907519
              ],
              [
                105.887589,
                20.907561
              ],
              [
                105.887586,
                20.907574
              ],
              [
                105.887526,
                20.907881
              ],
              [
                105.887452,
                20.908213
              ],
              [
                105.887429,
                20.908288
              ],
              [
                105.887419,
                20.908313
              ],
              [
                105.88741,
                20.908326
              ],
              [
                105.887396,
                20.908339
              ],
              [
                105.887384,
                20.908346
              ],
              [
                105.887337,
                20.908358
              ],
              [
                105.887298,
                20.908362
              ],
              [
                105.887255,
                20.908367
              ],
              [
                105.887203,
                20.908373
              ],
              [
                105.887155,
                20.908379
              ],
              [
                105.887044,
                20.908392
              ],
              [
                105.88702,
                20.908395
              ],
              [
                105.886999,
                20.908397
              ],
              [
                105.886882,
                20.908412
              ],
              [
                105.886503,
                20.908475
              ],
              [
                105.886484,
                20.908478
              ],
              [
                105.886479,
                20.908479
              ],
              [
                105.886456,
                20.908483
              ],
              [
                105.886396,
                20.908493
              ],
              [
                105.886376,
                20.908497
              ],
              [
                105.886352,
                20.908501
              ],
              [
                105.885964,
                20.908568
              ],
              [
                105.885806,
                20.908597
              ],
              [
                105.885785,
                20.908601
              ],
              [
                105.885763,
                20.908605
              ],
              [
                105.885542,
                20.908646
              ],
              [
                105.885525,
                20.908649
              ],
              [
                105.885505,
                20.908653
              ],
              [
                105.885247,
                20.908704
              ],
              [
                105.885218,
                20.90871
              ],
              [
                105.885194,
                20.908715
              ],
              [
                105.885176,
                20.908718
              ],
              [
                105.884968,
                20.90876
              ],
              [
                105.884374,
                20.908889
              ],
              [
                105.884224,
                20.908921
              ],
              [
                105.884199,
                20.908926
              ],
              [
                105.884142,
                20.908939
              ],
              [
                105.884112,
                20.908945
              ],
              [
                105.883779,
                20.909017
              ],
              [
                105.883273,
                20.909137
              ],
              [
                105.882726,
                20.909276
              ],
              [
                105.882686,
                20.909286
              ],
              [
                105.882647,
                20.909295
              ],
              [
                105.882324,
                20.909365
              ],
              [
                105.882289,
                20.909373
              ],
              [
                105.882257,
                20.90938
              ],
              [
                105.88222,
                20.909388
              ],
              [
                105.881877,
                20.909468
              ],
              [
                105.881714,
                20.909508
              ],
              [
                105.881503,
                20.909558
              ],
              [
                105.881445,
                20.909567
              ],
              [
                105.88127,
                20.909592
              ],
              [
                105.881196,
                20.909606
              ],
              [
                105.881178,
                20.909609
              ],
              [
                105.881161,
                20.909612
              ],
              [
                105.881134,
                20.909618
              ],
              [
                105.880681,
                20.909722
              ],
              [
                105.880169,
                20.909851
              ],
              [
                105.880161,
                20.909853
              ],
              [
                105.879736,
                20.909964
              ],
              [
                105.87927,
                20.910086
              ],
              [
                105.878795,
                20.910212
              ],
              [
                105.878339,
                20.910353
              ],
              [
                105.878031,
                20.910459
              ],
              [
                105.877946,
                20.910491
              ],
              [
                105.877923,
                20.9105
              ],
              [
                105.877897,
                20.91051
              ],
              [
                105.877618,
                20.910643
              ],
              [
                105.877586,
                20.910659
              ],
              [
                105.877557,
                20.910673
              ],
              [
                105.877352,
                20.910776
              ],
              [
                105.877004,
                20.910965
              ],
              [
                105.876881,
                20.911033
              ],
              [
                105.87687,
                20.911039
              ],
              [
                105.876609,
                20.911184
              ],
              [
                105.876255,
                20.911347
              ],
              [
                105.875417,
                20.911813
              ],
              [
                105.874997,
                20.912037
              ],
              [
                105.874933,
                20.912061
              ],
              [
                105.874912,
                20.912069
              ],
              [
                105.874892,
                20.912076
              ],
              [
                105.87489,
                20.912077
              ],
              [
                105.87488,
                20.912052
              ],
              [
                105.874838,
                20.911955
              ],
              [
                105.874618,
                20.911571
              ],
              [
                105.874403,
                20.91117
              ],
              [
                105.874289,
                20.910974
              ],
              [
                105.87418,
                20.910789
              ],
              [
                105.874162,
                20.910765
              ],
              [
                105.874133,
                20.910742
              ],
              [
                105.874091,
                20.910722
              ],
              [
                105.874041,
                20.910711
              ],
              [
                105.873985,
                20.910705
              ],
              [
                105.873902,
                20.910701
              ],
              [
                105.873798,
                20.910702
              ],
              [
                105.873773,
                20.910702
              ],
              [
                105.873746,
                20.910701
              ],
              [
                105.873715,
                20.910692
              ],
              [
                105.873688,
                20.910675
              ],
              [
                105.873676,
                20.91066
              ],
              [
                105.873664,
                20.910633
              ],
              [
                105.87366,
                20.91061
              ],
              [
                105.87366,
                20.910584
              ],
              [
                105.873673,
                20.910531
              ],
              [
                105.873713,
                20.910428
              ],
              [
                105.873787,
                20.910238
              ],
              [
                105.87379,
                20.910229
              ],
              [
                105.873873,
                20.909998
              ],
              [
                105.873964,
                20.90981
              ],
              [
                105.874038,
                20.909627
              ],
              [
                105.874125,
                20.909297
              ],
              [
                105.874167,
                20.909117
              ],
              [
                105.874194,
                20.908952
              ],
              [
                105.874193,
                20.908907
              ],
              [
                105.874175,
                20.908489
              ],
              [
                105.874104,
                20.908006
              ],
              [
                105.873999,
                20.90773
              ],
              [
                105.873979,
                20.907623
              ],
              [
                105.873709,
                20.906648
              ],
              [
                105.870776,
                20.907881
              ],
              [
                105.867842,
                20.909114
              ],
              [
                105.867746,
                20.909132
              ],
              [
                105.867696,
                20.908975
              ],
              [
                105.867621,
                20.908795
              ],
              [
                105.867529,
                20.908595
              ],
              [
                105.867436,
                20.908402
              ],
              [
                105.867361,
                20.908225
              ],
              [
                105.867302,
                20.908079
              ],
              [
                105.867199,
                20.907883
              ],
              [
                105.867036,
                20.907655
              ],
              [
                105.866947,
                20.907505
              ],
              [
                105.866874,
                20.907394
              ],
              [
                105.866789,
                20.907281
              ],
              [
                105.866686,
                20.90717
              ],
              [
                105.866622,
                20.907086
              ],
              [
                105.866549,
                20.906997
              ],
              [
                105.866461,
                20.906887
              ],
              [
                105.866356,
                20.906769
              ],
              [
                105.866279,
                20.906669
              ],
              [
                105.866196,
                20.906564
              ],
              [
                105.866029,
                20.906395
              ],
              [
                105.865969,
                20.906295
              ],
              [
                105.865939,
                20.90615
              ],
              [
                105.865865,
                20.906059
              ],
              [
                105.865777,
                20.905972
              ],
              [
                105.86567,
                20.905869
              ],
              [
                105.865518,
                20.905723
              ],
              [
                105.865398,
                20.905591
              ],
              [
                105.865273,
                20.905447
              ],
              [
                105.865157,
                20.905297
              ],
              [
                105.865024,
                20.905148
              ],
              [
                105.86491,
                20.905044
              ],
              [
                105.864521,
                20.904696
              ],
              [
                105.863695,
                20.904028
              ],
              [
                105.862979,
                20.903324
              ],
              [
                105.862738,
                20.903022
              ],
              [
                105.86267,
                20.903189
              ],
              [
                105.862627,
                20.903296
              ],
              [
                105.862619,
                20.903316
              ],
              [
                105.862611,
                20.903338
              ],
              [
                105.862603,
                20.903357
              ],
              [
                105.862473,
                20.90369
              ],
              [
                105.862407,
                20.903859
              ],
              [
                105.862343,
                20.904029
              ],
              [
                105.862278,
                20.9042
              ],
              [
                105.862215,
                20.904372
              ],
              [
                105.862155,
                20.90454
              ],
              [
                105.862093,
                20.904715
              ],
              [
                105.862031,
                20.904882
              ],
              [
                105.86197,
                20.905065
              ],
              [
                105.861938,
                20.905158
              ],
              [
                105.861902,
                20.905264
              ],
              [
                105.861767,
                20.905659
              ],
              [
                105.861748,
                20.905718
              ],
              [
                105.861733,
                20.905766
              ],
              [
                105.861578,
                20.906265
              ],
              [
                105.861578,
                20.906265
              ],
              [
                105.861052,
                20.908086
              ],
              [
                105.860764,
                20.909275
              ],
              [
                105.860516,
                20.910489
              ],
              [
                105.860329,
                20.911505
              ],
              [
                105.860119,
                20.913003
              ],
              [
                105.859998,
                20.914185
              ],
              [
                105.859899,
                20.915552
              ],
              [
                105.85986,
                20.916674
              ],
              [
                105.859848,
                20.917697
              ],
              [
                105.859888,
                20.922179
              ],
              [
                105.859899,
                20.923363
              ],
              [
                105.859862,
                20.924912
              ],
              [
                105.859763,
                20.926354
              ],
              [
                105.859499,
                20.928705
              ],
              [
                105.859158,
                20.93174
              ],
              [
                105.859117,
                20.932379
              ],
              [
                105.862342,
                20.933477
              ],
              [
                105.864047,
                20.93386
              ],
              [
                105.865738,
                20.934099
              ],
              [
                105.881463,
                20.935726
              ],
              [
                105.881421,
                20.935095
              ],
              [
                105.881376,
                20.934422
              ],
              [
                105.881282,
                20.933215
              ],
              [
                105.881281,
                20.933
              ],
              [
                105.881281,
                20.932946
              ],
              [
                105.88128,
                20.932826
              ],
              [
                105.881532,
                20.93129
              ],
              [
                105.881745,
                20.93047
              ],
              [
                105.882132,
                20.929732
              ],
              [
                105.882516,
                20.929377
              ],
              [
                105.882536,
                20.929367
              ],
              [
                105.884203,
                20.928815
              ],
              [
                105.884203,
                20.928815
              ]
            ]
          ]
        ]
      },
      "properties": {
        "code": "00685",
        "name": "Nam Phù",
        "nameEn": "Nam Phu",
        "fullName": "Xã Nam Phù",
        "fullNameEn": "Nam Phu Commune",
        "codeName": "nam_phu",
        "postalCode": "12524",
        "postalCodePrefix": "",
        "gisServerId": "diaphanhanhchinhcapxa_2025.3176",
        "areaKm2": 13.74
      }
    }
  ]
}