{
  "type": "FeatureCollection",
  "bbox": [
    105.695744,
    21.104755,
    105.772581,
    21.187884
  ],
  "features": [
    {
      "type": "Feature",
      "id": "09022",
      "bbox": [
        105.695744,
        21.104755,
        105.772581,
        21.187884
      ],
      "geometry": {
        "type": "MultiPolygon",
        "coordinates": [
          [
            [
              [
                105.724925,
                21.174518
              ],
              [
                105.725363,
                21.174118
              ],
              [
                105.725368,
                21.174122
              ],
              [
                105.727393,
                21.172256
              ],
              [
                105.728851,
                21.170899
              ],
              [
                105.730229,
                21.169633
              ],
              [
                105.730594,
                21.169302
              ],
              [
                105.731092,
                21.168927
              ],
              [
                105.731488,
                21.168696
              ],
              [
                105.731816,
                21.168537
              ],
              [
                105.732195,
                21.168406
              ],
              [
                105.732562,
                21.168289
              ],
              [
                105.733056,
                21.168192
              ],
              [
                105.733224,
                21.168167
              ],
              [
                105.734039,
                21.168111
              ],
              [
                105.734814,
                21.168136
              ],
              [
                105.735772,
                21.168175
              ],
              [
                105.738199,
                21.168251
              ],
              [
                105.739851,
                21.16831
              ],
              [
                105.741235,
                21.168354
              ],
              [
                105.742675,
                21.168389
              ],
              [
                105.744245,
                21.168449
              ],
              [
                105.745758,
                21.168498
              ],
              [
                105.74741,
                21.168555
              ],
              [
                105.748818,
                21.168606
              ],
              [
                105.752366,
                21.16872
              ],
              [
                105.752484,
                21.168728
              ],
              [
                105.752483,
                21.168729
              ],
              [
                105.754371,
                21.16878
              ],
              [
                105.76004,
                21.168972
              ],
              [
                105.763002,
                21.169069
              ],
              [
                105.76647,
                21.169183
              ],
              [
                105.770173,
                21.169305
              ],
              [
                105.770181,
                21.169222
              ],
              [
                105.77022,
                21.168798
              ],
              [
                105.770225,
                21.168753
              ],
              [
                105.770342,
                21.168426
              ],
              [
                105.770344,
                21.168364
              ],
              [
                105.770354,
                21.168364
              ],
              [
                105.770357,
                21.168363
              ],
              [
                105.770365,
                21.168362
              ],
              [
                105.770366,
                21.168356
              ],
              [
                105.770391,
                21.168177
              ],
              [
                105.770412,
                21.16806
              ],
              [
                105.770445,
                21.167894
              ],
              [
                105.77049,
                21.167692
              ],
              [
                105.770528,
                21.167498
              ],
              [
                105.77057,
                21.167297
              ],
              [
                105.770614,
                21.167089
              ],
              [
                105.77065,
                21.166902
              ],
              [
                105.770678,
                21.166762
              ],
              [
                105.77069,
                21.166712
              ],
              [
                105.770691,
                21.166707
              ],
              [
                105.770715,
                21.166649
              ],
              [
                105.770714,
                21.166649
              ],
              [
                105.770673,
                21.166629
              ],
              [
                105.770519,
                21.166552
              ],
              [
                105.770495,
                21.166541
              ],
              [
                105.770466,
                21.166527
              ],
              [
                105.770472,
                21.166481
              ],
              [
                105.770478,
                21.166442
              ],
              [
                105.770477,
                21.166438
              ],
              [
                105.770474,
                21.166426
              ],
              [
                105.770472,
                21.166418
              ],
              [
                105.770472,
                21.166418
              ],
              [
                105.770472,
                21.16641
              ],
              [
                105.770473,
                21.166401
              ],
              [
                105.770475,
                21.166392
              ],
              [
                105.770475,
                21.16639
              ],
              [
                105.770481,
                21.166352
              ],
              [
                105.770482,
                21.166317
              ],
              [
                105.770483,
                21.166273
              ],
              [
                105.770487,
                21.166231
              ],
              [
                105.7705,
                21.166054
              ],
              [
                105.770501,
                21.16604
              ],
              [
                105.770514,
                21.165789
              ],
              [
                105.770514,
                21.16577
              ],
              [
                105.770516,
                21.165738
              ],
              [
                105.770517,
                21.165682
              ],
              [
                105.770517,
                21.165682
              ],
              [
                105.77052,
                21.16563
              ],
              [
                105.770525,
                21.165537
              ],
              [
                105.770527,
                21.165507
              ],
              [
                105.770535,
                21.165357
              ],
              [
                105.77054,
                21.165286
              ],
              [
                105.770548,
                21.165204
              ],
              [
                105.770548,
                21.165203
              ],
              [
                105.770558,
                21.165169
              ],
              [
                105.770559,
                21.165165
              ],
              [
                105.770569,
                21.165143
              ],
              [
                105.770569,
                21.165142
              ],
              [
                105.770573,
                21.165126
              ],
              [
                105.770586,
                21.164895
              ],
              [
                105.770586,
                21.164886
              ],
              [
                105.770599,
                21.164687
              ],
              [
                105.770601,
                21.164626
              ],
              [
                105.770604,
                21.164617
              ],
              [
                105.770605,
                21.164617
              ],
              [
                105.770605,
                21.164616
              ],
              [
                105.770568,
                21.164575
              ],
              [
                105.770572,
                21.164562
              ],
              [
                105.770574,
                21.164544
              ],
              [
                105.770581,
                21.164461
              ],
              [
                105.770584,
                21.164415
              ],
              [
                105.770594,
                21.164281
              ],
              [
                105.770607,
                21.164114
              ],
              [
                105.77061,
                21.164084
              ],
              [
                105.770624,
                21.163947
              ],
              [
                105.770632,
                21.163849
              ],
              [
                105.77064,
                21.16375
              ],
              [
                105.770659,
                21.16353
              ],
              [
                105.770678,
                21.163304
              ],
              [
                105.770696,
                21.163121
              ],
              [
                105.770703,
                21.163049
              ],
              [
                105.770713,
                21.16295
              ],
              [
                105.770725,
                21.162767
              ],
              [
                105.770748,
                21.162394
              ],
              [
                105.770803,
                21.16167
              ],
              [
                105.770821,
                21.161462
              ],
              [
                105.770876,
                21.16084
              ],
              [
                105.770895,
                21.160581
              ],
              [
                105.770912,
                21.160343
              ],
              [
                105.77099,
                21.159296
              ],
              [
                105.771004,
                21.159141
              ],
              [
                105.771039,
                21.158756
              ],
              [
                105.77107,
                21.158404
              ],
              [
                105.771076,
                21.158341
              ],
              [
                105.771091,
                21.158173
              ],
              [
                105.771117,
                21.157893
              ],
              [
                105.771117,
                21.157893
              ],
              [
                105.771152,
                21.157892
              ],
              [
                105.771157,
                21.157892
              ],
              [
                105.771177,
                21.15769
              ],
              [
                105.771215,
                21.157358
              ],
              [
                105.771216,
                21.15734
              ],
              [
                105.771219,
                21.157294
              ],
              [
                105.771211,
                21.157243
              ],
              [
                105.77119,
                21.157089
              ],
              [
                105.771293,
                21.156199
              ],
              [
                105.771291,
                21.156193
              ],
              [
                105.771293,
                21.156168
              ],
              [
                105.771303,
                21.156088
              ],
              [
                105.77133,
                21.155772
              ],
              [
                105.77135,
                21.155539
              ],
              [
                105.771351,
                21.155529
              ],
              [
                105.771389,
                21.155283
              ],
              [
                105.771396,
                21.155196
              ],
              [
                105.771401,
                21.155147
              ],
              [
                105.77141,
                21.155066
              ],
              [
                105.771419,
                21.154992
              ],
              [
                105.771428,
                21.154906
              ],
              [
                105.771447,
                21.154743
              ],
              [
                105.771459,
                21.154586
              ],
              [
                105.77146,
                21.154579
              ],
              [
                105.771475,
                21.154424
              ],
              [
                105.771495,
                21.15426
              ],
              [
                105.771516,
                21.154095
              ],
              [
                105.771534,
                21.153928
              ],
              [
                105.771551,
                21.153759
              ],
              [
                105.771589,
                21.15342
              ],
              [
                105.771628,
                21.153081
              ],
              [
                105.77167,
                21.152744
              ],
              [
                105.77169,
                21.152574
              ],
              [
                105.771707,
                21.152413
              ],
              [
                105.771711,
                21.152377
              ],
              [
                105.771723,
                21.152249
              ],
              [
                105.771725,
                21.152231
              ],
              [
                105.77174,
                21.152085
              ],
              [
                105.771759,
                21.151919
              ],
              [
                105.771778,
                21.151754
              ],
              [
                105.771794,
                21.15159
              ],
              [
                105.771829,
                21.151261
              ],
              [
                105.771866,
                21.150934
              ],
              [
                105.771884,
                21.150769
              ],
              [
                105.771899,
                21.150601
              ],
              [
                105.771912,
                21.150433
              ],
              [
                105.771928,
                21.150267
              ],
              [
                105.771943,
                21.150104
              ],
              [
                105.771979,
                21.14978
              ],
              [
                105.772011,
                21.149457
              ],
              [
                105.772028,
                21.149303
              ],
              [
                105.772049,
                21.149141
              ],
              [
                105.772057,
                21.149057
              ],
              [
                105.772056,
                21.149007
              ],
              [
                105.772056,
                21.149006
              ],
              [
                105.771962,
                21.148922
              ],
              [
                105.77196,
                21.148932
              ],
              [
                105.771947,
                21.148947
              ],
              [
                105.771901,
                21.148978
              ],
              [
                105.771704,
                21.149106
              ],
              [
                105.771654,
                21.14914
              ],
              [
                105.771653,
                21.14914
              ],
              [
                105.771623,
                21.149141
              ],
              [
                105.77162,
                21.149141
              ],
              [
                105.771614,
                21.149141
              ],
              [
                105.771607,
                21.149137
              ],
              [
                105.771588,
                21.149121
              ],
              [
                105.771588,
                21.149121
              ],
              [
                105.771567,
                21.149092
              ],
              [
                105.77147,
                21.14896
              ],
              [
                105.771341,
                21.148789
              ],
              [
                105.771173,
                21.148564
              ],
              [
                105.7711,
                21.148465
              ],
              [
                105.77109,
                21.148452
              ],
              [
                105.770716,
                21.14796
              ],
              [
                105.771921,
                21.147158
              ],
              [
                105.771964,
                21.147096
              ],
              [
                105.771833,
                21.1469
              ],
              [
                105.772145,
                21.146463
              ],
              [
                105.772396,
                21.146089
              ],
              [
                105.772405,
                21.146102
              ],
              [
                105.772405,
                21.146103
              ],
              [
                105.772405,
                21.146106
              ],
              [
                105.772405,
                21.14611
              ],
              [
                105.772478,
                21.146
              ],
              [
                105.772479,
                21.146
              ],
              [
                105.772488,
                21.145987
              ],
              [
                105.772493,
                21.145978
              ],
              [
                105.772581,
                21.145852
              ],
              [
                105.772201,
                21.145425
              ],
              [
                105.771442,
                21.144595
              ],
              [
                105.771159,
                21.144153
              ],
              [
                105.771024,
                21.143891
              ],
              [
                105.770995,
                21.143758
              ],
              [
                105.771002,
                21.143633
              ],
              [
                105.771042,
                21.143299
              ],
              [
                105.77104,
                21.142991
              ],
              [
                105.770996,
                21.142625
              ],
              [
                105.770996,
                21.142474
              ],
              [
                105.770984,
                21.142374
              ],
              [
                105.770968,
                21.142324
              ],
              [
                105.770899,
                21.142242
              ],
              [
                105.770787,
                21.142128
              ],
              [
                105.770498,
                21.14181
              ],
              [
                105.769738,
                21.140821
              ],
              [
                105.769502,
                21.140524
              ],
              [
                105.769225,
                21.140141
              ],
              [
                105.769049,
                21.139858
              ],
              [
                105.768752,
                21.139239
              ],
              [
                105.768271,
                21.138389
              ],
              [
                105.767579,
                21.137551
              ],
              [
                105.767501,
                21.137472
              ],
              [
                105.766672,
                21.136688
              ],
              [
                105.766246,
                21.136343
              ],
              [
                105.765978,
                21.136177
              ],
              [
                105.76578,
                21.136051
              ],
              [
                105.765333,
                21.135859
              ],
              [
                105.764839,
                21.135715
              ],
              [
                105.764596,
                21.135649
              ],
              [
                105.764348,
                21.13559
              ],
              [
                105.764039,
                21.135528
              ],
              [
                105.763693,
                21.135471
              ],
              [
                105.763602,
                21.135462
              ],
              [
                105.763489,
                21.135458
              ],
              [
                105.763182,
                21.13547
              ],
              [
                105.76293,
                21.135557
              ],
              [
                105.762815,
                21.135596
              ],
              [
                105.762682,
                21.135657
              ],
              [
                105.762523,
                21.135741
              ],
              [
                105.762377,
                21.135813
              ],
              [
                105.762262,
                21.135853
              ],
              [
                105.762183,
                21.13588
              ],
              [
                105.762046,
                21.135905
              ],
              [
                105.761833,
                21.135917
              ],
              [
                105.761721,
                21.135924
              ],
              [
                105.761713,
                21.135915
              ],
              [
                105.76168,
                21.135912
              ],
              [
                105.761585,
                21.135912
              ],
              [
                105.761472,
                21.135925
              ],
              [
                105.761428,
                21.135921
              ],
              [
                105.761384,
                21.135917
              ],
              [
                105.76127,
                21.135884
              ],
              [
                105.761008,
                21.135811
              ],
              [
                105.760788,
                21.135803
              ],
              [
                105.760587,
                21.135814
              ],
              [
                105.760562,
                21.135816
              ],
              [
                105.760472,
                21.135795
              ],
              [
                105.760402,
                21.135754
              ],
              [
                105.760351,
                21.135694
              ],
              [
                105.760333,
                21.135666
              ],
              [
                105.760303,
                21.13562
              ],
              [
                105.760295,
                21.135604
              ],
              [
                105.760219,
                21.135448
              ],
              [
                105.760137,
                21.135076
              ],
              [
                105.760115,
                21.134969
              ],
              [
                105.760049,
                21.134894
              ],
              [
                105.759982,
                21.134853
              ],
              [
                105.75987,
                21.134826
              ],
              [
                105.75964,
                21.134797
              ],
              [
                105.759594,
                21.134788
              ],
              [
                105.75956,
                21.134782
              ],
              [
                105.759562,
                21.13466
              ],
              [
                105.759621,
                21.134362
              ],
              [
                105.75968,
                21.133999
              ],
              [
                105.75971,
                21.133762
              ],
              [
                105.758487,
                21.133754
              ],
              [
                105.755483,
                21.133756
              ],
              [
                105.75317,
                21.133968
              ],
              [
                105.752069,
                21.133811
              ],
              [
                105.751753,
                21.133764
              ],
              [
                105.751172,
                21.133881
              ],
              [
                105.750684,
                21.134132
              ],
              [
                105.750106,
                21.134239
              ],
              [
                105.747222,
                21.134261
              ],
              [
                105.743752,
                21.134706
              ],
              [
                105.743675,
                21.134722
              ],
              [
                105.743635,
                21.134567
              ],
              [
                105.743596,
                21.134432
              ],
              [
                105.743561,
                21.134293
              ],
              [
                105.74353,
                21.134142
              ],
              [
                105.743499,
                21.134015
              ],
              [
                105.743454,
                21.133825
              ],
              [
                105.743403,
                21.133618
              ],
              [
                105.743353,
                21.133417
              ],
              [
                105.743307,
                21.133219
              ],
              [
                105.743281,
                21.133084
              ],
              [
                105.743266,
                21.132997
              ],
              [
                105.743263,
                21.132979
              ],
              [
                105.743247,
                21.132902
              ],
              [
                105.743244,
                21.132886
              ],
              [
                105.743205,
                21.132721
              ],
              [
                105.743195,
                21.13268
              ],
              [
                105.743178,
                21.132615
              ],
              [
                105.743037,
                21.132646
              ],
              [
                105.742951,
                21.132668
              ],
              [
                105.742787,
                21.132711
              ],
              [
                105.742538,
                21.132766
              ],
              [
                105.742254,
                21.132829
              ],
              [
                105.742253,
                21.132829
              ],
              [
                105.742232,
                21.132834
              ],
              [
                105.742042,
                21.132882
              ],
              [
                105.742015,
                21.132781
              ],
              [
                105.742011,
                21.132746
              ],
              [
                105.742007,
                21.132721
              ],
              [
                105.742008,
                21.132714
              ],
              [
                105.742035,
                21.132706
              ],
              [
                105.74204,
                21.1327
              ],
              [
                105.742042,
                21.132694
              ],
              [
                105.74204,
                21.132679
              ],
              [
                105.742012,
                21.132573
              ],
              [
                105.741977,
                21.132404
              ],
              [
                105.741943,
                21.132267
              ],
              [
                105.741911,
                21.132126
              ],
              [
                105.741875,
                21.131984
              ],
              [
                105.741842,
                21.131842
              ],
              [
                105.741828,
                21.131769
              ],
              [
                105.741804,
                21.131701
              ],
              [
                105.741782,
                21.131632
              ],
              [
                105.741754,
                21.131562
              ],
              [
                105.741723,
                21.131493
              ],
              [
                105.741695,
                21.131423
              ],
              [
                105.741667,
                21.131356
              ],
              [
                105.741641,
                21.131287
              ],
              [
                105.741618,
                21.131217
              ],
              [
                105.741594,
                21.131148
              ],
              [
                105.741573,
                21.131081
              ],
              [
                105.741553,
                21.131009
              ],
              [
                105.741544,
                21.130942
              ],
              [
                105.741535,
                21.130871
              ],
              [
                105.741528,
                21.1308
              ],
              [
                105.741519,
                21.130728
              ],
              [
                105.741497,
                21.130586
              ],
              [
                105.741468,
                21.130429
              ],
              [
                105.741454,
                21.130381
              ],
              [
                105.741424,
                21.130277
              ],
              [
                105.74142,
                21.130256
              ],
              [
                105.74142,
                21.130238
              ],
              [
                105.741424,
                21.130226
              ],
              [
                105.741432,
                21.130216
              ],
              [
                105.741454,
                21.130205
              ],
              [
                105.741468,
                21.130201
              ],
              [
                105.741482,
                21.130195
              ],
              [
                105.741491,
                21.13019
              ],
              [
                105.741502,
                21.130178
              ],
              [
                105.741502,
                21.130158
              ],
              [
                105.741487,
                21.130112
              ],
              [
                105.741467,
                21.130058
              ],
              [
                105.741335,
                21.129757
              ],
              [
                105.741313,
                21.129711
              ],
              [
                105.741281,
                21.12971
              ],
              [
                105.741268,
                21.12971
              ],
              [
                105.741243,
                21.129707
              ],
              [
                105.74123,
                21.129674
              ],
              [
                105.741183,
                21.129471
              ],
              [
                105.741116,
                21.129161
              ],
              [
                105.741085,
                21.128941
              ],
              [
                105.741064,
                21.128941
              ],
              [
                105.741066,
                21.128824
              ],
              [
                105.740991,
                21.128832
              ],
              [
                105.740712,
                21.128857
              ],
              [
                105.740435,
                21.128881
              ],
              [
                105.740255,
                21.128896
              ],
              [
                105.740171,
                21.1289
              ],
              [
                105.740143,
                21.128899
              ],
              [
                105.740116,
                21.128898
              ],
              [
                105.740083,
                21.128895
              ],
              [
                105.740056,
                21.128888
              ],
              [
                105.739785,
                21.128806
              ],
              [
                105.739742,
                21.128793
              ],
              [
                105.7395,
                21.12872
              ],
              [
                105.739154,
                21.128618
              ],
              [
                105.738791,
                21.128502
              ],
              [
                105.738733,
                21.128484
              ],
              [
                105.739051,
                21.128181
              ],
              [
                105.739057,
                21.128147
              ],
              [
                105.738934,
                21.12795
              ],
              [
                105.738866,
                21.127837
              ],
              [
                105.738891,
                21.127741
              ],
              [
                105.739011,
                21.12775
              ],
              [
                105.739096,
                21.127525
              ],
              [
                105.739119,
                21.127286
              ],
              [
                105.739133,
                21.127137
              ],
              [
                105.739054,
                21.127066
              ],
              [
                105.738958,
                21.126979
              ],
              [
                105.738871,
                21.126769
              ],
              [
                105.738917,
                21.126441
              ],
              [
                105.738921,
                21.126425
              ],
              [
                105.73893,
                21.126383
              ],
              [
                105.738915,
                21.126373
              ],
              [
                105.738868,
                21.126338
              ],
              [
                105.738777,
                21.126315
              ],
              [
                105.738733,
                21.126236
              ],
              [
                105.738715,
                21.126138
              ],
              [
                105.738679,
                21.125691
              ],
              [
                105.738832,
                21.125601
              ],
              [
                105.738832,
                21.125597
              ],
              [
                105.738647,
                21.125187
              ],
              [
                105.738637,
                21.125191
              ],
              [
                105.737857,
                21.125504
              ],
              [
                105.737515,
                21.125629
              ],
              [
                105.737404,
                21.12567
              ],
              [
                105.737227,
                21.125741
              ],
              [
                105.737123,
                21.125521
              ],
              [
                105.737113,
                21.125518
              ],
              [
                105.7371,
                21.125507
              ],
              [
                105.737075,
                21.125471
              ],
              [
                105.737021,
                21.125376
              ],
              [
                105.736965,
                21.125276
              ],
              [
                105.736942,
                21.12523
              ],
              [
                105.736924,
                21.125194
              ],
              [
                105.736901,
                21.125186
              ],
              [
                105.736817,
                21.125227
              ],
              [
                105.736486,
                21.125362
              ],
              [
                105.73649,
                21.125355
              ],
              [
                105.73649,
                21.125353
              ],
              [
                105.736489,
                21.125349
              ],
              [
                105.736461,
                21.12529
              ],
              [
                105.736438,
                21.12524
              ],
              [
                105.73644,
                21.125224
              ],
              [
                105.736445,
                21.125211
              ],
              [
                105.736459,
                21.125202
              ],
              [
                105.736497,
                21.125187
              ],
              [
                105.736506,
                21.125181
              ],
              [
                105.736507,
                21.125172
              ],
              [
                105.736491,
                21.125127
              ],
              [
                105.736472,
                21.125073
              ],
              [
                105.736403,
                21.124889
              ],
              [
                105.736363,
                21.124777
              ],
              [
                105.736315,
                21.124578
              ],
              [
                105.736307,
                21.124535
              ],
              [
                105.736298,
                21.124515
              ],
              [
                105.736291,
                21.124508
              ],
              [
                105.736282,
                21.124506
              ],
              [
                105.736135,
                21.124568
              ],
              [
                105.73612,
                21.124569
              ],
              [
                105.73612,
                21.124569
              ],
              [
                105.736112,
                21.124565
              ],
              [
                105.736053,
                21.124475
              ],
              [
                105.736046,
                21.124465
              ],
              [
                105.736038,
                21.124453
              ],
              [
                105.736011,
                21.124411
              ],
              [
                105.73585,
                21.124184
              ],
              [
                105.735722,
                21.124018
              ],
              [
                105.735722,
                21.124017
              ],
              [
                105.735721,
                21.124016
              ],
              [
                105.735685,
                21.123973
              ],
              [
                105.735668,
                21.123973
              ],
              [
                105.735668,
                21.123973
              ],
              [
                105.735668,
                21.123973
              ],
              [
                105.73554,
                21.123979
              ],
              [
                105.73554,
                21.123979
              ],
              [
                105.735481,
                21.123985
              ],
              [
                105.735466,
                21.123986
              ],
              [
                105.735466,
                21.123986
              ],
              [
                105.735467,
                21.123971
              ],
              [
                105.735473,
                21.123904
              ],
              [
                105.735477,
                21.123885
              ],
              [
                105.735483,
                21.123875
              ],
              [
                105.735486,
                21.123859
              ],
              [
                105.735483,
                21.123724
              ],
              [
                105.735483,
                21.123634
              ],
              [
                105.735478,
                21.123563
              ],
              [
                105.735472,
                21.123529
              ],
              [
                105.735469,
                21.123519
              ],
              [
                105.735465,
                21.123505
              ],
              [
                105.735462,
                21.123492
              ],
              [
                105.73545,
                21.12344
              ],
              [
                105.735424,
                21.123378
              ],
              [
                105.735408,
                21.123318
              ],
              [
                105.735383,
                21.123231
              ],
              [
                105.735348,
                21.123141
              ],
              [
                105.73533,
                21.123085
              ],
              [
                105.735323,
                21.123027
              ],
              [
                105.735323,
                21.122987
              ],
              [
                105.735328,
                21.122966
              ],
              [
                105.735333,
                21.122945
              ],
              [
                105.735344,
                21.122924
              ],
              [
                105.735354,
                21.122908
              ],
              [
                105.735408,
                21.122875
              ],
              [
                105.735534,
                21.122821
              ],
              [
                105.735737,
                21.122736
              ],
              [
                105.735958,
                21.122641
              ],
              [
                105.736093,
                21.122583
              ],
              [
                105.736104,
                21.122578
              ],
              [
                105.736111,
                21.122559
              ],
              [
                105.736116,
                21.122547
              ],
              [
                105.736103,
                21.122426
              ],
              [
                105.736062,
                21.122249
              ],
              [
                105.736059,
                21.122239
              ],
              [
                105.736038,
                21.122171
              ],
              [
                105.736022,
                21.122064
              ],
              [
                105.736021,
                21.122059
              ],
              [
                105.736019,
                21.122048
              ],
              [
                105.736017,
                21.122036
              ],
              [
                105.736007,
                21.121987
              ],
              [
                105.73596,
                21.121921
              ],
              [
                105.735885,
                21.121854
              ],
              [
                105.735844,
                21.121823
              ],
              [
                105.735819,
                21.121803
              ],
              [
                105.735798,
                21.12179
              ],
              [
                105.735744,
                21.121757
              ],
              [
                105.735704,
                21.121735
              ],
              [
                105.735704,
                21.121735
              ],
              [
                105.735651,
                21.121744
              ],
              [
                105.735585,
                21.121782
              ],
              [
                105.735548,
                21.121803
              ],
              [
                105.735462,
                21.12182
              ],
              [
                105.735245,
                21.121833
              ],
              [
                105.735245,
                21.121833
              ],
              [
                105.735103,
                21.121854
              ],
              [
                105.735049,
                21.121859
              ],
              [
                105.735049,
                21.121859
              ],
              [
                105.735048,
                21.121859
              ],
              [
                105.734969,
                21.12185
              ],
              [
                105.734783,
                21.121802
              ],
              [
                105.734659,
                21.12179
              ],
              [
                105.734659,
                21.12179
              ],
              [
                105.734544,
                21.121801
              ],
              [
                105.734544,
                21.121801
              ],
              [
                105.734436,
                21.121794
              ],
              [
                105.734435,
                21.121794
              ],
              [
                105.734248,
                21.121761
              ],
              [
                105.734101,
                21.121719
              ],
              [
                105.734006,
                21.121702
              ],
              [
                105.733924,
                21.121705
              ],
              [
                105.733924,
                21.121705
              ],
              [
                105.733089,
                21.122021
              ],
              [
                105.731857,
                21.122104
              ],
              [
                105.732959,
                21.12011
              ],
              [
                105.73389,
                21.118243
              ],
              [
                105.735051,
                21.115808
              ],
              [
                105.735055,
                21.115798
              ],
              [
                105.736079,
                21.113752
              ],
              [
                105.735774,
                21.113599
              ],
              [
                105.735629,
                21.113495
              ],
              [
                105.735437,
                21.113339
              ],
              [
                105.735546,
                21.113236
              ],
              [
                105.736,
                21.112839
              ],
              [
                105.736236,
                21.112628
              ],
              [
                105.736716,
                21.112198
              ],
              [
                105.737227,
                21.111734
              ],
              [
                105.737647,
                21.111375
              ],
              [
                105.738442,
                21.110664
              ],
              [
                105.738936,
                21.110234
              ],
              [
                105.740754,
                21.108592
              ],
              [
                105.741432,
                21.108044
              ],
              [
                105.741467,
                21.108003
              ],
              [
                105.741455,
                21.107994
              ],
              [
                105.736991,
                21.104755
              ],
              [
                105.73629,
                21.105151
              ],
              [
                105.736289,
                21.105153
              ],
              [
                105.732192,
                21.108384
              ],
              [
                105.727618,
                21.11252
              ],
              [
                105.726377,
                21.11399
              ],
              [
                105.724616,
                21.116297
              ],
              [
                105.722554,
                21.11912
              ],
              [
                105.720634,
                21.121274
              ],
              [
                105.718768,
                21.123369
              ],
              [
                105.718692,
                21.124019
              ],
              [
                105.718331,
                21.127136
              ],
              [
                105.718134,
                21.128836
              ],
              [
                105.717763,
                21.131061
              ],
              [
                105.717749,
                21.13338
              ],
              [
                105.717732,
                21.134433
              ],
              [
                105.71771,
                21.135842
              ],
              [
                105.717118,
                21.138427
              ],
              [
                105.71702,
                21.138757
              ],
              [
                105.716656,
                21.139461
              ],
              [
                105.715745,
                21.140698
              ],
              [
                105.715638,
                21.140828
              ],
              [
                105.714573,
                21.141793
              ],
              [
                105.713369,
                21.142515
              ],
              [
                105.712713,
                21.142891
              ],
              [
                105.711828,
                21.143196
              ],
              [
                105.710804,
                21.143373
              ],
              [
                105.709504,
                21.143321
              ],
              [
                105.707562,
                21.143099
              ],
              [
                105.704089,
                21.142147
              ],
              [
                105.702889,
                21.141817
              ],
              [
                105.700059,
                21.141398
              ],
              [
                105.699804,
                21.141388
              ],
              [
                105.69746,
                21.14129
              ],
              [
                105.696357,
                21.141351
              ],
              [
                105.695842,
                21.14138
              ],
              [
                105.695744,
                21.142043
              ],
              [
                105.695768,
                21.14205
              ],
              [
                105.695753,
                21.144173
              ],
              [
                105.695952,
                21.14485
              ],
              [
                105.695964,
                21.14489
              ],
              [
                105.696144,
                21.145081
              ],
              [
                105.696605,
                21.145569
              ],
              [
                105.696892,
                21.145874
              ],
              [
                105.696953,
                21.146218
              ],
              [
                105.696996,
                21.146458
              ],
              [
                105.697051,
                21.146768
              ],
              [
                105.697076,
                21.146904
              ],
              [
                105.69712,
                21.14718
              ],
              [
                105.697284,
                21.14821
              ],
              [
                105.697306,
                21.148345
              ],
              [
                105.69756,
                21.149931
              ],
              [
                105.697781,
                21.151315
              ],
              [
                105.697875,
                21.151898
              ],
              [
                105.697875,
                21.151901
              ],
              [
                105.697991,
                21.152627
              ],
              [
                105.698028,
                21.15286
              ],
              [
                105.698048,
                21.152983
              ],
              [
                105.698086,
                21.153201
              ],
              [
                105.698133,
                21.153481
              ],
              [
                105.698165,
                21.153661
              ],
              [
                105.698219,
                21.153977
              ],
              [
                105.698274,
                21.154304
              ],
              [
                105.698304,
                21.15449
              ],
              [
                105.698336,
                21.154673
              ],
              [
                105.698395,
                21.155017
              ],
              [
                105.698406,
                21.155266
              ],
              [
                105.698431,
                21.155355
              ],
              [
                105.698474,
                21.155588
              ],
              [
                105.698628,
                21.156361
              ],
              [
                105.698628,
                21.156361
              ],
              [
                105.69876,
                21.157021
              ],
              [
                105.698746,
                21.157426
              ],
              [
                105.698766,
                21.157575
              ],
              [
                105.698798,
                21.157855
              ],
              [
                105.698841,
                21.15814
              ],
              [
                105.698861,
                21.158333
              ],
              [
                105.698868,
                21.158658
              ],
              [
                105.698876,
                21.159076
              ],
              [
                105.698917,
                21.159449
              ],
              [
                105.698913,
                21.159821
              ],
              [
                105.698961,
                21.160222
              ],
              [
                105.698962,
                21.160232
              ],
              [
                105.698974,
                21.160328
              ],
              [
                105.699009,
                21.160848
              ],
              [
                105.699036,
                21.161123
              ],
              [
                105.699041,
                21.161182
              ],
              [
                105.699041,
                21.161183
              ],
              [
                105.699066,
                21.161485
              ],
              [
                105.699072,
                21.161556
              ],
              [
                105.699107,
                21.161761
              ],
              [
                105.699109,
                21.161775
              ],
              [
                105.69912,
                21.161842
              ],
              [
                105.699132,
                21.162203
              ],
              [
                105.698679,
                21.162904
              ],
              [
                105.698626,
                21.162947
              ],
              [
                105.698192,
                21.163362
              ],
              [
                105.698106,
                21.163435
              ],
              [
                105.698027,
                21.163551
              ],
              [
                105.69799,
                21.163719
              ],
              [
                105.697952,
                21.163804
              ],
              [
                105.697899,
                21.163929
              ],
              [
                105.697943,
                21.163932
              ],
              [
                105.697948,
                21.163935
              ],
              [
                105.697966,
                21.163946
              ],
              [
                105.69802,
                21.163979
              ],
              [
                105.698033,
                21.163999
              ],
              [
                105.69811,
                21.16411
              ],
              [
                105.698189,
                21.164264
              ],
              [
                105.697745,
                21.165072
              ],
              [
                105.697641,
                21.165259
              ],
              [
                105.697347,
                21.165683
              ],
              [
                105.697344,
                21.165683
              ],
              [
                105.697168,
                21.165845
              ],
              [
                105.697137,
                21.165833
              ],
              [
                105.697092,
                21.165825
              ],
              [
                105.69705,
                21.165834
              ],
              [
                105.697053,
                21.165853
              ],
              [
                105.697067,
                21.165944
              ],
              [
                105.697063,
                21.165992
              ],
              [
                105.697062,
                21.166008
              ],
              [
                105.697055,
                21.166111
              ],
              [
                105.697082,
                21.166102
              ],
              [
                105.69721,
                21.16606
              ],
              [
                105.69727,
                21.166038
              ],
              [
                105.697329,
                21.166017
              ],
              [
                105.697383,
                21.165997
              ],
              [
                105.697384,
                21.165997
              ],
              [
                105.697538,
                21.165942
              ],
              [
                105.697716,
                21.165879
              ],
              [
                105.697912,
                21.165806
              ],
              [
                105.698135,
                21.165722
              ],
              [
                105.69823,
                21.165683
              ],
              [
                105.698368,
                21.165633
              ],
              [
                105.698484,
                21.165593
              ],
              [
                105.698589,
                21.165564
              ],
              [
                105.698661,
                21.165548
              ],
              [
                105.698826,
                21.165508
              ],
              [
                105.698979,
                21.165475
              ],
              [
                105.699114,
                21.16545
              ],
              [
                105.699219,
                21.16543
              ],
              [
                105.699272,
                21.16542
              ],
              [
                105.699354,
                21.165401
              ],
              [
                105.699451,
                21.165369
              ],
              [
                105.699589,
                21.165325
              ],
              [
                105.699713,
                21.165285
              ],
              [
                105.699801,
                21.165251
              ],
              [
                105.70005,
                21.165166
              ],
              [
                105.700411,
                21.165039
              ],
              [
                105.700667,
                21.164949
              ],
              [
                105.700924,
                21.164859
              ],
              [
                105.701253,
                21.164749
              ],
              [
                105.701292,
                21.16474
              ],
              [
                105.701353,
                21.164724
              ],
              [
                105.701353,
                21.164725
              ],
              [
                105.701367,
                21.164767
              ],
              [
                105.701372,
                21.164782
              ],
              [
                105.701377,
                21.16486
              ],
              [
                105.701375,
                21.164939
              ],
              [
                105.701375,
                21.164965
              ],
              [
                105.701375,
                21.164972
              ],
              [
                105.701378,
                21.165004
              ],
              [
                105.701383,
                21.165046
              ],
              [
                105.701392,
                21.16514
              ],
              [
                105.701394,
                21.165204
              ],
              [
                105.701379,
                21.165335
              ],
              [
                105.701361,
                21.165487
              ],
              [
                105.701351,
                21.165571
              ],
              [
                105.701343,
                21.165683
              ],
              [
                105.701334,
                21.165813
              ],
              [
                105.701311,
                21.166041
              ],
              [
                105.701293,
                21.166249
              ],
              [
                105.701279,
                21.166465
              ],
              [
                105.701278,
                21.166478
              ],
              [
                105.701278,
                21.166485
              ],
              [
                105.701277,
                21.166487
              ],
              [
                105.701276,
                21.166505
              ],
              [
                105.701264,
                21.166678
              ],
              [
                105.701371,
                21.168041
              ],
              [
                105.701737,
                21.171166
              ],
              [
                105.701944,
                21.172915
              ],
              [
                105.702273,
                21.174578
              ],
              [
                105.702523,
                21.175517
              ],
              [
                105.702662,
                21.176039
              ],
              [
                105.703154,
                21.177156
              ],
              [
                105.703832,
                21.178507
              ],
              [
                105.704188,
                21.179309
              ],
              [
                105.704957,
                21.180353
              ],
              [
                105.70577,
                21.181299
              ],
              [
                105.707385,
                21.183113
              ],
              [
                105.707398,
                21.183403
              ],
              [
                105.707428,
                21.183603
              ],
              [
                105.707506,
                21.183691
              ],
              [
                105.707517,
                21.183717
              ],
              [
                105.707536,
                21.183765
              ],
              [
                105.707558,
                21.183809
              ],
              [
                105.707596,
                21.183862
              ],
              [
                105.707647,
                21.183926
              ],
              [
                105.707695,
                21.183969
              ],
              [
                105.707732,
                21.183999
              ],
              [
                105.707772,
                21.184024
              ],
              [
                105.707805,
                21.184038
              ],
              [
                105.70784,
                21.184045
              ],
              [
                105.707883,
                21.184054
              ],
              [
                105.7079,
                21.184062
              ],
              [
                105.707936,
                21.184086
              ],
              [
                105.708,
                21.184137
              ],
              [
                105.708122,
                21.184256
              ],
              [
                105.708158,
                21.184286
              ],
              [
                105.708183,
                21.184302
              ],
              [
                105.708213,
                21.184337
              ],
              [
                105.708285,
                21.184453
              ],
              [
                105.708335,
                21.18454
              ],
              [
                105.708362,
                21.184582
              ],
              [
                105.708409,
                21.18464
              ],
              [
                105.708437,
                21.184697
              ],
              [
                105.70847,
                21.184771
              ],
              [
                105.7085,
                21.184833
              ],
              [
                105.710156,
                21.186124
              ],
              [
                105.711866,
                21.187884
              ],
              [
                105.713003,
                21.186069
              ],
              [
                105.713595,
                21.185229
              ],
              [
                105.714224,
                21.184471
              ],
              [
                105.714918,
                21.183747
              ],
              [
                105.716515,
                21.182275
              ],
              [
                105.71656,
                21.182228
              ],
              [
                105.716934,
                21.181876
              ],
              [
                105.717766,
                21.181113
              ],
              [
                105.718751,
                21.180206
              ],
              [
                105.719755,
                21.179274
              ],
              [
                105.72102,
                21.178114
              ],
              [
                105.722214,
                21.177017
              ],
              [
                105.72235,
                21.176892
              ],
              [
                105.723168,
                21.176138
              ],
              [
                105.724204,
                21.17519
              ],
              [
                105.724789,
                21.174638
              ],
              [
                105.724925,
                21.174518
              ],
              [
                105.724925,
                21.174518
              ]
            ]
          ]
        ]
      },
      "properties": {
        "code": "09022",
        "name": "Mê Linh",
        "nameEn": "Me Linh",
        "fullName": "Xã Mê Linh",
        "fullNameEn": "Me Linh Commune",
        "codeName": "me_linh",
        "postalCode": "12923",
        "postalCodePrefix": "",
        "gisServerId": "diaphanhanhchinhcapxa_2025.3248",
        "areaKm2": 34.97
      }
    }
  ]
}