{
  "type": "FeatureCollection",
  "bbox": [
    105.75366,
    20.959396,
    105.799194,
    20.989082
  ],
  "features": [
    {
      "type": "Feature",
      "id": "09556",
      "bbox": [
        105.75366,
        20.959396,
        105.799194,
        20.989082
      ],
      "geometry": {
        "type": "MultiPolygon",
        "coordinates": [
          [
            [
              [
                105.79238,
                20.983764
              ],
              [
                105.79238,
                20.983764
              ],
              [
                105.792379,
                20.983763
              ],
              [
                105.79238,
                20.983762
              ],
              [
                105.79244,
                20.983692
              ],
              [
                105.793655,
                20.982265
              ],
              [
                105.794172,
                20.981632
              ],
              [
                105.794196,
                20.981601
              ],
              [
                105.794838,
                20.980801
              ],
              [
                105.794881,
                20.980748
              ],
              [
                105.794908,
                20.980713
              ],
              [
                105.794927,
                20.980691
              ],
              [
                105.794928,
                20.980689
              ],
              [
                105.795093,
                20.980484
              ],
              [
                105.795345,
                20.9802
              ],
              [
                105.795381,
                20.980159
              ],
              [
                105.795648,
                20.979827
              ],
              [
                105.795746,
                20.979706
              ],
              [
                105.795818,
                20.979623
              ],
              [
                105.796171,
                20.979211
              ],
              [
                105.796232,
                20.97914
              ],
              [
                105.796413,
                20.97893
              ],
              [
                105.796431,
                20.97891
              ],
              [
                105.796617,
                20.978697
              ],
              [
                105.796699,
                20.978603
              ],
              [
                105.796766,
                20.978526
              ],
              [
                105.797015,
                20.978241
              ],
              [
                105.797083,
                20.978164
              ],
              [
                105.797086,
                20.978161
              ],
              [
                105.797212,
                20.978006
              ],
              [
                105.797269,
                20.977936
              ],
              [
                105.797277,
                20.977926
              ],
              [
                105.797335,
                20.977945
              ],
              [
                105.797367,
                20.977955
              ],
              [
                105.797512,
                20.977979
              ],
              [
                105.797562,
                20.977988
              ],
              [
                105.798148,
                20.978087
              ],
              [
                105.798548,
                20.978155
              ],
              [
                105.798644,
                20.978165
              ],
              [
                105.798667,
                20.978168
              ],
              [
                105.798671,
                20.978148
              ],
              [
                105.798733,
                20.97786
              ],
              [
                105.798879,
                20.977157
              ],
              [
                105.798923,
                20.976989
              ],
              [
                105.798939,
                20.976849
              ],
              [
                105.798945,
                20.976774
              ],
              [
                105.798969,
                20.976529
              ],
              [
                105.798968,
                20.976449
              ],
              [
                105.798962,
                20.97643
              ],
              [
                105.798927,
                20.97636
              ],
              [
                105.798909,
                20.976296
              ],
              [
                105.798908,
                20.976264
              ],
              [
                105.798908,
                20.976263
              ],
              [
                105.798907,
                20.976176
              ],
              [
                105.798917,
                20.976058
              ],
              [
                105.798936,
                20.975981
              ],
              [
                105.798996,
                20.975781
              ],
              [
                105.799026,
                20.975702
              ],
              [
                105.799074,
                20.975628
              ],
              [
                105.799085,
                20.975597
              ],
              [
                105.799194,
                20.975328
              ],
              [
                105.799162,
                20.975303
              ],
              [
                105.799129,
                20.975277
              ],
              [
                105.798982,
                20.975235
              ],
              [
                105.798968,
                20.975231
              ],
              [
                105.798908,
                20.975293
              ],
              [
                105.798903,
                20.975301
              ],
              [
                105.798876,
                20.975289
              ],
              [
                105.798694,
                20.975251
              ],
              [
                105.798557,
                20.975222
              ],
              [
                105.798254,
                20.975158
              ],
              [
                105.797893,
                20.975117
              ],
              [
                105.797725,
                20.975085
              ],
              [
                105.797427,
                20.975033
              ],
              [
                105.797305,
                20.975012
              ],
              [
                105.797055,
                20.974967
              ],
              [
                105.796836,
                20.974925
              ],
              [
                105.796702,
                20.9749
              ],
              [
                105.796453,
                20.974849
              ],
              [
                105.796387,
                20.974831
              ],
              [
                105.796443,
                20.974607
              ],
              [
                105.79648,
                20.974376
              ],
              [
                105.796507,
                20.974187
              ],
              [
                105.796558,
                20.97379
              ],
              [
                105.796559,
                20.97378
              ],
              [
                105.796481,
                20.973806
              ],
              [
                105.796453,
                20.973815
              ],
              [
                105.796421,
                20.973826
              ],
              [
                105.796282,
                20.973805
              ],
              [
                105.796189,
                20.97379
              ],
              [
                105.796105,
                20.973777
              ],
              [
                105.796001,
                20.973763
              ],
              [
                105.795612,
                20.973709
              ],
              [
                105.795223,
                20.973681
              ],
              [
                105.794889,
                20.973659
              ],
              [
                105.794889,
                20.973661
              ],
              [
                105.794887,
                20.973708
              ],
              [
                105.794887,
                20.973724
              ],
              [
                105.794885,
                20.973786
              ],
              [
                105.794885,
                20.973793
              ],
              [
                105.794879,
                20.974008
              ],
              [
                105.794878,
                20.974026
              ],
              [
                105.794878,
                20.974045
              ],
              [
                105.794877,
                20.974081
              ],
              [
                105.794876,
                20.974092
              ],
              [
                105.794876,
                20.974106
              ],
              [
                105.794861,
                20.974106
              ],
              [
                105.794819,
                20.974105
              ],
              [
                105.794733,
                20.974089
              ],
              [
                105.794496,
                20.974028
              ],
              [
                105.794252,
                20.973966
              ],
              [
                105.793989,
                20.973898
              ],
              [
                105.793872,
                20.973868
              ],
              [
                105.793702,
                20.973828
              ],
              [
                105.793712,
                20.973768
              ],
              [
                105.793724,
                20.973719
              ],
              [
                105.793742,
                20.973633
              ],
              [
                105.793754,
                20.973581
              ],
              [
                105.793887,
                20.973395
              ],
              [
                105.793985,
                20.973194
              ],
              [
                105.794063,
                20.973009
              ],
              [
                105.794064,
                20.973007
              ],
              [
                105.794079,
                20.972964
              ],
              [
                105.79409,
                20.972895
              ],
              [
                105.794098,
                20.972813
              ],
              [
                105.794114,
                20.972662
              ],
              [
                105.794115,
                20.972656
              ],
              [
                105.794084,
                20.972661
              ],
              [
                105.794052,
                20.972601
              ],
              [
                105.793973,
                20.972545
              ],
              [
                105.793931,
                20.972397
              ],
              [
                105.793955,
                20.972048
              ],
              [
                105.793956,
                20.972025
              ],
              [
                105.793943,
                20.97196
              ],
              [
                105.793923,
                20.97192
              ],
              [
                105.79381,
                20.971694
              ],
              [
                105.793743,
                20.971502
              ],
              [
                105.793711,
                20.971459
              ],
              [
                105.793697,
                20.971441
              ],
              [
                105.793665,
                20.971319
              ],
              [
                105.793573,
                20.971168
              ],
              [
                105.793269,
                20.970726
              ],
              [
                105.793168,
                20.970563
              ],
              [
                105.792894,
                20.970316
              ],
              [
                105.792131,
                20.96976
              ],
              [
                105.79208,
                20.969715
              ],
              [
                105.792352,
                20.969266
              ],
              [
                105.792747,
                20.968709
              ],
              [
                105.792832,
                20.968617
              ],
              [
                105.792875,
                20.968548
              ],
              [
                105.792926,
                20.968424
              ],
              [
                105.793081,
                20.968203
              ],
              [
                105.793873,
                20.967084
              ],
              [
                105.793885,
                20.967067
              ],
              [
                105.79418,
                20.966662
              ],
              [
                105.794206,
                20.966626
              ],
              [
                105.794211,
                20.966619
              ],
              [
                105.794229,
                20.966595
              ],
              [
                105.794376,
                20.966408
              ],
              [
                105.794611,
                20.966128
              ],
              [
                105.794647,
                20.966085
              ],
              [
                105.794679,
                20.966047
              ],
              [
                105.794715,
                20.966005
              ],
              [
                105.795125,
                20.965486
              ],
              [
                105.79525,
                20.965318
              ],
              [
                105.79529,
                20.96526
              ],
              [
                105.796843,
                20.963382
              ],
              [
                105.796705,
                20.963123
              ],
              [
                105.796687,
                20.963069
              ],
              [
                105.796687,
                20.963068
              ],
              [
                105.796666,
                20.963017
              ],
              [
                105.796623,
                20.962926
              ],
              [
                105.796617,
                20.962914
              ],
              [
                105.796613,
                20.962905
              ],
              [
                105.796541,
                20.962753
              ],
              [
                105.796534,
                20.962738
              ],
              [
                105.796526,
                20.962721
              ],
              [
                105.796471,
                20.962603
              ],
              [
                105.796384,
                20.962416
              ],
              [
                105.796343,
                20.962326
              ],
              [
                105.796339,
                20.962319
              ],
              [
                105.796329,
                20.962297
              ],
              [
                105.79632,
                20.962277
              ],
              [
                105.796202,
                20.962025
              ],
              [
                105.796156,
                20.961869
              ],
              [
                105.796142,
                20.961817
              ],
              [
                105.796137,
                20.961769
              ],
              [
                105.796145,
                20.961682
              ],
              [
                105.796164,
                20.961566
              ],
              [
                105.796166,
                20.961529
              ],
              [
                105.796167,
                20.961522
              ],
              [
                105.796163,
                20.961489
              ],
              [
                105.796184,
                20.96144
              ],
              [
                105.796196,
                20.961411
              ],
              [
                105.796202,
                20.961398
              ],
              [
                105.796252,
                20.961245
              ],
              [
                105.796294,
                20.96112
              ],
              [
                105.796294,
                20.96112
              ],
              [
                105.796293,
                20.96112
              ],
              [
                105.796173,
                20.961075
              ],
              [
                105.796092,
                20.961025
              ],
              [
                105.795975,
                20.960943
              ],
              [
                105.795867,
                20.960845
              ],
              [
                105.795762,
                20.96071
              ],
              [
                105.795681,
                20.96057
              ],
              [
                105.795621,
                20.960453
              ],
              [
                105.795554,
                20.960344
              ],
              [
                105.795469,
                20.960223
              ],
              [
                105.795303,
                20.960032
              ],
              [
                105.795162,
                20.959949
              ],
              [
                105.795026,
                20.95988
              ],
              [
                105.794844,
                20.959797
              ],
              [
                105.794654,
                20.959755
              ],
              [
                105.794473,
                20.959716
              ],
              [
                105.794278,
                20.959683
              ],
              [
                105.794041,
                20.959667
              ],
              [
                105.793898,
                20.959689
              ],
              [
                105.79376,
                20.959709
              ],
              [
                105.793663,
                20.959715
              ],
              [
                105.793276,
                20.95971
              ],
              [
                105.793114,
                20.959704
              ],
              [
                105.792868,
                20.959694
              ],
              [
                105.792538,
                20.959599
              ],
              [
                105.792344,
                20.959538
              ],
              [
                105.792193,
                20.959492
              ],
              [
                105.792066,
                20.959454
              ],
              [
                105.791902,
                20.959423
              ],
              [
                105.791728,
                20.959396
              ],
              [
                105.79143,
                20.959431
              ],
              [
                105.791296,
                20.959454
              ],
              [
                105.791173,
                20.959475
              ],
              [
                105.791062,
                20.959491
              ],
              [
                105.79094,
                20.959512
              ],
              [
                105.790763,
                20.959572
              ],
              [
                105.79062,
                20.959629
              ],
              [
                105.790482,
                20.959679
              ],
              [
                105.790324,
                20.959739
              ],
              [
                105.790165,
                20.959813
              ],
              [
                105.790009,
                20.9599
              ],
              [
                105.789828,
                20.960011
              ],
              [
                105.78965,
                20.960132
              ],
              [
                105.78952,
                20.960213
              ],
              [
                105.78939,
                20.960304
              ],
              [
                105.789228,
                20.960422
              ],
              [
                105.789055,
                20.960529
              ],
              [
                105.788915,
                20.96063
              ],
              [
                105.788811,
                20.960704
              ],
              [
                105.78868,
                20.960782
              ],
              [
                105.78855,
                20.960853
              ],
              [
                105.788433,
                20.96092
              ],
              [
                105.788307,
                20.960986
              ],
              [
                105.788181,
                20.961041
              ],
              [
                105.788002,
                20.961112
              ],
              [
                105.787811,
                20.961162
              ],
              [
                105.787663,
                20.961191
              ],
              [
                105.787504,
                20.961217
              ],
              [
                105.787355,
                20.961248
              ],
              [
                105.787183,
                20.961292
              ],
              [
                105.787004,
                20.961384
              ],
              [
                105.786877,
                20.961512
              ],
              [
                105.7868,
                20.961639
              ],
              [
                105.786748,
                20.961747
              ],
              [
                105.786686,
                20.961896
              ],
              [
                105.786642,
                20.962044
              ],
              [
                105.786633,
                20.962107
              ],
              [
                105.786619,
                20.962198
              ],
              [
                105.786621,
                20.962381
              ],
              [
                105.786636,
                20.962494
              ],
              [
                105.78665,
                20.962602
              ],
              [
                105.78668,
                20.962762
              ],
              [
                105.786732,
                20.962944
              ],
              [
                105.786797,
                20.963145
              ],
              [
                105.786842,
                20.963268
              ],
              [
                105.786711,
                20.963278
              ],
              [
                105.786673,
                20.963282
              ],
              [
                105.786661,
                20.963284
              ],
              [
                105.786421,
                20.963312
              ],
              [
                105.786417,
                20.96332
              ],
              [
                105.786414,
                20.963328
              ],
              [
                105.786403,
                20.963332
              ],
              [
                105.78634,
                20.963331
              ],
              [
                105.786157,
                20.963329
              ],
              [
                105.786138,
                20.963328
              ],
              [
                105.786123,
                20.963328
              ],
              [
                105.786106,
                20.963328
              ],
              [
                105.786017,
                20.963327
              ],
              [
                105.785861,
                20.963325
              ],
              [
                105.785813,
                20.963325
              ],
              [
                105.785651,
                20.963326
              ],
              [
                105.785641,
                20.963328
              ],
              [
                105.785587,
                20.96335
              ],
              [
                105.785514,
                20.963348
              ],
              [
                105.78543,
                20.963348
              ],
              [
                105.785422,
                20.963381
              ],
              [
                105.78533,
                20.963391
              ],
              [
                105.785204,
                20.963417
              ],
              [
                105.785096,
                20.963436
              ],
              [
                105.7851,
                20.963455
              ],
              [
                105.785061,
                20.963471
              ],
              [
                105.784957,
                20.963481
              ],
              [
                105.784942,
                20.963482
              ],
              [
                105.784887,
                20.963488
              ],
              [
                105.784865,
                20.963489
              ],
              [
                105.784748,
                20.963498
              ],
              [
                105.784711,
                20.963491
              ],
              [
                105.784649,
                20.96348
              ],
              [
                105.784664,
                20.963441
              ],
              [
                105.784678,
                20.963404
              ],
              [
                105.784716,
                20.963203
              ],
              [
                105.784727,
                20.963143
              ],
              [
                105.784679,
                20.963127
              ],
              [
                105.784651,
                20.963118
              ],
              [
                105.784334,
                20.963016
              ],
              [
                105.784281,
                20.962999
              ],
              [
                105.784234,
                20.962983
              ],
              [
                105.784038,
                20.962915
              ],
              [
                105.783989,
                20.962898
              ],
              [
                105.783943,
                20.962883
              ],
              [
                105.783746,
                20.962821
              ],
              [
                105.783701,
                20.962806
              ],
              [
                105.783659,
                20.962793
              ],
              [
                105.783538,
                20.962754
              ],
              [
                105.783431,
                20.96272
              ],
              [
                105.783411,
                20.962714
              ],
              [
                105.783367,
                20.962696
              ],
              [
                105.783185,
                20.962624
              ],
              [
                105.783167,
                20.962623
              ],
              [
                105.78314,
                20.962622
              ],
              [
                105.783132,
                20.962622
              ],
              [
                105.783104,
                20.96262
              ],
              [
                105.783042,
                20.962618
              ],
              [
                105.783022,
                20.962617
              ],
              [
                105.78205,
                20.962793
              ],
              [
                105.781264,
                20.962883
              ],
              [
                105.78069,
                20.962958
              ],
              [
                105.780213,
                20.963085
              ],
              [
                105.78001,
                20.963116
              ],
              [
                105.779566,
                20.963173
              ],
              [
                105.779365,
                20.963174
              ],
              [
                105.779069,
                20.96318
              ],
              [
                105.778853,
                20.963185
              ],
              [
                105.778781,
                20.963194
              ],
              [
                105.778742,
                20.963226
              ],
              [
                105.778743,
                20.963228
              ],
              [
                105.778469,
                20.96331
              ],
              [
                105.778049,
                20.963454
              ],
              [
                105.777902,
                20.963523
              ],
              [
                105.777855,
                20.96356
              ],
              [
                105.777723,
                20.963705
              ],
              [
                105.777529,
                20.963918
              ],
              [
                105.777435,
                20.964078
              ],
              [
                105.777401,
                20.964034
              ],
              [
                105.777382,
                20.964011
              ],
              [
                105.777308,
                20.96394
              ],
              [
                105.776803,
                20.963549
              ],
              [
                105.776214,
                20.963082
              ],
              [
                105.775495,
                20.96246
              ],
              [
                105.775242,
                20.962269
              ],
              [
                105.775169,
                20.962215
              ],
              [
                105.775158,
                20.962206
              ],
              [
                105.775087,
                20.962153
              ],
              [
                105.774555,
                20.961753
              ],
              [
                105.7743,
                20.961562
              ],
              [
                105.773934,
                20.961277
              ],
              [
                105.773869,
                20.961227
              ],
              [
                105.77383,
                20.961196
              ],
              [
                105.773818,
                20.961187
              ],
              [
                105.773287,
                20.960769
              ],
              [
                105.772826,
                20.960398
              ],
              [
                105.772715,
                20.960313
              ],
              [
                105.772428,
                20.960094
              ],
              [
                105.772356,
                20.960037
              ],
              [
                105.772177,
                20.959893
              ],
              [
                105.772173,
                20.959978
              ],
              [
                105.772173,
                20.959983
              ],
              [
                105.77217,
                20.960045
              ],
              [
                105.77217,
                20.960061
              ],
              [
                105.772166,
                20.960219
              ],
              [
                105.772165,
                20.960263
              ],
              [
                105.772163,
                20.960341
              ],
              [
                105.772161,
                20.960457
              ],
              [
                105.772159,
                20.960553
              ],
              [
                105.772156,
                20.960663
              ],
              [
                105.772154,
                20.960782
              ],
              [
                105.772153,
                20.960822
              ],
              [
                105.772152,
                20.960876
              ],
              [
                105.772152,
                20.960913
              ],
              [
                105.772152,
                20.960922
              ],
              [
                105.772151,
                20.961004
              ],
              [
                105.772149,
                20.961121
              ],
              [
                105.772149,
                20.961128
              ],
              [
                105.772147,
                20.961313
              ],
              [
                105.772145,
                20.961422
              ],
              [
                105.772145,
                20.961424
              ],
              [
                105.77214,
                20.961592
              ],
              [
                105.772136,
                20.961708
              ],
              [
                105.772136,
                20.961714
              ],
              [
                105.772135,
                20.961779
              ],
              [
                105.772133,
                20.961894
              ],
              [
                105.772132,
                20.961964
              ],
              [
                105.772128,
                20.962074
              ],
              [
                105.772125,
                20.962182
              ],
              [
                105.772121,
                20.962298
              ],
              [
                105.772121,
                20.9623
              ],
              [
                105.772115,
                20.962325
              ],
              [
                105.772105,
                20.962373
              ],
              [
                105.772098,
                20.962406
              ],
              [
                105.77208,
                20.962436
              ],
              [
                105.772064,
                20.962458
              ],
              [
                105.772024,
                20.962514
              ],
              [
                105.771992,
                20.962558
              ],
              [
                105.771906,
                20.962657
              ],
              [
                105.771877,
                20.96269
              ],
              [
                105.77186,
                20.96271
              ],
              [
                105.77185,
                20.962722
              ],
              [
                105.771829,
                20.962745
              ],
              [
                105.771789,
                20.96279
              ],
              [
                105.771784,
                20.962795
              ],
              [
                105.77162,
                20.962978
              ],
              [
                105.771543,
                20.963063
              ],
              [
                105.771528,
                20.96308
              ],
              [
                105.77152,
                20.963088
              ],
              [
                105.771474,
                20.963138
              ],
              [
                105.77144,
                20.963174
              ],
              [
                105.771419,
                20.963197
              ],
              [
                105.771367,
                20.963252
              ],
              [
                105.771323,
                20.963301
              ],
              [
                105.771313,
                20.963311
              ],
              [
                105.77126,
                20.963375
              ],
              [
                105.771249,
                20.963387
              ],
              [
                105.771192,
                20.963455
              ],
              [
                105.771063,
                20.963597
              ],
              [
                105.770962,
                20.96371
              ],
              [
                105.770956,
                20.963716
              ],
              [
                105.770805,
                20.963884
              ],
              [
                105.770797,
                20.963893
              ],
              [
                105.770722,
                20.963977
              ],
              [
                105.770551,
                20.964169
              ],
              [
                105.77055,
                20.96417
              ],
              [
                105.770548,
                20.964173
              ],
              [
                105.770501,
                20.964225
              ],
              [
                105.770437,
                20.964298
              ],
              [
                105.770391,
                20.964349
              ],
              [
                105.770357,
                20.964388
              ],
              [
                105.770133,
                20.964635
              ],
              [
                105.770132,
                20.964636
              ],
              [
                105.770127,
                20.964642
              ],
              [
                105.769971,
                20.964822
              ],
              [
                105.76993,
                20.96487
              ],
              [
                105.769905,
                20.964898
              ],
              [
                105.76987,
                20.964935
              ],
              [
                105.769802,
                20.965007
              ],
              [
                105.769729,
                20.965086
              ],
              [
                105.769704,
                20.965112
              ],
              [
                105.769682,
                20.965137
              ],
              [
                105.769532,
                20.96531
              ],
              [
                105.769509,
                20.965335
              ],
              [
                105.769487,
                20.965358
              ],
              [
                105.769286,
                20.965568
              ],
              [
                105.769194,
                20.965668
              ],
              [
                105.768924,
                20.965458
              ],
              [
                105.76873,
                20.965309
              ],
              [
                105.767678,
                20.964486
              ],
              [
                105.767573,
                20.964405
              ],
              [
                105.767486,
                20.964336
              ],
              [
                105.76742,
                20.964284
              ],
              [
                105.767229,
                20.964136
              ],
              [
                105.767226,
                20.964132
              ],
              [
                105.767053,
                20.963998
              ],
              [
                105.766818,
                20.963815
              ],
              [
                105.766544,
                20.963602
              ],
              [
                105.766224,
                20.963351
              ],
              [
                105.766042,
                20.963209
              ],
              [
                105.765514,
                20.962796
              ],
              [
                105.764995,
                20.962384
              ],
              [
                105.764984,
                20.962378
              ],
              [
                105.76492,
                20.962327
              ],
              [
                105.764455,
                20.96262
              ],
              [
                105.762436,
                20.963756
              ],
              [
                105.759607,
                20.96537
              ],
              [
                105.759404,
                20.965486
              ],
              [
                105.758845,
                20.965803
              ],
              [
                105.75612,
                20.967288
              ],
              [
                105.754033,
                20.968438
              ],
              [
                105.75366,
                20.968662
              ],
              [
                105.753894,
                20.969051
              ],
              [
                105.754438,
                20.969896
              ],
              [
                105.754488,
                20.969968
              ],
              [
                105.754535,
                20.970036
              ],
              [
                105.754586,
                20.970109
              ],
              [
                105.75464,
                20.970182
              ],
              [
                105.754694,
                20.970253
              ],
              [
                105.754747,
                20.970323
              ],
              [
                105.754802,
                20.970396
              ],
              [
                105.754848,
                20.970457
              ],
              [
                105.754893,
                20.970515
              ],
              [
                105.754932,
                20.970564
              ],
              [
                105.754973,
                20.970615
              ],
              [
                105.755033,
                20.970689
              ],
              [
                105.755089,
                20.970757
              ],
              [
                105.755143,
                20.970823
              ],
              [
                105.755215,
                20.970905
              ],
              [
                105.75529,
                20.970987
              ],
              [
                105.75535,
                20.971051
              ],
              [
                105.755402,
                20.971107
              ],
              [
                105.75545,
                20.971157
              ],
              [
                105.755516,
                20.971223
              ],
              [
                105.755541,
                20.971248
              ],
              [
                105.755865,
                20.971573
              ],
              [
                105.75588,
                20.971587
              ],
              [
                105.755947,
                20.971649
              ],
              [
                105.756017,
                20.971714
              ],
              [
                105.756099,
                20.971784
              ],
              [
                105.756184,
                20.971858
              ],
              [
                105.756251,
                20.971913
              ],
              [
                105.756322,
                20.971971
              ],
              [
                105.756408,
                20.972041
              ],
              [
                105.756488,
                20.972104
              ],
              [
                105.756557,
                20.972158
              ],
              [
                105.756626,
                20.972212
              ],
              [
                105.756698,
                20.972268
              ],
              [
                105.75677,
                20.972324
              ],
              [
                105.756843,
                20.97238
              ],
              [
                105.756898,
                20.972422
              ],
              [
                105.75695,
                20.972463
              ],
              [
                105.757017,
                20.972515
              ],
              [
                105.757083,
                20.972566
              ],
              [
                105.757163,
                20.972629
              ],
              [
                105.757238,
                20.972688
              ],
              [
                105.757314,
                20.972748
              ],
              [
                105.757392,
                20.97281
              ],
              [
                105.757455,
                20.972859
              ],
              [
                105.757518,
                20.972909
              ],
              [
                105.757565,
                20.972946
              ],
              [
                105.757621,
                20.972991
              ],
              [
                105.757695,
                20.973051
              ],
              [
                105.757751,
                20.973096
              ],
              [
                105.757801,
                20.973136
              ],
              [
                105.757877,
                20.973195
              ],
              [
                105.757942,
                20.973245
              ],
              [
                105.758007,
                20.973295
              ],
              [
                105.758073,
                20.973345
              ],
              [
                105.758138,
                20.973395
              ],
              [
                105.758187,
                20.973434
              ],
              [
                105.758248,
                20.973478
              ],
              [
                105.758281,
                20.973503
              ],
              [
                105.758488,
                20.973669
              ],
              [
                105.758507,
                20.973683
              ],
              [
                105.758556,
                20.973721
              ],
              [
                105.758621,
                20.973771
              ],
              [
                105.758687,
                20.973823
              ],
              [
                105.758735,
                20.97386
              ],
              [
                105.758785,
                20.9739
              ],
              [
                105.758851,
                20.973951
              ],
              [
                105.758917,
                20.974003
              ],
              [
                105.758982,
                20.974053
              ],
              [
                105.759031,
                20.974091
              ],
              [
                105.759088,
                20.974134
              ],
              [
                105.759155,
                20.974186
              ],
              [
                105.759206,
                20.974225
              ],
              [
                105.759257,
                20.974265
              ],
              [
                105.759323,
                20.974316
              ],
              [
                105.759387,
                20.974366
              ],
              [
                105.759452,
                20.974417
              ],
              [
                105.759501,
                20.974455
              ],
              [
                105.759568,
                20.974507
              ],
              [
                105.759617,
                20.974546
              ],
              [
                105.759671,
                20.974589
              ],
              [
                105.759744,
                20.974646
              ],
              [
                105.759828,
                20.974712
              ],
              [
                105.759931,
                20.974792
              ],
              [
                105.760049,
                20.974884
              ],
              [
                105.760153,
                20.974965
              ],
              [
                105.760256,
                20.975045
              ],
              [
                105.760378,
                20.975141
              ],
              [
                105.760474,
                20.975216
              ],
              [
                105.760549,
                20.975274
              ],
              [
                105.760624,
                20.975332
              ],
              [
                105.760681,
                20.975376
              ],
              [
                105.760733,
                20.975417
              ],
              [
                105.760802,
                20.975472
              ],
              [
                105.760872,
                20.975526
              ],
              [
                105.760939,
                20.975579
              ],
              [
                105.761005,
                20.975631
              ],
              [
                105.761086,
                20.975694
              ],
              [
                105.761159,
                20.975752
              ],
              [
                105.761243,
                20.975817
              ],
              [
                105.761287,
                20.975852
              ],
              [
                105.761628,
                20.976114
              ],
              [
                105.761644,
                20.976126
              ],
              [
                105.761722,
                20.976187
              ],
              [
                105.76177,
                20.976224
              ],
              [
                105.761819,
                20.976262
              ],
              [
                105.761883,
                20.976312
              ],
              [
                105.761947,
                20.976361
              ],
              [
                105.762025,
                20.976422
              ],
              [
                105.762132,
                20.976506
              ],
              [
                105.762254,
                20.976602
              ],
              [
                105.762356,
                20.976681
              ],
              [
                105.76243,
                20.976738
              ],
              [
                105.762523,
                20.976811
              ],
              [
                105.762631,
                20.976896
              ],
              [
                105.762711,
                20.976959
              ],
              [
                105.762776,
                20.977009
              ],
              [
                105.762841,
                20.97706
              ],
              [
                105.76289,
                20.977098
              ],
              [
                105.762937,
                20.977135
              ],
              [
                105.762999,
                20.977182
              ],
              [
                105.763091,
                20.977254
              ],
              [
                105.763213,
                20.97735
              ],
              [
                105.763336,
                20.977446
              ],
              [
                105.763428,
                20.977518
              ],
              [
                105.763483,
                20.97756
              ],
              [
                105.763541,
                20.977605
              ],
              [
                105.763628,
                20.977671
              ],
              [
                105.763715,
                20.977738
              ],
              [
                105.763802,
                20.977804
              ],
              [
                105.763851,
                20.977842
              ],
              [
                105.763972,
                20.977939
              ],
              [
                105.763871,
                20.978024
              ],
              [
                105.76383,
                20.978053
              ],
              [
                105.763758,
                20.978105
              ],
              [
                105.763683,
                20.978158
              ],
              [
                105.7636,
                20.978217
              ],
              [
                105.763495,
                20.978292
              ],
              [
                105.763401,
                20.978358
              ],
              [
                105.763336,
                20.978403
              ],
              [
                105.763261,
                20.978454
              ],
              [
                105.763182,
                20.978507
              ],
              [
                105.7631,
                20.97856
              ],
              [
                105.763022,
                20.978612
              ],
              [
                105.762928,
                20.978679
              ],
              [
                105.762844,
                20.97874
              ],
              [
                105.76276,
                20.978799
              ],
              [
                105.762689,
                20.97885
              ],
              [
                105.762629,
                20.978892
              ],
              [
                105.76254,
                20.978955
              ],
              [
                105.762453,
                20.979017
              ],
              [
                105.762394,
                20.979059
              ],
              [
                105.762339,
                20.979098
              ],
              [
                105.762274,
                20.979145
              ],
              [
                105.762211,
                20.97919
              ],
              [
                105.762136,
                20.979243
              ],
              [
                105.762036,
                20.979314
              ],
              [
                105.761936,
                20.979386
              ],
              [
                105.761839,
                20.979455
              ],
              [
                105.761774,
                20.979501
              ],
              [
                105.761702,
                20.979552
              ],
              [
                105.761617,
                20.979613
              ],
              [
                105.76153,
                20.979675
              ],
              [
                105.761431,
                20.979746
              ],
              [
                105.761325,
                20.979821
              ],
              [
                105.761267,
                20.979863
              ],
              [
                105.761306,
                20.979862
              ],
              [
                105.761392,
                20.979859
              ],
              [
                105.76178,
                20.979845
              ],
              [
                105.762032,
                20.979837
              ],
              [
                105.762299,
                20.979827
              ],
              [
                105.762458,
                20.979809
              ],
              [
                105.762852,
                20.979789
              ],
              [
                105.762924,
                20.979787
              ],
              [
                105.762931,
                20.97992
              ],
              [
                105.762955,
                20.979925
              ],
              [
                105.763097,
                20.979899
              ],
              [
                105.76311,
                20.979975
              ],
              [
                105.763128,
                20.979976
              ],
              [
                105.763206,
                20.979966
              ],
              [
                105.763229,
                20.979969
              ],
              [
                105.763253,
                20.979975
              ],
              [
                105.763293,
                20.979991
              ],
              [
                105.763318,
                20.980014
              ],
              [
                105.763339,
                20.980015
              ],
              [
                105.763438,
                20.980001
              ],
              [
                105.76346,
                20.979999
              ],
              [
                105.763461,
                20.980003
              ],
              [
                105.763917,
                20.97995
              ],
              [
                105.763951,
                20.980106
              ],
              [
                105.764145,
                20.980082
              ],
              [
                105.764191,
                20.981134
              ],
              [
                105.764213,
                20.981218
              ],
              [
                105.764519,
                20.981209
              ],
              [
                105.764538,
                20.981209
              ],
              [
                105.764538,
                20.981209
              ],
              [
                105.764585,
                20.981762
              ],
              [
                105.764647,
                20.982505
              ],
              [
                105.764662,
                20.982859
              ],
              [
                105.764751,
                20.982923
              ],
              [
                105.766113,
                20.983038
              ],
              [
                105.766031,
                20.983803
              ],
              [
                105.766006,
                20.984039
              ],
              [
                105.765958,
                20.984377
              ],
              [
                105.765934,
                20.98456
              ],
              [
                105.766938,
                20.984747
              ],
              [
                105.766992,
                20.984648
              ],
              [
                105.76704,
                20.98456
              ],
              [
                105.767155,
                20.984351
              ],
              [
                105.767174,
                20.984316
              ],
              [
                105.767322,
                20.984047
              ],
              [
                105.76733,
                20.984031
              ],
              [
                105.767321,
                20.984027
              ],
              [
                105.767197,
                20.983978
              ],
              [
                105.767187,
                20.983974
              ],
              [
                105.767179,
                20.983971
              ],
              [
                105.767179,
                20.983965
              ],
              [
                105.767179,
                20.983965
              ],
              [
                105.767196,
                20.983912
              ],
              [
                105.767208,
                20.983878
              ],
              [
                105.767244,
                20.983771
              ],
              [
                105.767259,
                20.983726
              ],
              [
                105.767299,
                20.983607
              ],
              [
                105.767305,
                20.983591
              ],
              [
                105.767361,
                20.983425
              ],
              [
                105.767361,
                20.983424
              ],
              [
                105.767607,
                20.983516
              ],
              [
                105.767608,
                20.983517
              ],
              [
                105.767684,
                20.983557
              ],
              [
                105.767789,
                20.983607
              ],
              [
                105.768225,
                20.983816
              ],
              [
                105.768276,
                20.98376
              ],
              [
                105.768439,
                20.98386
              ],
              [
                105.768504,
                20.983855
              ],
              [
                105.769099,
                20.984232
              ],
              [
                105.769148,
                20.984263
              ],
              [
                105.769159,
                20.984248
              ],
              [
                105.769648,
                20.984564
              ],
              [
                105.770749,
                20.985334
              ],
              [
                105.770792,
                20.985364
              ],
              [
                105.770848,
                20.985397
              ],
              [
                105.771121,
                20.985589
              ],
              [
                105.771542,
                20.985896
              ],
              [
                105.771574,
                20.985927
              ],
              [
                105.771638,
                20.985848
              ],
              [
                105.771903,
                20.985508
              ],
              [
                105.771908,
                20.985501
              ],
              [
                105.771922,
                20.985482
              ],
              [
                105.771943,
                20.985457
              ],
              [
                105.772097,
                20.985259
              ],
              [
                105.772116,
                20.985268
              ],
              [
                105.772238,
                20.98533
              ],
              [
                105.772245,
                20.98534
              ],
              [
                105.772249,
                20.985348
              ],
              [
                105.772257,
                20.985361
              ],
              [
                105.772275,
                20.985373
              ],
              [
                105.772299,
                20.985376
              ],
              [
                105.772306,
                20.985378
              ],
              [
                105.772357,
                20.985428
              ],
              [
                105.772362,
                20.985436
              ],
              [
                105.772365,
                20.985444
              ],
              [
                105.772371,
                20.985459
              ],
              [
                105.772434,
                20.985543
              ],
              [
                105.772438,
                20.985563
              ],
              [
                105.772533,
                20.985599
              ],
              [
                105.772577,
                20.985577
              ],
              [
                105.772716,
                20.985715
              ],
              [
                105.772807,
                20.985792
              ],
              [
                105.772833,
                20.985697
              ],
              [
                105.77288,
                20.985557
              ],
              [
                105.772887,
                20.985484
              ],
              [
                105.773144,
                20.985258
              ],
              [
                105.773182,
                20.985225
              ],
              [
                105.773245,
                20.985151
              ],
              [
                105.773285,
                20.985085
              ],
              [
                105.773307,
                20.985074
              ],
              [
                105.773374,
                20.985041
              ],
              [
                105.773411,
                20.98508
              ],
              [
                105.773456,
                20.985126
              ],
              [
                105.773532,
                20.985233
              ],
              [
                105.773568,
                20.985253
              ],
              [
                105.773659,
                20.98534
              ],
              [
                105.773768,
                20.985237
              ],
              [
                105.773841,
                20.985171
              ],
              [
                105.773862,
                20.985138
              ],
              [
                105.773948,
                20.985176
              ],
              [
                105.774025,
                20.98521
              ],
              [
                105.774026,
                20.985209
              ],
              [
                105.774099,
                20.985257
              ],
              [
                105.774191,
                20.985318
              ],
              [
                105.774314,
                20.985399
              ],
              [
                105.774409,
                20.985461
              ],
              [
                105.774495,
                20.985518
              ],
              [
                105.774549,
                20.985553
              ],
              [
                105.774709,
                20.985658
              ],
              [
                105.774739,
                20.985678
              ],
              [
                105.77474,
                20.985679
              ],
              [
                105.774741,
                20.98568
              ],
              [
                105.774801,
                20.985723
              ],
              [
                105.774801,
                20.985724
              ],
              [
                105.774812,
                20.985731
              ],
              [
                105.774838,
                20.985751
              ],
              [
                105.774865,
                20.985773
              ],
              [
                105.774837,
                20.985811
              ],
              [
                105.774854,
                20.985831
              ],
              [
                105.774906,
                20.985858
              ],
              [
                105.774972,
                20.985886
              ],
              [
                105.775018,
                20.985899
              ],
              [
                105.77505,
                20.985906
              ],
              [
                105.775225,
                20.985948
              ],
              [
                105.775295,
                20.985955
              ],
              [
                105.775441,
                20.985968
              ],
              [
                105.77545,
                20.985965
              ],
              [
                105.775495,
                20.985933
              ],
              [
                105.775587,
                20.98586
              ],
              [
                105.775642,
                20.985811
              ],
              [
                105.775651,
                20.985802
              ],
              [
                105.77572,
                20.985874
              ],
              [
                105.776094,
                20.985649
              ],
              [
                105.778617,
                20.987399
              ],
              [
                105.780453,
                20.988672
              ],
              [
                105.780454,
                20.988671
              ],
              [
                105.781057,
                20.989082
              ],
              [
                105.781387,
                20.988421
              ],
              [
                105.78183,
                20.988056
              ],
              [
                105.782133,
                20.987869
              ],
              [
                105.782628,
                20.98751
              ],
              [
                105.783064,
                20.987253
              ],
              [
                105.783305,
                20.987137
              ],
              [
                105.783669,
                20.986998
              ],
              [
                105.783834,
                20.986909
              ],
              [
                105.783546,
                20.9867
              ],
              [
                105.783778,
                20.98662
              ],
              [
                105.783994,
                20.986521
              ],
              [
                105.784444,
                20.986359
              ],
              [
                105.784862,
                20.986201
              ],
              [
                105.785244,
                20.986049
              ],
              [
                105.785738,
                20.985854
              ],
              [
                105.786182,
                20.985697
              ],
              [
                105.786612,
                20.985586
              ],
              [
                105.786885,
                20.985527
              ],
              [
                105.787301,
                20.985476
              ],
              [
                105.787462,
                20.985451
              ],
              [
                105.787565,
                20.985439
              ],
              [
                105.787577,
                20.985438
              ],
              [
                105.789458,
                20.98522
              ],
              [
                105.789489,
                20.985226
              ],
              [
                105.789489,
                20.985232
              ],
              [
                105.789484,
                20.985339
              ],
              [
                105.789515,
                20.985332
              ],
              [
                105.789775,
                20.985281
              ],
              [
                105.789817,
                20.985276
              ],
              [
                105.789867,
                20.985269
              ],
              [
                105.789941,
                20.985267
              ],
              [
                105.790082,
                20.985268
              ],
              [
                105.79016,
                20.985271
              ],
              [
                105.790277,
                20.985269
              ],
              [
                105.790489,
                20.985263
              ],
              [
                105.790662,
                20.985258
              ],
              [
                105.790804,
                20.985261
              ],
              [
                105.790916,
                20.985275
              ],
              [
                105.791062,
                20.985273
              ],
              [
                105.791064,
                20.985196
              ],
              [
                105.791093,
                20.985062
              ],
              [
                105.79238,
                20.983764
              ],
              [
                105.79238,
                20.983764
              ]
            ]
          ]
        ]
      },
      "properties": {
        "code": "09556",
        "name": "Hà Đông",
        "nameEn": "Ha Dong",
        "fullName": "Phường Hà Đông",
        "fullNameEn": "Ha Dong Ward",
        "codeName": "ha_dong",
        "postalCode": "12123",
        "postalCodePrefix": "",
        "gisServerId": "diaphanhanhchinhcapxa_2025.3174",
        "areaKm2": 9
      }
    }
  ]
}