{
  "type": "FeatureCollection",
  "bbox": [
    105.675552,
    21.033615,
    105.729867,
    21.090295
  ],
  "features": [
    {
      "type": "Feature",
      "id": "09832",
      "bbox": [
        105.675552,
        21.033615,
        105.729867,
        21.090295
      ],
      "geometry": {
        "type": "MultiPolygon",
        "coordinates": [
          [
            [
              [
                105.724527,
                21.06917
              ],
              [
                105.724729,
                21.066648
              ],
              [
                105.724833,
                21.065425
              ],
              [
                105.724674,
                21.059793
              ],
              [
                105.725482,
                21.059236
              ],
              [
                105.726345,
                21.058649
              ],
              [
                105.727423,
                21.057915
              ],
              [
                105.728048,
                21.057494
              ],
              [
                105.728806,
                21.056988
              ],
              [
                105.728816,
                21.056981
              ],
              [
                105.728908,
                21.056922
              ],
              [
                105.729023,
                21.056847
              ],
              [
                105.729112,
                21.056789
              ],
              [
                105.729201,
                21.056732
              ],
              [
                105.729303,
                21.056665
              ],
              [
                105.729399,
                21.0566
              ],
              [
                105.729482,
                21.056544
              ],
              [
                105.729555,
                21.056494
              ],
              [
                105.729586,
                21.056473
              ],
              [
                105.729458,
                21.056304
              ],
              [
                105.729412,
                21.05625
              ],
              [
                105.729368,
                21.056197
              ],
              [
                105.729367,
                21.056196
              ],
              [
                105.729367,
                21.056196
              ],
              [
                105.729078,
                21.055827
              ],
              [
                105.7287,
                21.055343
              ],
              [
                105.728683,
                21.055322
              ],
              [
                105.72868,
                21.055318
              ],
              [
                105.728666,
                21.055301
              ],
              [
                105.72853,
                21.055126
              ],
              [
                105.728529,
                21.055125
              ],
              [
                105.728528,
                21.055124
              ],
              [
                105.728528,
                21.055123
              ],
              [
                105.728393,
                21.054954
              ],
              [
                105.728276,
                21.054806
              ],
              [
                105.728265,
                21.054793
              ],
              [
                105.728217,
                21.054732
              ],
              [
                105.728193,
                21.054703
              ],
              [
                105.728176,
                21.054685
              ],
              [
                105.728172,
                21.054679
              ],
              [
                105.728165,
                21.054672
              ],
              [
                105.728125,
                21.054622
              ],
              [
                105.728061,
                21.054542
              ],
              [
                105.72806,
                21.054541
              ],
              [
                105.727917,
                21.054363
              ],
              [
                105.727789,
                21.054204
              ],
              [
                105.727648,
                21.054028
              ],
              [
                105.727527,
                21.053878
              ],
              [
                105.727424,
                21.05375
              ],
              [
                105.727346,
                21.053653
              ],
              [
                105.727237,
                21.053518
              ],
              [
                105.727126,
                21.05338
              ],
              [
                105.726999,
                21.053221
              ],
              [
                105.726886,
                21.053082
              ],
              [
                105.726827,
                21.053008
              ],
              [
                105.726827,
                21.053007
              ],
              [
                105.726823,
                21.053004
              ],
              [
                105.726646,
                21.052808
              ],
              [
                105.726599,
                21.052754
              ],
              [
                105.726565,
                21.052714
              ],
              [
                105.726562,
                21.05271
              ],
              [
                105.726583,
                21.052691
              ],
              [
                105.726623,
                21.052655
              ],
              [
                105.726675,
                21.052547
              ],
              [
                105.72693,
                21.052327
              ],
              [
                105.727304,
                21.052013
              ],
              [
                105.727428,
                21.051897
              ],
              [
                105.72762,
                21.051726
              ],
              [
                105.727716,
                21.051644
              ],
              [
                105.727758,
                21.051608
              ],
              [
                105.72787,
                21.051513
              ],
              [
                105.728252,
                21.051188
              ],
              [
                105.728233,
                21.051099
              ],
              [
                105.728229,
                21.051022
              ],
              [
                105.728206,
                21.050807
              ],
              [
                105.728342,
                21.050727
              ],
              [
                105.72866,
                21.050539
              ],
              [
                105.728657,
                21.050519
              ],
              [
                105.72858,
                21.050273
              ],
              [
                105.728453,
                21.049908
              ],
              [
                105.728309,
                21.049457
              ],
              [
                105.728205,
                21.049148
              ],
              [
                105.727967,
                21.048405
              ],
              [
                105.728003,
                21.048394
              ],
              [
                105.728388,
                21.048305
              ],
              [
                105.728743,
                21.048231
              ],
              [
                105.72877,
                21.048243
              ],
              [
                105.729444,
                21.048047
              ],
              [
                105.729517,
                21.048056
              ],
              [
                105.72947,
                21.047755
              ],
              [
                105.729393,
                21.047601
              ],
              [
                105.729371,
                21.047453
              ],
              [
                105.729374,
                21.047325
              ],
              [
                105.729401,
                21.047273
              ],
              [
                105.729396,
                21.047258
              ],
              [
                105.729383,
                21.04722
              ],
              [
                105.729378,
                21.047207
              ],
              [
                105.729362,
                21.047196
              ],
              [
                105.729341,
                21.047161
              ],
              [
                105.729325,
                21.04713
              ],
              [
                105.729505,
                21.047071
              ],
              [
                105.729686,
                21.047027
              ],
              [
                105.729866,
                21.046984
              ],
              [
                105.729867,
                21.046983
              ],
              [
                105.729261,
                21.046818
              ],
              [
                105.729165,
                21.046773
              ],
              [
                105.728845,
                21.046611
              ],
              [
                105.728561,
                21.046428
              ],
              [
                105.728312,
                21.046263
              ],
              [
                105.728106,
                21.046106
              ],
              [
                105.727943,
                21.045941
              ],
              [
                105.727838,
                21.045831
              ],
              [
                105.727351,
                21.045236
              ],
              [
                105.727046,
                21.04475
              ],
              [
                105.726899,
                21.044405
              ],
              [
                105.726741,
                21.043858
              ],
              [
                105.726627,
                21.043243
              ],
              [
                105.726588,
                21.042961
              ],
              [
                105.72646,
                21.042673
              ],
              [
                105.726206,
                21.042153
              ],
              [
                105.725897,
                21.041513
              ],
              [
                105.725428,
                21.040618
              ],
              [
                105.725385,
                21.040537
              ],
              [
                105.725388,
                21.040477
              ],
              [
                105.725338,
                21.040418
              ],
              [
                105.725282,
                21.04033
              ],
              [
                105.725204,
                21.040102
              ],
              [
                105.725134,
                21.040108
              ],
              [
                105.725036,
                21.040115
              ],
              [
                105.72494,
                21.040122
              ],
              [
                105.724802,
                21.040119
              ],
              [
                105.724635,
                21.040115
              ],
              [
                105.724613,
                21.040115
              ],
              [
                105.724571,
                21.040114
              ],
              [
                105.72451,
                21.040102
              ],
              [
                105.724376,
                21.040076
              ],
              [
                105.724166,
                21.040036
              ],
              [
                105.72404,
                21.040012
              ],
              [
                105.72399,
                21.040011
              ],
              [
                105.723896,
                21.040011
              ],
              [
                105.723682,
                21.040009
              ],
              [
                105.723618,
                21.040015
              ],
              [
                105.723526,
                21.040024
              ],
              [
                105.723396,
                21.040037
              ],
              [
                105.723284,
                21.040067
              ],
              [
                105.723271,
                21.04007
              ],
              [
                105.723216,
                21.040085
              ],
              [
                105.723195,
                21.040091
              ],
              [
                105.723155,
                21.040102
              ],
              [
                105.723151,
                21.040057
              ],
              [
                105.723154,
                21.039927
              ],
              [
                105.723156,
                21.039807
              ],
              [
                105.723157,
                21.039756
              ],
              [
                105.723163,
                21.039422
              ],
              [
                105.723164,
                21.039386
              ],
              [
                105.723164,
                21.03935
              ],
              [
                105.723178,
                21.039053
              ],
              [
                105.72318,
                21.039025
              ],
              [
                105.723187,
                21.038866
              ],
              [
                105.723193,
                21.038741
              ],
              [
                105.723198,
                21.038648
              ],
              [
                105.723207,
                21.038445
              ],
              [
                105.723207,
                21.038445
              ],
              [
                105.723207,
                21.038439
              ],
              [
                105.723209,
                21.038405
              ],
              [
                105.72321,
                21.038378
              ],
              [
                105.723216,
                21.038332
              ],
              [
                105.722232,
                21.037997
              ],
              [
                105.721509,
                21.037755
              ],
              [
                105.721525,
                21.037665
              ],
              [
                105.721571,
                21.037402
              ],
              [
                105.721643,
                21.036988
              ],
              [
                105.721666,
                21.036857
              ],
              [
                105.721662,
                21.036834
              ],
              [
                105.721624,
                21.036595
              ],
              [
                105.721512,
                21.036291
              ],
              [
                105.721461,
                21.036152
              ],
              [
                105.721457,
                21.036144
              ],
              [
                105.721273,
                21.03573
              ],
              [
                105.721239,
                21.035653
              ],
              [
                105.721234,
                21.035627
              ],
              [
                105.721215,
                21.035538
              ],
              [
                105.720951,
                21.035181
              ],
              [
                105.72089,
                21.035098
              ],
              [
                105.720741,
                21.034963
              ],
              [
                105.720635,
                21.034861
              ],
              [
                105.720629,
                21.034819
              ],
              [
                105.720587,
                21.034738
              ],
              [
                105.720569,
                21.034703
              ],
              [
                105.720535,
                21.034667
              ],
              [
                105.720523,
                21.034622
              ],
              [
                105.720431,
                21.034543
              ],
              [
                105.720361,
                21.034457
              ],
              [
                105.720335,
                21.034425
              ],
              [
                105.720282,
                21.034347
              ],
              [
                105.720102,
                21.034243
              ],
              [
                105.720042,
                21.034223
              ],
              [
                105.720021,
                21.034251
              ],
              [
                105.719911,
                21.034413
              ],
              [
                105.719875,
                21.034451
              ],
              [
                105.719858,
                21.034445
              ],
              [
                105.719794,
                21.034416
              ],
              [
                105.719582,
                21.034283
              ],
              [
                105.71902,
                21.03393
              ],
              [
                105.718988,
                21.033909
              ],
              [
                105.718911,
                21.033901
              ],
              [
                105.718872,
                21.033873
              ],
              [
                105.718778,
                21.033808
              ],
              [
                105.718705,
                21.033751
              ],
              [
                105.718649,
                21.033711
              ],
              [
                105.718515,
                21.033727
              ],
              [
                105.718383,
                21.033724
              ],
              [
                105.71812,
                21.0337
              ],
              [
                105.717939,
                21.033695
              ],
              [
                105.717842,
                21.033725
              ],
              [
                105.717657,
                21.033795
              ],
              [
                105.717651,
                21.033925
              ],
              [
                105.7173,
                21.034069
              ],
              [
                105.717184,
                21.033898
              ],
              [
                105.717094,
                21.033783
              ],
              [
                105.717019,
                21.033709
              ],
              [
                105.716921,
                21.033652
              ],
              [
                105.716817,
                21.033615
              ],
              [
                105.716752,
                21.033754
              ],
              [
                105.716681,
                21.033754
              ],
              [
                105.716485,
                21.033743
              ],
              [
                105.716189,
                21.033742
              ],
              [
                105.716067,
                21.033752
              ],
              [
                105.716021,
                21.03378
              ],
              [
                105.716019,
                21.033826
              ],
              [
                105.716022,
                21.033907
              ],
              [
                105.716018,
                21.034067
              ],
              [
                105.716,
                21.034151
              ],
              [
                105.715955,
                21.03423
              ],
              [
                105.715907,
                21.034269
              ],
              [
                105.715731,
                21.034284
              ],
              [
                105.715516,
                21.034302
              ],
              [
                105.715481,
                21.034232
              ],
              [
                105.715478,
                21.034226
              ],
              [
                105.715433,
                21.034138
              ],
              [
                105.71543,
                21.034131
              ],
              [
                105.7154,
                21.034073
              ],
              [
                105.715376,
                21.034025
              ],
              [
                105.715374,
                21.034021
              ],
              [
                105.715333,
                21.033939
              ],
              [
                105.715325,
                21.033924
              ],
              [
                105.715315,
                21.033904
              ],
              [
                105.715293,
                21.033858
              ],
              [
                105.715284,
                21.033839
              ],
              [
                105.715253,
                21.033773
              ],
              [
                105.715241,
                21.033748
              ],
              [
                105.715224,
                21.033713
              ],
              [
                105.715218,
                21.033707
              ],
              [
                105.715189,
                21.033681
              ],
              [
                105.71493,
                21.033722
              ],
              [
                105.714639,
                21.033763
              ],
              [
                105.714343,
                21.033805
              ],
              [
                105.713636,
                21.03391
              ],
              [
                105.713614,
                21.033914
              ],
              [
                105.713566,
                21.033922
              ],
              [
                105.713546,
                21.033925
              ],
              [
                105.713528,
                21.033928
              ],
              [
                105.713501,
                21.033933
              ],
              [
                105.713459,
                21.03394
              ],
              [
                105.713337,
                21.03396
              ],
              [
                105.713311,
                21.033964
              ],
              [
                105.713298,
                21.033966
              ],
              [
                105.713021,
                21.033999
              ],
              [
                105.712807,
                21.03403
              ],
              [
                105.712496,
                21.034081
              ],
              [
                105.712289,
                21.03412
              ],
              [
                105.712317,
                21.034305
              ],
              [
                105.712339,
                21.03445
              ],
              [
                105.712366,
                21.034745
              ],
              [
                105.711675,
                21.035143
              ],
              [
                105.711634,
                21.035086
              ],
              [
                105.711604,
                21.035045
              ],
              [
                105.711554,
                21.034975
              ],
              [
                105.711043,
                21.035295
              ],
              [
                105.711073,
                21.035334
              ],
              [
                105.711095,
                21.035363
              ],
              [
                105.711121,
                21.035388
              ],
              [
                105.711151,
                21.03542
              ],
              [
                105.711167,
                21.03545
              ],
              [
                105.711181,
                21.035481
              ],
              [
                105.711182,
                21.035502
              ],
              [
                105.711179,
                21.035559
              ],
              [
                105.711165,
                21.035583
              ],
              [
                105.710941,
                21.035735
              ],
              [
                105.71088,
                21.035775
              ],
              [
                105.71086,
                21.035785
              ],
              [
                105.710838,
                21.035779
              ],
              [
                105.710815,
                21.035764
              ],
              [
                105.710714,
                21.03565
              ],
              [
                105.710694,
                21.035628
              ],
              [
                105.710592,
                21.035517
              ],
              [
                105.710576,
                21.035498
              ],
              [
                105.710554,
                21.035474
              ],
              [
                105.710551,
                21.035471
              ],
              [
                105.710551,
                21.03547
              ],
              [
                105.710551,
                21.03547
              ],
              [
                105.710556,
                21.035448
              ],
              [
                105.710565,
                21.035433
              ],
              [
                105.710547,
                21.035407
              ],
              [
                105.710413,
                21.035336
              ],
              [
                105.709929,
                21.036202
              ],
              [
                105.709439,
                21.036966
              ],
              [
                105.709407,
                21.037022
              ],
              [
                105.709236,
                21.037317
              ],
              [
                105.709173,
                21.037426
              ],
              [
                105.709126,
                21.037508
              ],
              [
                105.708938,
                21.037832
              ],
              [
                105.708883,
                21.037928
              ],
              [
                105.708832,
                21.038016
              ],
              [
                105.70882,
                21.038036
              ],
              [
                105.708727,
                21.038193
              ],
              [
                105.708634,
                21.038349
              ],
              [
                105.708426,
                21.038702
              ],
              [
                105.708376,
                21.038785
              ],
              [
                105.708252,
                21.038994
              ],
              [
                105.708252,
                21.038994
              ],
              [
                105.708133,
                21.039198
              ],
              [
                105.708116,
                21.039228
              ],
              [
                105.70784,
                21.039701
              ],
              [
                105.707792,
                21.039784
              ],
              [
                105.707628,
                21.040064
              ],
              [
                105.707561,
                21.04018
              ],
              [
                105.707477,
                21.040325
              ],
              [
                105.707284,
                21.040657
              ],
              [
                105.70717,
                21.040853
              ],
              [
                105.70701,
                21.041129
              ],
              [
                105.706936,
                21.041257
              ],
              [
                105.70686,
                21.041388
              ],
              [
                105.706764,
                21.041546
              ],
              [
                105.706681,
                21.041682
              ],
              [
                105.706641,
                21.041749
              ],
              [
                105.706476,
                21.04202
              ],
              [
                105.706364,
                21.042204
              ],
              [
                105.705712,
                21.043336
              ],
              [
                105.705129,
                21.044232
              ],
              [
                105.705041,
                21.044375
              ],
              [
                105.704997,
                21.044438
              ],
              [
                105.704894,
                21.044581
              ],
              [
                105.704866,
                21.044619
              ],
              [
                105.704834,
                21.04464
              ],
              [
                105.704841,
                21.044732
              ],
              [
                105.704841,
                21.0448
              ],
              [
                105.704841,
                21.044812
              ],
              [
                105.704849,
                21.044838
              ],
              [
                105.704866,
                21.044892
              ],
              [
                105.704882,
                21.044904
              ],
              [
                105.704917,
                21.044932
              ],
              [
                105.704908,
                21.045474
              ],
              [
                105.704925,
                21.045815
              ],
              [
                105.704963,
                21.046415
              ],
              [
                105.704985,
                21.046955
              ],
              [
                105.704998,
                21.047101
              ],
              [
                105.704987,
                21.047104
              ],
              [
                105.704847,
                21.047139
              ],
              [
                105.704611,
                21.047198
              ],
              [
                105.704362,
                21.047246
              ],
              [
                105.704126,
                21.047278
              ],
              [
                105.704071,
                21.047281
              ],
              [
                105.70407,
                21.047281
              ],
              [
                105.704058,
                21.047577
              ],
              [
                105.704049,
                21.048241
              ],
              [
                105.704052,
                21.048779
              ],
              [
                105.704034,
                21.049614
              ],
              [
                105.704054,
                21.050165
              ],
              [
                105.704072,
                21.050449
              ],
              [
                105.704097,
                21.050662
              ],
              [
                105.70396,
                21.050735
              ],
              [
                105.703724,
                21.050801
              ],
              [
                105.703711,
                21.050804
              ],
              [
                105.7035,
                21.050802
              ],
              [
                105.703192,
                21.050804
              ],
              [
                105.702985,
                21.050811
              ],
              [
                105.702955,
                21.050759
              ],
              [
                105.702922,
                21.050734
              ],
              [
                105.702153,
                21.050586
              ],
              [
                105.702022,
                21.050586
              ],
              [
                105.701955,
                21.050571
              ],
              [
                105.701921,
                21.050571
              ],
              [
                105.701848,
                21.050556
              ],
              [
                105.701752,
                21.050536
              ],
              [
                105.701678,
                21.050532
              ],
              [
                105.701637,
                21.05053
              ],
              [
                105.701627,
                21.050531
              ],
              [
                105.701554,
                21.050543
              ],
              [
                105.701497,
                21.050582
              ],
              [
                105.701472,
                21.050586
              ],
              [
                105.701463,
                21.050582
              ],
              [
                105.701458,
                21.050579
              ],
              [
                105.701387,
                21.050504
              ],
              [
                105.70134,
                21.050456
              ],
              [
                105.70128,
                21.050483
              ],
              [
                105.701087,
                21.05051
              ],
              [
                105.70094,
                21.050527
              ],
              [
                105.700861,
                21.050564
              ],
              [
                105.700829,
                21.050598
              ],
              [
                105.700821,
                21.050631
              ],
              [
                105.70082,
                21.050687
              ],
              [
                105.700819,
                21.050743
              ],
              [
                105.700825,
                21.050834
              ],
              [
                105.700817,
                21.050994
              ],
              [
                105.700815,
                21.051021
              ],
              [
                105.700747,
                21.051172
              ],
              [
                105.700737,
                21.051185
              ],
              [
                105.700686,
                21.051258
              ],
              [
                105.700647,
                21.051302
              ],
              [
                105.700642,
                21.051308
              ],
              [
                105.700564,
                21.05134
              ],
              [
                105.700336,
                21.051345
              ],
              [
                105.70009,
                21.051349
              ],
              [
                105.697883,
                21.051393
              ],
              [
                105.695426,
                21.051436
              ],
              [
                105.693041,
                21.05148
              ],
              [
                105.69297,
                21.051521
              ],
              [
                105.692903,
                21.051655
              ],
              [
                105.692808,
                21.051915
              ],
              [
                105.692588,
                21.052479
              ],
              [
                105.692558,
                21.052558
              ],
              [
                105.69242,
                21.052935
              ],
              [
                105.692328,
                21.053166
              ],
              [
                105.69216,
                21.053568
              ],
              [
                105.691846,
                21.054326
              ],
              [
                105.691687,
                21.054724
              ],
              [
                105.691548,
                21.055061
              ],
              [
                105.691398,
                21.055399
              ],
              [
                105.691222,
                21.055872
              ],
              [
                105.691104,
                21.056156
              ],
              [
                105.69102,
                21.056366
              ],
              [
                105.690894,
                21.056666
              ],
              [
                105.69088,
                21.056702
              ],
              [
                105.690858,
                21.056715
              ],
              [
                105.69081,
                21.056727
              ],
              [
                105.690746,
                21.056725
              ],
              [
                105.690316,
                21.056622
              ],
              [
                105.690043,
                21.056569
              ],
              [
                105.689971,
                21.056562
              ],
              [
                105.689795,
                21.057006
              ],
              [
                105.689763,
                21.057082
              ],
              [
                105.689763,
                21.057083
              ],
              [
                105.689523,
                21.057662
              ],
              [
                105.689383,
                21.057999
              ],
              [
                105.689302,
                21.058197
              ],
              [
                105.689253,
                21.058307
              ],
              [
                105.688984,
                21.058919
              ],
              [
                105.68896,
                21.058975
              ],
              [
                105.68871,
                21.05966
              ],
              [
                105.688638,
                21.059858
              ],
              [
                105.688473,
                21.060314
              ],
              [
                105.688464,
                21.06034
              ],
              [
                105.6884,
                21.060535
              ],
              [
                105.687874,
                21.062142
              ],
              [
                105.687783,
                21.062465
              ],
              [
                105.687699,
                21.062736
              ],
              [
                105.687544,
                21.063185
              ],
              [
                105.687466,
                21.063439
              ],
              [
                105.687413,
                21.063579
              ],
              [
                105.687259,
                21.064064
              ],
              [
                105.68723,
                21.064154
              ],
              [
                105.687189,
                21.064269
              ],
              [
                105.68714,
                21.064434
              ],
              [
                105.687117,
                21.064511
              ],
              [
                105.687038,
                21.064765
              ],
              [
                105.686981,
                21.064938
              ],
              [
                105.686946,
                21.065045
              ],
              [
                105.686902,
                21.065183
              ],
              [
                105.686681,
                21.065861
              ],
              [
                105.686566,
                21.066213
              ],
              [
                105.68644,
                21.066602
              ],
              [
                105.686246,
                21.067197
              ],
              [
                105.686195,
                21.067352
              ],
              [
                105.686134,
                21.067542
              ],
              [
                105.686112,
                21.067608
              ],
              [
                105.685965,
                21.068065
              ],
              [
                105.685941,
                21.068138
              ],
              [
                105.685919,
                21.068207
              ],
              [
                105.685813,
                21.068538
              ],
              [
                105.685743,
                21.068755
              ],
              [
                105.685715,
                21.06884
              ],
              [
                105.685621,
                21.069132
              ],
              [
                105.685558,
                21.069328
              ],
              [
                105.685441,
                21.069692
              ],
              [
                105.685357,
                21.069951
              ],
              [
                105.685355,
                21.06996
              ],
              [
                105.685294,
                21.070147
              ],
              [
                105.685161,
                21.07056
              ],
              [
                105.685159,
                21.070567
              ],
              [
                105.685085,
                21.070798
              ],
              [
                105.685071,
                21.070841
              ],
              [
                105.685057,
                21.070883
              ],
              [
                105.684656,
                21.070822
              ],
              [
                105.684485,
                21.070792
              ],
              [
                105.683648,
                21.070642
              ],
              [
                105.683646,
                21.070642
              ],
              [
                105.683626,
                21.070639
              ],
              [
                105.68342,
                21.070602
              ],
              [
                105.683277,
                21.070576
              ],
              [
                105.683112,
                21.070547
              ],
              [
                105.682822,
                21.070495
              ],
              [
                105.682711,
                21.070475
              ],
              [
                105.682436,
                21.070426
              ],
              [
                105.682254,
                21.070393
              ],
              [
                105.682073,
                21.070361
              ],
              [
                105.682025,
                21.070352
              ],
              [
                105.681872,
                21.070334
              ],
              [
                105.681744,
                21.070319
              ],
              [
                105.681721,
                21.070325
              ],
              [
                105.681654,
                21.070387
              ],
              [
                105.681346,
                21.070657
              ],
              [
                105.681299,
                21.070696
              ],
              [
                105.680817,
                21.071215
              ],
              [
                105.68034,
                21.071728
              ],
              [
                105.679471,
                21.072597
              ],
              [
                105.679369,
                21.072704
              ],
              [
                105.679315,
                21.072762
              ],
              [
                105.679146,
                21.07294
              ],
              [
                105.679047,
                21.073042
              ],
              [
                105.67888,
                21.073215
              ],
              [
                105.678525,
                21.073583
              ],
              [
                105.678393,
                21.073719
              ],
              [
                105.678174,
                21.073946
              ],
              [
                105.678051,
                21.074077
              ],
              [
                105.677854,
                21.074284
              ],
              [
                105.677657,
                21.074492
              ],
              [
                105.677425,
                21.074736
              ],
              [
                105.67727,
                21.074899
              ],
              [
                105.677219,
                21.074954
              ],
              [
                105.677048,
                21.075115
              ],
              [
                105.676811,
                21.075358
              ],
              [
                105.676588,
                21.075588
              ],
              [
                105.676402,
                21.075769
              ],
              [
                105.676112,
                21.076077
              ],
              [
                105.675929,
                21.076269
              ],
              [
                105.67584,
                21.07636
              ],
              [
                105.67583,
                21.07637
              ],
              [
                105.675635,
                21.076578
              ],
              [
                105.675586,
                21.076621
              ],
              [
                105.675561,
                21.076656
              ],
              [
                105.675552,
                21.076701
              ],
              [
                105.675565,
                21.076737
              ],
              [
                105.675593,
                21.076777
              ],
              [
                105.675648,
                21.076834
              ],
              [
                105.675801,
                21.07699
              ],
              [
                105.67587,
                21.077062
              ],
              [
                105.676071,
                21.077276
              ],
              [
                105.676087,
                21.077293
              ],
              [
                105.676365,
                21.077589
              ],
              [
                105.676482,
                21.077712
              ],
              [
                105.676733,
                21.077975
              ],
              [
                105.67688,
                21.078128
              ],
              [
                105.677134,
                21.07838
              ],
              [
                105.677367,
                21.078637
              ],
              [
                105.677436,
                21.078713
              ],
              [
                105.677465,
                21.078745
              ],
              [
                105.677892,
                21.079193
              ],
              [
                105.678005,
                21.079313
              ],
              [
                105.678444,
                21.079766
              ],
              [
                105.678622,
                21.079952
              ],
              [
                105.678714,
                21.080046
              ],
              [
                105.679031,
                21.080398
              ],
              [
                105.679084,
                21.080454
              ],
              [
                105.679154,
                21.080528
              ],
              [
                105.679226,
                21.080593
              ],
              [
                105.679293,
                21.080757
              ],
              [
                105.679375,
                21.080876
              ],
              [
                105.679429,
                21.080969
              ],
              [
                105.679486,
                21.081068
              ],
              [
                105.679232,
                21.081124
              ],
              [
                105.67921,
                21.081129
              ],
              [
                105.679053,
                21.081163
              ],
              [
                105.678513,
                21.081285
              ],
              [
                105.678301,
                21.081334
              ],
              [
                105.677794,
                21.081451
              ],
              [
                105.677711,
                21.081469
              ],
              [
                105.677485,
                21.081534
              ],
              [
                105.677521,
                21.081625
              ],
              [
                105.677593,
                21.081817
              ],
              [
                105.677626,
                21.081925
              ],
              [
                105.677643,
                21.081968
              ],
              [
                105.677642,
                21.082018
              ],
              [
                105.677633,
                21.082065
              ],
              [
                105.677599,
                21.082148
              ],
              [
                105.677562,
                21.082241
              ],
              [
                105.677536,
                21.082322
              ],
              [
                105.677531,
                21.08235
              ],
              [
                105.677507,
                21.082438
              ],
              [
                105.677416,
                21.082574
              ],
              [
                105.677262,
                21.082783
              ],
              [
                105.677227,
                21.082831
              ],
              [
                105.677229,
                21.082874
              ],
              [
                105.677361,
                21.083008
              ],
              [
                105.677369,
                21.083015
              ],
              [
                105.677351,
                21.08309
              ],
              [
                105.677336,
                21.083421
              ],
              [
                105.677338,
                21.083459
              ],
              [
                105.677055,
                21.083603
              ],
              [
                105.677062,
                21.083623
              ],
              [
                105.677169,
                21.083889
              ],
              [
                105.677144,
                21.083907
              ],
              [
                105.67714,
                21.083951
              ],
              [
                105.677144,
                21.084053
              ],
              [
                105.677174,
                21.084135
              ],
              [
                105.677195,
                21.084166
              ],
              [
                105.677205,
                21.084174
              ],
              [
                105.677232,
                21.084183
              ],
              [
                105.677236,
                21.084195
              ],
              [
                105.677248,
                21.084214
              ],
              [
                105.677312,
                21.08427
              ],
              [
                105.67748,
                21.084393
              ],
              [
                105.677529,
                21.084413
              ],
              [
                105.677639,
                21.084438
              ],
              [
                105.677665,
                21.084456
              ],
              [
                105.677684,
                21.084478
              ],
              [
                105.677741,
                21.084513
              ],
              [
                105.677951,
                21.084616
              ],
              [
                105.678031,
                21.084648
              ],
              [
                105.678058,
                21.084652
              ],
              [
                105.678102,
                21.084661
              ],
              [
                105.678324,
                21.084702
              ],
              [
                105.678408,
                21.084735
              ],
              [
                105.678493,
                21.084826
              ],
              [
                105.67862,
                21.084861
              ],
              [
                105.678847,
                21.084913
              ],
              [
                105.679099,
                21.084933
              ],
              [
                105.679331,
                21.08489
              ],
              [
                105.679651,
                21.084819
              ],
              [
                105.679888,
                21.084732
              ],
              [
                105.679947,
                21.084698
              ],
              [
                105.680027,
                21.084699
              ],
              [
                105.680035,
                21.084702
              ],
              [
                105.680054,
                21.084718
              ],
              [
                105.680134,
                21.084803
              ],
              [
                105.680184,
                21.084856
              ],
              [
                105.680194,
                21.084861
              ],
              [
                105.680234,
                21.084869
              ],
              [
                105.680294,
                21.084881
              ],
              [
                105.680302,
                21.084884
              ],
              [
                105.680315,
                21.084893
              ],
              [
                105.680383,
                21.084956
              ],
              [
                105.680445,
                21.085024
              ],
              [
                105.680488,
                21.085077
              ],
              [
                105.680506,
                21.085093
              ],
              [
                105.680533,
                21.085115
              ],
              [
                105.680572,
                21.085144
              ],
              [
                105.680611,
                21.085177
              ],
              [
                105.680662,
                21.085226
              ],
              [
                105.680689,
                21.085266
              ],
              [
                105.680706,
                21.085287
              ],
              [
                105.680721,
                21.085297
              ],
              [
                105.680737,
                21.085305
              ],
              [
                105.680753,
                21.085312
              ],
              [
                105.680785,
                21.085313
              ],
              [
                105.680855,
                21.085312
              ],
              [
                105.680954,
                21.085312
              ],
              [
                105.680988,
                21.085312
              ],
              [
                105.681016,
                21.085314
              ],
              [
                105.68104,
                21.085325
              ],
              [
                105.681102,
                21.085379
              ],
              [
                105.681227,
                21.085491
              ],
              [
                105.681277,
                21.085531
              ],
              [
                105.681337,
                21.085589
              ],
              [
                105.681366,
                21.085613
              ],
              [
                105.681397,
                21.085632
              ],
              [
                105.681435,
                21.085647
              ],
              [
                105.681458,
                21.085655
              ],
              [
                105.681478,
                21.085657
              ],
              [
                105.681498,
                21.085657
              ],
              [
                105.681515,
                21.085662
              ],
              [
                105.681538,
                21.085673
              ],
              [
                105.681787,
                21.085887
              ],
              [
                105.681853,
                21.085946
              ],
              [
                105.681929,
                21.086012
              ],
              [
                105.681946,
                21.086026
              ],
              [
                105.681992,
                21.086072
              ],
              [
                105.682023,
                21.086102
              ],
              [
                105.682128,
                21.086197
              ],
              [
                105.682234,
                21.0863
              ],
              [
                105.682308,
                21.086357
              ],
              [
                105.682388,
                21.08641
              ],
              [
                105.682553,
                21.086489
              ],
              [
                105.682632,
                21.086514
              ],
              [
                105.682674,
                21.086528
              ],
              [
                105.68274,
                21.086575
              ],
              [
                105.682811,
                21.086653
              ],
              [
                105.68292,
                21.086796
              ],
              [
                105.682973,
                21.08683
              ],
              [
                105.68304,
                21.086917
              ],
              [
                105.683147,
                21.087057
              ],
              [
                105.683218,
                21.087123
              ],
              [
                105.683306,
                21.087181
              ],
              [
                105.683439,
                21.08723
              ],
              [
                105.683441,
                21.087232
              ],
              [
                105.683823,
                21.087339
              ],
              [
                105.683721,
                21.087557
              ],
              [
                105.683895,
                21.087603
              ],
              [
                105.683973,
                21.087621
              ],
              [
                105.684047,
                21.087652
              ],
              [
                105.684058,
                21.08766
              ],
              [
                105.684094,
                21.087679
              ],
              [
                105.684202,
                21.087745
              ],
              [
                105.684274,
                21.087787
              ],
              [
                105.684362,
                21.087828
              ],
              [
                105.684478,
                21.08787
              ],
              [
                105.684509,
                21.087879
              ],
              [
                105.684698,
                21.087818
              ],
              [
                105.684896,
                21.087753
              ],
              [
                105.684944,
                21.087867
              ],
              [
                105.685056,
                21.087826
              ],
              [
                105.685101,
                21.087938
              ],
              [
                105.685218,
                21.088244
              ],
              [
                105.685277,
                21.088395
              ],
              [
                105.685377,
                21.088641
              ],
              [
                105.685421,
                21.088745
              ],
              [
                105.685484,
                21.088864
              ],
              [
                105.685625,
                21.089018
              ],
              [
                105.685738,
                21.089184
              ],
              [
                105.685878,
                21.089382
              ],
              [
                105.685907,
                21.089402
              ],
              [
                105.68593,
                21.089439
              ],
              [
                105.685949,
                21.089496
              ],
              [
                105.685959,
                21.089535
              ],
              [
                105.685962,
                21.089584
              ],
              [
                105.685959,
                21.089588
              ],
              [
                105.68595,
                21.089629
              ],
              [
                105.685938,
                21.089635
              ],
              [
                105.685954,
                21.089665
              ],
              [
                105.685961,
                21.089685
              ],
              [
                105.686004,
                21.089747
              ],
              [
                105.686028,
                21.089765
              ],
              [
                105.686048,
                21.089778
              ],
              [
                105.686089,
                21.089799
              ],
              [
                105.686108,
                21.089804
              ],
              [
                105.686162,
                21.089814
              ],
              [
                105.68632,
                21.08988
              ],
              [
                105.686364,
                21.089928
              ],
              [
                105.686375,
                21.089921
              ],
              [
                105.686404,
                21.089939
              ],
              [
                105.686504,
                21.090044
              ],
              [
                105.686556,
                21.090102
              ],
              [
                105.686596,
                21.090149
              ],
              [
                105.686616,
                21.090172
              ],
              [
                105.686644,
                21.090194
              ],
              [
                105.68672,
                21.090248
              ],
              [
                105.686784,
                21.090295
              ],
              [
                105.686797,
                21.089899
              ],
              [
                105.687256,
                21.089492
              ],
              [
                105.68728,
                21.089479
              ],
              [
                105.687292,
                21.089481
              ],
              [
                105.687309,
                21.089489
              ],
              [
                105.687406,
                21.089544
              ],
              [
                105.687456,
                21.08956
              ],
              [
                105.687509,
                21.089535
              ],
              [
                105.687547,
                21.089522
              ],
              [
                105.687607,
                21.089503
              ],
              [
                105.687712,
                21.089449
              ],
              [
                105.687796,
                21.089409
              ],
              [
                105.687873,
                21.089384
              ],
              [
                105.687978,
                21.089284
              ],
              [
                105.687993,
                21.089285
              ],
              [
                105.688008,
                21.089283
              ],
              [
                105.688079,
                21.08923
              ],
              [
                105.688172,
                21.08914
              ],
              [
                105.688279,
                21.088815
              ],
              [
                105.688286,
                21.088795
              ],
              [
                105.688326,
                21.088803
              ],
              [
                105.688565,
                21.088838
              ],
              [
                105.688629,
                21.088676
              ],
              [
                105.688642,
                21.088635
              ],
              [
                105.688677,
                21.088552
              ],
              [
                105.689384,
                21.088619
              ],
              [
                105.689384,
                21.088619
              ],
              [
                105.689592,
                21.088638
              ],
              [
                105.689604,
                21.088639
              ],
              [
                105.68989,
                21.088649
              ],
              [
                105.689941,
                21.088647
              ],
              [
                105.689962,
                21.08864
              ],
              [
                105.689974,
                21.088623
              ],
              [
                105.689989,
                21.08849
              ],
              [
                105.689999,
                21.088394
              ],
              [
                105.69004,
                21.088203
              ],
              [
                105.690119,
                21.08822
              ],
              [
                105.690233,
                21.088238
              ],
              [
                105.690419,
                21.08825
              ],
              [
                105.690531,
                21.088244
              ],
              [
                105.690625,
                21.08822
              ],
              [
                105.690727,
                21.088189
              ],
              [
                105.690857,
                21.088126
              ],
              [
                105.691077,
                21.088037
              ],
              [
                105.691177,
                21.088005
              ],
              [
                105.69136,
                21.087946
              ],
              [
                105.691437,
                21.087918
              ],
              [
                105.691626,
                21.087847
              ],
              [
                105.691816,
                21.087773
              ],
              [
                105.69198,
                21.087705
              ],
              [
                105.69219,
                21.087626
              ],
              [
                105.692385,
                21.087549
              ],
              [
                105.692534,
                21.087494
              ],
              [
                105.692794,
                21.087397
              ],
              [
                105.693002,
                21.087321
              ],
              [
                105.69313,
                21.087273
              ],
              [
                105.693416,
                21.087166
              ],
              [
                105.693547,
                21.08712
              ],
              [
                105.693787,
                21.087027
              ],
              [
                105.693963,
                21.086962
              ],
              [
                105.694183,
                21.086879
              ],
              [
                105.694329,
                21.086826
              ],
              [
                105.694535,
                21.086752
              ],
              [
                105.694751,
                21.086674
              ],
              [
                105.694941,
                21.086601
              ],
              [
                105.695152,
                21.086523
              ],
              [
                105.695319,
                21.086462
              ],
              [
                105.695455,
                21.08641
              ],
              [
                105.695514,
                21.086386
              ],
              [
                105.695538,
                21.086377
              ],
              [
                105.695634,
                21.08634
              ],
              [
                105.695655,
                21.086337
              ],
              [
                105.695679,
                21.086337
              ],
              [
                105.695717,
                21.08634
              ],
              [
                105.695789,
                21.086366
              ],
              [
                105.695806,
                21.086374
              ],
              [
                105.69593,
                21.086435
              ],
              [
                105.695986,
                21.08646
              ],
              [
                105.696187,
                21.086536
              ],
              [
                105.696621,
                21.086718
              ],
              [
                105.696818,
                21.086785
              ],
              [
                105.696974,
                21.086432
              ],
              [
                105.697125,
                21.086079
              ],
              [
                105.697254,
                21.085801
              ],
              [
                105.697373,
                21.085517
              ],
              [
                105.697479,
                21.085275
              ],
              [
                105.697585,
                21.085056
              ],
              [
                105.697617,
                21.084991
              ],
              [
                105.697626,
                21.084959
              ],
              [
                105.697523,
                21.084956
              ],
              [
                105.697446,
                21.084955
              ],
              [
                105.697325,
                21.084948
              ],
              [
                105.697244,
                21.084944
              ],
              [
                105.697154,
                21.084939
              ],
              [
                105.696976,
                21.084928
              ],
              [
                105.696976,
                21.084912
              ],
              [
                105.696979,
                21.084883
              ],
              [
                105.696984,
                21.084692
              ],
              [
                105.696985,
                21.084644
              ],
              [
                105.696986,
                21.084585
              ],
              [
                105.696988,
                21.084411
              ],
              [
                105.696988,
                21.084381
              ],
              [
                105.696989,
                21.084277
              ],
              [
                105.69699,
                21.084258
              ],
              [
                105.69699,
                21.084227
              ],
              [
                105.696991,
                21.084172
              ],
              [
                105.696993,
                21.084042
              ],
              [
                105.696994,
                21.084023
              ],
              [
                105.696994,
                21.083972
              ],
              [
                105.696995,
                21.083945
              ],
              [
                105.696998,
                21.083665
              ],
              [
                105.696998,
                21.083658
              ],
              [
                105.696999,
                21.08353
              ],
              [
                105.697119,
                21.083533
              ],
              [
                105.697257,
                21.08354
              ],
              [
                105.697296,
                21.083542
              ],
              [
                105.697335,
                21.083544
              ],
              [
                105.697575,
                21.083556
              ],
              [
                105.697642,
                21.083559
              ],
              [
                105.697673,
                21.08356
              ],
              [
                105.697882,
                21.08357
              ],
              [
                105.697903,
                21.083571
              ],
              [
                105.697962,
                21.083574
              ],
              [
                105.697999,
                21.083576
              ],
              [
                105.69811,
                21.083582
              ],
              [
                105.698199,
                21.083586
              ],
              [
                105.698206,
                21.083585
              ],
              [
                105.698206,
                21.083585
              ],
              [
                105.698015,
                21.082673
              ],
              [
                105.698014,
                21.082657
              ],
              [
                105.698022,
                21.082654
              ],
              [
                105.698034,
                21.082648
              ],
              [
                105.69807,
                21.082628
              ],
              [
                105.698153,
                21.082586
              ],
              [
                105.698244,
                21.08254
              ],
              [
                105.698323,
                21.082498
              ],
              [
                105.698444,
                21.082434
              ],
              [
                105.698535,
                21.08238
              ],
              [
                105.698706,
                21.082284
              ],
              [
                105.69882,
                21.082222
              ],
              [
                105.698998,
                21.082127
              ],
              [
                105.699226,
                21.082012
              ],
              [
                105.699371,
                21.081933
              ],
              [
                105.699539,
                21.081842
              ],
              [
                105.6998,
                21.081707
              ],
              [
                105.70002,
                21.081589
              ],
              [
                105.700231,
                21.081476
              ],
              [
                105.700329,
                21.081423
              ],
              [
                105.700424,
                21.081372
              ],
              [
                105.700535,
                21.081319
              ],
              [
                105.70062,
                21.081276
              ],
              [
                105.700667,
                21.081251
              ],
              [
                105.700731,
                21.081215
              ],
              [
                105.700818,
                21.081165
              ],
              [
                105.700932,
                21.081101
              ],
              [
                105.701044,
                21.08104
              ],
              [
                105.701173,
                21.080953
              ],
              [
                105.701251,
                21.0809
              ],
              [
                105.701347,
                21.080835
              ],
              [
                105.701436,
                21.080765
              ],
              [
                105.701458,
                21.080743
              ],
              [
                105.701439,
                21.080679
              ],
              [
                105.70141,
                21.080595
              ],
              [
                105.701298,
                21.080334
              ],
              [
                105.701241,
                21.080193
              ],
              [
                105.701221,
                21.080128
              ],
              [
                105.701205,
                21.080053
              ],
              [
                105.701201,
                21.08001
              ],
              [
                105.701203,
                21.07999
              ],
              [
                105.701209,
                21.079976
              ],
              [
                105.701222,
                21.079959
              ],
              [
                105.701301,
                21.0799
              ],
              [
                105.701337,
                21.079867
              ],
              [
                105.701351,
                21.079837
              ],
              [
                105.701356,
                21.079797
              ],
              [
                105.70135,
                21.07974
              ],
              [
                105.701316,
                21.079644
              ],
              [
                105.701265,
                21.079523
              ],
              [
                105.701213,
                21.079408
              ],
              [
                105.701081,
                21.079096
              ],
              [
                105.70092,
                21.078743
              ],
              [
                105.700793,
                21.078486
              ],
              [
                105.700687,
                21.078252
              ],
              [
                105.700638,
                21.078163
              ],
              [
                105.700625,
                21.078169
              ],
              [
                105.700555,
                21.078055
              ],
              [
                105.700535,
                21.077761
              ],
              [
                105.699898,
                21.077278
              ],
              [
                105.6998,
                21.076792
              ],
              [
                105.699773,
                21.07649
              ],
              [
                105.699717,
                21.076466
              ],
              [
                105.699457,
                21.076089
              ],
              [
                105.699278,
                21.075829
              ],
              [
                105.699114,
                21.07559
              ],
              [
                105.699037,
                21.075462
              ],
              [
                105.698992,
                21.075389
              ],
              [
                105.698843,
                21.07514
              ],
              [
                105.69884,
                21.075136
              ],
              [
                105.698837,
                21.075129
              ],
              [
                105.698797,
                21.075057
              ],
              [
                105.698786,
                21.075039
              ],
              [
                105.698679,
                21.074845
              ],
              [
                105.698801,
                21.074776
              ],
              [
                105.69884,
                21.074754
              ],
              [
                105.698884,
                21.07473
              ],
              [
                105.699041,
                21.074642
              ],
              [
                105.699119,
                21.074598
              ],
              [
                105.699223,
                21.07454
              ],
              [
                105.699396,
                21.074443
              ],
              [
                105.699432,
                21.074423
              ],
              [
                105.699453,
                21.074411
              ],
              [
                105.699513,
                21.07438
              ],
              [
                105.699627,
                21.07432
              ],
              [
                105.699794,
                21.074233
              ],
              [
                105.699834,
                21.074212
              ],
              [
                105.69985,
                21.074202
              ],
              [
                105.700097,
                21.074058
              ],
              [
                105.700169,
                21.074015
              ],
              [
                105.700228,
                21.073984
              ],
              [
                105.700272,
                21.073961
              ],
              [
                105.700691,
                21.073739
              ],
              [
                105.700809,
                21.073677
              ],
              [
                105.700997,
                21.073577
              ],
              [
                105.700998,
                21.073577
              ],
              [
                105.701101,
                21.073523
              ],
              [
                105.701114,
                21.073516
              ],
              [
                105.701128,
                21.073508
              ],
              [
                105.701168,
                21.073487
              ],
              [
                105.701318,
                21.073408
              ],
              [
                105.701346,
                21.073393
              ],
              [
                105.701407,
                21.073359
              ],
              [
                105.701481,
                21.073319
              ],
              [
                105.701517,
                21.073299
              ],
              [
                105.701599,
                21.073254
              ],
              [
                105.701743,
                21.073175
              ],
              [
                105.701907,
                21.073084
              ],
              [
                105.701949,
                21.073061
              ],
              [
                105.702087,
                21.072985
              ],
              [
                105.702187,
                21.072931
              ],
              [
                105.70244,
                21.072793
              ],
              [
                105.702826,
                21.072593
              ],
              [
                105.70284,
                21.072585
              ],
              [
                105.702923,
                21.072539
              ],
              [
                105.703022,
                21.072485
              ],
              [
                105.703572,
                21.072179
              ],
              [
                105.703996,
                21.071945
              ],
              [
                105.704091,
                21.071892
              ],
              [
                105.704243,
                21.071808
              ],
              [
                105.704337,
                21.071756
              ],
              [
                105.704388,
                21.071727
              ],
              [
                105.704392,
                21.071725
              ],
              [
                105.704516,
                21.071657
              ],
              [
                105.704522,
                21.071654
              ],
              [
                105.704678,
                21.071567
              ],
              [
                105.704725,
                21.071541
              ],
              [
                105.704726,
                21.071541
              ],
              [
                105.704926,
                21.07143
              ],
              [
                105.705039,
                21.071368
              ],
              [
                105.705115,
                21.071492
              ],
              [
                105.705,
                21.071556
              ],
              [
                105.704969,
                21.071573
              ],
              [
                105.705013,
                21.07162
              ],
              [
                105.705062,
                21.071676
              ],
              [
                105.705083,
                21.071695
              ],
              [
                105.705113,
                21.071711
              ],
              [
                105.705137,
                21.071727
              ],
              [
                105.705165,
                21.071756
              ],
              [
                105.705195,
                21.071794
              ],
              [
                105.705241,
                21.071876
              ],
              [
                105.705362,
                21.072204
              ],
              [
                105.705546,
                21.072148
              ],
              [
                105.705618,
                21.072127
              ],
              [
                105.705712,
                21.072102
              ],
              [
                105.705802,
                21.072078
              ],
              [
                105.705808,
                21.072076
              ],
              [
                105.705921,
                21.072046
              ],
              [
                105.705952,
                21.072037
              ],
              [
                105.705995,
                21.072026
              ],
              [
                105.70606,
                21.072011
              ],
              [
                105.706127,
                21.071995
              ],
              [
                105.706171,
                21.071984
              ],
              [
                105.706204,
                21.071976
              ],
              [
                105.706203,
                21.071972
              ],
              [
                105.70628,
                21.071951
              ],
              [
                105.706501,
                21.071892
              ],
              [
                105.706515,
                21.071913
              ],
              [
                105.708157,
                21.071153
              ],
              [
                105.708212,
                21.071122
              ],
              [
                105.708212,
                21.071122
              ],
              [
                105.70822,
                21.071118
              ],
              [
                105.708313,
                21.071338
              ],
              [
                105.708321,
                21.071361
              ],
              [
                105.708363,
                21.071486
              ],
              [
                105.708398,
                21.071583
              ],
              [
                105.708451,
                21.071738
              ],
              [
                105.708495,
                21.071863
              ],
              [
                105.70852,
                21.071932
              ],
              [
                105.708546,
                21.072014
              ],
              [
                105.708589,
                21.072134
              ],
              [
                105.708598,
                21.072165
              ],
              [
                105.708625,
                21.072258
              ],
              [
                105.708628,
                21.072268
              ],
              [
                105.708632,
                21.072279
              ],
              [
                105.708752,
                21.072646
              ],
              [
                105.70886,
                21.072973
              ],
              [
                105.708965,
                21.073308
              ],
              [
                105.709093,
                21.07369
              ],
              [
                105.709218,
                21.07407
              ],
              [
                105.709238,
                21.074063
              ],
              [
                105.709285,
                21.074205
              ],
              [
                105.709314,
                21.074291
              ],
              [
                105.709327,
                21.074327
              ],
              [
                105.709467,
                21.074738
              ],
              [
                105.709533,
                21.074942
              ],
              [
                105.709569,
                21.075052
              ],
              [
                105.709606,
                21.075173
              ],
              [
                105.709622,
                21.075231
              ],
              [
                105.71019,
                21.07518
              ],
              [
                105.710237,
                21.075175
              ],
              [
                105.710429,
                21.075131
              ],
              [
                105.710551,
                21.07511
              ],
              [
                105.710686,
                21.075083
              ],
              [
                105.710755,
                21.075061
              ],
              [
                105.71088,
                21.07501
              ],
              [
                105.710881,
                21.075009
              ],
              [
                105.711053,
                21.074935
              ],
              [
                105.711134,
                21.074903
              ],
              [
                105.711204,
                21.07488
              ],
              [
                105.711302,
                21.074852
              ],
              [
                105.711354,
                21.074835
              ],
              [
                105.71138,
                21.074827
              ],
              [
                105.711465,
                21.074797
              ],
              [
                105.711556,
                21.074741
              ],
              [
                105.713356,
                21.074247
              ],
              [
                105.714234,
                21.073994
              ],
              [
                105.714571,
                21.073895
              ],
              [
                105.714643,
                21.073874
              ],
              [
                105.715014,
                21.073767
              ],
              [
                105.715452,
                21.073639
              ],
              [
                105.715565,
                21.073606
              ],
              [
                105.715919,
                21.073503
              ],
              [
                105.716407,
                21.073362
              ],
              [
                105.716574,
                21.073313
              ],
              [
                105.716616,
                21.0733
              ],
              [
                105.716755,
                21.07326
              ],
              [
                105.716813,
                21.073242
              ],
              [
                105.71726,
                21.073113
              ],
              [
                105.717265,
                21.073111
              ],
              [
                105.717321,
                21.073094
              ],
              [
                105.717342,
                21.073086
              ],
              [
                105.717356,
                21.073079
              ],
              [
                105.717371,
                21.073072
              ],
              [
                105.71739,
                21.073058
              ],
              [
                105.719125,
                21.072466
              ],
              [
                105.720019,
                21.071984
              ],
              [
                105.724527,
                21.06917
              ],
              [
                105.724527,
                21.06917
              ]
            ]
          ]
        ]
      },
      "properties": {
        "code": "09832",
        "name": "Hoài Đức",
        "nameEn": "Hoai Duc",
        "fullName": "Xã Hoài Đức",
        "fullNameEn": "Hoai Duc Commune",
        "codeName": "hoai_duc",
        "postalCode": "13226",
        "postalCodePrefix": "",
        "gisServerId": "diaphanhanhchinhcapxa_2025.3279",
        "areaKm2": 16.73
      }
    }
  ]
}