{
  "type": "FeatureCollection",
  "bbox": [
    105.646224,
    21.021869,
    105.696846,
    21.076269
  ],
  "features": [
    {
      "type": "Feature",
      "id": "09856",
      "bbox": [
        105.646224,
        21.021869,
        105.696846,
        21.076269
      ],
      "geometry": {
        "type": "MultiPolygon",
        "coordinates": [
          [
            [
              [
                105.681721,
                21.070325
              ],
              [
                105.681744,
                21.070319
              ],
              [
                105.681872,
                21.070334
              ],
              [
                105.682025,
                21.070352
              ],
              [
                105.682073,
                21.070361
              ],
              [
                105.682254,
                21.070393
              ],
              [
                105.682436,
                21.070426
              ],
              [
                105.682711,
                21.070475
              ],
              [
                105.682822,
                21.070495
              ],
              [
                105.683112,
                21.070547
              ],
              [
                105.683277,
                21.070576
              ],
              [
                105.68342,
                21.070602
              ],
              [
                105.683626,
                21.070639
              ],
              [
                105.683646,
                21.070642
              ],
              [
                105.683648,
                21.070642
              ],
              [
                105.684485,
                21.070792
              ],
              [
                105.684656,
                21.070822
              ],
              [
                105.685057,
                21.070883
              ],
              [
                105.685071,
                21.070841
              ],
              [
                105.685085,
                21.070798
              ],
              [
                105.685159,
                21.070567
              ],
              [
                105.685161,
                21.07056
              ],
              [
                105.685294,
                21.070147
              ],
              [
                105.685355,
                21.06996
              ],
              [
                105.685357,
                21.069951
              ],
              [
                105.685441,
                21.069692
              ],
              [
                105.685558,
                21.069328
              ],
              [
                105.685621,
                21.069132
              ],
              [
                105.685715,
                21.06884
              ],
              [
                105.685743,
                21.068755
              ],
              [
                105.685813,
                21.068538
              ],
              [
                105.685919,
                21.068207
              ],
              [
                105.685941,
                21.068138
              ],
              [
                105.685965,
                21.068065
              ],
              [
                105.686112,
                21.067608
              ],
              [
                105.686134,
                21.067542
              ],
              [
                105.686195,
                21.067352
              ],
              [
                105.686246,
                21.067197
              ],
              [
                105.68644,
                21.066602
              ],
              [
                105.686566,
                21.066213
              ],
              [
                105.686681,
                21.065861
              ],
              [
                105.686902,
                21.065183
              ],
              [
                105.686946,
                21.065045
              ],
              [
                105.686981,
                21.064938
              ],
              [
                105.687038,
                21.064765
              ],
              [
                105.687117,
                21.064511
              ],
              [
                105.68714,
                21.064434
              ],
              [
                105.687189,
                21.064269
              ],
              [
                105.68723,
                21.064154
              ],
              [
                105.687259,
                21.064064
              ],
              [
                105.687413,
                21.063579
              ],
              [
                105.687466,
                21.063439
              ],
              [
                105.687544,
                21.063185
              ],
              [
                105.687699,
                21.062736
              ],
              [
                105.687783,
                21.062465
              ],
              [
                105.687874,
                21.062142
              ],
              [
                105.6884,
                21.060535
              ],
              [
                105.688464,
                21.06034
              ],
              [
                105.688473,
                21.060314
              ],
              [
                105.688638,
                21.059858
              ],
              [
                105.68871,
                21.05966
              ],
              [
                105.68896,
                21.058975
              ],
              [
                105.688984,
                21.058919
              ],
              [
                105.689253,
                21.058307
              ],
              [
                105.689302,
                21.058197
              ],
              [
                105.689383,
                21.057999
              ],
              [
                105.689523,
                21.057662
              ],
              [
                105.689763,
                21.057083
              ],
              [
                105.689763,
                21.057082
              ],
              [
                105.689795,
                21.057006
              ],
              [
                105.689971,
                21.056562
              ],
              [
                105.690043,
                21.056569
              ],
              [
                105.690316,
                21.056622
              ],
              [
                105.690746,
                21.056725
              ],
              [
                105.69081,
                21.056727
              ],
              [
                105.690858,
                21.056715
              ],
              [
                105.69088,
                21.056702
              ],
              [
                105.690894,
                21.056666
              ],
              [
                105.69102,
                21.056366
              ],
              [
                105.691104,
                21.056156
              ],
              [
                105.691222,
                21.055872
              ],
              [
                105.691398,
                21.055399
              ],
              [
                105.691548,
                21.055061
              ],
              [
                105.691687,
                21.054724
              ],
              [
                105.691846,
                21.054326
              ],
              [
                105.69216,
                21.053568
              ],
              [
                105.692328,
                21.053166
              ],
              [
                105.69242,
                21.052935
              ],
              [
                105.692558,
                21.052558
              ],
              [
                105.692588,
                21.052479
              ],
              [
                105.692808,
                21.051915
              ],
              [
                105.692903,
                21.051655
              ],
              [
                105.69297,
                21.051521
              ],
              [
                105.693041,
                21.05148
              ],
              [
                105.692916,
                21.051474
              ],
              [
                105.692877,
                21.051472
              ],
              [
                105.692871,
                21.051469
              ],
              [
                105.692778,
                21.051422
              ],
              [
                105.69261,
                21.051306
              ],
              [
                105.692551,
                21.051258
              ],
              [
                105.692532,
                21.051194
              ],
              [
                105.692539,
                21.051099
              ],
              [
                105.692548,
                21.05098
              ],
              [
                105.692529,
                21.05084
              ],
              [
                105.692526,
                21.050768
              ],
              [
                105.692501,
                21.050284
              ],
              [
                105.692502,
                21.050156
              ],
              [
                105.692505,
                21.049752
              ],
              [
                105.692507,
                21.049674
              ],
              [
                105.692513,
                21.049379
              ],
              [
                105.69252,
                21.049053
              ],
              [
                105.692518,
                21.048933
              ],
              [
                105.692515,
                21.048693
              ],
              [
                105.69251,
                21.048303
              ],
              [
                105.69251,
                21.04827
              ],
              [
                105.692511,
                21.048084
              ],
              [
                105.692513,
                21.04789
              ],
              [
                105.692515,
                21.047688
              ],
              [
                105.692517,
                21.047359
              ],
              [
                105.692518,
                21.047242
              ],
              [
                105.692519,
                21.047187
              ],
              [
                105.692522,
                21.04666
              ],
              [
                105.692523,
                21.046417
              ],
              [
                105.692523,
                21.046398
              ],
              [
                105.692524,
                21.046374
              ],
              [
                105.692531,
                21.045585
              ],
              [
                105.692531,
                21.045556
              ],
              [
                105.692524,
                21.04508
              ],
              [
                105.692531,
                21.044744
              ],
              [
                105.692531,
                21.044741
              ],
              [
                105.692532,
                21.044558
              ],
              [
                105.692532,
                21.044414
              ],
              [
                105.692533,
                21.044177
              ],
              [
                105.692533,
                21.044067
              ],
              [
                105.692532,
                21.043946
              ],
              [
                105.692531,
                21.043718
              ],
              [
                105.69253,
                21.043381
              ],
              [
                105.692529,
                21.043363
              ],
              [
                105.692528,
                21.043159
              ],
              [
                105.692525,
                21.042874
              ],
              [
                105.692522,
                21.042602
              ],
              [
                105.692522,
                21.042548
              ],
              [
                105.692521,
                21.0424
              ],
              [
                105.692523,
                21.042222
              ],
              [
                105.692524,
                21.042205
              ],
              [
                105.692528,
                21.041935
              ],
              [
                105.692535,
                21.041543
              ],
              [
                105.692535,
                21.041484
              ],
              [
                105.692535,
                21.041151
              ],
              [
                105.692536,
                21.040918
              ],
              [
                105.692536,
                21.04081
              ],
              [
                105.692536,
                21.040802
              ],
              [
                105.692534,
                21.040412
              ],
              [
                105.692532,
                21.039979
              ],
              [
                105.692531,
                21.039822
              ],
              [
                105.692531,
                21.03968
              ],
              [
                105.69253,
                21.039164
              ],
              [
                105.692529,
                21.038907
              ],
              [
                105.692529,
                21.038827
              ],
              [
                105.69253,
                21.038625
              ],
              [
                105.69253,
                21.03845
              ],
              [
                105.692531,
                21.038139
              ],
              [
                105.692532,
                21.038014
              ],
              [
                105.692525,
                21.037621
              ],
              [
                105.69252,
                21.037354
              ],
              [
                105.692513,
                21.03694
              ],
              [
                105.692513,
                21.036884
              ],
              [
                105.692513,
                21.036642
              ],
              [
                105.692512,
                21.036435
              ],
              [
                105.692512,
                21.036188
              ],
              [
                105.692511,
                21.035825
              ],
              [
                105.692511,
                21.035741
              ],
              [
                105.692511,
                21.035684
              ],
              [
                105.692509,
                21.035597
              ],
              [
                105.692509,
                21.03555
              ],
              [
                105.692507,
                21.035396
              ],
              [
                105.692506,
                21.035356
              ],
              [
                105.692507,
                21.035335
              ],
              [
                105.692512,
                21.035148
              ],
              [
                105.692531,
                21.035147
              ],
              [
                105.692822,
                21.035088
              ],
              [
                105.69287,
                21.035079
              ],
              [
                105.693171,
                21.035017
              ],
              [
                105.693231,
                21.035005
              ],
              [
                105.693251,
                21.034999
              ],
              [
                105.69339,
                21.034953
              ],
              [
                105.693443,
                21.034922
              ],
              [
                105.69346,
                21.034905
              ],
              [
                105.693481,
                21.034863
              ],
              [
                105.693523,
                21.034779
              ],
              [
                105.693568,
                21.034689
              ],
              [
                105.69358,
                21.034659
              ],
              [
                105.693619,
                21.03456
              ],
              [
                105.693658,
                21.03446
              ],
              [
                105.693705,
                21.034341
              ],
              [
                105.69376,
                21.0342
              ],
              [
                105.693783,
                21.034141
              ],
              [
                105.69386,
                21.033945
              ],
              [
                105.693863,
                21.033938
              ],
              [
                105.693948,
                21.033723
              ],
              [
                105.693962,
                21.033687
              ],
              [
                105.694006,
                21.033574
              ],
              [
                105.694057,
                21.033454
              ],
              [
                105.694069,
                21.033426
              ],
              [
                105.694101,
                21.033353
              ],
              [
                105.694122,
                21.033304
              ],
              [
                105.694205,
                21.03311
              ],
              [
                105.694218,
                21.033079
              ],
              [
                105.694302,
                21.032881
              ],
              [
                105.69433,
                21.032817
              ],
              [
                105.694357,
                21.032754
              ],
              [
                105.694405,
                21.032641
              ],
              [
                105.694426,
                21.032593
              ],
              [
                105.694492,
                21.032439
              ],
              [
                105.694501,
                21.03242
              ],
              [
                105.694527,
                21.032377
              ],
              [
                105.694527,
                21.032377
              ],
              [
                105.694639,
                21.032301
              ],
              [
                105.694825,
                21.032184
              ],
              [
                105.694905,
                21.032135
              ],
              [
                105.694913,
                21.032131
              ],
              [
                105.694921,
                21.032125
              ],
              [
                105.695067,
                21.032036
              ],
              [
                105.695259,
                21.031919
              ],
              [
                105.69546,
                21.031797
              ],
              [
                105.695559,
                21.031737
              ],
              [
                105.695657,
                21.031677
              ],
              [
                105.695859,
                21.031554
              ],
              [
                105.69588,
                21.031541
              ],
              [
                105.696,
                21.031469
              ],
              [
                105.696139,
                21.031384
              ],
              [
                105.696306,
                21.031283
              ],
              [
                105.696393,
                21.03123
              ],
              [
                105.696438,
                21.031203
              ],
              [
                105.696588,
                21.031112
              ],
              [
                105.696626,
                21.031089
              ],
              [
                105.696641,
                21.03108
              ],
              [
                105.696501,
                21.030718
              ],
              [
                105.696689,
                21.030658
              ],
              [
                105.696801,
                21.030621
              ],
              [
                105.696846,
                21.030569
              ],
              [
                105.695704,
                21.030047
              ],
              [
                105.695704,
                21.030046
              ],
              [
                105.695382,
                21.030112
              ],
              [
                105.695012,
                21.030175
              ],
              [
                105.693655,
                21.030406
              ],
              [
                105.693596,
                21.030416
              ],
              [
                105.693188,
                21.030487
              ],
              [
                105.692646,
                21.030581
              ],
              [
                105.692588,
                21.03059
              ],
              [
                105.692435,
                21.030616
              ],
              [
                105.692204,
                21.030656
              ],
              [
                105.691569,
                21.030765
              ],
              [
                105.689383,
                21.031142
              ],
              [
                105.689012,
                21.031205
              ],
              [
                105.687859,
                21.031387
              ],
              [
                105.687841,
                21.03139
              ],
              [
                105.687694,
                21.031427
              ],
              [
                105.68764,
                21.03144
              ],
              [
                105.686997,
                21.031596
              ],
              [
                105.686624,
                21.031683
              ],
              [
                105.686523,
                21.031707
              ],
              [
                105.686171,
                21.031803
              ],
              [
                105.68602,
                21.031845
              ],
              [
                105.685994,
                21.031856
              ],
              [
                105.68562,
                21.032028
              ],
              [
                105.685617,
                21.032029
              ],
              [
                105.685581,
                21.032048
              ],
              [
                105.685502,
                21.03209
              ],
              [
                105.685434,
                21.032125
              ],
              [
                105.685384,
                21.032151
              ],
              [
                105.685264,
                21.032261
              ],
              [
                105.685224,
                21.032297
              ],
              [
                105.685197,
                21.032325
              ],
              [
                105.685183,
                21.032339
              ],
              [
                105.685072,
                21.032452
              ],
              [
                105.684254,
                21.033282
              ],
              [
                105.683622,
                21.033931
              ],
              [
                105.683553,
                21.034002
              ],
              [
                105.683501,
                21.03406
              ],
              [
                105.683304,
                21.033909
              ],
              [
                105.68306,
                21.033735
              ],
              [
                105.682973,
                21.033691
              ],
              [
                105.682837,
                21.033651
              ],
              [
                105.682634,
                21.033526
              ],
              [
                105.682526,
                21.033459
              ],
              [
                105.682492,
                21.033422
              ],
              [
                105.682492,
                21.033405
              ],
              [
                105.682412,
                21.033157
              ],
              [
                105.682428,
                21.033097
              ],
              [
                105.682441,
                21.033053
              ],
              [
                105.682505,
                21.032882
              ],
              [
                105.68254,
                21.032755
              ],
              [
                105.682522,
                21.032663
              ],
              [
                105.682479,
                21.032525
              ],
              [
                105.682443,
                21.032406
              ],
              [
                105.682434,
                21.032378
              ],
              [
                105.682345,
                21.032102
              ],
              [
                105.682313,
                21.031958
              ],
              [
                105.682303,
                21.031914
              ],
              [
                105.682222,
                21.031671
              ],
              [
                105.6822,
                21.031632
              ],
              [
                105.6822,
                21.031629
              ],
              [
                105.6822,
                21.031625
              ],
              [
                105.681902,
                21.031699
              ],
              [
                105.681799,
                21.031426
              ],
              [
                105.681755,
                21.031138
              ],
              [
                105.681763,
                21.030677
              ],
              [
                105.681834,
                21.030382
              ],
              [
                105.681945,
                21.03011
              ],
              [
                105.681942,
                21.030092
              ],
              [
                105.682005,
                21.029913
              ],
              [
                105.68205,
                21.029776
              ],
              [
                105.682066,
                21.029751
              ],
              [
                105.681903,
                21.029684
              ],
              [
                105.681711,
                21.029606
              ],
              [
                105.681908,
                21.029009
              ],
              [
                105.681804,
                21.02881
              ],
              [
                105.681608,
                21.028433
              ],
              [
                105.681539,
                21.0283
              ],
              [
                105.681524,
                21.028243
              ],
              [
                105.681421,
                21.028094
              ],
              [
                105.681364,
                21.027958
              ],
              [
                105.679687,
                21.02533
              ],
              [
                105.679109,
                21.025659
              ],
              [
                105.678103,
                21.024039
              ],
              [
                105.677674,
                21.02321
              ],
              [
                105.674138,
                21.025121
              ],
              [
                105.673519,
                21.024109
              ],
              [
                105.673219,
                21.023608
              ],
              [
                105.672923,
                21.023104
              ],
              [
                105.672675,
                21.022701
              ],
              [
                105.672175,
                21.021872
              ],
              [
                105.672173,
                21.021869
              ],
              [
                105.671923,
                21.022007
              ],
              [
                105.671901,
                21.022019
              ],
              [
                105.671785,
                21.022081
              ],
              [
                105.671766,
                21.022091
              ],
              [
                105.671074,
                21.022462
              ],
              [
                105.670465,
                21.022814
              ],
              [
                105.670014,
                21.023061
              ],
              [
                105.669745,
                21.023205
              ],
              [
                105.669017,
                21.023612
              ],
              [
                105.668919,
                21.023666
              ],
              [
                105.668722,
                21.023752
              ],
              [
                105.668728,
                21.023766
              ],
              [
                105.668733,
                21.023777
              ],
              [
                105.668757,
                21.023831
              ],
              [
                105.668864,
                21.024033
              ],
              [
                105.668936,
                21.024165
              ],
              [
                105.669108,
                21.024478
              ],
              [
                105.669173,
                21.024598
              ],
              [
                105.66929,
                21.024815
              ],
              [
                105.669295,
                21.024823
              ],
              [
                105.669269,
                21.024826
              ],
              [
                105.669041,
                21.024846
              ],
              [
                105.668954,
                21.026045
              ],
              [
                105.668919,
                21.026533
              ],
              [
                105.668919,
                21.026535
              ],
              [
                105.668901,
                21.026789
              ],
              [
                105.668429,
                21.026759
              ],
              [
                105.667989,
                21.026752
              ],
              [
                105.667889,
                21.027054
              ],
              [
                105.667673,
                21.027666
              ],
              [
                105.667674,
                21.027666
              ],
              [
                105.667444,
                21.02825
              ],
              [
                105.667293,
                21.028191
              ],
              [
                105.666844,
                21.028985
              ],
              [
                105.667601,
                21.029563
              ],
              [
                105.667328,
                21.029898
              ],
              [
                105.667267,
                21.029989
              ],
              [
                105.667262,
                21.029996
              ],
              [
                105.667111,
                21.030119
              ],
              [
                105.667025,
                21.030172
              ],
              [
                105.667182,
                21.030474
              ],
              [
                105.667195,
                21.030499
              ],
              [
                105.667281,
                21.030663
              ],
              [
                105.667257,
                21.030679
              ],
              [
                105.666607,
                21.030967
              ],
              [
                105.666607,
                21.030967
              ],
              [
                105.666591,
                21.030983
              ],
              [
                105.665849,
                21.031902
              ],
              [
                105.664414,
                21.033662
              ],
              [
                105.664281,
                21.033515
              ],
              [
                105.664253,
                21.033495
              ],
              [
                105.664179,
                21.033442
              ],
              [
                105.664026,
                21.033381
              ],
              [
                105.663873,
                21.033386
              ],
              [
                105.663689,
                21.033463
              ],
              [
                105.663681,
                21.033466
              ],
              [
                105.663579,
                21.033491
              ],
              [
                105.663415,
                21.033507
              ],
              [
                105.663496,
                21.033726
              ],
              [
                105.663,
                21.034369
              ],
              [
                105.662267,
                21.034709
              ],
              [
                105.662185,
                21.034441
              ],
              [
                105.661275,
                21.034728
              ],
              [
                105.661359,
                21.034991
              ],
              [
                105.660757,
                21.03521
              ],
              [
                105.660454,
                21.035331
              ],
              [
                105.657513,
                21.036493
              ],
              [
                105.656174,
                21.037028
              ],
              [
                105.654577,
                21.037615
              ],
              [
                105.654609,
                21.038689
              ],
              [
                105.654239,
                21.038901
              ],
              [
                105.654594,
                21.03958
              ],
              [
                105.652997,
                21.040348
              ],
              [
                105.653108,
                21.04079
              ],
              [
                105.652853,
                21.041847
              ],
              [
                105.652666,
                21.042113
              ],
              [
                105.652638,
                21.042164
              ],
              [
                105.6526,
                21.042322
              ],
              [
                105.652536,
                21.042589
              ],
              [
                105.652204,
                21.042704
              ],
              [
                105.651804,
                21.042978
              ],
              [
                105.651351,
                21.043413
              ],
              [
                105.65114,
                21.043645
              ],
              [
                105.651134,
                21.043657
              ],
              [
                105.651034,
                21.043842
              ],
              [
                105.651025,
                21.043866
              ],
              [
                105.650941,
                21.044067
              ],
              [
                105.650927,
                21.044104
              ],
              [
                105.65086,
                21.04428
              ],
              [
                105.65083,
                21.044361
              ],
              [
                105.650799,
                21.04466
              ],
              [
                105.650528,
                21.045512
              ],
              [
                105.650513,
                21.045581
              ],
              [
                105.650328,
                21.046401
              ],
              [
                105.650315,
                21.046478
              ],
              [
                105.650151,
                21.047451
              ],
              [
                105.650034,
                21.048143
              ],
              [
                105.64997,
                21.048522
              ],
              [
                105.649792,
                21.049577
              ],
              [
                105.649672,
                21.0503
              ],
              [
                105.649652,
                21.050423
              ],
              [
                105.64957,
                21.050916
              ],
              [
                105.649433,
                21.051663
              ],
              [
                105.649325,
                21.052256
              ],
              [
                105.649226,
                21.052652
              ],
              [
                105.648985,
                21.053614
              ],
              [
                105.648972,
                21.053772
              ],
              [
                105.648937,
                21.054198
              ],
              [
                105.648809,
                21.055374
              ],
              [
                105.648675,
                21.056195
              ],
              [
                105.648617,
                21.056554
              ],
              [
                105.648509,
                21.056889
              ],
              [
                105.64836,
                21.057354
              ],
              [
                105.648345,
                21.057587
              ],
              [
                105.648325,
                21.057923
              ],
              [
                105.648245,
                21.058241
              ],
              [
                105.648048,
                21.058737
              ],
              [
                105.647888,
                21.059
              ],
              [
                105.647825,
                21.059086
              ],
              [
                105.647635,
                21.059346
              ],
              [
                105.647122,
                21.06055
              ],
              [
                105.646965,
                21.061017
              ],
              [
                105.646775,
                21.061275
              ],
              [
                105.64668,
                21.061372
              ],
              [
                105.646573,
                21.061481
              ],
              [
                105.646429,
                21.061597
              ],
              [
                105.646305,
                21.062236
              ],
              [
                105.646244,
                21.062527
              ],
              [
                105.646226,
                21.062611
              ],
              [
                105.646225,
                21.062911
              ],
              [
                105.646224,
                21.063226
              ],
              [
                105.646337,
                21.063391
              ],
              [
                105.646398,
                21.063479
              ],
              [
                105.64648,
                21.0636
              ],
              [
                105.646656,
                21.063884
              ],
              [
                105.646684,
                21.063919
              ],
              [
                105.646691,
                21.063927
              ],
              [
                105.646738,
                21.063985
              ],
              [
                105.646767,
                21.064004
              ],
              [
                105.646859,
                21.064066
              ],
              [
                105.646863,
                21.064069
              ],
              [
                105.64706,
                21.064206
              ],
              [
                105.647132,
                21.064292
              ],
              [
                105.647174,
                21.064447
              ],
              [
                105.647176,
                21.064455
              ],
              [
                105.647212,
                21.064585
              ],
              [
                105.64725,
                21.064723
              ],
              [
                105.6473,
                21.064867
              ],
              [
                105.647333,
                21.064963
              ],
              [
                105.647412,
                21.065089
              ],
              [
                105.64748,
                21.065152
              ],
              [
                105.647531,
                21.065176
              ],
              [
                105.647593,
                21.065195
              ],
              [
                105.647681,
                21.065197
              ],
              [
                105.647774,
                21.065175
              ],
              [
                105.647864,
                21.065136
              ],
              [
                105.64788,
                21.06512
              ],
              [
                105.647967,
                21.065036
              ],
              [
                105.647975,
                21.065024
              ],
              [
                105.648083,
                21.064864
              ],
              [
                105.648116,
                21.064816
              ],
              [
                105.648158,
                21.064774
              ],
              [
                105.648164,
                21.064764
              ],
              [
                105.648191,
                21.064742
              ],
              [
                105.648192,
                21.064741
              ],
              [
                105.648216,
                21.06473
              ],
              [
                105.648273,
                21.064704
              ],
              [
                105.648305,
                21.0647
              ],
              [
                105.64835,
                21.064704
              ],
              [
                105.648402,
                21.064718
              ],
              [
                105.64847,
                21.064752
              ],
              [
                105.648505,
                21.06477
              ],
              [
                105.648564,
                21.064772
              ],
              [
                105.648574,
                21.064772
              ],
              [
                105.648818,
                21.064755
              ],
              [
                105.648855,
                21.064753
              ],
              [
                105.649274,
                21.064741
              ],
              [
                105.649279,
                21.064741
              ],
              [
                105.649551,
                21.064759
              ],
              [
                105.6496,
                21.064762
              ],
              [
                105.649707,
                21.064756
              ],
              [
                105.649783,
                21.064727
              ],
              [
                105.649862,
                21.064687
              ],
              [
                105.649966,
                21.064574
              ],
              [
                105.650157,
                21.064341
              ],
              [
                105.650507,
                21.06389
              ],
              [
                105.650723,
                21.063642
              ],
              [
                105.650917,
                21.063495
              ],
              [
                105.651158,
                21.063348
              ],
              [
                105.651232,
                21.063307
              ],
              [
                105.651554,
                21.063129
              ],
              [
                105.65165,
                21.063068
              ],
              [
                105.651908,
                21.062905
              ],
              [
                105.652014,
                21.062837
              ],
              [
                105.652395,
                21.062569
              ],
              [
                105.652614,
                21.062391
              ],
              [
                105.652849,
                21.062183
              ],
              [
                105.652894,
                21.062143
              ],
              [
                105.653156,
                21.061861
              ],
              [
                105.653395,
                21.06166
              ],
              [
                105.653479,
                21.06159
              ],
              [
                105.6538,
                21.061311
              ],
              [
                105.653885,
                21.061244
              ],
              [
                105.653902,
                21.061231
              ],
              [
                105.654087,
                21.061116
              ],
              [
                105.6542,
                21.061048
              ],
              [
                105.654309,
                21.060983
              ],
              [
                105.654415,
                21.060921
              ],
              [
                105.654416,
                21.06092
              ],
              [
                105.654587,
                21.060827
              ],
              [
                105.654746,
                21.060685
              ],
              [
                105.654765,
                21.060668
              ],
              [
                105.654848,
                21.060597
              ],
              [
                105.655056,
                21.060451
              ],
              [
                105.655116,
                21.060408
              ],
              [
                105.655303,
                21.060274
              ],
              [
                105.65538,
                21.060219
              ],
              [
                105.655451,
                21.060168
              ],
              [
                105.655611,
                21.06007
              ],
              [
                105.655845,
                21.059944
              ],
              [
                105.656097,
                21.059814
              ],
              [
                105.656481,
                21.059653
              ],
              [
                105.656495,
                21.059647
              ],
              [
                105.656528,
                21.059633
              ],
              [
                105.656661,
                21.059576
              ],
              [
                105.656857,
                21.059491
              ],
              [
                105.65696,
                21.059449
              ],
              [
                105.657455,
                21.059245
              ],
              [
                105.657555,
                21.059207
              ],
              [
                105.658007,
                21.059036
              ],
              [
                105.65835,
                21.058978
              ],
              [
                105.659266,
                21.05881
              ],
              [
                105.65959,
                21.058728
              ],
              [
                105.660064,
                21.0587
              ],
              [
                105.660087,
                21.058699
              ],
              [
                105.660368,
                21.058689
              ],
              [
                105.660795,
                21.058683
              ],
              [
                105.661175,
                21.058704
              ],
              [
                105.661301,
                21.058711
              ],
              [
                105.6615,
                21.058721
              ],
              [
                105.661516,
                21.058723
              ],
              [
                105.661739,
                21.058752
              ],
              [
                105.661777,
                21.058761
              ],
              [
                105.661913,
                21.058794
              ],
              [
                105.662026,
                21.058831
              ],
              [
                105.662186,
                21.058904
              ],
              [
                105.662416,
                21.059041
              ],
              [
                105.662601,
                21.059163
              ],
              [
                105.662786,
                21.059274
              ],
              [
                105.662948,
                21.059374
              ],
              [
                105.663097,
                21.059467
              ],
              [
                105.663257,
                21.059578
              ],
              [
                105.663401,
                21.059669
              ],
              [
                105.663536,
                21.059777
              ],
              [
                105.663606,
                21.059851
              ],
              [
                105.663698,
                21.059969
              ],
              [
                105.66378,
                21.06004
              ],
              [
                105.663809,
                21.060066
              ],
              [
                105.663903,
                21.060159
              ],
              [
                105.663999,
                21.060327
              ],
              [
                105.664022,
                21.060382
              ],
              [
                105.664076,
                21.060519
              ],
              [
                105.664087,
                21.060542
              ],
              [
                105.664099,
                21.060582
              ],
              [
                105.664144,
                21.060685
              ],
              [
                105.664145,
                21.060687
              ],
              [
                105.664148,
                21.060693
              ],
              [
                105.664204,
                21.060812
              ],
              [
                105.664232,
                21.060928
              ],
              [
                105.664245,
                21.061026
              ],
              [
                105.664245,
                21.061027
              ],
              [
                105.664247,
                21.061047
              ],
              [
                105.664273,
                21.061195
              ],
              [
                105.664264,
                21.06126
              ],
              [
                105.664242,
                21.061314
              ],
              [
                105.664221,
                21.061363
              ],
              [
                105.664219,
                21.061365
              ],
              [
                105.664214,
                21.06138
              ],
              [
                105.664209,
                21.061394
              ],
              [
                105.664209,
                21.061409
              ],
              [
                105.664204,
                21.061519
              ],
              [
                105.664218,
                21.061577
              ],
              [
                105.66422,
                21.061584
              ],
              [
                105.664227,
                21.061605
              ],
              [
                105.664279,
                21.061726
              ],
              [
                105.664305,
                21.061771
              ],
              [
                105.664315,
                21.061789
              ],
              [
                105.664353,
                21.061854
              ],
              [
                105.664411,
                21.061935
              ],
              [
                105.664438,
                21.061973
              ],
              [
                105.66447,
                21.062005
              ],
              [
                105.66453,
                21.062064
              ],
              [
                105.664625,
                21.062137
              ],
              [
                105.664743,
                21.062265
              ],
              [
                105.66482,
                21.062384
              ],
              [
                105.664847,
                21.062487
              ],
              [
                105.664847,
                21.062542
              ],
              [
                105.664847,
                21.062567
              ],
              [
                105.664849,
                21.062693
              ],
              [
                105.664851,
                21.062773
              ],
              [
                105.664834,
                21.063058
              ],
              [
                105.664803,
                21.063362
              ],
              [
                105.66477,
                21.063576
              ],
              [
                105.664749,
                21.063717
              ],
              [
                105.664746,
                21.063733
              ],
              [
                105.664745,
                21.06374
              ],
              [
                105.664696,
                21.063999
              ],
              [
                105.664652,
                21.064157
              ],
              [
                105.664521,
                21.06452
              ],
              [
                105.664378,
                21.064827
              ],
              [
                105.664176,
                21.065125
              ],
              [
                105.66393,
                21.065461
              ],
              [
                105.663838,
                21.065614
              ],
              [
                105.663768,
                21.065816
              ],
              [
                105.66373,
                21.066054
              ],
              [
                105.66372,
                21.066132
              ],
              [
                105.663816,
                21.066177
              ],
              [
                105.66411,
                21.066315
              ],
              [
                105.664368,
                21.066424
              ],
              [
                105.664484,
                21.066445
              ],
              [
                105.664592,
                21.066471
              ],
              [
                105.6647,
                21.066452
              ],
              [
                105.664781,
                21.066429
              ],
              [
                105.664922,
                21.066391
              ],
              [
                105.665066,
                21.066378
              ],
              [
                105.665174,
                21.066401
              ],
              [
                105.665328,
                21.066463
              ],
              [
                105.665452,
                21.066554
              ],
              [
                105.665641,
                21.066696
              ],
              [
                105.66578,
                21.066821
              ],
              [
                105.666223,
                21.067097
              ],
              [
                105.666284,
                21.067149
              ],
              [
                105.666442,
                21.067269
              ],
              [
                105.666463,
                21.067287
              ],
              [
                105.666584,
                21.067399
              ],
              [
                105.666714,
                21.067524
              ],
              [
                105.666734,
                21.067541
              ],
              [
                105.666662,
                21.067623
              ],
              [
                105.666612,
                21.06768
              ],
              [
                105.666469,
                21.067837
              ],
              [
                105.666406,
                21.067905
              ],
              [
                105.666373,
                21.067942
              ],
              [
                105.666143,
                21.068216
              ],
              [
                105.666046,
                21.06832
              ],
              [
                105.666043,
                21.068322
              ],
              [
                105.666021,
                21.068309
              ],
              [
                105.666007,
                21.068302
              ],
              [
                105.665982,
                21.068284
              ],
              [
                105.665928,
                21.068234
              ],
              [
                105.6656,
                21.067984
              ],
              [
                105.665492,
                21.067939
              ],
              [
                105.665396,
                21.067935
              ],
              [
                105.665205,
                21.067934
              ],
              [
                105.665104,
                21.06792
              ],
              [
                105.664688,
                21.067896
              ],
              [
                105.664353,
                21.067982
              ],
              [
                105.663993,
                21.06808
              ],
              [
                105.663929,
                21.068141
              ],
              [
                105.663872,
                21.068347
              ],
              [
                105.66384,
                21.068529
              ],
              [
                105.663832,
                21.068856
              ],
              [
                105.663833,
                21.068881
              ],
              [
                105.663834,
                21.068918
              ],
              [
                105.663842,
                21.069162
              ],
              [
                105.663846,
                21.069267
              ],
              [
                105.66385,
                21.069386
              ],
              [
                105.663852,
                21.06946
              ],
              [
                105.663853,
                21.069498
              ],
              [
                105.663855,
                21.069558
              ],
              [
                105.663857,
                21.069603
              ],
              [
                105.663859,
                21.069684
              ],
              [
                105.663862,
                21.069759
              ],
              [
                105.663862,
                21.069796
              ],
              [
                105.663863,
                21.069868
              ],
              [
                105.663862,
                21.069902
              ],
              [
                105.663852,
                21.069965
              ],
              [
                105.663835,
                21.070013
              ],
              [
                105.663821,
                21.070053
              ],
              [
                105.663795,
                21.070127
              ],
              [
                105.663783,
                21.070193
              ],
              [
                105.663769,
                21.07028
              ],
              [
                105.663754,
                21.070372
              ],
              [
                105.663751,
                21.070395
              ],
              [
                105.663756,
                21.070437
              ],
              [
                105.663763,
                21.070497
              ],
              [
                105.663796,
                21.070536
              ],
              [
                105.663858,
                21.070609
              ],
              [
                105.663908,
                21.070667
              ],
              [
                105.663978,
                21.07075
              ],
              [
                105.664036,
                21.070817
              ],
              [
                105.664103,
                21.070874
              ],
              [
                105.664183,
                21.070942
              ],
              [
                105.664284,
                21.071026
              ],
              [
                105.664355,
                21.071076
              ],
              [
                105.664453,
                21.071145
              ],
              [
                105.664617,
                21.07126
              ],
              [
                105.664673,
                21.071298
              ],
              [
                105.66475,
                21.071353
              ],
              [
                105.664764,
                21.071363
              ],
              [
                105.664832,
                21.071416
              ],
              [
                105.664945,
                21.071473
              ],
              [
                105.664963,
                21.071497
              ],
              [
                105.664996,
                21.071527
              ],
              [
                105.665074,
                21.071587
              ],
              [
                105.665141,
                21.071632
              ],
              [
                105.665278,
                21.071721
              ],
              [
                105.665479,
                21.071852
              ],
              [
                105.665609,
                21.071933
              ],
              [
                105.665964,
                21.072171
              ],
              [
                105.666218,
                21.072325
              ],
              [
                105.666296,
                21.072366
              ],
              [
                105.666338,
                21.072388
              ],
              [
                105.666465,
                21.072459
              ],
              [
                105.66651,
                21.072493
              ],
              [
                105.666534,
                21.072522
              ],
              [
                105.666555,
                21.072552
              ],
              [
                105.666563,
                21.072568
              ],
              [
                105.666565,
                21.072586
              ],
              [
                105.666564,
                21.072609
              ],
              [
                105.666562,
                21.07264
              ],
              [
                105.666873,
                21.072385
              ],
              [
                105.66704,
                21.072271
              ],
              [
                105.667179,
                21.0722
              ],
              [
                105.667589,
                21.072096
              ],
              [
                105.668078,
                21.071965
              ],
              [
                105.66821,
                21.071933
              ],
              [
                105.66855,
                21.071785
              ],
              [
                105.66867,
                21.071735
              ],
              [
                105.668737,
                21.0717
              ],
              [
                105.668809,
                21.071639
              ],
              [
                105.668872,
                21.071574
              ],
              [
                105.668994,
                21.071427
              ],
              [
                105.669151,
                21.071182
              ],
              [
                105.66932,
                21.070946
              ],
              [
                105.669469,
                21.070723
              ],
              [
                105.669599,
                21.070572
              ],
              [
                105.669689,
                21.070467
              ],
              [
                105.669736,
                21.070417
              ],
              [
                105.669799,
                21.070359
              ],
              [
                105.669871,
                21.070292
              ],
              [
                105.669962,
                21.070225
              ],
              [
                105.669975,
                21.070226
              ],
              [
                105.670452,
                21.070221
              ],
              [
                105.670658,
                21.070329
              ],
              [
                105.670712,
                21.070288
              ],
              [
                105.670773,
                21.070288
              ],
              [
                105.670843,
                21.07029
              ],
              [
                105.670951,
                21.070323
              ],
              [
                105.671022,
                21.070348
              ],
              [
                105.671078,
                21.070354
              ],
              [
                105.671078,
                21.070354
              ],
              [
                105.671348,
                21.070326
              ],
              [
                105.671396,
                21.070362
              ],
              [
                105.671421,
                21.070351
              ],
              [
                105.671439,
                21.070397
              ],
              [
                105.671444,
                21.070398
              ],
              [
                105.671452,
                21.070419
              ],
              [
                105.671502,
                21.070412
              ],
              [
                105.671893,
                21.070335
              ],
              [
                105.671987,
                21.070314
              ],
              [
                105.672144,
                21.070303
              ],
              [
                105.672185,
                21.070321
              ],
              [
                105.672197,
                21.070325
              ],
              [
                105.672251,
                21.070182
              ],
              [
                105.672529,
                21.07026
              ],
              [
                105.67216,
                21.070959
              ],
              [
                105.671816,
                21.071557
              ],
              [
                105.673022,
                21.072286
              ],
              [
                105.673108,
                21.072349
              ],
              [
                105.673082,
                21.072401
              ],
              [
                105.672999,
                21.072571
              ],
              [
                105.673088,
                21.072607
              ],
              [
                105.673128,
                21.072623
              ],
              [
                105.673291,
                21.072694
              ],
              [
                105.673971,
                21.072972
              ],
              [
                105.674928,
                21.073368
              ],
              [
                105.675492,
                21.073602
              ],
              [
                105.675855,
                21.073752
              ],
              [
                105.676083,
                21.073848
              ],
              [
                105.675983,
                21.073996
              ],
              [
                105.675641,
                21.07445
              ],
              [
                105.675348,
                21.074865
              ],
              [
                105.675345,
                21.074869
              ],
              [
                105.674853,
                21.075531
              ],
              [
                105.675261,
                21.075814
              ],
              [
                105.675535,
                21.076004
              ],
              [
                105.675753,
                21.076147
              ],
              [
                105.675916,
                21.076259
              ],
              [
                105.675929,
                21.076269
              ],
              [
                105.676112,
                21.076077
              ],
              [
                105.676402,
                21.075769
              ],
              [
                105.676588,
                21.075588
              ],
              [
                105.676811,
                21.075358
              ],
              [
                105.677048,
                21.075115
              ],
              [
                105.677219,
                21.074954
              ],
              [
                105.67727,
                21.074899
              ],
              [
                105.677425,
                21.074736
              ],
              [
                105.677657,
                21.074492
              ],
              [
                105.677854,
                21.074284
              ],
              [
                105.678051,
                21.074077
              ],
              [
                105.678174,
                21.073946
              ],
              [
                105.678393,
                21.073719
              ],
              [
                105.678525,
                21.073583
              ],
              [
                105.67888,
                21.073215
              ],
              [
                105.679047,
                21.073042
              ],
              [
                105.679146,
                21.07294
              ],
              [
                105.679315,
                21.072762
              ],
              [
                105.679369,
                21.072704
              ],
              [
                105.679471,
                21.072597
              ],
              [
                105.68034,
                21.071728
              ],
              [
                105.680817,
                21.071215
              ],
              [
                105.681299,
                21.070696
              ],
              [
                105.681346,
                21.070657
              ],
              [
                105.681654,
                21.070387
              ],
              [
                105.681721,
                21.070325
              ],
              [
                105.681721,
                21.070325
              ]
            ]
          ]
        ]
      },
      "properties": {
        "code": "09856",
        "name": "Dương Hoà",
        "nameEn": "Duong Hoa",
        "fullName": "Xã Dương Hoà",
        "fullNameEn": "Duong Hoa Commune",
        "codeName": "duong_hoa",
        "postalCode": "13227",
        "postalCodePrefix": "",
        "gisServerId": "diaphanhanhchinhcapxa_2025.3241",
        "areaKm2": 17.41
      }
    }
  ]
}