{
  "type": "FeatureCollection",
  "bbox": [
    105.657001,
    20.805091,
    105.761174,
    20.859371
  ],
  "features": [
    {
      "type": "Feature",
      "id": "10096",
      "bbox": [
        105.657001,
        20.805091,
        105.761174,
        20.859371
      ],
      "geometry": {
        "type": "MultiPolygon",
        "coordinates": [
          [
            [
              [
                105.735488,
                20.844668
              ],
              [
                105.735429,
                20.844618
              ],
              [
                105.735301,
                20.844456
              ],
              [
                105.735255,
                20.844398
              ],
              [
                105.734946,
                20.844086
              ],
              [
                105.734596,
                20.843732
              ],
              [
                105.734279,
                20.843356
              ],
              [
                105.733982,
                20.842994
              ],
              [
                105.733802,
                20.842593
              ],
              [
                105.733684,
                20.842321
              ],
              [
                105.733606,
                20.841891
              ],
              [
                105.733584,
                20.841557
              ],
              [
                105.733605,
                20.841452
              ],
              [
                105.733647,
                20.841254
              ],
              [
                105.733673,
                20.841029
              ],
              [
                105.7337,
                20.840896
              ],
              [
                105.733708,
                20.84086
              ],
              [
                105.733755,
                20.840572
              ],
              [
                105.733776,
                20.840444
              ],
              [
                105.733827,
                20.840301
              ],
              [
                105.733968,
                20.840052
              ],
              [
                105.7342,
                20.839778
              ],
              [
                105.734535,
                20.839495
              ],
              [
                105.734966,
                20.839278
              ],
              [
                105.73524,
                20.839162
              ],
              [
                105.735538,
                20.839066
              ],
              [
                105.735804,
                20.838981
              ],
              [
                105.735932,
                20.838919
              ],
              [
                105.735947,
                20.838912
              ],
              [
                105.736106,
                20.838828
              ],
              [
                105.736217,
                20.838742
              ],
              [
                105.736358,
                20.838639
              ],
              [
                105.736773,
                20.838337
              ],
              [
                105.736886,
                20.838226
              ],
              [
                105.737092,
                20.838076
              ],
              [
                105.737135,
                20.838044
              ],
              [
                105.737366,
                20.837805
              ],
              [
                105.737442,
                20.837721
              ],
              [
                105.737699,
                20.837598
              ],
              [
                105.737838,
                20.837553
              ],
              [
                105.737866,
                20.837546
              ],
              [
                105.738118,
                20.837477
              ],
              [
                105.738311,
                20.837401
              ],
              [
                105.738428,
                20.837326
              ],
              [
                105.738498,
                20.837251
              ],
              [
                105.738576,
                20.83715
              ],
              [
                105.738805,
                20.836942
              ],
              [
                105.73909,
                20.836779
              ],
              [
                105.739439,
                20.836673
              ],
              [
                105.740058,
                20.836545
              ],
              [
                105.74042,
                20.836502
              ],
              [
                105.740668,
                20.836456
              ],
              [
                105.74088,
                20.836425
              ],
              [
                105.741166,
                20.836421
              ],
              [
                105.741729,
                20.836421
              ],
              [
                105.742305,
                20.836475
              ],
              [
                105.742368,
                20.836481
              ],
              [
                105.742443,
                20.836501
              ],
              [
                105.742607,
                20.836543
              ],
              [
                105.742912,
                20.836622
              ],
              [
                105.743571,
                20.836694
              ],
              [
                105.743808,
                20.83672
              ],
              [
                105.744571,
                20.836756
              ],
              [
                105.744787,
                20.836755
              ],
              [
                105.744877,
                20.836744
              ],
              [
                105.745,
                20.83675
              ],
              [
                105.745105,
                20.836789
              ],
              [
                105.745176,
                20.836858
              ],
              [
                105.745228,
                20.836908
              ],
              [
                105.745627,
                20.83719
              ],
              [
                105.745755,
                20.83728
              ],
              [
                105.745785,
                20.837303
              ],
              [
                105.745887,
                20.837383
              ],
              [
                105.745968,
                20.837447
              ],
              [
                105.746046,
                20.837508
              ],
              [
                105.746093,
                20.837528
              ],
              [
                105.746111,
                20.837536
              ],
              [
                105.746181,
                20.837555
              ],
              [
                105.746218,
                20.837564
              ],
              [
                105.746386,
                20.837609
              ],
              [
                105.746732,
                20.837626
              ],
              [
                105.747332,
                20.837576
              ],
              [
                105.748735,
                20.837388
              ],
              [
                105.749457,
                20.837233
              ],
              [
                105.749873,
                20.837144
              ],
              [
                105.750169,
                20.837052
              ],
              [
                105.750492,
                20.836991
              ],
              [
                105.750518,
                20.836987
              ],
              [
                105.750998,
                20.836991
              ],
              [
                105.75188,
                20.836927
              ],
              [
                105.751912,
                20.836925
              ],
              [
                105.752824,
                20.836886
              ],
              [
                105.753314,
                20.836865
              ],
              [
                105.753534,
                20.836855
              ],
              [
                105.753915,
                20.836862
              ],
              [
                105.75443,
                20.836871
              ],
              [
                105.754513,
                20.836876
              ],
              [
                105.754577,
                20.83688
              ],
              [
                105.755112,
                20.836914
              ],
              [
                105.755147,
                20.836916
              ],
              [
                105.755429,
                20.836922
              ],
              [
                105.755729,
                20.836918
              ],
              [
                105.755799,
                20.836917
              ],
              [
                105.756054,
                20.836852
              ],
              [
                105.756294,
                20.836811
              ],
              [
                105.756603,
                20.836828
              ],
              [
                105.756764,
                20.836855
              ],
              [
                105.757884,
                20.837044
              ],
              [
                105.757962,
                20.836507
              ],
              [
                105.758079,
                20.836452
              ],
              [
                105.758175,
                20.836439
              ],
              [
                105.758747,
                20.836435
              ],
              [
                105.758595,
                20.835175
              ],
              [
                105.759305,
                20.835099
              ],
              [
                105.760054,
                20.835003
              ],
              [
                105.760088,
                20.834987
              ],
              [
                105.761174,
                20.834797
              ],
              [
                105.761064,
                20.83438
              ],
              [
                105.760781,
                20.833783
              ],
              [
                105.759793,
                20.832578
              ],
              [
                105.758655,
                20.83132
              ],
              [
                105.757598,
                20.83045
              ],
              [
                105.755864,
                20.828982
              ],
              [
                105.755589,
                20.828747
              ],
              [
                105.755228,
                20.828304
              ],
              [
                105.754681,
                20.827352
              ],
              [
                105.754151,
                20.826448
              ],
              [
                105.754141,
                20.826432
              ],
              [
                105.753982,
                20.826112
              ],
              [
                105.753809,
                20.825765
              ],
              [
                105.753769,
                20.825685
              ],
              [
                105.753705,
                20.825555
              ],
              [
                105.753512,
                20.825114
              ],
              [
                105.75337,
                20.824749
              ],
              [
                105.753278,
                20.82451
              ],
              [
                105.753111,
                20.824079
              ],
              [
                105.753054,
                20.823859
              ],
              [
                105.752863,
                20.8229
              ],
              [
                105.75285,
                20.822484
              ],
              [
                105.752811,
                20.822187
              ],
              [
                105.75279,
                20.822022
              ],
              [
                105.752769,
                20.821649
              ],
              [
                105.752733,
                20.821415
              ],
              [
                105.752633,
                20.820775
              ],
              [
                105.752594,
                20.820632
              ],
              [
                105.752593,
                20.820463
              ],
              [
                105.752593,
                20.820462
              ],
              [
                105.752594,
                20.820307
              ],
              [
                105.752658,
                20.819634
              ],
              [
                105.752689,
                20.819406
              ],
              [
                105.752807,
                20.818964
              ],
              [
                105.753044,
                20.818294
              ],
              [
                105.753252,
                20.817752
              ],
              [
                105.753657,
                20.81694
              ],
              [
                105.754854,
                20.81528
              ],
              [
                105.75493,
                20.815118
              ],
              [
                105.755111,
                20.814647
              ],
              [
                105.755252,
                20.814235
              ],
              [
                105.755289,
                20.814027
              ],
              [
                105.755274,
                20.813776
              ],
              [
                105.755132,
                20.813481
              ],
              [
                105.754804,
                20.81316
              ],
              [
                105.753487,
                20.812567
              ],
              [
                105.753335,
                20.812498
              ],
              [
                105.751881,
                20.811843
              ],
              [
                105.75188,
                20.811843
              ],
              [
                105.751593,
                20.811718
              ],
              [
                105.751219,
                20.811514
              ],
              [
                105.750501,
                20.810949
              ],
              [
                105.749663,
                20.810397
              ],
              [
                105.749616,
                20.810366
              ],
              [
                105.749065,
                20.810008
              ],
              [
                105.74822,
                20.809276
              ],
              [
                105.747877,
                20.808854
              ],
              [
                105.747659,
                20.80852
              ],
              [
                105.747592,
                20.808417
              ],
              [
                105.747265,
                20.80787
              ],
              [
                105.746239,
                20.806704
              ],
              [
                105.74604,
                20.806577
              ],
              [
                105.744206,
                20.805408
              ],
              [
                105.7436,
                20.80516
              ],
              [
                105.743431,
                20.805091
              ],
              [
                105.743063,
                20.805119
              ],
              [
                105.742866,
                20.805135
              ],
              [
                105.742682,
                20.805149
              ],
              [
                105.742554,
                20.805183
              ],
              [
                105.742424,
                20.805218
              ],
              [
                105.741826,
                20.80538
              ],
              [
                105.740449,
                20.806105
              ],
              [
                105.738736,
                20.807178
              ],
              [
                105.738495,
                20.807354
              ],
              [
                105.737258,
                20.808258
              ],
              [
                105.736621,
                20.80858
              ],
              [
                105.735869,
                20.808889
              ],
              [
                105.735811,
                20.808912
              ],
              [
                105.734844,
                20.809145
              ],
              [
                105.734695,
                20.809181
              ],
              [
                105.734058,
                20.809219
              ],
              [
                105.73402,
                20.809219
              ],
              [
                105.732558,
                20.809196
              ],
              [
                105.732204,
                20.80912
              ],
              [
                105.732166,
                20.809112
              ],
              [
                105.732163,
                20.809111
              ],
              [
                105.731355,
                20.808796
              ],
              [
                105.730708,
                20.808569
              ],
              [
                105.730463,
                20.808483
              ],
              [
                105.729082,
                20.808032
              ],
              [
                105.728087,
                20.807748
              ],
              [
                105.727808,
                20.807668
              ],
              [
                105.726942,
                20.807531
              ],
              [
                105.726813,
                20.807517
              ],
              [
                105.726508,
                20.807485
              ],
              [
                105.725928,
                20.807423
              ],
              [
                105.7255,
                20.807488
              ],
              [
                105.725486,
                20.807491
              ],
              [
                105.725022,
                20.807595
              ],
              [
                105.723966,
                20.80757
              ],
              [
                105.723592,
                20.80756
              ],
              [
                105.722656,
                20.807658
              ],
              [
                105.721049,
                20.807777
              ],
              [
                105.720549,
                20.807851
              ],
              [
                105.720051,
                20.807926
              ],
              [
                105.718181,
                20.808112
              ],
              [
                105.717083,
                20.808179
              ],
              [
                105.716527,
                20.808224
              ],
              [
                105.715683,
                20.808293
              ],
              [
                105.714772,
                20.808332
              ],
              [
                105.713064,
                20.808591
              ],
              [
                105.712071,
                20.808783
              ],
              [
                105.710589,
                20.809128
              ],
              [
                105.710103,
                20.809279
              ],
              [
                105.709479,
                20.809485
              ],
              [
                105.709099,
                20.809641
              ],
              [
                105.709301,
                20.810287
              ],
              [
                105.709445,
                20.810849
              ],
              [
                105.709716,
                20.811741
              ],
              [
                105.709806,
                20.812232
              ],
              [
                105.709873,
                20.812823
              ],
              [
                105.709834,
                20.813353
              ],
              [
                105.709798,
                20.813859
              ],
              [
                105.709648,
                20.814458
              ],
              [
                105.709464,
                20.814936
              ],
              [
                105.709237,
                20.815328
              ],
              [
                105.708877,
                20.815842
              ],
              [
                105.708143,
                20.816957
              ],
              [
                105.707687,
                20.817653
              ],
              [
                105.707457,
                20.81813
              ],
              [
                105.707251,
                20.818725
              ],
              [
                105.707232,
                20.81878
              ],
              [
                105.707131,
                20.819223
              ],
              [
                105.706989,
                20.820027
              ],
              [
                105.706877,
                20.820815
              ],
              [
                105.706817,
                20.821438
              ],
              [
                105.706791,
                20.821819
              ],
              [
                105.706783,
                20.822403
              ],
              [
                105.706763,
                20.823364
              ],
              [
                105.706729,
                20.824125
              ],
              [
                105.70673,
                20.824318
              ],
              [
                105.706762,
                20.824558
              ],
              [
                105.706819,
                20.824777
              ],
              [
                105.706865,
                20.824915
              ],
              [
                105.707002,
                20.825075
              ],
              [
                105.707366,
                20.825392
              ],
              [
                105.707562,
                20.825529
              ],
              [
                105.707856,
                20.825655
              ],
              [
                105.708198,
                20.825749
              ],
              [
                105.70879,
                20.825863
              ],
              [
                105.709309,
                20.825981
              ],
              [
                105.709749,
                20.826094
              ],
              [
                105.71,
                20.826194
              ],
              [
                105.710175,
                20.826272
              ],
              [
                105.710336,
                20.826416
              ],
              [
                105.710491,
                20.826602
              ],
              [
                105.710603,
                20.826828
              ],
              [
                105.710678,
                20.827087
              ],
              [
                105.710696,
                20.827316
              ],
              [
                105.71068,
                20.827507
              ],
              [
                105.710642,
                20.827707
              ],
              [
                105.710549,
                20.82796
              ],
              [
                105.710221,
                20.828699
              ],
              [
                105.709903,
                20.82949
              ],
              [
                105.709695,
                20.829975
              ],
              [
                105.709657,
                20.830036
              ],
              [
                105.709625,
                20.830088
              ],
              [
                105.709424,
                20.830046
              ],
              [
                105.709054,
                20.829936
              ],
              [
                105.709006,
                20.829996
              ],
              [
                105.708953,
                20.830007
              ],
              [
                105.708878,
                20.829989
              ],
              [
                105.708816,
                20.829962
              ],
              [
                105.708794,
                20.829922
              ],
              [
                105.708805,
                20.829866
              ],
              [
                105.708914,
                20.829692
              ],
              [
                105.708914,
                20.829667
              ],
              [
                105.708871,
                20.829637
              ],
              [
                105.708865,
                20.829628
              ],
              [
                105.708677,
                20.829628
              ],
              [
                105.708628,
                20.829658
              ],
              [
                105.708621,
                20.829661
              ],
              [
                105.708548,
                20.829705
              ],
              [
                105.70844,
                20.829734
              ],
              [
                105.708407,
                20.829738
              ],
              [
                105.708325,
                20.829747
              ],
              [
                105.708167,
                20.829759
              ],
              [
                105.70809,
                20.829772
              ],
              [
                105.707918,
                20.829736
              ],
              [
                105.70785,
                20.829722
              ],
              [
                105.707523,
                20.829654
              ],
              [
                105.707446,
                20.829638
              ],
              [
                105.70735,
                20.829643
              ],
              [
                105.707329,
                20.829644
              ],
              [
                105.706284,
                20.8297
              ],
              [
                105.7062,
                20.829704
              ],
              [
                105.706191,
                20.829705
              ],
              [
                105.706163,
                20.828937
              ],
              [
                105.706139,
                20.828934
              ],
              [
                105.706095,
                20.82893
              ],
              [
                105.704665,
                20.828821
              ],
              [
                105.703405,
                20.828756
              ],
              [
                105.70322,
                20.828758
              ],
              [
                105.70091,
                20.828644
              ],
              [
                105.696897,
                20.828438
              ],
              [
                105.696876,
                20.828437
              ],
              [
                105.697115,
                20.826895
              ],
              [
                105.697167,
                20.826503
              ],
              [
                105.695891,
                20.826257
              ],
              [
                105.695934,
                20.826148
              ],
              [
                105.696175,
                20.825545
              ],
              [
                105.696402,
                20.824939
              ],
              [
                105.696426,
                20.824877
              ],
              [
                105.696536,
                20.824594
              ],
              [
                105.69658,
                20.824479
              ],
              [
                105.696758,
                20.824022
              ],
              [
                105.696806,
                20.823897
              ],
              [
                105.697318,
                20.822711
              ],
              [
                105.697411,
                20.822487
              ],
              [
                105.69748,
                20.82232
              ],
              [
                105.697504,
                20.822263
              ],
              [
                105.697524,
                20.822227
              ],
              [
                105.697572,
                20.822137
              ],
              [
                105.69766,
                20.821884
              ],
              [
                105.69777,
                20.821499
              ],
              [
                105.697867,
                20.821378
              ],
              [
                105.697892,
                20.821318
              ],
              [
                105.698088,
                20.820806
              ],
              [
                105.69816,
                20.820652
              ],
              [
                105.698285,
                20.820365
              ],
              [
                105.698243,
                20.820105
              ],
              [
                105.698218,
                20.820075
              ],
              [
                105.697983,
                20.819791
              ],
              [
                105.697936,
                20.819647
              ],
              [
                105.698027,
                20.819461
              ],
              [
                105.698309,
                20.819167
              ],
              [
                105.698346,
                20.819129
              ],
              [
                105.698375,
                20.818943
              ],
              [
                105.698387,
                20.818569
              ],
              [
                105.698387,
                20.818568
              ],
              [
                105.698377,
                20.818556
              ],
              [
                105.698377,
                20.818528
              ],
              [
                105.69839,
                20.818457
              ],
              [
                105.698409,
                20.818363
              ],
              [
                105.698414,
                20.81834
              ],
              [
                105.698467,
                20.818072
              ],
              [
                105.698463,
                20.818068
              ],
              [
                105.698429,
                20.818056
              ],
              [
                105.698168,
                20.817967
              ],
              [
                105.697406,
                20.817706
              ],
              [
                105.697405,
                20.817705
              ],
              [
                105.69719,
                20.817286
              ],
              [
                105.69711,
                20.817198
              ],
              [
                105.697013,
                20.817211
              ],
              [
                105.696956,
                20.817219
              ],
              [
                105.696848,
                20.817035
              ],
              [
                105.69674,
                20.816851
              ],
              [
                105.696631,
                20.816665
              ],
              [
                105.696768,
                20.816197
              ],
              [
                105.696662,
                20.81585
              ],
              [
                105.696091,
                20.815837
              ],
              [
                105.695395,
                20.815829
              ],
              [
                105.695318,
                20.815844
              ],
              [
                105.695259,
                20.815584
              ],
              [
                105.69508,
                20.815045
              ],
              [
                105.694805,
                20.814625
              ],
              [
                105.694995,
                20.814565
              ],
              [
                105.694907,
                20.814235
              ],
              [
                105.694626,
                20.813716
              ],
              [
                105.694431,
                20.813717
              ],
              [
                105.694216,
                20.813262
              ],
              [
                105.693824,
                20.812583
              ],
              [
                105.693076,
                20.812543
              ],
              [
                105.692687,
                20.812521
              ],
              [
                105.692521,
                20.812304
              ],
              [
                105.692507,
                20.812299
              ],
              [
                105.692135,
                20.812301
              ],
              [
                105.691399,
                20.812301
              ],
              [
                105.690978,
                20.812301
              ],
              [
                105.690891,
                20.812301
              ],
              [
                105.689867,
                20.812311
              ],
              [
                105.689941,
                20.812758
              ],
              [
                105.689938,
                20.812758
              ],
              [
                105.688629,
                20.812786
              ],
              [
                105.688553,
                20.813028
              ],
              [
                105.686171,
                20.812778
              ],
              [
                105.68606,
                20.813424
              ],
              [
                105.685992,
                20.81381
              ],
              [
                105.684986,
                20.813788
              ],
              [
                105.68488,
                20.814118
              ],
              [
                105.683553,
                20.814092
              ],
              [
                105.682466,
                20.814276
              ],
              [
                105.682164,
                20.814374
              ],
              [
                105.68174,
                20.814506
              ],
              [
                105.681783,
                20.814175
              ],
              [
                105.68179,
                20.814136
              ],
              [
                105.682004,
                20.813024
              ],
              [
                105.681943,
                20.813022
              ],
              [
                105.681719,
                20.813015
              ],
              [
                105.681348,
                20.812965
              ],
              [
                105.681269,
                20.813363
              ],
              [
                105.681026,
                20.813615
              ],
              [
                105.680615,
                20.813609
              ],
              [
                105.680612,
                20.813634
              ],
              [
                105.680589,
                20.813705
              ],
              [
                105.680568,
                20.813798
              ],
              [
                105.680523,
                20.813877
              ],
              [
                105.680416,
                20.81399
              ],
              [
                105.680177,
                20.814172
              ],
              [
                105.679767,
                20.814475
              ],
              [
                105.677812,
                20.814703
              ],
              [
                105.677282,
                20.814755
              ],
              [
                105.677289,
                20.814629
              ],
              [
                105.677241,
                20.814599
              ],
              [
                105.677198,
                20.814592
              ],
              [
                105.677025,
                20.814518
              ],
              [
                105.67662,
                20.814345
              ],
              [
                105.67656,
                20.81435
              ],
              [
                105.676231,
                20.814619
              ],
              [
                105.676166,
                20.81465
              ],
              [
                105.676051,
                20.814671
              ],
              [
                105.67589,
                20.814689
              ],
              [
                105.675726,
                20.814695
              ],
              [
                105.675606,
                20.814721
              ],
              [
                105.675489,
                20.81476
              ],
              [
                105.675407,
                20.814774
              ],
              [
                105.675328,
                20.814771
              ],
              [
                105.67495,
                20.814683
              ],
              [
                105.674844,
                20.814691
              ],
              [
                105.674729,
                20.814727
              ],
              [
                105.67452,
                20.814857
              ],
              [
                105.674367,
                20.814896
              ],
              [
                105.674271,
                20.814886
              ],
              [
                105.674135,
                20.814838
              ],
              [
                105.673896,
                20.814661
              ],
              [
                105.673817,
                20.814615
              ],
              [
                105.673727,
                20.814611
              ],
              [
                105.67364,
                20.814615
              ],
              [
                105.673631,
                20.81461
              ],
              [
                105.673393,
                20.814588
              ],
              [
                105.673316,
                20.814591
              ],
              [
                105.673267,
                20.81451
              ],
              [
                105.673125,
                20.814317
              ],
              [
                105.673117,
                20.814285
              ],
              [
                105.673047,
                20.814026
              ],
              [
                105.672947,
                20.813965
              ],
              [
                105.67272,
                20.813933
              ],
              [
                105.672506,
                20.813904
              ],
              [
                105.672054,
                20.813916
              ],
              [
                105.671434,
                20.813943
              ],
              [
                105.671323,
                20.814049
              ],
              [
                105.671207,
                20.814197
              ],
              [
                105.671111,
                20.814446
              ],
              [
                105.67107,
                20.814689
              ],
              [
                105.67099,
                20.815057
              ],
              [
                105.670901,
                20.815345
              ],
              [
                105.670781,
                20.815564
              ],
              [
                105.670662,
                20.815744
              ],
              [
                105.670536,
                20.81582
              ],
              [
                105.670385,
                20.815888
              ],
              [
                105.67021,
                20.815956
              ],
              [
                105.669879,
                20.816082
              ],
              [
                105.669775,
                20.816174
              ],
              [
                105.669724,
                20.816236
              ],
              [
                105.669634,
                20.816323
              ],
              [
                105.669485,
                20.816435
              ],
              [
                105.669378,
                20.816506
              ],
              [
                105.669116,
                20.816105
              ],
              [
                105.669369,
                20.815834
              ],
              [
                105.669518,
                20.815729
              ],
              [
                105.669549,
                20.815675
              ],
              [
                105.669554,
                20.815635
              ],
              [
                105.66956,
                20.815581
              ],
              [
                105.669509,
                20.815438
              ],
              [
                105.669487,
                20.815375
              ],
              [
                105.669478,
                20.815357
              ],
              [
                105.669403,
                20.815203
              ],
              [
                105.669416,
                20.81506
              ],
              [
                105.669484,
                20.814827
              ],
              [
                105.669517,
                20.814636
              ],
              [
                105.669527,
                20.814581
              ],
              [
                105.669512,
                20.814538
              ],
              [
                105.669482,
                20.814508
              ],
              [
                105.669474,
                20.8145
              ],
              [
                105.669374,
                20.814471
              ],
              [
                105.669266,
                20.81447
              ],
              [
                105.669262,
                20.814471
              ],
              [
                105.669225,
                20.814481
              ],
              [
                105.669182,
                20.814492
              ],
              [
                105.669123,
                20.814508
              ],
              [
                105.669053,
                20.814548
              ],
              [
                105.668967,
                20.814638
              ],
              [
                105.668937,
                20.81467
              ],
              [
                105.668919,
                20.814697
              ],
              [
                105.668889,
                20.814778
              ],
              [
                105.668856,
                20.81485
              ],
              [
                105.668845,
                20.81497
              ],
              [
                105.668848,
                20.814992
              ],
              [
                105.668855,
                20.815042
              ],
              [
                105.66884,
                20.815077
              ],
              [
                105.668799,
                20.815097
              ],
              [
                105.66872,
                20.815139
              ],
              [
                105.668621,
                20.815192
              ],
              [
                105.668544,
                20.815262
              ],
              [
                105.668509,
                20.815325
              ],
              [
                105.668524,
                20.815441
              ],
              [
                105.668549,
                20.815606
              ],
              [
                105.668577,
                20.815789
              ],
              [
                105.668533,
                20.815844
              ],
              [
                105.668446,
                20.815854
              ],
              [
                105.668311,
                20.81583
              ],
              [
                105.668143,
                20.815799
              ],
              [
                105.668029,
                20.815807
              ],
              [
                105.667944,
                20.815705
              ],
              [
                105.668005,
                20.815569
              ],
              [
                105.668062,
                20.81546
              ],
              [
                105.668102,
                20.815348
              ],
              [
                105.668179,
                20.815128
              ],
              [
                105.668253,
                20.814554
              ],
              [
                105.668445,
                20.814216
              ],
              [
                105.668474,
                20.81419
              ],
              [
                105.668488,
                20.814166
              ],
              [
                105.668508,
                20.814134
              ],
              [
                105.668527,
                20.814039
              ],
              [
                105.668529,
                20.813967
              ],
              [
                105.668528,
                20.813893
              ],
              [
                105.668529,
                20.813884
              ],
              [
                105.668528,
                20.813882
              ],
              [
                105.668528,
                20.813805
              ],
              [
                105.668479,
                20.813681
              ],
              [
                105.668372,
                20.813587
              ],
              [
                105.668362,
                20.813577
              ],
              [
                105.668311,
                20.813547
              ],
              [
                105.667801,
                20.812978
              ],
              [
                105.667576,
                20.812874
              ],
              [
                105.667393,
                20.812788
              ],
              [
                105.666973,
                20.812897
              ],
              [
                105.666539,
                20.813009
              ],
              [
                105.665984,
                20.813152
              ],
              [
                105.665643,
                20.813692
              ],
              [
                105.665449,
                20.813824
              ],
              [
                105.665354,
                20.813888
              ],
              [
                105.665237,
                20.813968
              ],
              [
                105.665175,
                20.814243
              ],
              [
                105.664731,
                20.814556
              ],
              [
                105.664713,
                20.81457
              ],
              [
                105.664198,
                20.814966
              ],
              [
                105.66406,
                20.815072
              ],
              [
                105.663794,
                20.815253
              ],
              [
                105.663473,
                20.815325
              ],
              [
                105.663362,
                20.81535
              ],
              [
                105.662986,
                20.815342
              ],
              [
                105.662824,
                20.815338
              ],
              [
                105.662767,
                20.815275
              ],
              [
                105.662754,
                20.815233
              ],
              [
                105.662767,
                20.815201
              ],
              [
                105.662884,
                20.815121
              ],
              [
                105.662926,
                20.815116
              ],
              [
                105.663386,
                20.815051
              ],
              [
                105.663881,
                20.814977
              ],
              [
                105.663919,
                20.814943
              ],
              [
                105.664211,
                20.814677
              ],
              [
                105.664249,
                20.814646
              ],
              [
                105.664654,
                20.814317
              ],
              [
                105.664711,
                20.814275
              ],
              [
                105.66488,
                20.814151
              ],
              [
                105.664901,
                20.814132
              ],
              [
                105.664906,
                20.814112
              ],
              [
                105.664896,
                20.814076
              ],
              [
                105.664863,
                20.814052
              ],
              [
                105.664713,
                20.81401
              ],
              [
                105.664624,
                20.813977
              ],
              [
                105.664368,
                20.813856
              ],
              [
                105.664317,
                20.813825
              ],
              [
                105.66421,
                20.81376
              ],
              [
                105.664004,
                20.813913
              ],
              [
                105.663228,
                20.81382
              ],
              [
                105.662941,
                20.814111
              ],
              [
                105.662708,
                20.81402
              ],
              [
                105.662161,
                20.813944
              ],
              [
                105.661893,
                20.813995
              ],
              [
                105.661647,
                20.813968
              ],
              [
                105.661652,
                20.813916
              ],
              [
                105.661341,
                20.813866
              ],
              [
                105.66068,
                20.813819
              ],
              [
                105.66067,
                20.813896
              ],
              [
                105.660583,
                20.81389
              ],
              [
                105.659478,
                20.814247
              ],
              [
                105.657916,
                20.814752
              ],
              [
                105.657001,
                20.814897
              ],
              [
                105.657461,
                20.81513
              ],
              [
                105.657589,
                20.815218
              ],
              [
                105.657626,
                20.81527
              ],
              [
                105.657656,
                20.815395
              ],
              [
                105.657709,
                20.815523
              ],
              [
                105.65772,
                20.815578
              ],
              [
                105.657713,
                20.815622
              ],
              [
                105.657651,
                20.815725
              ],
              [
                105.657638,
                20.815778
              ],
              [
                105.657638,
                20.815815
              ],
              [
                105.657658,
                20.815846
              ],
              [
                105.657757,
                20.815905
              ],
              [
                105.658025,
                20.816031
              ],
              [
                105.658149,
                20.81609
              ],
              [
                105.658154,
                20.816091
              ],
              [
                105.658022,
                20.816306
              ],
              [
                105.658087,
                20.81633
              ],
              [
                105.658051,
                20.816393
              ],
              [
                105.658181,
                20.816459
              ],
              [
                105.658125,
                20.816555
              ],
              [
                105.658141,
                20.816565
              ],
              [
                105.658786,
                20.816908
              ],
              [
                105.6589,
                20.816969
              ],
              [
                105.658962,
                20.817079
              ],
              [
                105.658971,
                20.817058
              ],
              [
                105.659644,
                20.817364
              ],
              [
                105.660624,
                20.817731
              ],
              [
                105.660847,
                20.817861
              ],
              [
                105.661013,
                20.817998
              ],
              [
                105.66116,
                20.818384
              ],
              [
                105.661176,
                20.818486
              ],
              [
                105.661198,
                20.818586
              ],
              [
                105.662339,
                20.818888
              ],
              [
                105.662568,
                20.818939
              ],
              [
                105.662743,
                20.818968
              ],
              [
                105.663079,
                20.819162
              ],
              [
                105.665304,
                20.82034
              ],
              [
                105.665621,
                20.820509
              ],
              [
                105.665693,
                20.820591
              ],
              [
                105.665766,
                20.820627
              ],
              [
                105.666235,
                20.82066
              ],
              [
                105.666256,
                20.820664
              ],
              [
                105.666134,
                20.821111
              ],
              [
                105.666622,
                20.8211
              ],
              [
                105.666999,
                20.821223
              ],
              [
                105.667213,
                20.821346
              ],
              [
                105.66752,
                20.821785
              ],
              [
                105.667673,
                20.821937
              ],
              [
                105.667857,
                20.822023
              ],
              [
                105.668247,
                20.822399
              ],
              [
                105.668521,
                20.822278
              ],
              [
                105.668745,
                20.822253
              ],
              [
                105.66906,
                20.822286
              ],
              [
                105.669355,
                20.822385
              ],
              [
                105.669513,
                20.822413
              ],
              [
                105.670007,
                20.822507
              ],
              [
                105.67018,
                20.822525
              ],
              [
                105.670327,
                20.822591
              ],
              [
                105.670363,
                20.822653
              ],
              [
                105.670369,
                20.822754
              ],
              [
                105.670379,
                20.822883
              ],
              [
                105.670841,
                20.823025
              ],
              [
                105.670893,
                20.823187
              ],
              [
                105.670935,
                20.823426
              ],
              [
                105.671108,
                20.823569
              ],
              [
                105.671394,
                20.823854
              ],
              [
                105.671689,
                20.823863
              ],
              [
                105.672412,
                20.823975
              ],
              [
                105.672455,
                20.824606
              ],
              [
                105.672879,
                20.824767
              ],
              [
                105.672906,
                20.824767
              ],
              [
                105.673136,
                20.824764
              ],
              [
                105.673148,
                20.824764
              ],
              [
                105.673474,
                20.824708
              ],
              [
                105.673586,
                20.824664
              ],
              [
                105.673666,
                20.824615
              ],
              [
                105.673742,
                20.824532
              ],
              [
                105.673823,
                20.824436
              ],
              [
                105.673916,
                20.82432
              ],
              [
                105.674037,
                20.824227
              ],
              [
                105.674294,
                20.824099
              ],
              [
                105.674536,
                20.824591
              ],
              [
                105.674583,
                20.824685
              ],
              [
                105.67419,
                20.824943
              ],
              [
                105.673867,
                20.825309
              ],
              [
                105.673942,
                20.825386
              ],
              [
                105.674313,
                20.825763
              ],
              [
                105.674391,
                20.825933
              ],
              [
                105.674851,
                20.826337
              ],
              [
                105.674939,
                20.826223
              ],
              [
                105.675628,
                20.826579
              ],
              [
                105.675773,
                20.826423
              ],
              [
                105.676607,
                20.826725
              ],
              [
                105.677168,
                20.82698
              ],
              [
                105.677339,
                20.826997
              ],
              [
                105.677493,
                20.827158
              ],
              [
                105.677633,
                20.827193
              ],
              [
                105.67774,
                20.827055
              ],
              [
                105.678348,
                20.827156
              ],
              [
                105.678396,
                20.827118
              ],
              [
                105.67834,
                20.82697
              ],
              [
                105.678334,
                20.826826
              ],
              [
                105.678394,
                20.826673
              ],
              [
                105.6785,
                20.826424
              ],
              [
                105.678611,
                20.826228
              ],
              [
                105.678728,
                20.826122
              ],
              [
                105.678839,
                20.826059
              ],
              [
                105.678997,
                20.826035
              ],
              [
                105.679185,
                20.826077
              ],
              [
                105.679551,
                20.826128
              ],
              [
                105.680689,
                20.826347
              ],
              [
                105.680706,
                20.826354
              ],
              [
                105.680808,
                20.826417
              ],
              [
                105.680813,
                20.826818
              ],
              [
                105.68084,
                20.826905
              ],
              [
                105.681148,
                20.826936
              ],
              [
                105.681385,
                20.82695
              ],
              [
                105.681519,
                20.826981
              ],
              [
                105.681828,
                20.827159
              ],
              [
                105.682286,
                20.827306
              ],
              [
                105.682823,
                20.826606
              ],
              [
                105.682964,
                20.826678
              ],
              [
                105.683494,
                20.825845
              ],
              [
                105.683704,
                20.82588
              ],
              [
                105.683704,
                20.825879
              ],
              [
                105.683947,
                20.826056
              ],
              [
                105.684233,
                20.826266
              ],
              [
                105.684244,
                20.826285
              ],
              [
                105.684355,
                20.826481
              ],
              [
                105.684686,
                20.826521
              ],
              [
                105.684919,
                20.82606
              ],
              [
                105.684993,
                20.826046
              ],
              [
                105.684986,
                20.826151
              ],
              [
                105.685242,
                20.826236
              ],
              [
                105.685322,
                20.826261
              ],
              [
                105.685698,
                20.827729
              ],
              [
                105.685714,
                20.827791
              ],
              [
                105.685814,
                20.827808
              ],
              [
                105.686311,
                20.827852
              ],
              [
                105.68673,
                20.827889
              ],
              [
                105.686716,
                20.828031
              ],
              [
                105.686669,
                20.828136
              ],
              [
                105.68661,
                20.828245
              ],
              [
                105.686575,
                20.82831
              ],
              [
                105.686527,
                20.8284
              ],
              [
                105.686403,
                20.828597
              ],
              [
                105.686315,
                20.828714
              ],
              [
                105.686268,
                20.828767
              ],
              [
                105.686046,
                20.829017
              ],
              [
                105.685915,
                20.829164
              ],
              [
                105.685897,
                20.829179
              ],
              [
                105.685796,
                20.829264
              ],
              [
                105.685708,
                20.82934
              ],
              [
                105.685576,
                20.829454
              ],
              [
                105.685602,
                20.829476
              ],
              [
                105.687823,
                20.830396
              ],
              [
                105.687975,
                20.830452
              ],
              [
                105.688034,
                20.830468
              ],
              [
                105.688668,
                20.830791
              ],
              [
                105.68899,
                20.830806
              ],
              [
                105.689289,
                20.830807
              ],
              [
                105.68938,
                20.830816
              ],
              [
                105.68948,
                20.830826
              ],
              [
                105.68966,
                20.830859
              ],
              [
                105.68975,
                20.830889
              ],
              [
                105.689838,
                20.830918
              ],
              [
                105.689842,
                20.83092
              ],
              [
                105.689943,
                20.830953
              ],
              [
                105.690048,
                20.830979
              ],
              [
                105.690192,
                20.831017
              ],
              [
                105.690217,
                20.831022
              ],
              [
                105.69036,
                20.831022
              ],
              [
                105.690375,
                20.831022
              ],
              [
                105.690418,
                20.831022
              ],
              [
                105.690842,
                20.831019
              ],
              [
                105.690886,
                20.831023
              ],
              [
                105.690884,
                20.831039
              ],
              [
                105.690879,
                20.83107
              ],
              [
                105.690777,
                20.831595
              ],
              [
                105.690567,
                20.832578
              ],
              [
                105.690414,
                20.833354
              ],
              [
                105.690267,
                20.834133
              ],
              [
                105.690264,
                20.834147
              ],
              [
                105.690073,
                20.83509
              ],
              [
                105.690054,
                20.835318
              ],
              [
                105.68959,
                20.837551
              ],
              [
                105.689578,
                20.837608
              ],
              [
                105.689575,
                20.837623
              ],
              [
                105.687401,
                20.837282
              ],
              [
                105.687007,
                20.837221
              ],
              [
                105.68692,
                20.837856
              ],
              [
                105.686919,
                20.837871
              ],
              [
                105.686918,
                20.837871
              ],
              [
                105.686907,
                20.837986
              ],
              [
                105.686901,
                20.838072
              ],
              [
                105.686876,
                20.838443
              ],
              [
                105.686874,
                20.838455
              ],
              [
                105.686867,
                20.838569
              ],
              [
                105.686814,
                20.838976
              ],
              [
                105.686793,
                20.83916
              ],
              [
                105.686768,
                20.839265
              ],
              [
                105.68671,
                20.83953
              ],
              [
                105.68669,
                20.839649
              ],
              [
                105.686689,
                20.83976
              ],
              [
                105.686708,
                20.839921
              ],
              [
                105.686764,
                20.840412
              ],
              [
                105.686813,
                20.840745
              ],
              [
                105.686832,
                20.840914
              ],
              [
                105.686502,
                20.841294
              ],
              [
                105.686225,
                20.841655
              ],
              [
                105.686144,
                20.841617
              ],
              [
                105.685605,
                20.84137
              ],
              [
                105.685619,
                20.841496
              ],
              [
                105.685627,
                20.841641
              ],
              [
                105.685737,
                20.843568
              ],
              [
                105.685785,
                20.844029
              ],
              [
                105.686263,
                20.84394
              ],
              [
                105.687571,
                20.843738
              ],
              [
                105.688371,
                20.843645
              ],
              [
                105.688867,
                20.843661
              ],
              [
                105.68938,
                20.843883
              ],
              [
                105.689444,
                20.843922
              ],
              [
                105.689657,
                20.844107
              ],
              [
                105.690363,
                20.84468
              ],
              [
                105.690772,
                20.84501
              ],
              [
                105.691557,
                20.84555
              ],
              [
                105.691896,
                20.845742
              ],
              [
                105.692536,
                20.846068
              ],
              [
                105.693016,
                20.846245
              ],
              [
                105.69334,
                20.846344
              ],
              [
                105.693705,
                20.846421
              ],
              [
                105.694106,
                20.846494
              ],
              [
                105.694299,
                20.846511
              ],
              [
                105.695001,
                20.846525
              ],
              [
                105.695419,
                20.846478
              ],
              [
                105.695931,
                20.846355
              ],
              [
                105.696424,
                20.846214
              ],
              [
                105.696587,
                20.846345
              ],
              [
                105.696595,
                20.846354
              ],
              [
                105.696623,
                20.846377
              ],
              [
                105.696751,
                20.846492
              ],
              [
                105.696861,
                20.846591
              ],
              [
                105.6971,
                20.847078
              ],
              [
                105.697116,
                20.847122
              ],
              [
                105.697324,
                20.847694
              ],
              [
                105.697442,
                20.84785
              ],
              [
                105.697585,
                20.848037
              ],
              [
                105.698036,
                20.848386
              ],
              [
                105.698205,
                20.848508
              ],
              [
                105.69838,
                20.84855
              ],
              [
                105.698556,
                20.848549
              ],
              [
                105.698701,
                20.848506
              ],
              [
                105.698822,
                20.848441
              ],
              [
                105.698975,
                20.848383
              ],
              [
                105.699135,
                20.848368
              ],
              [
                105.699372,
                20.848424
              ],
              [
                105.69983,
                20.848644
              ],
              [
                105.700089,
                20.848701
              ],
              [
                105.700151,
                20.848715
              ],
              [
                105.700223,
                20.848719
              ],
              [
                105.700247,
                20.848397
              ],
              [
                105.700165,
                20.847666
              ],
              [
                105.700549,
                20.847607
              ],
              [
                105.70082,
                20.847566
              ],
              [
                105.701127,
                20.847611
              ],
              [
                105.701141,
                20.847887
              ],
              [
                105.701595,
                20.847913
              ],
              [
                105.702077,
                20.847912
              ],
              [
                105.702603,
                20.847909
              ],
              [
                105.702638,
                20.847908
              ],
              [
                105.702794,
                20.847903
              ],
              [
                105.702906,
                20.847901
              ],
              [
                105.703005,
                20.8479
              ],
              [
                105.703122,
                20.847899
              ],
              [
                105.703463,
                20.847895
              ],
              [
                105.704766,
                20.847867
              ],
              [
                105.704893,
                20.847868
              ],
              [
                105.705066,
                20.84786
              ],
              [
                105.705145,
                20.847857
              ],
              [
                105.705475,
                20.847865
              ],
              [
                105.705937,
                20.847846
              ],
              [
                105.706475,
                20.847837
              ],
              [
                105.70649,
                20.847834
              ],
              [
                105.70746,
                20.849178
              ],
              [
                105.708338,
                20.850466
              ],
              [
                105.708967,
                20.85136
              ],
              [
                105.710698,
                20.850818
              ],
              [
                105.711384,
                20.851479
              ],
              [
                105.711466,
                20.85266
              ],
              [
                105.711428,
                20.853169
              ],
              [
                105.71143,
                20.853563
              ],
              [
                105.711422,
                20.853651
              ],
              [
                105.711379,
                20.853647
              ],
              [
                105.711366,
                20.853637
              ],
              [
                105.711295,
                20.853636
              ],
              [
                105.711271,
                20.853639
              ],
              [
                105.710913,
                20.85368
              ],
              [
                105.710517,
                20.853743
              ],
              [
                105.710415,
                20.853755
              ],
              [
                105.7098,
                20.853828
              ],
              [
                105.709778,
                20.853837
              ],
              [
                105.709682,
                20.853845
              ],
              [
                105.709623,
                20.854476
              ],
              [
                105.709587,
                20.854854
              ],
              [
                105.709495,
                20.856353
              ],
              [
                105.709495,
                20.856353
              ],
              [
                105.709477,
                20.856592
              ],
              [
                105.709475,
                20.856662
              ],
              [
                105.709846,
                20.856559
              ],
              [
                105.710985,
                20.856245
              ],
              [
                105.711457,
                20.856113
              ],
              [
                105.711537,
                20.85609
              ],
              [
                105.711842,
                20.856603
              ],
              [
                105.712075,
                20.856991
              ],
              [
                105.712118,
                20.857061
              ],
              [
                105.71225,
                20.857327
              ],
              [
                105.712365,
                20.857598
              ],
              [
                105.712375,
                20.857622
              ],
              [
                105.712672,
                20.858469
              ],
              [
                105.712939,
                20.858392
              ],
              [
                105.713175,
                20.858307
              ],
              [
                105.71341,
                20.858248
              ],
              [
                105.71358,
                20.858232
              ],
              [
                105.713741,
                20.858216
              ],
              [
                105.714292,
                20.858299
              ],
              [
                105.71471,
                20.858367
              ],
              [
                105.714958,
                20.85837
              ],
              [
                105.715006,
                20.85837
              ],
              [
                105.715115,
                20.858529
              ],
              [
                105.715139,
                20.858564
              ],
              [
                105.715283,
                20.85875
              ],
              [
                105.715401,
                20.858903
              ],
              [
                105.715422,
                20.85893
              ],
              [
                105.715492,
                20.859
              ],
              [
                105.715538,
                20.859024
              ],
              [
                105.715541,
                20.859025
              ],
              [
                105.715578,
                20.859038
              ],
              [
                105.715677,
                20.859074
              ],
              [
                105.715692,
                20.859079
              ],
              [
                105.715892,
                20.859151
              ],
              [
                105.715895,
                20.859153
              ],
              [
                105.71595,
                20.859172
              ],
              [
                105.71595,
                20.859172
              ],
              [
                105.71605,
                20.859208
              ],
              [
                105.71623,
                20.859263
              ],
              [
                105.716247,
                20.859268
              ],
              [
                105.716256,
                20.859271
              ],
              [
                105.716366,
                20.859295
              ],
              [
                105.71637,
                20.859296
              ],
              [
                105.716377,
                20.859298
              ],
              [
                105.716539,
                20.859333
              ],
              [
                105.716715,
                20.859371
              ],
              [
                105.716745,
                20.859362
              ],
              [
                105.716779,
                20.859361
              ],
              [
                105.716972,
                20.859356
              ],
              [
                105.717109,
                20.859353
              ],
              [
                105.717246,
                20.8593
              ],
              [
                105.717436,
                20.859198
              ],
              [
                105.7175,
                20.859153
              ],
              [
                105.717609,
                20.859078
              ],
              [
                105.717699,
                20.859038
              ],
              [
                105.717933,
                20.858952
              ],
              [
                105.718185,
                20.858884
              ],
              [
                105.718475,
                20.858768
              ],
              [
                105.718586,
                20.858716
              ],
              [
                105.718722,
                20.858652
              ],
              [
                105.718975,
                20.858502
              ],
              [
                105.719036,
                20.858458
              ],
              [
                105.719145,
                20.858331
              ],
              [
                105.719589,
                20.858007
              ],
              [
                105.719681,
                20.857914
              ],
              [
                105.719813,
                20.857706
              ],
              [
                105.71997,
                20.857344
              ],
              [
                105.72008,
                20.856968
              ],
              [
                105.720156,
                20.856903
              ],
              [
                105.72076,
                20.85656
              ],
              [
                105.721336,
                20.856266
              ],
              [
                105.72231,
                20.85582
              ],
              [
                105.722411,
                20.855771
              ],
              [
                105.722544,
                20.855706
              ],
              [
                105.722756,
                20.855603
              ],
              [
                105.723064,
                20.855452
              ],
              [
                105.723099,
                20.855435
              ],
              [
                105.723202,
                20.855362
              ],
              [
                105.723368,
                20.855273
              ],
              [
                105.723467,
                20.855216
              ],
              [
                105.7237,
                20.855083
              ],
              [
                105.72398,
                20.854914
              ],
              [
                105.724176,
                20.855012
              ],
              [
                105.724359,
                20.855131
              ],
              [
                105.72441,
                20.855164
              ],
              [
                105.72448,
                20.85515
              ],
              [
                105.724587,
                20.855116
              ],
              [
                105.725112,
                20.854829
              ],
              [
                105.725241,
                20.854657
              ],
              [
                105.725338,
                20.854588
              ],
              [
                105.725489,
                20.854479
              ],
              [
                105.725713,
                20.854388
              ],
              [
                105.725755,
                20.854297
              ],
              [
                105.725989,
                20.853798
              ],
              [
                105.726024,
                20.853621
              ],
              [
                105.726306,
                20.853096
              ],
              [
                105.726379,
                20.853071
              ],
              [
                105.726446,
                20.852413
              ],
              [
                105.726549,
                20.852319
              ],
              [
                105.726638,
                20.85232
              ],
              [
                105.726861,
                20.851676
              ],
              [
                105.72676,
                20.851543
              ],
              [
                105.727137,
                20.850879
              ],
              [
                105.727152,
                20.850836
              ],
              [
                105.728539,
                20.851602
              ],
              [
                105.728686,
                20.85167
              ],
              [
                105.729023,
                20.85118
              ],
              [
                105.730482,
                20.849123
              ],
              [
                105.732036,
                20.846886
              ],
              [
                105.732157,
                20.846706
              ],
              [
                105.732452,
                20.846248
              ],
              [
                105.732792,
                20.845704
              ],
              [
                105.733132,
                20.845143
              ],
              [
                105.733184,
                20.845048
              ],
              [
                105.733456,
                20.845048
              ],
              [
                105.733767,
                20.845057
              ],
              [
                105.733849,
                20.845057
              ],
              [
                105.733849,
                20.845057
              ],
              [
                105.734025,
                20.845057
              ],
              [
                105.734272,
                20.845066
              ],
              [
                105.734599,
                20.845081
              ],
              [
                105.734671,
                20.845093
              ],
              [
                105.734825,
                20.844751
              ],
              [
                105.734844,
                20.844708
              ],
              [
                105.73521,
                20.844839
              ],
              [
                105.735302,
                20.844872
              ],
              [
                105.735488,
                20.844668
              ],
              [
                105.735488,
                20.844668
              ]
            ]
          ]
        ]
      },
      "properties": {
        "code": "10096",
        "name": "Hoà Phú",
        "nameEn": "Hoa Phu",
        "fullName": "Xã Hoà Phú",
        "fullNameEn": "Hoa Phu Commune",
        "codeName": "hoa_phu",
        "postalCode": "13427",
        "postalCodePrefix": "",
        "gisServerId": "diaphanhanhchinhcapxa_2025.3216",
        "areaKm2": 29.87
      }
    }
  ]
}