{
  "type": "FeatureCollection",
  "bbox": [
    105.767474,
    20.839643,
    105.824454,
    20.917232
  ],
  "features": [
    {
      "type": "Feature",
      "id": "10144",
      "bbox": [
        105.767474,
        20.839643,
        105.824454,
        20.917232
      ],
      "geometry": {
        "type": "MultiPolygon",
        "coordinates": [
          [
            [
              [
                105.79137,
                20.91518
              ],
              [
                105.791478,
                20.91517
              ],
              [
                105.791607,
                20.915186
              ],
              [
                105.791718,
                20.915222
              ],
              [
                105.791853,
                20.915287
              ],
              [
                105.791963,
                20.915346
              ],
              [
                105.792076,
                20.915407
              ],
              [
                105.792294,
                20.915494
              ],
              [
                105.792522,
                20.915511
              ],
              [
                105.792675,
                20.915516
              ],
              [
                105.792781,
                20.915507
              ],
              [
                105.792925,
                20.915474
              ],
              [
                105.793134,
                20.915425
              ],
              [
                105.793336,
                20.915375
              ],
              [
                105.793461,
                20.915315
              ],
              [
                105.793556,
                20.915271
              ],
              [
                105.793655,
                20.915243
              ],
              [
                105.793821,
                20.915205
              ],
              [
                105.793997,
                20.915179
              ],
              [
                105.794132,
                20.91515
              ],
              [
                105.794233,
                20.915127
              ],
              [
                105.794381,
                20.915065
              ],
              [
                105.794529,
                20.914984
              ],
              [
                105.794651,
                20.914891
              ],
              [
                105.79475,
                20.914784
              ],
              [
                105.794811,
                20.914663
              ],
              [
                105.794845,
                20.91457
              ],
              [
                105.794853,
                20.914451
              ],
              [
                105.794854,
                20.914345
              ],
              [
                105.79486,
                20.914221
              ],
              [
                105.794859,
                20.914091
              ],
              [
                105.794844,
                20.913923
              ],
              [
                105.794846,
                20.913674
              ],
              [
                105.794858,
                20.913578
              ],
              [
                105.794883,
                20.913464
              ],
              [
                105.794911,
                20.913359
              ],
              [
                105.794946,
                20.913245
              ],
              [
                105.795015,
                20.913114
              ],
              [
                105.79505,
                20.913041
              ],
              [
                105.795116,
                20.912972
              ],
              [
                105.79523,
                20.912853
              ],
              [
                105.795382,
                20.912751
              ],
              [
                105.795475,
                20.91268
              ],
              [
                105.795616,
                20.912564
              ],
              [
                105.795726,
                20.912496
              ],
              [
                105.795881,
                20.912409
              ],
              [
                105.796022,
                20.912359
              ],
              [
                105.796212,
                20.91229
              ],
              [
                105.796308,
                20.912234
              ],
              [
                105.796406,
                20.912179
              ],
              [
                105.79649,
                20.912087
              ],
              [
                105.796611,
                20.911941
              ],
              [
                105.796816,
                20.91194
              ],
              [
                105.796926,
                20.911929
              ],
              [
                105.797062,
                20.911922
              ],
              [
                105.797171,
                20.911937
              ],
              [
                105.797288,
                20.911978
              ],
              [
                105.797464,
                20.912112
              ],
              [
                105.797579,
                20.912237
              ],
              [
                105.797605,
                20.912412
              ],
              [
                105.797645,
                20.912745
              ],
              [
                105.797719,
                20.912906
              ],
              [
                105.79779,
                20.913016
              ],
              [
                105.798015,
                20.913126
              ],
              [
                105.798167,
                20.913123
              ],
              [
                105.798367,
                20.913101
              ],
              [
                105.798485,
                20.913061
              ],
              [
                105.798661,
                20.912979
              ],
              [
                105.798829,
                20.912884
              ],
              [
                105.798924,
                20.912795
              ],
              [
                105.799055,
                20.912755
              ],
              [
                105.79921,
                20.912652
              ],
              [
                105.799368,
                20.912568
              ],
              [
                105.799548,
                20.912549
              ],
              [
                105.799668,
                20.912558
              ],
              [
                105.79978,
                20.91257
              ],
              [
                105.79996,
                20.912588
              ],
              [
                105.800244,
                20.912618
              ],
              [
                105.800489,
                20.912589
              ],
              [
                105.800663,
                20.912586
              ],
              [
                105.800802,
                20.91259
              ],
              [
                105.800908,
                20.912587
              ],
              [
                105.801032,
                20.912575
              ],
              [
                105.801176,
                20.912547
              ],
              [
                105.801329,
                20.912543
              ],
              [
                105.801471,
                20.912536
              ],
              [
                105.801618,
                20.912509
              ],
              [
                105.801734,
                20.912487
              ],
              [
                105.801871,
                20.912472
              ],
              [
                105.801941,
                20.912483
              ],
              [
                105.802008,
                20.912494
              ],
              [
                105.802034,
                20.912498
              ],
              [
                105.80212,
                20.912512
              ],
              [
                105.802214,
                20.912534
              ],
              [
                105.802354,
                20.912547
              ],
              [
                105.802831,
                20.912574
              ],
              [
                105.803052,
                20.912522
              ],
              [
                105.803185,
                20.91241
              ],
              [
                105.803225,
                20.912321
              ],
              [
                105.803261,
                20.912159
              ],
              [
                105.803244,
                20.911879
              ],
              [
                105.803185,
                20.91171
              ],
              [
                105.803158,
                20.911507
              ],
              [
                105.803201,
                20.911342
              ],
              [
                105.803271,
                20.911071
              ],
              [
                105.803351,
                20.910899
              ],
              [
                105.803437,
                20.910793
              ],
              [
                105.803555,
                20.910657
              ],
              [
                105.8037,
                20.910486
              ],
              [
                105.803861,
                20.910289
              ],
              [
                105.804003,
                20.910121
              ],
              [
                105.804128,
                20.909992
              ],
              [
                105.804237,
                20.909887
              ],
              [
                105.80435,
                20.90978
              ],
              [
                105.80447,
                20.909661
              ],
              [
                105.804645,
                20.909555
              ],
              [
                105.804759,
                20.909475
              ],
              [
                105.804887,
                20.909374
              ],
              [
                105.805017,
                20.909318
              ],
              [
                105.805181,
                20.90929
              ],
              [
                105.805358,
                20.909293
              ],
              [
                105.805537,
                20.909374
              ],
              [
                105.805641,
                20.909437
              ],
              [
                105.805743,
                20.9095
              ],
              [
                105.805908,
                20.90961
              ],
              [
                105.806005,
                20.909671
              ],
              [
                105.806111,
                20.909726
              ],
              [
                105.80666,
                20.909899
              ],
              [
                105.807361,
                20.90938
              ],
              [
                105.807473,
                20.909288
              ],
              [
                105.807551,
                20.909222
              ],
              [
                105.807648,
                20.909138
              ],
              [
                105.807723,
                20.909071
              ],
              [
                105.807828,
                20.908984
              ],
              [
                105.807951,
                20.908894
              ],
              [
                105.808083,
                20.908795
              ],
              [
                105.808173,
                20.908722
              ],
              [
                105.808279,
                20.908635
              ],
              [
                105.808401,
                20.908533
              ],
              [
                105.808493,
                20.908457
              ],
              [
                105.808574,
                20.908392
              ],
              [
                105.808655,
                20.908329
              ],
              [
                105.808746,
                20.908249
              ],
              [
                105.808869,
                20.908141
              ],
              [
                105.808959,
                20.908068
              ],
              [
                105.809045,
                20.908002
              ],
              [
                105.809162,
                20.907917
              ],
              [
                105.809269,
                20.907835
              ],
              [
                105.809361,
                20.907762
              ],
              [
                105.809479,
                20.907672
              ],
              [
                105.809586,
                20.907585
              ],
              [
                105.809666,
                20.907518
              ],
              [
                105.809841,
                20.907379
              ],
              [
                105.809931,
                20.907308
              ],
              [
                105.810027,
                20.907237
              ],
              [
                105.810173,
                20.907128
              ],
              [
                105.810301,
                20.907033
              ],
              [
                105.810427,
                20.906927
              ],
              [
                105.81051,
                20.906859
              ],
              [
                105.810616,
                20.90677
              ],
              [
                105.81075,
                20.906665
              ],
              [
                105.81088,
                20.906564
              ],
              [
                105.811007,
                20.906461
              ],
              [
                105.811129,
                20.906346
              ],
              [
                105.811234,
                20.906265
              ],
              [
                105.811344,
                20.906176
              ],
              [
                105.811488,
                20.906058
              ],
              [
                105.81166,
                20.905926
              ],
              [
                105.811803,
                20.905816
              ],
              [
                105.811889,
                20.905751
              ],
              [
                105.811999,
                20.905667
              ],
              [
                105.812114,
                20.905578
              ],
              [
                105.812193,
                20.905514
              ],
              [
                105.812287,
                20.90544
              ],
              [
                105.812394,
                20.905357
              ],
              [
                105.812475,
                20.905291
              ],
              [
                105.81258,
                20.905204
              ],
              [
                105.812739,
                20.905074
              ],
              [
                105.812912,
                20.904931
              ],
              [
                105.812996,
                20.904864
              ],
              [
                105.813081,
                20.904796
              ],
              [
                105.813213,
                20.904691
              ],
              [
                105.813317,
                20.904608
              ],
              [
                105.813402,
                20.904541
              ],
              [
                105.813511,
                20.904455
              ],
              [
                105.813605,
                20.90438
              ],
              [
                105.813685,
                20.904317
              ],
              [
                105.813807,
                20.904219
              ],
              [
                105.813929,
                20.90412
              ],
              [
                105.814008,
                20.904056
              ],
              [
                105.814134,
                20.903955
              ],
              [
                105.814292,
                20.903827
              ],
              [
                105.814391,
                20.903748
              ],
              [
                105.814473,
                20.903684
              ],
              [
                105.814555,
                20.90362
              ],
              [
                105.814678,
                20.903519
              ],
              [
                105.814793,
                20.903424
              ],
              [
                105.814899,
                20.903336
              ],
              [
                105.815048,
                20.903214
              ],
              [
                105.815155,
                20.903127
              ],
              [
                105.815295,
                20.903039
              ],
              [
                105.815412,
                20.902931
              ],
              [
                105.815568,
                20.902813
              ],
              [
                105.815677,
                20.902688
              ],
              [
                105.815702,
                20.90266
              ],
              [
                105.815778,
                20.902572
              ],
              [
                105.815908,
                20.902465
              ],
              [
                105.815995,
                20.902351
              ],
              [
                105.81608,
                20.90221
              ],
              [
                105.816133,
                20.902055
              ],
              [
                105.816161,
                20.90192
              ],
              [
                105.816179,
                20.901754
              ],
              [
                105.816173,
                20.901573
              ],
              [
                105.816157,
                20.901409
              ],
              [
                105.816132,
                20.901273
              ],
              [
                105.816106,
                20.901149
              ],
              [
                105.816062,
                20.900997
              ],
              [
                105.816006,
                20.900806
              ],
              [
                105.815981,
                20.900668
              ],
              [
                105.815968,
                20.900496
              ],
              [
                105.815961,
                20.900315
              ],
              [
                105.815967,
                20.900208
              ],
              [
                105.815979,
                20.900091
              ],
              [
                105.816,
                20.899975
              ],
              [
                105.816041,
                20.899859
              ],
              [
                105.816124,
                20.899682
              ],
              [
                105.816207,
                20.899532
              ],
              [
                105.815953,
                20.899403
              ],
              [
                105.815936,
                20.899396
              ],
              [
                105.815434,
                20.899205
              ],
              [
                105.815419,
                20.899199
              ],
              [
                105.815402,
                20.899193
              ],
              [
                105.815383,
                20.899185
              ],
              [
                105.814845,
                20.898978
              ],
              [
                105.814838,
                20.898975
              ],
              [
                105.814826,
                20.898972
              ],
              [
                105.814807,
                20.898967
              ],
              [
                105.814784,
                20.89896
              ],
              [
                105.814765,
                20.898953
              ],
              [
                105.814764,
                20.898952
              ],
              [
                105.814705,
                20.898929
              ],
              [
                105.814705,
                20.898929
              ],
              [
                105.814416,
                20.898813
              ],
              [
                105.814381,
                20.898799
              ],
              [
                105.814211,
                20.898735
              ],
              [
                105.814194,
                20.898728
              ],
              [
                105.814176,
                20.898721
              ],
              [
                105.81358,
                20.898494
              ],
              [
                105.813569,
                20.898489
              ],
              [
                105.813557,
                20.898485
              ],
              [
                105.813277,
                20.898378
              ],
              [
                105.81326,
                20.898371
              ],
              [
                105.813244,
                20.898365
              ],
              [
                105.812774,
                20.898186
              ],
              [
                105.812723,
                20.898173
              ],
              [
                105.812703,
                20.89817
              ],
              [
                105.812703,
                20.89817
              ],
              [
                105.812689,
                20.898168
              ],
              [
                105.812674,
                20.898167
              ],
              [
                105.812677,
                20.898152
              ],
              [
                105.812678,
                20.898146
              ],
              [
                105.812696,
                20.898064
              ],
              [
                105.812725,
                20.897935
              ],
              [
                105.812741,
                20.897848
              ],
              [
                105.812752,
                20.897788
              ],
              [
                105.812755,
                20.897739
              ],
              [
                105.81276,
                20.897684
              ],
              [
                105.812762,
                20.897663
              ],
              [
                105.81277,
                20.897607
              ],
              [
                105.812782,
                20.897524
              ],
              [
                105.812784,
                20.897457
              ],
              [
                105.812784,
                20.897452
              ],
              [
                105.81278,
                20.897405
              ],
              [
                105.812777,
                20.89738
              ],
              [
                105.81277,
                20.897347
              ],
              [
                105.812767,
                20.897333
              ],
              [
                105.812764,
                20.897323
              ],
              [
                105.812746,
                20.897273
              ],
              [
                105.812698,
                20.897141
              ],
              [
                105.812696,
                20.897137
              ],
              [
                105.812674,
                20.897084
              ],
              [
                105.812667,
                20.897039
              ],
              [
                105.812663,
                20.896984
              ],
              [
                105.812663,
                20.896973
              ],
              [
                105.812663,
                20.896913
              ],
              [
                105.812665,
                20.896897
              ],
              [
                105.812665,
                20.896897
              ],
              [
                105.812665,
                20.896896
              ],
              [
                105.812667,
                20.896887
              ],
              [
                105.812678,
                20.896866
              ],
              [
                105.812685,
                20.896859
              ],
              [
                105.812699,
                20.896841
              ],
              [
                105.812727,
                20.896815
              ],
              [
                105.812752,
                20.896796
              ],
              [
                105.812757,
                20.896793
              ],
              [
                105.812771,
                20.896785
              ],
              [
                105.812776,
                20.896781
              ],
              [
                105.812795,
                20.89677
              ],
              [
                105.812803,
                20.896765
              ],
              [
                105.812821,
                20.896755
              ],
              [
                105.812911,
                20.896699
              ],
              [
                105.813043,
                20.896619
              ],
              [
                105.813122,
                20.896566
              ],
              [
                105.813142,
                20.896551
              ],
              [
                105.81315,
                20.896546
              ],
              [
                105.813154,
                20.896542
              ],
              [
                105.813161,
                20.896537
              ],
              [
                105.81319,
                20.896516
              ],
              [
                105.813248,
                20.896477
              ],
              [
                105.813286,
                20.896454
              ],
              [
                105.813326,
                20.896429
              ],
              [
                105.813363,
                20.89641
              ],
              [
                105.813408,
                20.896387
              ],
              [
                105.813464,
                20.896352
              ],
              [
                105.813561,
                20.896288
              ],
              [
                105.813617,
                20.896251
              ],
              [
                105.813685,
                20.896206
              ],
              [
                105.813698,
                20.896197
              ],
              [
                105.813712,
                20.896187
              ],
              [
                105.813764,
                20.896153
              ],
              [
                105.813769,
                20.89615
              ],
              [
                105.813864,
                20.896087
              ],
              [
                105.813915,
                20.896055
              ],
              [
                105.814193,
                20.895881
              ],
              [
                105.814381,
                20.895776
              ],
              [
                105.814403,
                20.895764
              ],
              [
                105.814669,
                20.895626
              ],
              [
                105.814839,
                20.895535
              ],
              [
                105.814882,
                20.895512
              ],
              [
                105.814895,
                20.895505
              ],
              [
                105.814937,
                20.895482
              ],
              [
                105.815,
                20.89544
              ],
              [
                105.815004,
                20.895437
              ],
              [
                105.814983,
                20.895416
              ],
              [
                105.814961,
                20.895396
              ],
              [
                105.814891,
                20.895388
              ],
              [
                105.814827,
                20.895381
              ],
              [
                105.814713,
                20.895372
              ],
              [
                105.814598,
                20.895363
              ],
              [
                105.814532,
                20.895361
              ],
              [
                105.814467,
                20.895359
              ],
              [
                105.814424,
                20.895358
              ],
              [
                105.814381,
                20.895357
              ],
              [
                105.814282,
                20.895354
              ],
              [
                105.814183,
                20.895351
              ],
              [
                105.813908,
                20.895345
              ],
              [
                105.813638,
                20.895338
              ],
              [
                105.813595,
                20.895343
              ],
              [
                105.813516,
                20.895339
              ],
              [
                105.81346,
                20.895336
              ],
              [
                105.813349,
                20.895331
              ],
              [
                105.813241,
                20.895325
              ],
              [
                105.813202,
                20.895324
              ],
              [
                105.813162,
                20.895322
              ],
              [
                105.813109,
                20.895317
              ],
              [
                105.813057,
                20.895312
              ],
              [
                105.813002,
                20.895307
              ],
              [
                105.812944,
                20.8953
              ],
              [
                105.812915,
                20.895266
              ],
              [
                105.812864,
                20.895252
              ],
              [
                105.812849,
                20.895248
              ],
              [
                105.812858,
                20.895194
              ],
              [
                105.812893,
                20.894958
              ],
              [
                105.8129,
                20.894913
              ],
              [
                105.812904,
                20.894885
              ],
              [
                105.81291,
                20.89485
              ],
              [
                105.812923,
                20.894715
              ],
              [
                105.81292,
                20.894607
              ],
              [
                105.812901,
                20.894445
              ],
              [
                105.812839,
                20.894203
              ],
              [
                105.812758,
                20.893836
              ],
              [
                105.812733,
                20.893693
              ],
              [
                105.812726,
                20.893654
              ],
              [
                105.812717,
                20.893484
              ],
              [
                105.812707,
                20.893315
              ],
              [
                105.812728,
                20.893076
              ],
              [
                105.812805,
                20.892652
              ],
              [
                105.812872,
                20.8923
              ],
              [
                105.812885,
                20.892262
              ],
              [
                105.812982,
                20.891975
              ],
              [
                105.813007,
                20.891901
              ],
              [
                105.813132,
                20.891534
              ],
              [
                105.813288,
                20.891122
              ],
              [
                105.813441,
                20.890746
              ],
              [
                105.813485,
                20.890548
              ],
              [
                105.813503,
                20.89044
              ],
              [
                105.813515,
                20.890217
              ],
              [
                105.813527,
                20.890085
              ],
              [
                105.813562,
                20.889889
              ],
              [
                105.81362,
                20.889574
              ],
              [
                105.813735,
                20.889082
              ],
              [
                105.813785,
                20.888871
              ],
              [
                105.8139,
                20.88841
              ],
              [
                105.813944,
                20.888245
              ],
              [
                105.813968,
                20.888178
              ],
              [
                105.814013,
                20.888132
              ],
              [
                105.81403,
                20.88808
              ],
              [
                105.814051,
                20.887906
              ],
              [
                105.814139,
                20.887492
              ],
              [
                105.81414,
                20.887485
              ],
              [
                105.814169,
                20.887302
              ],
              [
                105.814277,
                20.886867
              ],
              [
                105.814501,
                20.88669
              ],
              [
                105.81459,
                20.886626
              ],
              [
                105.814948,
                20.886366
              ],
              [
                105.814969,
                20.886351
              ],
              [
                105.815661,
                20.886061
              ],
              [
                105.815627,
                20.88596
              ],
              [
                105.815123,
                20.884617
              ],
              [
                105.814919,
                20.884018
              ],
              [
                105.81475,
                20.883421
              ],
              [
                105.814678,
                20.883077
              ],
              [
                105.81454,
                20.881994
              ],
              [
                105.814147,
                20.879966
              ],
              [
                105.815475,
                20.879658
              ],
              [
                105.816166,
                20.879436
              ],
              [
                105.816218,
                20.879423
              ],
              [
                105.816151,
                20.879359
              ],
              [
                105.816085,
                20.879307
              ],
              [
                105.816001,
                20.879229
              ],
              [
                105.815967,
                20.879188
              ],
              [
                105.815958,
                20.879172
              ],
              [
                105.815929,
                20.8791
              ],
              [
                105.815827,
                20.878866
              ],
              [
                105.815771,
                20.878753
              ],
              [
                105.815694,
                20.878609
              ],
              [
                105.815666,
                20.878552
              ],
              [
                105.815652,
                20.878524
              ],
              [
                105.815595,
                20.878405
              ],
              [
                105.815488,
                20.878184
              ],
              [
                105.815439,
                20.878069
              ],
              [
                105.815442,
                20.878048
              ],
              [
                105.815455,
                20.878009
              ],
              [
                105.815482,
                20.877941
              ],
              [
                105.815494,
                20.877881
              ],
              [
                105.815533,
                20.877768
              ],
              [
                105.815662,
                20.877429
              ],
              [
                105.815814,
                20.876969
              ],
              [
                105.815855,
                20.876853
              ],
              [
                105.815967,
                20.87653
              ],
              [
                105.816042,
                20.876304
              ],
              [
                105.816119,
                20.876076
              ],
              [
                105.816331,
                20.87545
              ],
              [
                105.816544,
                20.874861
              ],
              [
                105.816712,
                20.874388
              ],
              [
                105.816792,
                20.874105
              ],
              [
                105.816756,
                20.874025
              ],
              [
                105.816749,
                20.874014
              ],
              [
                105.816491,
                20.873597
              ],
              [
                105.816088,
                20.872931
              ],
              [
                105.815896,
                20.872641
              ],
              [
                105.815827,
                20.872538
              ],
              [
                105.81582,
                20.872525
              ],
              [
                105.815338,
                20.871743
              ],
              [
                105.815389,
                20.871675
              ],
              [
                105.815418,
                20.87163
              ],
              [
                105.815509,
                20.871557
              ],
              [
                105.815596,
                20.871494
              ],
              [
                105.815696,
                20.871427
              ],
              [
                105.815541,
                20.871029
              ],
              [
                105.815454,
                20.870983
              ],
              [
                105.81545,
                20.870982
              ],
              [
                105.815608,
                20.870298
              ],
              [
                105.815861,
                20.870343
              ],
              [
                105.816639,
                20.870469
              ],
              [
                105.816949,
                20.87051
              ],
              [
                105.817567,
                20.870582
              ],
              [
                105.817618,
                20.870586
              ],
              [
                105.819187,
                20.870586
              ],
              [
                105.819582,
                20.870542
              ],
              [
                105.820093,
                20.870447
              ],
              [
                105.820462,
                20.870354
              ],
              [
                105.820936,
                20.870192
              ],
              [
                105.821465,
                20.86999
              ],
              [
                105.821845,
                20.869899
              ],
              [
                105.822083,
                20.869849
              ],
              [
                105.822447,
                20.869806
              ],
              [
                105.822831,
                20.869769
              ],
              [
                105.823125,
                20.869747
              ],
              [
                105.823523,
                20.869752
              ],
              [
                105.823881,
                20.869782
              ],
              [
                105.824096,
                20.869781
              ],
              [
                105.824118,
                20.86953
              ],
              [
                105.823989,
                20.869253
              ],
              [
                105.8238,
                20.868851
              ],
              [
                105.823401,
                20.868111
              ],
              [
                105.823393,
                20.868095
              ],
              [
                105.823166,
                20.867614
              ],
              [
                105.822954,
                20.867154
              ],
              [
                105.823475,
                20.86671
              ],
              [
                105.823254,
                20.866453
              ],
              [
                105.823347,
                20.866348
              ],
              [
                105.823217,
                20.866209
              ],
              [
                105.823454,
                20.865975
              ],
              [
                105.822793,
                20.86546
              ],
              [
                105.823036,
                20.864945
              ],
              [
                105.823589,
                20.863797
              ],
              [
                105.823618,
                20.863739
              ],
              [
                105.824037,
                20.862868
              ],
              [
                105.824276,
                20.862319
              ],
              [
                105.824331,
                20.862087
              ],
              [
                105.824347,
                20.862019
              ],
              [
                105.824452,
                20.861529
              ],
              [
                105.824454,
                20.861517
              ],
              [
                105.824425,
                20.861511
              ],
              [
                105.824133,
                20.861424
              ],
              [
                105.824043,
                20.861397
              ],
              [
                105.822328,
                20.860892
              ],
              [
                105.820669,
                20.860421
              ],
              [
                105.820671,
                20.860405
              ],
              [
                105.820802,
                20.859403
              ],
              [
                105.820825,
                20.859149
              ],
              [
                105.820808,
                20.859149
              ],
              [
                105.820589,
                20.859149
              ],
              [
                105.820423,
                20.859147
              ],
              [
                105.820338,
                20.859125
              ],
              [
                105.820241,
                20.859079
              ],
              [
                105.819927,
                20.858884
              ],
              [
                105.81958,
                20.858658
              ],
              [
                105.819417,
                20.858525
              ],
              [
                105.819374,
                20.858487
              ],
              [
                105.819373,
                20.858487
              ],
              [
                105.819499,
                20.858253
              ],
              [
                105.819473,
                20.858176
              ],
              [
                105.819481,
                20.858151
              ],
              [
                105.819441,
                20.858064
              ],
              [
                105.819431,
                20.858032
              ],
              [
                105.819398,
                20.857793
              ],
              [
                105.819411,
                20.857644
              ],
              [
                105.819438,
                20.857509
              ],
              [
                105.819504,
                20.857358
              ],
              [
                105.819531,
                20.857309
              ],
              [
                105.819661,
                20.857131
              ],
              [
                105.819718,
                20.857068
              ],
              [
                105.819779,
                20.857024
              ],
              [
                105.819927,
                20.856918
              ],
              [
                105.820361,
                20.856694
              ],
              [
                105.82049,
                20.856646
              ],
              [
                105.820698,
                20.856567
              ],
              [
                105.821085,
                20.856472
              ],
              [
                105.821547,
                20.856429
              ],
              [
                105.821969,
                20.856398
              ],
              [
                105.822028,
                20.856396
              ],
              [
                105.822078,
                20.856395
              ],
              [
                105.822146,
                20.856389
              ],
              [
                105.822132,
                20.85633
              ],
              [
                105.822105,
                20.856218
              ],
              [
                105.821977,
                20.855863
              ],
              [
                105.821868,
                20.855506
              ],
              [
                105.821772,
                20.85519
              ],
              [
                105.821675,
                20.854852
              ],
              [
                105.821698,
                20.854845
              ],
              [
                105.821437,
                20.853975
              ],
              [
                105.821423,
                20.853962
              ],
              [
                105.821425,
                20.853958
              ],
              [
                105.821795,
                20.851832
              ],
              [
                105.821889,
                20.851339
              ],
              [
                105.82194,
                20.851031
              ],
              [
                105.822049,
                20.850453
              ],
              [
                105.822058,
                20.8504
              ],
              [
                105.822104,
                20.850141
              ],
              [
                105.822301,
                20.849017
              ],
              [
                105.822598,
                20.847342
              ],
              [
                105.822602,
                20.847305
              ],
              [
                105.822609,
                20.847257
              ],
              [
                105.82269,
                20.846805
              ],
              [
                105.822738,
                20.846545
              ],
              [
                105.822992,
                20.845151
              ],
              [
                105.822997,
                20.845123
              ],
              [
                105.823016,
                20.845017
              ],
              [
                105.823111,
                20.844495
              ],
              [
                105.823395,
                20.842676
              ],
              [
                105.823427,
                20.842474
              ],
              [
                105.823582,
                20.841574
              ],
              [
                105.823568,
                20.841515
              ],
              [
                105.823566,
                20.841513
              ],
              [
                105.823547,
                20.841498
              ],
              [
                105.823479,
                20.841476
              ],
              [
                105.823132,
                20.841408
              ],
              [
                105.822424,
                20.841275
              ],
              [
                105.821815,
                20.841154
              ],
              [
                105.820557,
                20.840901
              ],
              [
                105.820544,
                20.840962
              ],
              [
                105.81927,
                20.840716
              ],
              [
                105.819077,
                20.840679
              ],
              [
                105.81741,
                20.840336
              ],
              [
                105.81643,
                20.840134
              ],
              [
                105.815852,
                20.840008
              ],
              [
                105.815083,
                20.839839
              ],
              [
                105.814826,
                20.839778
              ],
              [
                105.814625,
                20.839739
              ],
              [
                105.81438,
                20.839682
              ],
              [
                105.814073,
                20.839643
              ],
              [
                105.813908,
                20.839684
              ],
              [
                105.81382,
                20.839692
              ],
              [
                105.812421,
                20.839843
              ],
              [
                105.811761,
                20.839914
              ],
              [
                105.810378,
                20.840062
              ],
              [
                105.80879,
                20.840199
              ],
              [
                105.808282,
                20.840255
              ],
              [
                105.806005,
                20.840525
              ],
              [
                105.803761,
                20.840753
              ],
              [
                105.802362,
                20.840535
              ],
              [
                105.800202,
                20.840159
              ],
              [
                105.800212,
                20.840293
              ],
              [
                105.800192,
                20.840339
              ],
              [
                105.800177,
                20.840585
              ],
              [
                105.800101,
                20.841896
              ],
              [
                105.801186,
                20.841901
              ],
              [
                105.801236,
                20.841917
              ],
              [
                105.801414,
                20.843405
              ],
              [
                105.801464,
                20.843539
              ],
              [
                105.801459,
                20.843542
              ],
              [
                105.800903,
                20.843918
              ],
              [
                105.800779,
                20.844003
              ],
              [
                105.800475,
                20.844211
              ],
              [
                105.799874,
                20.844622
              ],
              [
                105.799648,
                20.844808
              ],
              [
                105.799633,
                20.84482
              ],
              [
                105.799608,
                20.84485
              ],
              [
                105.799248,
                20.845265
              ],
              [
                105.79913,
                20.845394
              ],
              [
                105.799042,
                20.845537
              ],
              [
                105.798975,
                20.845783
              ],
              [
                105.798948,
                20.845999
              ],
              [
                105.798953,
                20.846125
              ],
              [
                105.799021,
                20.846377
              ],
              [
                105.799197,
                20.846919
              ],
              [
                105.799453,
                20.84779
              ],
              [
                105.799415,
                20.847806
              ],
              [
                105.798829,
                20.847926
              ],
              [
                105.798769,
                20.848113
              ],
              [
                105.79813,
                20.847869
              ],
              [
                105.797135,
                20.847401
              ],
              [
                105.796271,
                20.847725
              ],
              [
                105.796058,
                20.847869
              ],
              [
                105.795795,
                20.847993
              ],
              [
                105.795544,
                20.848139
              ],
              [
                105.795251,
                20.848879
              ],
              [
                105.795242,
                20.848893
              ],
              [
                105.795021,
                20.850047
              ],
              [
                105.794996,
                20.850183
              ],
              [
                105.794673,
                20.852173
              ],
              [
                105.794575,
                20.852183
              ],
              [
                105.794575,
                20.852191
              ],
              [
                105.794552,
                20.852213
              ],
              [
                105.794143,
                20.852262
              ],
              [
                105.792952,
                20.852383
              ],
              [
                105.792893,
                20.852384
              ],
              [
                105.792573,
                20.852732
              ],
              [
                105.792505,
                20.852819
              ],
              [
                105.791731,
                20.853815
              ],
              [
                105.791709,
                20.853843
              ],
              [
                105.790621,
                20.855234
              ],
              [
                105.790527,
                20.855358
              ],
              [
                105.790498,
                20.855402
              ],
              [
                105.790458,
                20.855387
              ],
              [
                105.790374,
                20.855368
              ],
              [
                105.790328,
                20.855371
              ],
              [
                105.790079,
                20.855478
              ],
              [
                105.789479,
                20.855809
              ],
              [
                105.788943,
                20.856091
              ],
              [
                105.787942,
                20.856654
              ],
              [
                105.787583,
                20.856853
              ],
              [
                105.787513,
                20.856866
              ],
              [
                105.787397,
                20.856911
              ],
              [
                105.78669,
                20.857289
              ],
              [
                105.785873,
                20.857746
              ],
              [
                105.785843,
                20.857762
              ],
              [
                105.785739,
                20.857818
              ],
              [
                105.785519,
                20.857928
              ],
              [
                105.785143,
                20.85811
              ],
              [
                105.784908,
                20.858242
              ],
              [
                105.784209,
                20.858962
              ],
              [
                105.783416,
                20.859778
              ],
              [
                105.782588,
                20.860634
              ],
              [
                105.78233,
                20.860907
              ],
              [
                105.782131,
                20.860738
              ],
              [
                105.781896,
                20.860512
              ],
              [
                105.781698,
                20.860377
              ],
              [
                105.781674,
                20.860361
              ],
              [
                105.781512,
                20.860637
              ],
              [
                105.780819,
                20.861806
              ],
              [
                105.779323,
                20.860809
              ],
              [
                105.77807,
                20.859902
              ],
              [
                105.778025,
                20.859956
              ],
              [
                105.775907,
                20.862029
              ],
              [
                105.775808,
                20.862197
              ],
              [
                105.775554,
                20.862458
              ],
              [
                105.774081,
                20.863918
              ],
              [
                105.771945,
                20.866021
              ],
              [
                105.771922,
                20.866014
              ],
              [
                105.770793,
                20.865329
              ],
              [
                105.770743,
                20.865427
              ],
              [
                105.770287,
                20.866539
              ],
              [
                105.770275,
                20.866566
              ],
              [
                105.769846,
                20.867643
              ],
              [
                105.768912,
                20.869908
              ],
              [
                105.768858,
                20.869902
              ],
              [
                105.767611,
                20.869877
              ],
              [
                105.767486,
                20.869891
              ],
              [
                105.767474,
                20.870022
              ],
              [
                105.767496,
                20.870584
              ],
              [
                105.767515,
                20.871703
              ],
              [
                105.767551,
                20.871932
              ],
              [
                105.76764,
                20.872392
              ],
              [
                105.767947,
                20.873411
              ],
              [
                105.768019,
                20.8736
              ],
              [
                105.768077,
                20.873726
              ],
              [
                105.76825,
                20.874017
              ],
              [
                105.768252,
                20.87402
              ],
              [
                105.768278,
                20.874063
              ],
              [
                105.768283,
                20.874072
              ],
              [
                105.768552,
                20.87456
              ],
              [
                105.768749,
                20.874814
              ],
              [
                105.768878,
                20.874963
              ],
              [
                105.76911,
                20.875232
              ],
              [
                105.769419,
                20.875491
              ],
              [
                105.769553,
                20.875602
              ],
              [
                105.770065,
                20.876029
              ],
              [
                105.770176,
                20.876121
              ],
              [
                105.770368,
                20.876281
              ],
              [
                105.771279,
                20.877042
              ],
              [
                105.771546,
                20.877265
              ],
              [
                105.771572,
                20.877286
              ],
              [
                105.771606,
                20.877315
              ],
              [
                105.771678,
                20.877376
              ],
              [
                105.771679,
                20.877376
              ],
              [
                105.771679,
                20.877377
              ],
              [
                105.770668,
                20.879178
              ],
              [
                105.770729,
                20.879283
              ],
              [
                105.770931,
                20.880045
              ],
              [
                105.771409,
                20.881569
              ],
              [
                105.771752,
                20.882664
              ],
              [
                105.772072,
                20.883718
              ],
              [
                105.772511,
                20.885228
              ],
              [
                105.772694,
                20.885834
              ],
              [
                105.772816,
                20.886217
              ],
              [
                105.772961,
                20.88672
              ],
              [
                105.772974,
                20.886763
              ],
              [
                105.773051,
                20.887015
              ],
              [
                105.773123,
                20.887227
              ],
              [
                105.773194,
                20.887559
              ],
              [
                105.773491,
                20.887518
              ],
              [
                105.773499,
                20.887549
              ],
              [
                105.773612,
                20.887984
              ],
              [
                105.773635,
                20.888065
              ],
              [
                105.773917,
                20.889062
              ],
              [
                105.773921,
                20.889054
              ],
              [
                105.77409,
                20.889037
              ],
              [
                105.774139,
                20.889033
              ],
              [
                105.77418,
                20.889152
              ],
              [
                105.774199,
                20.889204
              ],
              [
                105.774255,
                20.889364
              ],
              [
                105.774292,
                20.88947
              ],
              [
                105.7743,
                20.889491
              ],
              [
                105.774302,
                20.889499
              ],
              [
                105.774594,
                20.890322
              ],
              [
                105.774602,
                20.89032
              ],
              [
                105.77467,
                20.890313
              ],
              [
                105.774727,
                20.890308
              ],
              [
                105.774882,
                20.890298
              ],
              [
                105.77489,
                20.890298
              ],
              [
                105.774965,
                20.890299
              ],
              [
                105.775053,
                20.890313
              ],
              [
                105.775117,
                20.89034
              ],
              [
                105.775199,
                20.890375
              ],
              [
                105.775226,
                20.890392
              ],
              [
                105.77523,
                20.890397
              ],
              [
                105.775239,
                20.890407
              ],
              [
                105.775268,
                20.890465
              ],
              [
                105.775304,
                20.890596
              ],
              [
                105.775319,
                20.890694
              ],
              [
                105.775329,
                20.890774
              ],
              [
                105.776046,
                20.890829
              ],
              [
                105.776052,
                20.891117
              ],
              [
                105.776063,
                20.891199
              ],
              [
                105.776081,
                20.891309
              ],
              [
                105.776101,
                20.89131
              ],
              [
                105.776167,
                20.891312
              ],
              [
                105.776281,
                20.891313
              ],
              [
                105.776341,
                20.891306
              ],
              [
                105.776367,
                20.891297
              ],
              [
                105.776385,
                20.89147
              ],
              [
                105.77639,
                20.891533
              ],
              [
                105.776428,
                20.891529
              ],
              [
                105.776654,
                20.891485
              ],
              [
                105.777628,
                20.891354
              ],
              [
                105.777704,
                20.891341
              ],
              [
                105.777743,
                20.891568
              ],
              [
                105.777747,
                20.891579
              ],
              [
                105.780785,
                20.890974
              ],
              [
                105.780955,
                20.891325
              ],
              [
                105.781122,
                20.891231
              ],
              [
                105.781953,
                20.892575
              ],
              [
                105.782601,
                20.892207
              ],
              [
                105.782702,
                20.89236
              ],
              [
                105.782586,
                20.892466
              ],
              [
                105.782393,
                20.892626
              ],
              [
                105.782426,
                20.892679
              ],
              [
                105.782578,
                20.892936
              ],
              [
                105.782694,
                20.893129
              ],
              [
                105.78273,
                20.893191
              ],
              [
                105.782762,
                20.893212
              ],
              [
                105.782834,
                20.893216
              ],
              [
                105.783614,
                20.893037
              ],
              [
                105.784206,
                20.892914
              ],
              [
                105.784456,
                20.892861
              ],
              [
                105.784633,
                20.892821
              ],
              [
                105.784636,
                20.892821
              ],
              [
                105.784701,
                20.892823
              ],
              [
                105.784761,
                20.892798
              ],
              [
                105.785015,
                20.892733
              ],
              [
                105.785157,
                20.892704
              ],
              [
                105.785209,
                20.892703
              ],
              [
                105.785234,
                20.892713
              ],
              [
                105.785247,
                20.892726
              ],
              [
                105.785247,
                20.892754
              ],
              [
                105.785255,
                20.892942
              ],
              [
                105.785269,
                20.893632
              ],
              [
                105.785273,
                20.893972
              ],
              [
                105.785272,
                20.894388
              ],
              [
                105.785272,
                20.894422
              ],
              [
                105.785145,
                20.895295
              ],
              [
                105.785502,
                20.895912
              ],
              [
                105.785544,
                20.895984
              ],
              [
                105.785544,
                20.896415
              ],
              [
                105.785544,
                20.896724
              ],
              [
                105.785434,
                20.897483
              ],
              [
                105.785394,
                20.897751
              ],
              [
                105.78545,
                20.897769
              ],
              [
                105.785558,
                20.897776
              ],
              [
                105.78583,
                20.897794
              ],
              [
                105.786151,
                20.897824
              ],
              [
                105.786342,
                20.897838
              ],
              [
                105.786433,
                20.897843
              ],
              [
                105.786491,
                20.897845
              ],
              [
                105.786489,
                20.897989
              ],
              [
                105.786485,
                20.898275
              ],
              [
                105.786475,
                20.898636
              ],
              [
                105.786464,
                20.898756
              ],
              [
                105.786451,
                20.898896
              ],
              [
                105.786447,
                20.899165
              ],
              [
                105.786444,
                20.89924
              ],
              [
                105.786438,
                20.89936
              ],
              [
                105.786782,
                20.89941
              ],
              [
                105.787181,
                20.8995
              ],
              [
                105.786975,
                20.899704
              ],
              [
                105.78614,
                20.900516
              ],
              [
                105.786199,
                20.900533
              ],
              [
                105.786243,
                20.900561
              ],
              [
                105.786274,
                20.900581
              ],
              [
                105.786349,
                20.900603
              ],
              [
                105.786369,
                20.900606
              ],
              [
                105.786475,
                20.900622
              ],
              [
                105.78656,
                20.900627
              ],
              [
                105.786562,
                20.900627
              ],
              [
                105.786635,
                20.900632
              ],
              [
                105.786665,
                20.90063
              ],
              [
                105.786692,
                20.900611
              ],
              [
                105.7867,
                20.90055
              ],
              [
                105.78671,
                20.900382
              ],
              [
                105.786707,
                20.900322
              ],
              [
                105.786705,
                20.900291
              ],
              [
                105.787154,
                20.90032
              ],
              [
                105.787292,
                20.900581
              ],
              [
                105.787105,
                20.901556
              ],
              [
                105.787111,
                20.901594
              ],
              [
                105.787222,
                20.901651
              ],
              [
                105.787253,
                20.90168
              ],
              [
                105.787378,
                20.90196
              ],
              [
                105.787306,
                20.901976
              ],
              [
                105.785469,
                20.902445
              ],
              [
                105.785466,
                20.902446
              ],
              [
                105.785482,
                20.90251
              ],
              [
                105.785498,
                20.90258
              ],
              [
                105.785512,
                20.90264
              ],
              [
                105.785522,
                20.902692
              ],
              [
                105.785535,
                20.902741
              ],
              [
                105.785547,
                20.902789
              ],
              [
                105.785562,
                20.902841
              ],
              [
                105.785577,
                20.902888
              ],
              [
                105.785593,
                20.902928
              ],
              [
                105.785604,
                20.903015
              ],
              [
                105.78561,
                20.903036
              ],
              [
                105.785634,
                20.903128
              ],
              [
                105.785663,
                20.903231
              ],
              [
                105.785685,
                20.903306
              ],
              [
                105.785729,
                20.903424
              ],
              [
                105.785748,
                20.903504
              ],
              [
                105.785753,
                20.903525
              ],
              [
                105.785775,
                20.903617
              ],
              [
                105.785835,
                20.903838
              ],
              [
                105.785879,
                20.904034
              ],
              [
                105.785884,
                20.904065
              ],
              [
                105.785954,
                20.904257
              ],
              [
                105.785974,
                20.904338
              ],
              [
                105.786021,
                20.904524
              ],
              [
                105.78611,
                20.904885
              ],
              [
                105.786173,
                20.905108
              ],
              [
                105.786177,
                20.905264
              ],
              [
                105.786202,
                20.905361
              ],
              [
                105.786253,
                20.90561
              ],
              [
                105.786276,
                20.905715
              ],
              [
                105.786325,
                20.906
              ],
              [
                105.786346,
                20.906134
              ],
              [
                105.786366,
                20.906187
              ],
              [
                105.786424,
                20.906353
              ],
              [
                105.786468,
                20.906467
              ],
              [
                105.786542,
                20.906627
              ],
              [
                105.786591,
                20.906741
              ],
              [
                105.786658,
                20.906943
              ],
              [
                105.786757,
                20.907187
              ],
              [
                105.786815,
                20.907375
              ],
              [
                105.786826,
                20.907441
              ],
              [
                105.786867,
                20.90752
              ],
              [
                105.786922,
                20.907552
              ],
              [
                105.786977,
                20.907565
              ],
              [
                105.787061,
                20.907592
              ],
              [
                105.787017,
                20.907681
              ],
              [
                105.786993,
                20.907735
              ],
              [
                105.7868,
                20.908165
              ],
              [
                105.786875,
                20.908225
              ],
              [
                105.786922,
                20.908261
              ],
              [
                105.786939,
                20.908273
              ],
              [
                105.786952,
                20.908292
              ],
              [
                105.786955,
                20.908298
              ],
              [
                105.786958,
                20.908303
              ],
              [
                105.786959,
                20.908306
              ],
              [
                105.786963,
                20.908313
              ],
              [
                105.786967,
                20.908334
              ],
              [
                105.786967,
                20.908335
              ],
              [
                105.78698,
                20.908411
              ],
              [
                105.786989,
                20.90862
              ],
              [
                105.787053,
                20.909288
              ],
              [
                105.787053,
                20.909288
              ],
              [
                105.7871,
                20.90986
              ],
              [
                105.787163,
                20.910258
              ],
              [
                105.787202,
                20.910432
              ],
              [
                105.787209,
                20.91046
              ],
              [
                105.787209,
                20.910461
              ],
              [
                105.787215,
                20.91048
              ],
              [
                105.787242,
                20.910576
              ],
              [
                105.787255,
                20.910608
              ],
              [
                105.787266,
                20.910636
              ],
              [
                105.787267,
                20.910636
              ],
              [
                105.787268,
                20.910641
              ],
              [
                105.787352,
                20.910879
              ],
              [
                105.787483,
                20.911409
              ],
              [
                105.787538,
                20.911635
              ],
              [
                105.787589,
                20.91192
              ],
              [
                105.787589,
                20.911921
              ],
              [
                105.787602,
                20.912012
              ],
              [
                105.787648,
                20.912261
              ],
              [
                105.78769,
                20.912468
              ],
              [
                105.787698,
                20.912705
              ],
              [
                105.7877,
                20.912753
              ],
              [
                105.787703,
                20.912805
              ],
              [
                105.787703,
                20.912808
              ],
              [
                105.787707,
                20.912849
              ],
              [
                105.787709,
                20.912876
              ],
              [
                105.787721,
                20.913018
              ],
              [
                105.787721,
                20.913018
              ],
              [
                105.787746,
                20.913275
              ],
              [
                105.787759,
                20.913369
              ],
              [
                105.787823,
                20.913665
              ],
              [
                105.787823,
                20.913665
              ],
              [
                105.787851,
                20.913811
              ],
              [
                105.787942,
                20.914178
              ],
              [
                105.788003,
                20.914356
              ],
              [
                105.788048,
                20.914441
              ],
              [
                105.78817,
                20.914638
              ],
              [
                105.78817,
                20.914638
              ],
              [
                105.788352,
                20.914939
              ],
              [
                105.788361,
                20.914954
              ],
              [
                105.788369,
                20.914965
              ],
              [
                105.788433,
                20.915053
              ],
              [
                105.788567,
                20.915181
              ],
              [
                105.788942,
                20.915473
              ],
              [
                105.788989,
                20.915513
              ],
              [
                105.789006,
                20.915526
              ],
              [
                105.789018,
                20.915536
              ],
              [
                105.789118,
                20.91562
              ],
              [
                105.789191,
                20.915681
              ],
              [
                105.789307,
                20.915778
              ],
              [
                105.789329,
                20.915796
              ],
              [
                105.789337,
                20.915805
              ],
              [
                105.789337,
                20.915805
              ],
              [
                105.789555,
                20.91602
              ],
              [
                105.789597,
                20.916062
              ],
              [
                105.789608,
                20.916072
              ],
              [
                105.789619,
                20.916087
              ],
              [
                105.789651,
                20.916132
              ],
              [
                105.789669,
                20.916167
              ],
              [
                105.789673,
                20.916201
              ],
              [
                105.789663,
                20.916237
              ],
              [
                105.78965,
                20.916309
              ],
              [
                105.789592,
                20.916461
              ],
              [
                105.789565,
                20.916524
              ],
              [
                105.789537,
                20.916582
              ],
              [
                105.789523,
                20.91661
              ],
              [
                105.789517,
                20.916624
              ],
              [
                105.789534,
                20.916636
              ],
              [
                105.789607,
                20.916685
              ],
              [
                105.789683,
                20.916743
              ],
              [
                105.789846,
                20.916869
              ],
              [
                105.789955,
                20.916954
              ],
              [
                105.789971,
                20.916961
              ],
              [
                105.790283,
                20.917232
              ],
              [
                105.790394,
                20.91709
              ],
              [
                105.790636,
                20.916617
              ],
              [
                105.790704,
                20.916463
              ],
              [
                105.790732,
                20.916364
              ],
              [
                105.790767,
                20.916218
              ],
              [
                105.790812,
                20.916061
              ],
              [
                105.790853,
                20.915901
              ],
              [
                105.790893,
                20.915767
              ],
              [
                105.79094,
                20.91563
              ],
              [
                105.791017,
                20.915445
              ],
              [
                105.791101,
                20.915356
              ],
              [
                105.791249,
                20.915198
              ],
              [
                105.79137,
                20.91518
              ],
              [
                105.79137,
                20.91518
              ]
            ]
          ]
        ]
      },
      "properties": {
        "code": "10144",
        "name": "Tam Hưng",
        "nameEn": "Tam Hung",
        "fullName": "Xã Tam Hưng",
        "fullNameEn": "Tam Hung Commune",
        "codeName": "tam_hung",
        "postalCode": "13510",
        "postalCodePrefix": "",
        "gisServerId": "diaphanhanhchinhcapxa_2025.3165",
        "areaKm2": 29.45
      }
    }
  ]
}