{
  "type": "FeatureCollection",
  "bbox": [
    105.735706,
    20.780329,
    105.841232,
    20.841154
  ],
  "features": [
    {
      "type": "Feature",
      "id": "10180",
      "bbox": [
        105.735706,
        20.780329,
        105.841232,
        20.841154
      ],
      "geometry": {
        "type": "MultiPolygon",
        "coordinates": [
          [
            [
              [
                105.821831,
                20.84112
              ],
              [
                105.822309,
                20.84025
              ],
              [
                105.822793,
                20.83938
              ],
              [
                105.823093,
                20.838789
              ],
              [
                105.823365,
                20.838282
              ],
              [
                105.823431,
                20.83816
              ],
              [
                105.823579,
                20.837931
              ],
              [
                105.823703,
                20.837853
              ],
              [
                105.823796,
                20.837813
              ],
              [
                105.823994,
                20.837434
              ],
              [
                105.824098,
                20.837302
              ],
              [
                105.824314,
                20.837088
              ],
              [
                105.824406,
                20.83706
              ],
              [
                105.824484,
                20.837029
              ],
              [
                105.824628,
                20.836979
              ],
              [
                105.824832,
                20.836864
              ],
              [
                105.824923,
                20.836809
              ],
              [
                105.825281,
                20.836582
              ],
              [
                105.825893,
                20.836026
              ],
              [
                105.826174,
                20.835778
              ],
              [
                105.826252,
                20.83571
              ],
              [
                105.826367,
                20.83557
              ],
              [
                105.826503,
                20.835364
              ],
              [
                105.826935,
                20.834635
              ],
              [
                105.827105,
                20.834392
              ],
              [
                105.827125,
                20.834292
              ],
              [
                105.827158,
                20.834069
              ],
              [
                105.82723,
                20.833661
              ],
              [
                105.82724,
                20.833628
              ],
              [
                105.827251,
                20.833596
              ],
              [
                105.827292,
                20.833481
              ],
              [
                105.827469,
                20.833009
              ],
              [
                105.827654,
                20.832566
              ],
              [
                105.827873,
                20.832027
              ],
              [
                105.827874,
                20.832024
              ],
              [
                105.82792,
                20.831955
              ],
              [
                105.827964,
                20.831823
              ],
              [
                105.827963,
                20.831737
              ],
              [
                105.827937,
                20.831611
              ],
              [
                105.827836,
                20.831318
              ],
              [
                105.827788,
                20.831091
              ],
              [
                105.827686,
                20.830571
              ],
              [
                105.827647,
                20.830387
              ],
              [
                105.827625,
                20.830284
              ],
              [
                105.828009,
                20.829379
              ],
              [
                105.828848,
                20.827743
              ],
              [
                105.82894,
                20.827738
              ],
              [
                105.82899,
                20.827529
              ],
              [
                105.829054,
                20.827359
              ],
              [
                105.827942,
                20.82771
              ],
              [
                105.827731,
                20.82731
              ],
              [
                105.827715,
                20.827251
              ],
              [
                105.82772,
                20.827201
              ],
              [
                105.828403,
                20.826703
              ],
              [
                105.828642,
                20.826545
              ],
              [
                105.828735,
                20.826463
              ],
              [
                105.828852,
                20.826363
              ],
              [
                105.829206,
                20.826085
              ],
              [
                105.829994,
                20.825466
              ],
              [
                105.830125,
                20.825356
              ],
              [
                105.830221,
                20.825309
              ],
              [
                105.830602,
                20.825278
              ],
              [
                105.831256,
                20.825332
              ],
              [
                105.831329,
                20.825325
              ],
              [
                105.831841,
                20.825195
              ],
              [
                105.832345,
                20.825066
              ],
              [
                105.833186,
                20.82485
              ],
              [
                105.833611,
                20.82474
              ],
              [
                105.834079,
                20.824623
              ],
              [
                105.834543,
                20.824509
              ],
              [
                105.834878,
                20.824427
              ],
              [
                105.83517,
                20.824348
              ],
              [
                105.835743,
                20.824193
              ],
              [
                105.835871,
                20.824159
              ],
              [
                105.836131,
                20.8241
              ],
              [
                105.836386,
                20.824042
              ],
              [
                105.836386,
                20.824041
              ],
              [
                105.836764,
                20.823976
              ],
              [
                105.836787,
                20.823965
              ],
              [
                105.837066,
                20.82385
              ],
              [
                105.837273,
                20.823784
              ],
              [
                105.837207,
                20.823726
              ],
              [
                105.836774,
                20.823139
              ],
              [
                105.83673,
                20.823068
              ],
              [
                105.836587,
                20.822778
              ],
              [
                105.836442,
                20.822324
              ],
              [
                105.836357,
                20.821912
              ],
              [
                105.836337,
                20.821794
              ],
              [
                105.836325,
                20.821536
              ],
              [
                105.836372,
                20.820838
              ],
              [
                105.836389,
                20.820701
              ],
              [
                105.8365,
                20.819805
              ],
              [
                105.836536,
                20.819265
              ],
              [
                105.83662,
                20.817721
              ],
              [
                105.836625,
                20.81763
              ],
              [
                105.836784,
                20.817643
              ],
              [
                105.837051,
                20.817674
              ],
              [
                105.837172,
                20.817683
              ],
              [
                105.837189,
                20.817417
              ],
              [
                105.837231,
                20.817052
              ],
              [
                105.83726,
                20.817053
              ],
              [
                105.837273,
                20.817006
              ],
              [
                105.837284,
                20.816994
              ],
              [
                105.837305,
                20.816988
              ],
              [
                105.837399,
                20.816925
              ],
              [
                105.837578,
                20.816733
              ],
              [
                105.837681,
                20.816645
              ],
              [
                105.837858,
                20.816437
              ],
              [
                105.837852,
                20.816415
              ],
              [
                105.837833,
                20.816401
              ],
              [
                105.838192,
                20.815998
              ],
              [
                105.838302,
                20.815881
              ],
              [
                105.838412,
                20.815764
              ],
              [
                105.838421,
                20.815752
              ],
              [
                105.838474,
                20.815712
              ],
              [
                105.838496,
                20.81571
              ],
              [
                105.838501,
                20.815711
              ],
              [
                105.838505,
                20.815714
              ],
              [
                105.838541,
                20.815768
              ],
              [
                105.838588,
                20.815812
              ],
              [
                105.83865,
                20.815824
              ],
              [
                105.83869,
                20.815818
              ],
              [
                105.838693,
                20.815815
              ],
              [
                105.838711,
                20.815811
              ],
              [
                105.838798,
                20.815671
              ],
              [
                105.839621,
                20.815329
              ],
              [
                105.840653,
                20.81492
              ],
              [
                105.841232,
                20.814704
              ],
              [
                105.841228,
                20.814688
              ],
              [
                105.841064,
                20.813943
              ],
              [
                105.841055,
                20.813919
              ],
              [
                105.839444,
                20.814152
              ],
              [
                105.839187,
                20.81419
              ],
              [
                105.838961,
                20.814224
              ],
              [
                105.838954,
                20.814186
              ],
              [
                105.838842,
                20.813725
              ],
              [
                105.838635,
                20.812846
              ],
              [
                105.838462,
                20.812019
              ],
              [
                105.83842,
                20.811728
              ],
              [
                105.838382,
                20.811571
              ],
              [
                105.83842,
                20.811544
              ],
              [
                105.839113,
                20.811535
              ],
              [
                105.839032,
                20.809938
              ],
              [
                105.839534,
                20.809935
              ],
              [
                105.83918,
                20.808178
              ],
              [
                105.838646,
                20.805204
              ],
              [
                105.838631,
                20.805124
              ],
              [
                105.838621,
                20.80507
              ],
              [
                105.836729,
                20.805064
              ],
              [
                105.836702,
                20.800352
              ],
              [
                105.836213,
                20.80038
              ],
              [
                105.835837,
                20.800397
              ],
              [
                105.834957,
                20.800455
              ],
              [
                105.833181,
                20.800565
              ],
              [
                105.832607,
                20.8006
              ],
              [
                105.832486,
                20.801384
              ],
              [
                105.832354,
                20.802169
              ],
              [
                105.832108,
                20.803456
              ],
              [
                105.832093,
                20.803555
              ],
              [
                105.831966,
                20.804287
              ],
              [
                105.831898,
                20.804681
              ],
              [
                105.831802,
                20.805234
              ],
              [
                105.831622,
                20.806187
              ],
              [
                105.831611,
                20.806248
              ],
              [
                105.831608,
                20.80626
              ],
              [
                105.830779,
                20.806162
              ],
              [
                105.829631,
                20.806033
              ],
              [
                105.827756,
                20.805837
              ],
              [
                105.826622,
                20.805734
              ],
              [
                105.826509,
                20.805813
              ],
              [
                105.82632,
                20.806026
              ],
              [
                105.825767,
                20.80661
              ],
              [
                105.825735,
                20.806594
              ],
              [
                105.824692,
                20.80634
              ],
              [
                105.824554,
                20.806575
              ],
              [
                105.82447,
                20.806642
              ],
              [
                105.824252,
                20.806726
              ],
              [
                105.822788,
                20.806297
              ],
              [
                105.821083,
                20.805806
              ],
              [
                105.819568,
                20.805363
              ],
              [
                105.817146,
                20.804555
              ],
              [
                105.816926,
                20.804552
              ],
              [
                105.817895,
                20.802062
              ],
              [
                105.817982,
                20.801848
              ],
              [
                105.817982,
                20.801847
              ],
              [
                105.818677,
                20.800137
              ],
              [
                105.81969,
                20.797681
              ],
              [
                105.820304,
                20.796187
              ],
              [
                105.820467,
                20.795719
              ],
              [
                105.82057,
                20.795568
              ],
              [
                105.82069,
                20.795391
              ],
              [
                105.820703,
                20.795372
              ],
              [
                105.820771,
                20.79527
              ],
              [
                105.820793,
                20.795166
              ],
              [
                105.820554,
                20.795032
              ],
              [
                105.819958,
                20.794724
              ],
              [
                105.819601,
                20.794565
              ],
              [
                105.81926,
                20.794449
              ],
              [
                105.818959,
                20.794328
              ],
              [
                105.818454,
                20.794105
              ],
              [
                105.818397,
                20.79424
              ],
              [
                105.818351,
                20.794313
              ],
              [
                105.818166,
                20.794604
              ],
              [
                105.817497,
                20.795613
              ],
              [
                105.816402,
                20.79746
              ],
              [
                105.815331,
                20.799305
              ],
              [
                105.814316,
                20.801156
              ],
              [
                105.813924,
                20.801835
              ],
              [
                105.813841,
                20.801912
              ],
              [
                105.813769,
                20.801925
              ],
              [
                105.813648,
                20.801881
              ],
              [
                105.812729,
                20.801177
              ],
              [
                105.81271,
                20.801096
              ],
              [
                105.812624,
                20.801005
              ],
              [
                105.81211,
                20.800608
              ],
              [
                105.812092,
                20.800536
              ],
              [
                105.811407,
                20.799976
              ],
              [
                105.811166,
                20.799779
              ],
              [
                105.81056,
                20.799282
              ],
              [
                105.809858,
                20.798731
              ],
              [
                105.809714,
                20.798543
              ],
              [
                105.809608,
                20.798295
              ],
              [
                105.809629,
                20.798173
              ],
              [
                105.809418,
                20.797848
              ],
              [
                105.809268,
                20.797753
              ],
              [
                105.809135,
                20.797745
              ],
              [
                105.809105,
                20.797539
              ],
              [
                105.808923,
                20.796945
              ],
              [
                105.808711,
                20.796817
              ],
              [
                105.808729,
                20.796759
              ],
              [
                105.808728,
                20.796735
              ],
              [
                105.808894,
                20.796405
              ],
              [
                105.809051,
                20.79611
              ],
              [
                105.809066,
                20.796081
              ],
              [
                105.809496,
                20.795255
              ],
              [
                105.809656,
                20.794951
              ],
              [
                105.809707,
                20.794834
              ],
              [
                105.809735,
                20.794754
              ],
              [
                105.809739,
                20.794695
              ],
              [
                105.809657,
                20.794547
              ],
              [
                105.809319,
                20.793979
              ],
              [
                105.809029,
                20.793479
              ],
              [
                105.808439,
                20.792462
              ],
              [
                105.808402,
                20.7924
              ],
              [
                105.808363,
                20.792329
              ],
              [
                105.808351,
                20.792285
              ],
              [
                105.80835,
                20.792258
              ],
              [
                105.80836,
                20.792201
              ],
              [
                105.808395,
                20.792132
              ],
              [
                105.808568,
                20.791833
              ],
              [
                105.808816,
                20.791429
              ],
              [
                105.808827,
                20.791411
              ],
              [
                105.80885,
                20.791374
              ],
              [
                105.80891,
                20.791379
              ],
              [
                105.808927,
                20.79138
              ],
              [
                105.809321,
                20.790757
              ],
              [
                105.809235,
                20.790713
              ],
              [
                105.81005,
                20.789427
              ],
              [
                105.810286,
                20.789056
              ],
              [
                105.810763,
                20.788305
              ],
              [
                105.810788,
                20.788267
              ],
              [
                105.810771,
                20.78825
              ],
              [
                105.810461,
                20.78794
              ],
              [
                105.810497,
                20.787857
              ],
              [
                105.810591,
                20.787699
              ],
              [
                105.810663,
                20.787568
              ],
              [
                105.810767,
                20.787411
              ],
              [
                105.810664,
                20.787318
              ],
              [
                105.810517,
                20.787152
              ],
              [
                105.810645,
                20.787057
              ],
              [
                105.810349,
                20.78654
              ],
              [
                105.809982,
                20.785952
              ],
              [
                105.809608,
                20.785566
              ],
              [
                105.80954,
                20.785488
              ],
              [
                105.809223,
                20.785157
              ],
              [
                105.808834,
                20.784583
              ],
              [
                105.808596,
                20.784108
              ],
              [
                105.808306,
                20.783362
              ],
              [
                105.808118,
                20.782838
              ],
              [
                105.807935,
                20.78231
              ],
              [
                105.807917,
                20.782268
              ],
              [
                105.807768,
                20.781928
              ],
              [
                105.807595,
                20.781516
              ],
              [
                105.807454,
                20.781204
              ],
              [
                105.807286,
                20.78098
              ],
              [
                105.806782,
                20.780506
              ],
              [
                105.806607,
                20.780329
              ],
              [
                105.806137,
                20.780472
              ],
              [
                105.805432,
                20.780664
              ],
              [
                105.804294,
                20.780976
              ],
              [
                105.803335,
                20.781239
              ],
              [
                105.802406,
                20.781493
              ],
              [
                105.801462,
                20.781755
              ],
              [
                105.800872,
                20.781919
              ],
              [
                105.80045,
                20.782041
              ],
              [
                105.797786,
                20.782707
              ],
              [
                105.796756,
                20.782991
              ],
              [
                105.796009,
                20.78317
              ],
              [
                105.79484,
                20.783815
              ],
              [
                105.791737,
                20.785693
              ],
              [
                105.790912,
                20.786246
              ],
              [
                105.790894,
                20.786258
              ],
              [
                105.790673,
                20.786462
              ],
              [
                105.790603,
                20.786442
              ],
              [
                105.790098,
                20.786103
              ],
              [
                105.789945,
                20.786329
              ],
              [
                105.789747,
                20.786238
              ],
              [
                105.789724,
                20.786227
              ],
              [
                105.789403,
                20.786942
              ],
              [
                105.788978,
                20.787873
              ],
              [
                105.788334,
                20.789309
              ],
              [
                105.788163,
                20.789229
              ],
              [
                105.78811,
                20.789234
              ],
              [
                105.787983,
                20.789263
              ],
              [
                105.787513,
                20.789402
              ],
              [
                105.787214,
                20.789458
              ],
              [
                105.787135,
                20.789444
              ],
              [
                105.787007,
                20.789404
              ],
              [
                105.786822,
                20.789333
              ],
              [
                105.786539,
                20.789272
              ],
              [
                105.785699,
                20.789064
              ],
              [
                105.785677,
                20.789118
              ],
              [
                105.785642,
                20.789255
              ],
              [
                105.785528,
                20.789313
              ],
              [
                105.785475,
                20.789456
              ],
              [
                105.785348,
                20.789973
              ],
              [
                105.785277,
                20.790192
              ],
              [
                105.785205,
                20.790368
              ],
              [
                105.785115,
                20.790508
              ],
              [
                105.784902,
                20.79076
              ],
              [
                105.784751,
                20.790954
              ],
              [
                105.784664,
                20.79112
              ],
              [
                105.784597,
                20.791367
              ],
              [
                105.784507,
                20.791741
              ],
              [
                105.784476,
                20.791765
              ],
              [
                105.783715,
                20.791606
              ],
              [
                105.782372,
                20.791353
              ],
              [
                105.782041,
                20.790669
              ],
              [
                105.781818,
                20.790204
              ],
              [
                105.781559,
                20.789766
              ],
              [
                105.781502,
                20.78967
              ],
              [
                105.781271,
                20.789678
              ],
              [
                105.781223,
                20.789525
              ],
              [
                105.781059,
                20.789535
              ],
              [
                105.780904,
                20.789392
              ],
              [
                105.780625,
                20.789259
              ],
              [
                105.780372,
                20.788955
              ],
              [
                105.780069,
                20.788859
              ],
              [
                105.779081,
                20.789725
              ],
              [
                105.778974,
                20.789818
              ],
              [
                105.778891,
                20.789891
              ],
              [
                105.778819,
                20.789955
              ],
              [
                105.778765,
                20.790004
              ],
              [
                105.778715,
                20.790048
              ],
              [
                105.778659,
                20.790096
              ],
              [
                105.77861,
                20.790138
              ],
              [
                105.778559,
                20.790179
              ],
              [
                105.7785,
                20.790225
              ],
              [
                105.778441,
                20.790271
              ],
              [
                105.778386,
                20.79031
              ],
              [
                105.778338,
                20.790338
              ],
              [
                105.778292,
                20.790358
              ],
              [
                105.778243,
                20.790375
              ],
              [
                105.778189,
                20.790389
              ],
              [
                105.778134,
                20.790403
              ],
              [
                105.778068,
                20.790419
              ],
              [
                105.777981,
                20.790438
              ],
              [
                105.777878,
                20.79046
              ],
              [
                105.777771,
                20.790479
              ],
              [
                105.777658,
                20.790497
              ],
              [
                105.777551,
                20.790514
              ],
              [
                105.777464,
                20.790528
              ],
              [
                105.777387,
                20.790537
              ],
              [
                105.777333,
                20.790543
              ],
              [
                105.7773,
                20.790547
              ],
              [
                105.777267,
                20.790547
              ],
              [
                105.777219,
                20.790545
              ],
              [
                105.777159,
                20.790543
              ],
              [
                105.777095,
                20.79054
              ],
              [
                105.777024,
                20.790536
              ],
              [
                105.776954,
                20.790534
              ],
              [
                105.776897,
                20.790534
              ],
              [
                105.776843,
                20.790535
              ],
              [
                105.776783,
                20.790534
              ],
              [
                105.776797,
                20.790442
              ],
              [
                105.776782,
                20.790053
              ],
              [
                105.776173,
                20.787946
              ],
              [
                105.77583,
                20.78798
              ],
              [
                105.771358,
                20.788081
              ],
              [
                105.768722,
                20.788141
              ],
              [
                105.768519,
                20.788146
              ],
              [
                105.768254,
                20.787341
              ],
              [
                105.76804,
                20.786772
              ],
              [
                105.768067,
                20.786655
              ],
              [
                105.768064,
                20.786647
              ],
              [
                105.767889,
                20.786158
              ],
              [
                105.767287,
                20.784384
              ],
              [
                105.766809,
                20.782991
              ],
              [
                105.766513,
                20.783179
              ],
              [
                105.766448,
                20.783103
              ],
              [
                105.766218,
                20.782849
              ],
              [
                105.765924,
                20.782504
              ],
              [
                105.765906,
                20.782555
              ],
              [
                105.765188,
                20.783111
              ],
              [
                105.764488,
                20.783648
              ],
              [
                105.764496,
                20.78366
              ],
              [
                105.764541,
                20.783721
              ],
              [
                105.76458,
                20.783775
              ],
              [
                105.764644,
                20.783863
              ],
              [
                105.764671,
                20.7839
              ],
              [
                105.76474,
                20.783995
              ],
              [
                105.764971,
                20.784313
              ],
              [
                105.763688,
                20.785363
              ],
              [
                105.763616,
                20.785423
              ],
              [
                105.763927,
                20.785866
              ],
              [
                105.764456,
                20.786648
              ],
              [
                105.76412,
                20.786805
              ],
              [
                105.763222,
                20.787215
              ],
              [
                105.763264,
                20.787282
              ],
              [
                105.763567,
                20.787897
              ],
              [
                105.763616,
                20.787967
              ],
              [
                105.763408,
                20.788077
              ],
              [
                105.761364,
                20.789216
              ],
              [
                105.761147,
                20.789343
              ],
              [
                105.759637,
                20.790207
              ],
              [
                105.759549,
                20.790258
              ],
              [
                105.759305,
                20.789925
              ],
              [
                105.759085,
                20.78965
              ],
              [
                105.758635,
                20.789088
              ],
              [
                105.757987,
                20.78821
              ],
              [
                105.757674,
                20.78781
              ],
              [
                105.757487,
                20.787564
              ],
              [
                105.757356,
                20.787419
              ],
              [
                105.757323,
                20.787395
              ],
              [
                105.757272,
                20.787393
              ],
              [
                105.757231,
                20.787403
              ],
              [
                105.757193,
                20.787444
              ],
              [
                105.756991,
                20.787746
              ],
              [
                105.756661,
                20.788242
              ],
              [
                105.756129,
                20.789048
              ],
              [
                105.755938,
                20.789321
              ],
              [
                105.754607,
                20.791252
              ],
              [
                105.754479,
                20.791442
              ],
              [
                105.754446,
                20.791444
              ],
              [
                105.754411,
                20.791435
              ],
              [
                105.754258,
                20.791316
              ],
              [
                105.753125,
                20.790406
              ],
              [
                105.753071,
                20.790387
              ],
              [
                105.753031,
                20.790392
              ],
              [
                105.752988,
                20.790426
              ],
              [
                105.752872,
                20.790579
              ],
              [
                105.752543,
                20.79103
              ],
              [
                105.75188,
                20.791936
              ],
              [
                105.7517,
                20.792181
              ],
              [
                105.751493,
                20.792478
              ],
              [
                105.751397,
                20.792612
              ],
              [
                105.751365,
                20.792651
              ],
              [
                105.751332,
                20.792675
              ],
              [
                105.751301,
                20.79268
              ],
              [
                105.751263,
                20.792673
              ],
              [
                105.751187,
                20.792639
              ],
              [
                105.751011,
                20.792545
              ],
              [
                105.749729,
                20.79186
              ],
              [
                105.749052,
                20.791512
              ],
              [
                105.748927,
                20.791445
              ],
              [
                105.748888,
                20.79144
              ],
              [
                105.748858,
                20.79145
              ],
              [
                105.748815,
                20.791474
              ],
              [
                105.748749,
                20.791544
              ],
              [
                105.748517,
                20.791846
              ],
              [
                105.748421,
                20.791946
              ],
              [
                105.748355,
                20.791913
              ],
              [
                105.747383,
                20.79121
              ],
              [
                105.746814,
                20.790775
              ],
              [
                105.74636,
                20.790435
              ],
              [
                105.746258,
                20.790326
              ],
              [
                105.746094,
                20.790064
              ],
              [
                105.74536,
                20.788936
              ],
              [
                105.743422,
                20.790152
              ],
              [
                105.741408,
                20.791381
              ],
              [
                105.741373,
                20.791405
              ],
              [
                105.741495,
                20.792026
              ],
              [
                105.741227,
                20.79213
              ],
              [
                105.740696,
                20.792345
              ],
              [
                105.740242,
                20.792514
              ],
              [
                105.739585,
                20.79276
              ],
              [
                105.739223,
                20.792895
              ],
              [
                105.738371,
                20.793234
              ],
              [
                105.738322,
                20.793253
              ],
              [
                105.738382,
                20.793477
              ],
              [
                105.738485,
                20.794075
              ],
              [
                105.738541,
                20.794458
              ],
              [
                105.738619,
                20.794893
              ],
              [
                105.738734,
                20.79548
              ],
              [
                105.738807,
                20.795812
              ],
              [
                105.738861,
                20.796051
              ],
              [
                105.738921,
                20.79622
              ],
              [
                105.739047,
                20.796562
              ],
              [
                105.739181,
                20.796927
              ],
              [
                105.739199,
                20.796968
              ],
              [
                105.739202,
                20.796988
              ],
              [
                105.739193,
                20.797016
              ],
              [
                105.739147,
                20.797067
              ],
              [
                105.73897,
                20.797261
              ],
              [
                105.73876,
                20.797474
              ],
              [
                105.738655,
                20.797595
              ],
              [
                105.738591,
                20.797681
              ],
              [
                105.738538,
                20.79774
              ],
              [
                105.738479,
                20.797812
              ],
              [
                105.738418,
                20.797894
              ],
              [
                105.738391,
                20.79794
              ],
              [
                105.738373,
                20.797986
              ],
              [
                105.738361,
                20.798086
              ],
              [
                105.738355,
                20.798171
              ],
              [
                105.738343,
                20.79858
              ],
              [
                105.738338,
                20.798662
              ],
              [
                105.738339,
                20.798679
              ],
              [
                105.738325,
                20.798909
              ],
              [
                105.738313,
                20.799187
              ],
              [
                105.738277,
                20.799714
              ],
              [
                105.738264,
                20.800018
              ],
              [
                105.738239,
                20.800497
              ],
              [
                105.738238,
                20.800601
              ],
              [
                105.738246,
                20.800659
              ],
              [
                105.738268,
                20.800704
              ],
              [
                105.738003,
                20.801279
              ],
              [
                105.737734,
                20.801865
              ],
              [
                105.737078,
                20.80338
              ],
              [
                105.736586,
                20.804579
              ],
              [
                105.735997,
                20.805753
              ],
              [
                105.735994,
                20.805822
              ],
              [
                105.736045,
                20.805937
              ],
              [
                105.736095,
                20.806002
              ],
              [
                105.736081,
                20.806144
              ],
              [
                105.736046,
                20.806322
              ],
              [
                105.736026,
                20.806475
              ],
              [
                105.735988,
                20.806609
              ],
              [
                105.735937,
                20.806674
              ],
              [
                105.735921,
                20.806711
              ],
              [
                105.735911,
                20.806774
              ],
              [
                105.735885,
                20.806835
              ],
              [
                105.73579,
                20.806868
              ],
              [
                105.735782,
                20.806921
              ],
              [
                105.735706,
                20.807489
              ],
              [
                105.73585,
                20.808732
              ],
              [
                105.735857,
                20.808793
              ],
              [
                105.735862,
                20.808833
              ],
              [
                105.735869,
                20.808889
              ],
              [
                105.736621,
                20.80858
              ],
              [
                105.737258,
                20.808258
              ],
              [
                105.738495,
                20.807354
              ],
              [
                105.738736,
                20.807178
              ],
              [
                105.740449,
                20.806105
              ],
              [
                105.741826,
                20.80538
              ],
              [
                105.742424,
                20.805218
              ],
              [
                105.742554,
                20.805183
              ],
              [
                105.742682,
                20.805149
              ],
              [
                105.742866,
                20.805135
              ],
              [
                105.743063,
                20.805119
              ],
              [
                105.743431,
                20.805091
              ],
              [
                105.7436,
                20.80516
              ],
              [
                105.744206,
                20.805408
              ],
              [
                105.74604,
                20.806577
              ],
              [
                105.746239,
                20.806704
              ],
              [
                105.747265,
                20.80787
              ],
              [
                105.747592,
                20.808417
              ],
              [
                105.747659,
                20.80852
              ],
              [
                105.747877,
                20.808854
              ],
              [
                105.74822,
                20.809276
              ],
              [
                105.749065,
                20.810008
              ],
              [
                105.749616,
                20.810366
              ],
              [
                105.749663,
                20.810397
              ],
              [
                105.750501,
                20.810949
              ],
              [
                105.751219,
                20.811514
              ],
              [
                105.751593,
                20.811718
              ],
              [
                105.75188,
                20.811843
              ],
              [
                105.751881,
                20.811843
              ],
              [
                105.753335,
                20.812498
              ],
              [
                105.753487,
                20.812567
              ],
              [
                105.754804,
                20.81316
              ],
              [
                105.755132,
                20.813481
              ],
              [
                105.755274,
                20.813776
              ],
              [
                105.755289,
                20.814027
              ],
              [
                105.755252,
                20.814235
              ],
              [
                105.755111,
                20.814647
              ],
              [
                105.75493,
                20.815118
              ],
              [
                105.754854,
                20.81528
              ],
              [
                105.753657,
                20.81694
              ],
              [
                105.753252,
                20.817752
              ],
              [
                105.753044,
                20.818294
              ],
              [
                105.752807,
                20.818964
              ],
              [
                105.752689,
                20.819406
              ],
              [
                105.752658,
                20.819634
              ],
              [
                105.752594,
                20.820307
              ],
              [
                105.752593,
                20.820462
              ],
              [
                105.752593,
                20.820463
              ],
              [
                105.752594,
                20.820632
              ],
              [
                105.752633,
                20.820775
              ],
              [
                105.753294,
                20.820814
              ],
              [
                105.755642,
                20.821063
              ],
              [
                105.757218,
                20.821167
              ],
              [
                105.759037,
                20.821277
              ],
              [
                105.759057,
                20.821466
              ],
              [
                105.759111,
                20.821765
              ],
              [
                105.75924,
                20.822036
              ],
              [
                105.759265,
                20.822089
              ],
              [
                105.75932,
                20.822217
              ],
              [
                105.759337,
                20.822256
              ],
              [
                105.759402,
                20.82236
              ],
              [
                105.759431,
                20.822407
              ],
              [
                105.759444,
                20.822427
              ],
              [
                105.759455,
                20.822466
              ],
              [
                105.759459,
                20.822567
              ],
              [
                105.759523,
                20.822692
              ],
              [
                105.75954,
                20.822736
              ],
              [
                105.759548,
                20.822756
              ],
              [
                105.759567,
                20.822804
              ],
              [
                105.759588,
                20.822777
              ],
              [
                105.759588,
                20.822776
              ],
              [
                105.759594,
                20.822766
              ],
              [
                105.759602,
                20.822752
              ],
              [
                105.759637,
                20.822691
              ],
              [
                105.759686,
                20.822626
              ],
              [
                105.759716,
                20.822592
              ],
              [
                105.759769,
                20.822564
              ],
              [
                105.759809,
                20.822554
              ],
              [
                105.759908,
                20.822552
              ],
              [
                105.760054,
                20.822567
              ],
              [
                105.760247,
                20.822572
              ],
              [
                105.760347,
                20.822567
              ],
              [
                105.760416,
                20.822543
              ],
              [
                105.760509,
                20.822508
              ],
              [
                105.760737,
                20.822407
              ],
              [
                105.760941,
                20.822326
              ],
              [
                105.761215,
                20.822249
              ],
              [
                105.7615,
                20.822141
              ],
              [
                105.76171,
                20.822061
              ],
              [
                105.761904,
                20.822033
              ],
              [
                105.762133,
                20.821997
              ],
              [
                105.76212,
                20.821973
              ],
              [
                105.761627,
                20.821051
              ],
              [
                105.76139,
                20.820578
              ],
              [
                105.761265,
                20.820494
              ],
              [
                105.761263,
                20.820433
              ],
              [
                105.761222,
                20.82036
              ],
              [
                105.761092,
                20.820171
              ],
              [
                105.76109,
                20.820165
              ],
              [
                105.761082,
                20.820155
              ],
              [
                105.761071,
                20.82014
              ],
              [
                105.761036,
                20.820088
              ],
              [
                105.761024,
                20.820065
              ],
              [
                105.760995,
                20.820004
              ],
              [
                105.760984,
                20.819983
              ],
              [
                105.76097,
                20.819947
              ],
              [
                105.760964,
                20.819933
              ],
              [
                105.760963,
                20.819877
              ],
              [
                105.760963,
                20.819872
              ],
              [
                105.760971,
                20.819842
              ],
              [
                105.760979,
                20.819813
              ],
              [
                105.761036,
                20.819761
              ],
              [
                105.761285,
                20.819609
              ],
              [
                105.761305,
                20.819593
              ],
              [
                105.761314,
                20.819572
              ],
              [
                105.76153,
                20.819494
              ],
              [
                105.761635,
                20.819445
              ],
              [
                105.761731,
                20.819427
              ],
              [
                105.762634,
                20.820651
              ],
              [
                105.762667,
                20.820678
              ],
              [
                105.762926,
                20.820821
              ],
              [
                105.763642,
                20.819857
              ],
              [
                105.763491,
                20.819773
              ],
              [
                105.763844,
                20.819399
              ],
              [
                105.763972,
                20.819264
              ],
              [
                105.764339,
                20.819583
              ],
              [
                105.764451,
                20.819453
              ],
              [
                105.765558,
                20.81815
              ],
              [
                105.766136,
                20.817464
              ],
              [
                105.766154,
                20.817439
              ],
              [
                105.766155,
                20.817438
              ],
              [
                105.766437,
                20.81706
              ],
              [
                105.767926,
                20.814888
              ],
              [
                105.768762,
                20.813671
              ],
              [
                105.769099,
                20.813179
              ],
              [
                105.769112,
                20.81316
              ],
              [
                105.769143,
                20.813093
              ],
              [
                105.76895,
                20.812745
              ],
              [
                105.768782,
                20.812357
              ],
              [
                105.768759,
                20.812162
              ],
              [
                105.768767,
                20.811981
              ],
              [
                105.768798,
                20.811602
              ],
              [
                105.768903,
                20.811612
              ],
              [
                105.769046,
                20.811624
              ],
              [
                105.769348,
                20.811676
              ],
              [
                105.76988,
                20.811683
              ],
              [
                105.770097,
                20.811682
              ],
              [
                105.771021,
                20.811685
              ],
              [
                105.771158,
                20.811693
              ],
              [
                105.77131,
                20.811701
              ],
              [
                105.771497,
                20.811712
              ],
              [
                105.771591,
                20.811724
              ],
              [
                105.772577,
                20.811855
              ],
              [
                105.772951,
                20.811914
              ],
              [
                105.773685,
                20.812016
              ],
              [
                105.774063,
                20.812075
              ],
              [
                105.774308,
                20.812124
              ],
              [
                105.775302,
                20.812337
              ],
              [
                105.77526,
                20.812621
              ],
              [
                105.775429,
                20.812646
              ],
              [
                105.775409,
                20.812962
              ],
              [
                105.775404,
                20.813183
              ],
              [
                105.775496,
                20.8132
              ],
              [
                105.775412,
                20.813674
              ],
              [
                105.775646,
                20.813731
              ],
              [
                105.775699,
                20.813742
              ],
              [
                105.775659,
                20.813911
              ],
              [
                105.775645,
                20.813977
              ],
              [
                105.775524,
                20.814499
              ],
              [
                105.775491,
                20.814627
              ],
              [
                105.775338,
                20.815298
              ],
              [
                105.775225,
                20.815671
              ],
              [
                105.775015,
                20.816353
              ],
              [
                105.774801,
                20.816962
              ],
              [
                105.774159,
                20.818588
              ],
              [
                105.773732,
                20.819579
              ],
              [
                105.773683,
                20.81982
              ],
              [
                105.773651,
                20.820035
              ],
              [
                105.773683,
                20.820085
              ],
              [
                105.77519,
                20.821792
              ],
              [
                105.775341,
                20.821963
              ],
              [
                105.776076,
                20.822483
              ],
              [
                105.776582,
                20.822895
              ],
              [
                105.776713,
                20.823181
              ],
              [
                105.777537,
                20.823206
              ],
              [
                105.777633,
                20.823561
              ],
              [
                105.778388,
                20.823577
              ],
              [
                105.778704,
                20.82345
              ],
              [
                105.778941,
                20.823212
              ],
              [
                105.779469,
                20.823387
              ],
              [
                105.780005,
                20.823468
              ],
              [
                105.780132,
                20.823441
              ],
              [
                105.783039,
                20.824546
              ],
              [
                105.783956,
                20.82491
              ],
              [
                105.785097,
                20.825347
              ],
              [
                105.785244,
                20.825401
              ],
              [
                105.785233,
                20.825426
              ],
              [
                105.784262,
                20.827217
              ],
              [
                105.784244,
                20.827251
              ],
              [
                105.783742,
                20.828191
              ],
              [
                105.783529,
                20.828559
              ],
              [
                105.783437,
                20.82871
              ],
              [
                105.784951,
                20.829709
              ],
              [
                105.784985,
                20.829733
              ],
              [
                105.785226,
                20.829327
              ],
              [
                105.785534,
                20.828545
              ],
              [
                105.785837,
                20.827636
              ],
              [
                105.786073,
                20.827159
              ],
              [
                105.786343,
                20.827242
              ],
              [
                105.786469,
                20.827273
              ],
              [
                105.786508,
                20.827203
              ],
              [
                105.786542,
                20.827132
              ],
              [
                105.786574,
                20.827065
              ],
              [
                105.786738,
                20.826589
              ],
              [
                105.78698,
                20.826045
              ],
              [
                105.787409,
                20.826048
              ],
              [
                105.787425,
                20.825952
              ],
              [
                105.787431,
                20.825154
              ],
              [
                105.787427,
                20.82444
              ],
              [
                105.788336,
                20.824331
              ],
              [
                105.789256,
                20.824214
              ],
              [
                105.789365,
                20.824218
              ],
              [
                105.789746,
                20.824153
              ],
              [
                105.78988,
                20.82413
              ],
              [
                105.790324,
                20.824084
              ],
              [
                105.790441,
                20.824068
              ],
              [
                105.791977,
                20.823857
              ],
              [
                105.792183,
                20.82454
              ],
              [
                105.793533,
                20.825214
              ],
              [
                105.794985,
                20.825948
              ],
              [
                105.795473,
                20.82624
              ],
              [
                105.796075,
                20.826549
              ],
              [
                105.795866,
                20.826936
              ],
              [
                105.795743,
                20.8272
              ],
              [
                105.797149,
                20.827795
              ],
              [
                105.797677,
                20.828019
              ],
              [
                105.798064,
                20.828227
              ],
              [
                105.798421,
                20.82838
              ],
              [
                105.798595,
                20.828453
              ],
              [
                105.798583,
                20.82848
              ],
              [
                105.798075,
                20.829293
              ],
              [
                105.798067,
                20.82929
              ],
              [
                105.798065,
                20.829289
              ],
              [
                105.798059,
                20.829288
              ],
              [
                105.797838,
                20.829248
              ],
              [
                105.797573,
                20.829112
              ],
              [
                105.797507,
                20.829113
              ],
              [
                105.797469,
                20.82913
              ],
              [
                105.797418,
                20.829175
              ],
              [
                105.797338,
                20.829268
              ],
              [
                105.797279,
                20.829281
              ],
              [
                105.797277,
                20.829282
              ],
              [
                105.79726,
                20.829279
              ],
              [
                105.797225,
                20.829273
              ],
              [
                105.797192,
                20.829255
              ],
              [
                105.797025,
                20.82916
              ],
              [
                105.797005,
                20.829179
              ],
              [
                105.796648,
                20.829662
              ],
              [
                105.79634,
                20.830243
              ],
              [
                105.796222,
                20.830502
              ],
              [
                105.796983,
                20.830917
              ],
              [
                105.798374,
                20.831662
              ],
              [
                105.798413,
                20.831682
              ],
              [
                105.798507,
                20.831731
              ],
              [
                105.798194,
                20.832264
              ],
              [
                105.796116,
                20.835871
              ],
              [
                105.795878,
                20.836267
              ],
              [
                105.795972,
                20.836339
              ],
              [
                105.796037,
                20.83657
              ],
              [
                105.796179,
                20.837077
              ],
              [
                105.796184,
                20.837095
              ],
              [
                105.796257,
                20.83736
              ],
              [
                105.796388,
                20.837834
              ],
              [
                105.796553,
                20.838374
              ],
              [
                105.796929,
                20.839644
              ],
              [
                105.797304,
                20.839708
              ],
              [
                105.798779,
                20.839937
              ],
              [
                105.799176,
                20.839998
              ],
              [
                105.800202,
                20.840159
              ],
              [
                105.802362,
                20.840535
              ],
              [
                105.803761,
                20.840753
              ],
              [
                105.806005,
                20.840525
              ],
              [
                105.808282,
                20.840255
              ],
              [
                105.80879,
                20.840199
              ],
              [
                105.810378,
                20.840062
              ],
              [
                105.811761,
                20.839914
              ],
              [
                105.812421,
                20.839843
              ],
              [
                105.81382,
                20.839692
              ],
              [
                105.813908,
                20.839684
              ],
              [
                105.814073,
                20.839643
              ],
              [
                105.81438,
                20.839682
              ],
              [
                105.814625,
                20.839739
              ],
              [
                105.814826,
                20.839778
              ],
              [
                105.815083,
                20.839839
              ],
              [
                105.815852,
                20.840008
              ],
              [
                105.81643,
                20.840134
              ],
              [
                105.81741,
                20.840336
              ],
              [
                105.819077,
                20.840679
              ],
              [
                105.81927,
                20.840716
              ],
              [
                105.820544,
                20.840962
              ],
              [
                105.820557,
                20.840901
              ],
              [
                105.821815,
                20.841154
              ],
              [
                105.821831,
                20.84112
              ],
              [
                105.821831,
                20.84112
              ]
            ]
          ]
        ]
      },
      "properties": {
        "code": "10180",
        "name": "Dân Hoà",
        "nameEn": "Dan Hoa",
        "fullName": "Xã Dân Hoà",
        "fullNameEn": "Dan Hoa Commune",
        "codeName": "dan_hoa",
        "postalCode": "13521",
        "postalCodePrefix": "",
        "gisServerId": "diaphanhanhchinhcapxa_2025.3161",
        "areaKm2": 38.43
      }
    }
  ]
}