{
  "type": "FeatureCollection",
  "bbox": [
    105.696437,
    20.694533,
    105.820355,
    20.778056
  ],
  "features": [
    {
      "type": "Feature",
      "id": "10354",
      "bbox": [
        105.696437,
        20.694533,
        105.820355,
        20.778056
      ],
      "geometry": {
        "type": "MultiPolygon",
        "coordinates": [
          [
            [
              [
                105.73522,
                20.778024
              ],
              [
                105.736128,
                20.776479
              ],
              [
                105.736509,
                20.775883
              ],
              [
                105.737122,
                20.774837
              ],
              [
                105.737604,
                20.774054
              ],
              [
                105.738231,
                20.772899
              ],
              [
                105.738463,
                20.772524
              ],
              [
                105.738507,
                20.772448
              ],
              [
                105.738576,
                20.772334
              ],
              [
                105.738588,
                20.772295
              ],
              [
                105.738089,
                20.771964
              ],
              [
                105.737114,
                20.771314
              ],
              [
                105.73661,
                20.770961
              ],
              [
                105.736222,
                20.77069
              ],
              [
                105.736091,
                20.770592
              ],
              [
                105.736059,
                20.770539
              ],
              [
                105.736062,
                20.770497
              ],
              [
                105.736084,
                20.770446
              ],
              [
                105.736137,
                20.770365
              ],
              [
                105.736302,
                20.770164
              ],
              [
                105.736724,
                20.769629
              ],
              [
                105.736918,
                20.769385
              ],
              [
                105.737163,
                20.76906
              ],
              [
                105.737557,
                20.768547
              ],
              [
                105.737766,
                20.768261
              ],
              [
                105.737872,
                20.768127
              ],
              [
                105.73788,
                20.768099
              ],
              [
                105.737871,
                20.768076
              ],
              [
                105.737528,
                20.767558
              ],
              [
                105.73741,
                20.767365
              ],
              [
                105.737287,
                20.767169
              ],
              [
                105.737236,
                20.767076
              ],
              [
                105.73723,
                20.767052
              ],
              [
                105.737242,
                20.767032
              ],
              [
                105.7373,
                20.766987
              ],
              [
                105.737447,
                20.766892
              ],
              [
                105.737693,
                20.766735
              ],
              [
                105.737743,
                20.7667
              ],
              [
                105.739098,
                20.765829
              ],
              [
                105.73938,
                20.765639
              ],
              [
                105.739775,
                20.765382
              ],
              [
                105.739976,
                20.765241
              ],
              [
                105.74016,
                20.765121
              ],
              [
                105.740215,
                20.765091
              ],
              [
                105.740399,
                20.765021
              ],
              [
                105.740872,
                20.764843
              ],
              [
                105.741135,
                20.764753
              ],
              [
                105.741753,
                20.764525
              ],
              [
                105.742251,
                20.764345
              ],
              [
                105.742438,
                20.764278
              ],
              [
                105.742743,
                20.764163
              ],
              [
                105.742957,
                20.764085
              ],
              [
                105.74307,
                20.764037
              ],
              [
                105.743189,
                20.763974
              ],
              [
                105.743414,
                20.763819
              ],
              [
                105.743673,
                20.763649
              ],
              [
                105.743726,
                20.763623
              ],
              [
                105.743745,
                20.763629
              ],
              [
                105.743797,
                20.763677
              ],
              [
                105.743907,
                20.763768
              ],
              [
                105.743939,
                20.763781
              ],
              [
                105.743956,
                20.76378
              ],
              [
                105.743995,
                20.763742
              ],
              [
                105.744109,
                20.763628
              ],
              [
                105.744261,
                20.763466
              ],
              [
                105.744467,
                20.763268
              ],
              [
                105.744796,
                20.76292
              ],
              [
                105.744743,
                20.762878
              ],
              [
                105.743948,
                20.762192
              ],
              [
                105.743621,
                20.761913
              ],
              [
                105.743578,
                20.761877
              ],
              [
                105.743471,
                20.761755
              ],
              [
                105.743823,
                20.761566
              ],
              [
                105.744861,
                20.760995
              ],
              [
                105.745104,
                20.760808
              ],
              [
                105.745091,
                20.760785
              ],
              [
                105.744846,
                20.760355
              ],
              [
                105.744748,
                20.760183
              ],
              [
                105.744473,
                20.759702
              ],
              [
                105.744625,
                20.759629
              ],
              [
                105.744554,
                20.759491
              ],
              [
                105.744613,
                20.759467
              ],
              [
                105.744714,
                20.759429
              ],
              [
                105.744866,
                20.75937
              ],
              [
                105.745001,
                20.759318
              ],
              [
                105.745127,
                20.759268
              ],
              [
                105.745264,
                20.759215
              ],
              [
                105.745424,
                20.759143
              ],
              [
                105.745598,
                20.759065
              ],
              [
                105.745714,
                20.759013
              ],
              [
                105.745769,
                20.758984
              ],
              [
                105.745671,
                20.758704
              ],
              [
                105.745371,
                20.757929
              ],
              [
                105.745359,
                20.757847
              ],
              [
                105.745354,
                20.757776
              ],
              [
                105.745365,
                20.757743
              ],
              [
                105.745393,
                20.75773
              ],
              [
                105.745727,
                20.757659
              ],
              [
                105.746459,
                20.757508
              ],
              [
                105.746729,
                20.757435
              ],
              [
                105.747634,
                20.757155
              ],
              [
                105.748465,
                20.756898
              ],
              [
                105.748619,
                20.756846
              ],
              [
                105.748655,
                20.756825
              ],
              [
                105.748661,
                20.756801
              ],
              [
                105.748649,
                20.756767
              ],
              [
                105.748447,
                20.756287
              ],
              [
                105.748241,
                20.755816
              ],
              [
                105.747872,
                20.754996
              ],
              [
                105.74756,
                20.754295
              ],
              [
                105.747262,
                20.753634
              ],
              [
                105.747101,
                20.753276
              ],
              [
                105.746896,
                20.752814
              ],
              [
                105.746706,
                20.752408
              ],
              [
                105.746572,
                20.752123
              ],
              [
                105.749263,
                20.751039
              ],
              [
                105.750336,
                20.750655
              ],
              [
                105.750603,
                20.750526
              ],
              [
                105.750814,
                20.750448
              ],
              [
                105.751164,
                20.750283
              ],
              [
                105.751349,
                20.750167
              ],
              [
                105.751474,
                20.750061
              ],
              [
                105.751619,
                20.749906
              ],
              [
                105.751698,
                20.749838
              ],
              [
                105.751879,
                20.74964
              ],
              [
                105.752528,
                20.749014
              ],
              [
                105.753475,
                20.748083
              ],
              [
                105.753953,
                20.747603
              ],
              [
                105.753991,
                20.747565
              ],
              [
                105.754514,
                20.747051
              ],
              [
                105.755016,
                20.74655
              ],
              [
                105.755145,
                20.746419
              ],
              [
                105.755212,
                20.746347
              ],
              [
                105.755265,
                20.746292
              ],
              [
                105.755417,
                20.746136
              ],
              [
                105.755734,
                20.745824
              ],
              [
                105.75589,
                20.745664
              ],
              [
                105.75605,
                20.745503
              ],
              [
                105.756225,
                20.745348
              ],
              [
                105.756322,
                20.745245
              ],
              [
                105.756323,
                20.745245
              ],
              [
                105.756453,
                20.745292
              ],
              [
                105.758215,
                20.745643
              ],
              [
                105.75933,
                20.745826
              ],
              [
                105.760373,
                20.745974
              ],
              [
                105.761224,
                20.746093
              ],
              [
                105.761803,
                20.746165
              ],
              [
                105.762807,
                20.746295
              ],
              [
                105.764097,
                20.746478
              ],
              [
                105.764745,
                20.74657
              ],
              [
                105.765318,
                20.746672
              ],
              [
                105.765848,
                20.746768
              ],
              [
                105.766255,
                20.746862
              ],
              [
                105.766334,
                20.746714
              ],
              [
                105.766641,
                20.745969
              ],
              [
                105.767043,
                20.746019
              ],
              [
                105.7674,
                20.74486
              ],
              [
                105.767505,
                20.744527
              ],
              [
                105.767547,
                20.744329
              ],
              [
                105.767555,
                20.74428
              ],
              [
                105.766167,
                20.744057
              ],
              [
                105.764893,
                20.74386
              ],
              [
                105.764349,
                20.743773
              ],
              [
                105.763637,
                20.743665
              ],
              [
                105.763645,
                20.74362
              ],
              [
                105.763644,
                20.74362
              ],
              [
                105.763731,
                20.74307
              ],
              [
                105.763791,
                20.742692
              ],
              [
                105.76381,
                20.74257
              ],
              [
                105.76393,
                20.741923
              ],
              [
                105.763997,
                20.741564
              ],
              [
                105.764007,
                20.741508
              ],
              [
                105.764113,
                20.740902
              ],
              [
                105.76412,
                20.740867
              ],
              [
                105.764225,
                20.740885
              ],
              [
                105.764588,
                20.740937
              ],
              [
                105.764997,
                20.740999
              ],
              [
                105.765139,
                20.74102
              ],
              [
                105.765354,
                20.741052
              ],
              [
                105.765867,
                20.741129
              ],
              [
                105.765969,
                20.741143
              ],
              [
                105.766568,
                20.741225
              ],
              [
                105.767172,
                20.741308
              ],
              [
                105.768472,
                20.741502
              ],
              [
                105.768476,
                20.741468
              ],
              [
                105.768857,
                20.740112
              ],
              [
                105.770211,
                20.740334
              ],
              [
                105.770248,
                20.740345
              ],
              [
                105.770567,
                20.740409
              ],
              [
                105.770635,
                20.740173
              ],
              [
                105.770749,
                20.739599
              ],
              [
                105.770747,
                20.739507
              ],
              [
                105.77075,
                20.739108
              ],
              [
                105.770742,
                20.738618
              ],
              [
                105.770737,
                20.738301
              ],
              [
                105.770758,
                20.738189
              ],
              [
                105.770879,
                20.737527
              ],
              [
                105.770918,
                20.737221
              ],
              [
                105.771411,
                20.737238
              ],
              [
                105.771438,
                20.737443
              ],
              [
                105.771543,
                20.737445
              ],
              [
                105.771537,
                20.737604
              ],
              [
                105.772049,
                20.737581
              ],
              [
                105.772654,
                20.737535
              ],
              [
                105.772929,
                20.73753
              ],
              [
                105.773382,
                20.737492
              ],
              [
                105.773992,
                20.737518
              ],
              [
                105.774217,
                20.737516
              ],
              [
                105.774563,
                20.737512
              ],
              [
                105.774572,
                20.737695
              ],
              [
                105.774778,
                20.737701
              ],
              [
                105.775532,
                20.737694
              ],
              [
                105.775541,
                20.737764
              ],
              [
                105.775834,
                20.737761
              ],
              [
                105.775837,
                20.737853
              ],
              [
                105.77643,
                20.737847
              ],
              [
                105.776427,
                20.7376
              ],
              [
                105.777826,
                20.737498
              ],
              [
                105.77885,
                20.737473
              ],
              [
                105.779115,
                20.737485
              ],
              [
                105.77916,
                20.73749
              ],
              [
                105.779186,
                20.737463
              ],
              [
                105.77935,
                20.737344
              ],
              [
                105.779447,
                20.737299
              ],
              [
                105.779604,
                20.737251
              ],
              [
                105.779937,
                20.737162
              ],
              [
                105.78027,
                20.737074
              ],
              [
                105.780475,
                20.737005
              ],
              [
                105.780943,
                20.738683
              ],
              [
                105.781009,
                20.738667
              ],
              [
                105.781172,
                20.738628
              ],
              [
                105.7812,
                20.738622
              ],
              [
                105.781214,
                20.738621
              ],
              [
                105.781246,
                20.738619
              ],
              [
                105.781278,
                20.738627
              ],
              [
                105.781333,
                20.738663
              ],
              [
                105.781363,
                20.738681
              ],
              [
                105.781391,
                20.738703
              ],
              [
                105.781546,
                20.738737
              ],
              [
                105.781687,
                20.738761
              ],
              [
                105.781922,
                20.738801
              ],
              [
                105.782363,
                20.738854
              ],
              [
                105.782639,
                20.738888
              ],
              [
                105.783442,
                20.738993
              ],
              [
                105.78402,
                20.739063
              ],
              [
                105.785087,
                20.739181
              ],
              [
                105.785116,
                20.739208
              ],
              [
                105.785115,
                20.739216
              ],
              [
                105.785111,
                20.739239
              ],
              [
                105.78574,
                20.739309
              ],
              [
                105.786162,
                20.739356
              ],
              [
                105.786508,
                20.7394
              ],
              [
                105.786776,
                20.739434
              ],
              [
                105.787062,
                20.739468
              ],
              [
                105.787337,
                20.7395
              ],
              [
                105.787672,
                20.739539
              ],
              [
                105.787785,
                20.739552
              ],
              [
                105.787848,
                20.739533
              ],
              [
                105.787668,
                20.739118
              ],
              [
                105.787391,
                20.738481
              ],
              [
                105.787378,
                20.738453
              ],
              [
                105.788052,
                20.738337
              ],
              [
                105.788071,
                20.738368
              ],
              [
                105.788605,
                20.739207
              ],
              [
                105.789068,
                20.739836
              ],
              [
                105.789304,
                20.740103
              ],
              [
                105.789366,
                20.740186
              ],
              [
                105.7894,
                20.740229
              ],
              [
                105.788897,
                20.740505
              ],
              [
                105.788522,
                20.740707
              ],
              [
                105.788455,
                20.740749
              ],
              [
                105.788435,
                20.740771
              ],
              [
                105.788427,
                20.740816
              ],
              [
                105.788432,
                20.74096
              ],
              [
                105.788457,
                20.741322
              ],
              [
                105.788488,
                20.741698
              ],
              [
                105.788535,
                20.742206
              ],
              [
                105.788569,
                20.74257
              ],
              [
                105.788591,
                20.742803
              ],
              [
                105.78864,
                20.743371
              ],
              [
                105.788657,
                20.743606
              ],
              [
                105.788698,
                20.744111
              ],
              [
                105.788805,
                20.745137
              ],
              [
                105.788912,
                20.746746
              ],
              [
                105.788966,
                20.747336
              ],
              [
                105.788992,
                20.747611
              ],
              [
                105.78903,
                20.748019
              ],
              [
                105.789065,
                20.748403
              ],
              [
                105.78907,
                20.748448
              ],
              [
                105.789325,
                20.748514
              ],
              [
                105.789799,
                20.748621
              ],
              [
                105.790082,
                20.748685
              ],
              [
                105.790604,
                20.748801
              ],
              [
                105.791223,
                20.748925
              ],
              [
                105.791503,
                20.748987
              ],
              [
                105.792049,
                20.749106
              ],
              [
                105.79263,
                20.74923
              ],
              [
                105.793178,
                20.749339
              ],
              [
                105.793535,
                20.749402
              ],
              [
                105.793525,
                20.749481
              ],
              [
                105.793588,
                20.750337
              ],
              [
                105.793601,
                20.750525
              ],
              [
                105.794676,
                20.75069
              ],
              [
                105.794649,
                20.749547
              ],
              [
                105.79465,
                20.749484
              ],
              [
                105.797225,
                20.749353
              ],
              [
                105.798308,
                20.749297
              ],
              [
                105.798461,
                20.749314
              ],
              [
                105.800262,
                20.749919
              ],
              [
                105.801661,
                20.750301
              ],
              [
                105.803311,
                20.75075
              ],
              [
                105.803381,
                20.750687
              ],
              [
                105.803452,
                20.750623
              ],
              [
                105.804145,
                20.749735
              ],
              [
                105.804406,
                20.749434
              ],
              [
                105.804739,
                20.749014
              ],
              [
                105.804889,
                20.748826
              ],
              [
                105.805212,
                20.748425
              ],
              [
                105.805293,
                20.748325
              ],
              [
                105.805373,
                20.748225
              ],
              [
                105.805568,
                20.747989
              ],
              [
                105.805695,
                20.747832
              ],
              [
                105.805854,
                20.747638
              ],
              [
                105.806016,
                20.747448
              ],
              [
                105.806213,
                20.747215
              ],
              [
                105.806488,
                20.746885
              ],
              [
                105.806811,
                20.746513
              ],
              [
                105.806974,
                20.746326
              ],
              [
                105.80714,
                20.74615
              ],
              [
                105.807297,
                20.745997
              ],
              [
                105.807476,
                20.745823
              ],
              [
                105.807593,
                20.745713
              ],
              [
                105.807825,
                20.745553
              ],
              [
                105.809941,
                20.744449
              ],
              [
                105.809964,
                20.744479
              ],
              [
                105.809988,
                20.744506
              ],
              [
                105.811171,
                20.746027
              ],
              [
                105.813288,
                20.744754
              ],
              [
                105.813197,
                20.744619
              ],
              [
                105.813814,
                20.744148
              ],
              [
                105.813808,
                20.744136
              ],
              [
                105.813711,
                20.743928
              ],
              [
                105.813688,
                20.743862
              ],
              [
                105.813738,
                20.743778
              ],
              [
                105.813712,
                20.743683
              ],
              [
                105.813725,
                20.743629
              ],
              [
                105.813762,
                20.743551
              ],
              [
                105.813711,
                20.743342
              ],
              [
                105.81371,
                20.743288
              ],
              [
                105.813996,
                20.743185
              ],
              [
                105.814305,
                20.742891
              ],
              [
                105.814437,
                20.742795
              ],
              [
                105.814619,
                20.742662
              ],
              [
                105.815052,
                20.74238
              ],
              [
                105.815457,
                20.742127
              ],
              [
                105.815337,
                20.741898
              ],
              [
                105.815272,
                20.741807
              ],
              [
                105.815262,
                20.741791
              ],
              [
                105.815285,
                20.741781
              ],
              [
                105.816129,
                20.741355
              ],
              [
                105.816844,
                20.74099
              ],
              [
                105.816786,
                20.740886
              ],
              [
                105.816615,
                20.74058
              ],
              [
                105.816072,
                20.739823
              ],
              [
                105.816034,
                20.739776
              ],
              [
                105.815602,
                20.739189
              ],
              [
                105.815266,
                20.738709
              ],
              [
                105.815616,
                20.738477
              ],
              [
                105.815799,
                20.738349
              ],
              [
                105.815609,
                20.738174
              ],
              [
                105.816425,
                20.737623
              ],
              [
                105.817416,
                20.736954
              ],
              [
                105.818251,
                20.736391
              ],
              [
                105.818339,
                20.736317
              ],
              [
                105.818416,
                20.736396
              ],
              [
                105.819733,
                20.735097
              ],
              [
                105.819485,
                20.734786
              ],
              [
                105.819457,
                20.73471
              ],
              [
                105.819814,
                20.734049
              ],
              [
                105.820066,
                20.733613
              ],
              [
                105.820126,
                20.733336
              ],
              [
                105.820174,
                20.733063
              ],
              [
                105.820212,
                20.732872
              ],
              [
                105.820315,
                20.732633
              ],
              [
                105.820355,
                20.732496
              ],
              [
                105.820174,
                20.732398
              ],
              [
                105.820031,
                20.73232
              ],
              [
                105.819973,
                20.732296
              ],
              [
                105.819898,
                20.732265
              ],
              [
                105.819887,
                20.732262
              ],
              [
                105.819803,
                20.732242
              ],
              [
                105.819778,
                20.732239
              ],
              [
                105.819778,
                20.732212
              ],
              [
                105.819776,
                20.732199
              ],
              [
                105.819775,
                20.732186
              ],
              [
                105.819773,
                20.732176
              ],
              [
                105.819773,
                20.732173
              ],
              [
                105.819765,
                20.732165
              ],
              [
                105.819748,
                20.732148
              ],
              [
                105.819728,
                20.732132
              ],
              [
                105.819691,
                20.732102
              ],
              [
                105.819686,
                20.732099
              ],
              [
                105.819396,
                20.731877
              ],
              [
                105.819384,
                20.731869
              ],
              [
                105.819359,
                20.73185
              ],
              [
                105.819196,
                20.73173
              ],
              [
                105.819182,
                20.73172
              ],
              [
                105.819118,
                20.731673
              ],
              [
                105.819088,
                20.731651
              ],
              [
                105.819038,
                20.731614
              ],
              [
                105.819001,
                20.731586
              ],
              [
                105.818994,
                20.731581
              ],
              [
                105.818958,
                20.731555
              ],
              [
                105.818957,
                20.731555
              ],
              [
                105.819289,
                20.730991
              ],
              [
                105.819828,
                20.730137
              ],
              [
                105.820145,
                20.729648
              ],
              [
                105.819856,
                20.729495
              ],
              [
                105.818992,
                20.729037
              ],
              [
                105.818637,
                20.728849
              ],
              [
                105.818669,
                20.728729
              ],
              [
                105.818671,
                20.728723
              ],
              [
                105.818915,
                20.728387
              ],
              [
                105.818985,
                20.728291
              ],
              [
                105.819138,
                20.728048
              ],
              [
                105.81916,
                20.728021
              ],
              [
                105.819181,
                20.727994
              ],
              [
                105.819187,
                20.727986
              ],
              [
                105.818951,
                20.7279
              ],
              [
                105.818454,
                20.727699
              ],
              [
                105.818314,
                20.727643
              ],
              [
                105.818009,
                20.72642
              ],
              [
                105.81781,
                20.725621
              ],
              [
                105.817346,
                20.724063
              ],
              [
                105.817346,
                20.724063
              ],
              [
                105.817251,
                20.723743
              ],
              [
                105.817014,
                20.722947
              ],
              [
                105.816941,
                20.722654
              ],
              [
                105.816701,
                20.721701
              ],
              [
                105.816557,
                20.721124
              ],
              [
                105.816531,
                20.721029
              ],
              [
                105.816471,
                20.720795
              ],
              [
                105.816422,
                20.720585
              ],
              [
                105.816406,
                20.720522
              ],
              [
                105.816261,
                20.719945
              ],
              [
                105.816231,
                20.719871
              ],
              [
                105.816166,
                20.719716
              ],
              [
                105.816019,
                20.719226
              ],
              [
                105.815746,
                20.718553
              ],
              [
                105.815453,
                20.717838
              ],
              [
                105.815226,
                20.717256
              ],
              [
                105.814975,
                20.7167
              ],
              [
                105.81503,
                20.71666
              ],
              [
                105.815318,
                20.716452
              ],
              [
                105.815323,
                20.716448
              ],
              [
                105.81535,
                20.716422
              ],
              [
                105.815309,
                20.716332
              ],
              [
                105.815144,
                20.716244
              ],
              [
                105.81476,
                20.716011
              ],
              [
                105.814594,
                20.715899
              ],
              [
                105.81453,
                20.715614
              ],
              [
                105.813964,
                20.714183
              ],
              [
                105.813545,
                20.713038
              ],
              [
                105.813403,
                20.712614
              ],
              [
                105.813547,
                20.712513
              ],
              [
                105.813069,
                20.711476
              ],
              [
                105.812237,
                20.709791
              ],
              [
                105.81176,
                20.708833
              ],
              [
                105.811201,
                20.707735
              ],
              [
                105.811155,
                20.707643
              ],
              [
                105.811143,
                20.707619
              ],
              [
                105.81103,
                20.707538
              ],
              [
                105.810178,
                20.707102
              ],
              [
                105.809611,
                20.706824
              ],
              [
                105.809141,
                20.706594
              ],
              [
                105.808254,
                20.706101
              ],
              [
                105.807943,
                20.705892
              ],
              [
                105.807005,
                20.705407
              ],
              [
                105.806528,
                20.70515
              ],
              [
                105.804699,
                20.704166
              ],
              [
                105.804659,
                20.704139
              ],
              [
                105.805056,
                20.70359
              ],
              [
                105.805111,
                20.703514
              ],
              [
                105.805247,
                20.703323
              ],
              [
                105.805806,
                20.702541
              ],
              [
                105.806111,
                20.702114
              ],
              [
                105.806759,
                20.701209
              ],
              [
                105.806995,
                20.700898
              ],
              [
                105.805514,
                20.700098
              ],
              [
                105.803677,
                20.699097
              ],
              [
                105.803489,
                20.698995
              ],
              [
                105.802425,
                20.698415
              ],
              [
                105.801702,
                20.698016
              ],
              [
                105.801753,
                20.697943
              ],
              [
                105.802955,
                20.69612
              ],
              [
                105.802999,
                20.696045
              ],
              [
                105.802985,
                20.696034
              ],
              [
                105.802829,
                20.695947
              ],
              [
                105.802566,
                20.6958
              ],
              [
                105.802469,
                20.695746
              ],
              [
                105.802208,
                20.6956
              ],
              [
                105.801801,
                20.695373
              ],
              [
                105.801506,
                20.695209
              ],
              [
                105.801037,
                20.694947
              ],
              [
                105.800946,
                20.694895
              ],
              [
                105.800883,
                20.694859
              ],
              [
                105.800531,
                20.695649
              ],
              [
                105.800472,
                20.695627
              ],
              [
                105.800061,
                20.695384
              ],
              [
                105.799659,
                20.695088
              ],
              [
                105.799238,
                20.69481
              ],
              [
                105.798856,
                20.694533
              ],
              [
                105.797948,
                20.695528
              ],
              [
                105.797477,
                20.695277
              ],
              [
                105.797161,
                20.695068
              ],
              [
                105.796702,
                20.694747
              ],
              [
                105.796667,
                20.694721
              ],
              [
                105.796384,
                20.69509
              ],
              [
                105.795847,
                20.695787
              ],
              [
                105.794864,
                20.697012
              ],
              [
                105.794781,
                20.697127
              ],
              [
                105.794632,
                20.697369
              ],
              [
                105.793455,
                20.696917
              ],
              [
                105.793257,
                20.69684
              ],
              [
                105.792834,
                20.698198
              ],
              [
                105.792634,
                20.698814
              ],
              [
                105.792342,
                20.699755
              ],
              [
                105.792136,
                20.700394
              ],
              [
                105.792057,
                20.700595
              ],
              [
                105.791958,
                20.700774
              ],
              [
                105.791929,
                20.700813
              ],
              [
                105.79193,
                20.700814
              ],
              [
                105.791608,
                20.701319
              ],
              [
                105.790841,
                20.702541
              ],
              [
                105.790806,
                20.702568
              ],
              [
                105.79074,
                20.702541
              ],
              [
                105.790696,
                20.702523
              ],
              [
                105.790202,
                20.702323
              ],
              [
                105.789621,
                20.702089
              ],
              [
                105.789314,
                20.701964
              ],
              [
                105.789214,
                20.701924
              ],
              [
                105.789011,
                20.701842
              ],
              [
                105.788947,
                20.701818
              ],
              [
                105.788943,
                20.701816
              ],
              [
                105.78874,
                20.701741
              ],
              [
                105.788383,
                20.701607
              ],
              [
                105.788297,
                20.701575
              ],
              [
                105.788211,
                20.701543
              ],
              [
                105.787793,
                20.701388
              ],
              [
                105.787608,
                20.701318
              ],
              [
                105.787515,
                20.701284
              ],
              [
                105.78741,
                20.701245
              ],
              [
                105.78736,
                20.701225
              ],
              [
                105.787005,
                20.701085
              ],
              [
                105.78668,
                20.700956
              ],
              [
                105.786288,
                20.700802
              ],
              [
                105.786193,
                20.700765
              ],
              [
                105.785827,
                20.700621
              ],
              [
                105.785689,
                20.700566
              ],
              [
                105.785347,
                20.700432
              ],
              [
                105.785259,
                20.700398
              ],
              [
                105.78487,
                20.700245
              ],
              [
                105.784624,
                20.700153
              ],
              [
                105.784369,
                20.700057
              ],
              [
                105.784031,
                20.699931
              ],
              [
                105.782641,
                20.699389
              ],
              [
                105.781989,
                20.699131
              ],
              [
                105.781872,
                20.699096
              ],
              [
                105.781819,
                20.699096
              ],
              [
                105.78174,
                20.699168
              ],
              [
                105.781265,
                20.699641
              ],
              [
                105.780735,
                20.700169
              ],
              [
                105.780497,
                20.700411
              ],
              [
                105.780449,
                20.700431
              ],
              [
                105.780396,
                20.700448
              ],
              [
                105.78035,
                20.700474
              ],
              [
                105.780305,
                20.700546
              ],
              [
                105.780204,
                20.700731
              ],
              [
                105.779903,
                20.701398
              ],
              [
                105.779773,
                20.701667
              ],
              [
                105.779711,
                20.701798
              ],
              [
                105.779533,
                20.702176
              ],
              [
                105.779467,
                20.702314
              ],
              [
                105.779359,
                20.702543
              ],
              [
                105.779131,
                20.702985
              ],
              [
                105.778915,
                20.703425
              ],
              [
                105.778719,
                20.70383
              ],
              [
                105.778581,
                20.704106
              ],
              [
                105.778294,
                20.704714
              ],
              [
                105.778053,
                20.705219
              ],
              [
                105.77791,
                20.705514
              ],
              [
                105.777779,
                20.705804
              ],
              [
                105.7775,
                20.706393
              ],
              [
                105.777402,
                20.706616
              ],
              [
                105.777362,
                20.706693
              ],
              [
                105.777324,
                20.706678
              ],
              [
                105.777174,
                20.706658
              ],
              [
                105.77701,
                20.706647
              ],
              [
                105.776719,
                20.706635
              ],
              [
                105.776142,
                20.706599
              ],
              [
                105.775873,
                20.706588
              ],
              [
                105.775321,
                20.706558
              ],
              [
                105.775005,
                20.706537
              ],
              [
                105.775018,
                20.707978
              ],
              [
                105.775074,
                20.710295
              ],
              [
                105.775127,
                20.712109
              ],
              [
                105.775145,
                20.713695
              ],
              [
                105.775236,
                20.71624
              ],
              [
                105.77525,
                20.716813
              ],
              [
                105.775259,
                20.716893
              ],
              [
                105.775652,
                20.717045
              ],
              [
                105.776109,
                20.717208
              ],
              [
                105.776079,
                20.717285
              ],
              [
                105.776045,
                20.717388
              ],
              [
                105.776031,
                20.717482
              ],
              [
                105.775759,
                20.717956
              ],
              [
                105.775661,
                20.71825
              ],
              [
                105.775391,
                20.718969
              ],
              [
                105.775239,
                20.719421
              ],
              [
                105.775012,
                20.719695
              ],
              [
                105.774363,
                20.720586
              ],
              [
                105.774307,
                20.720691
              ],
              [
                105.774279,
                20.721184
              ],
              [
                105.774213,
                20.721223
              ],
              [
                105.774158,
                20.721256
              ],
              [
                105.774052,
                20.721486
              ],
              [
                105.773964,
                20.722203
              ],
              [
                105.7739,
                20.722481
              ],
              [
                105.77327,
                20.722555
              ],
              [
                105.773238,
                20.722349
              ],
              [
                105.773027,
                20.7223
              ],
              [
                105.773106,
                20.721671
              ],
              [
                105.773182,
                20.721245
              ],
              [
                105.772841,
                20.720709
              ],
              [
                105.772606,
                20.720286
              ],
              [
                105.772375,
                20.720403
              ],
              [
                105.771987,
                20.720455
              ],
              [
                105.771707,
                20.720475
              ],
              [
                105.771533,
                20.720541
              ],
              [
                105.771522,
                20.720903
              ],
              [
                105.771039,
                20.721181
              ],
              [
                105.770954,
                20.721229
              ],
              [
                105.770856,
                20.721284
              ],
              [
                105.770745,
                20.721363
              ],
              [
                105.770714,
                20.721384
              ],
              [
                105.770805,
                20.72154
              ],
              [
                105.770772,
                20.721558
              ],
              [
                105.770706,
                20.721594
              ],
              [
                105.770276,
                20.721826
              ],
              [
                105.769977,
                20.721989
              ],
              [
                105.769739,
                20.72217
              ],
              [
                105.769734,
                20.722173
              ],
              [
                105.769673,
                20.72222
              ],
              [
                105.76946,
                20.722382
              ],
              [
                105.769595,
                20.72241
              ],
              [
                105.770191,
                20.722532
              ],
              [
                105.770517,
                20.722646
              ],
              [
                105.770764,
                20.722803
              ],
              [
                105.770877,
                20.722939
              ],
              [
                105.770996,
                20.723171
              ],
              [
                105.771045,
                20.723507
              ],
              [
                105.771036,
                20.723855
              ],
              [
                105.77087,
                20.724308
              ],
              [
                105.770407,
                20.7252
              ],
              [
                105.769864,
                20.725871
              ],
              [
                105.769468,
                20.726305
              ],
              [
                105.769222,
                20.726532
              ],
              [
                105.768729,
                20.726987
              ],
              [
                105.768344,
                20.727268
              ],
              [
                105.767074,
                20.728116
              ],
              [
                105.766016,
                20.728832
              ],
              [
                105.765698,
                20.729038
              ],
              [
                105.764785,
                20.729611
              ],
              [
                105.764198,
                20.729893
              ],
              [
                105.763279,
                20.730392
              ],
              [
                105.762855,
                20.730641
              ],
              [
                105.762698,
                20.730774
              ],
              [
                105.762076,
                20.731287
              ],
              [
                105.761724,
                20.731473
              ],
              [
                105.761501,
                20.731569
              ],
              [
                105.76105,
                20.731644
              ],
              [
                105.760697,
                20.731625
              ],
              [
                105.760159,
                20.731501
              ],
              [
                105.759361,
                20.731109
              ],
              [
                105.7584,
                20.730545
              ],
              [
                105.757183,
                20.729566
              ],
              [
                105.756421,
                20.729132
              ],
              [
                105.755793,
                20.72884
              ],
              [
                105.75545,
                20.728731
              ],
              [
                105.754747,
                20.728634
              ],
              [
                105.753822,
                20.728522
              ],
              [
                105.752634,
                20.728443
              ],
              [
                105.752349,
                20.728416
              ],
              [
                105.751881,
                20.728368
              ],
              [
                105.751879,
                20.728368
              ],
              [
                105.751879,
                20.728368
              ],
              [
                105.751636,
                20.728359
              ],
              [
                105.750469,
                20.728153
              ],
              [
                105.750426,
                20.728151
              ],
              [
                105.750389,
                20.728149
              ],
              [
                105.750336,
                20.728146
              ],
              [
                105.75022,
                20.728144
              ],
              [
                105.749808,
                20.72816
              ],
              [
                105.749529,
                20.728223
              ],
              [
                105.749201,
                20.728256
              ],
              [
                105.747606,
                20.728247
              ],
              [
                105.745771,
                20.727932
              ],
              [
                105.743959,
                20.727486
              ],
              [
                105.741833,
                20.726776
              ],
              [
                105.740752,
                20.726194
              ],
              [
                105.739211,
                20.724953
              ],
              [
                105.738182,
                20.724263
              ],
              [
                105.737539,
                20.723654
              ],
              [
                105.736834,
                20.722963
              ],
              [
                105.7357,
                20.722315
              ],
              [
                105.734689,
                20.721923
              ],
              [
                105.733549,
                20.721812
              ],
              [
                105.732847,
                20.721798
              ],
              [
                105.731814,
                20.722017
              ],
              [
                105.731087,
                20.722293
              ],
              [
                105.730738,
                20.722559
              ],
              [
                105.730537,
                20.722816
              ],
              [
                105.73046,
                20.723089
              ],
              [
                105.730523,
                20.723519
              ],
              [
                105.730701,
                20.724088
              ],
              [
                105.730871,
                20.724415
              ],
              [
                105.730962,
                20.724591
              ],
              [
                105.731545,
                20.725283
              ],
              [
                105.732143,
                20.725826
              ],
              [
                105.732487,
                20.726163
              ],
              [
                105.732819,
                20.726814
              ],
              [
                105.733068,
                20.727524
              ],
              [
                105.733408,
                20.728944
              ],
              [
                105.733447,
                20.729671
              ],
              [
                105.733336,
                20.730399
              ],
              [
                105.733096,
                20.731524
              ],
              [
                105.732542,
                20.732947
              ],
              [
                105.732231,
                20.734097
              ],
              [
                105.732105,
                20.735073
              ],
              [
                105.732036,
                20.735503
              ],
              [
                105.731845,
                20.735818
              ],
              [
                105.731522,
                20.736092
              ],
              [
                105.730399,
                20.736816
              ],
              [
                105.729114,
                20.737656
              ],
              [
                105.728162,
                20.738133
              ],
              [
                105.728134,
                20.738147
              ],
              [
                105.727638,
                20.738278
              ],
              [
                105.727433,
                20.738332
              ],
              [
                105.726592,
                20.738484
              ],
              [
                105.725978,
                20.738528
              ],
              [
                105.725303,
                20.73863
              ],
              [
                105.724318,
                20.738899
              ],
              [
                105.722839,
                20.739434
              ],
              [
                105.720964,
                20.739921
              ],
              [
                105.719388,
                20.7403
              ],
              [
                105.717762,
                20.74048
              ],
              [
                105.715694,
                20.740902
              ],
              [
                105.71396,
                20.741355
              ],
              [
                105.71237,
                20.741742
              ],
              [
                105.71103,
                20.742095
              ],
              [
                105.708419,
                20.74256
              ],
              [
                105.706434,
                20.742882
              ],
              [
                105.70426,
                20.743089
              ],
              [
                105.702699,
                20.743079
              ],
              [
                105.701874,
                20.74295
              ],
              [
                105.700996,
                20.742756
              ],
              [
                105.699986,
                20.742479
              ],
              [
                105.699917,
                20.742444
              ],
              [
                105.699824,
                20.742397
              ],
              [
                105.698822,
                20.741889
              ],
              [
                105.698365,
                20.741742
              ],
              [
                105.698102,
                20.74171
              ],
              [
                105.697699,
                20.741893
              ],
              [
                105.697402,
                20.742208
              ],
              [
                105.697212,
                20.742655
              ],
              [
                105.697004,
                20.743284
              ],
              [
                105.696867,
                20.744028
              ],
              [
                105.696556,
                20.744972
              ],
              [
                105.696437,
                20.745766
              ],
              [
                105.696475,
                20.74641
              ],
              [
                105.696638,
                20.747699
              ],
              [
                105.696959,
                20.749015
              ],
              [
                105.697239,
                20.750444
              ],
              [
                105.69737,
                20.750816
              ],
              [
                105.697846,
                20.751276
              ],
              [
                105.698515,
                20.751549
              ],
              [
                105.699489,
                20.751616
              ],
              [
                105.701486,
                20.751623
              ],
              [
                105.703686,
                20.751563
              ],
              [
                105.704381,
                20.751525
              ],
              [
                105.704953,
                20.75156
              ],
              [
                105.705594,
                20.751714
              ],
              [
                105.706369,
                20.75193
              ],
              [
                105.707101,
                20.752297
              ],
              [
                105.708139,
                20.752724
              ],
              [
                105.7092,
                20.753191
              ],
              [
                105.709867,
                20.753545
              ],
              [
                105.710783,
                20.754123
              ],
              [
                105.711887,
                20.754978
              ],
              [
                105.713012,
                20.755833
              ],
              [
                105.714246,
                20.756875
              ],
              [
                105.714911,
                20.757475
              ],
              [
                105.715461,
                20.758129
              ],
              [
                105.71581,
                20.758576
              ],
              [
                105.716174,
                20.759025
              ],
              [
                105.7168,
                20.759776
              ],
              [
                105.717151,
                20.760213
              ],
              [
                105.718136,
                20.761323
              ],
              [
                105.71865,
                20.761716
              ],
              [
                105.718877,
                20.76198
              ],
              [
                105.719568,
                20.762783
              ],
              [
                105.720237,
                20.763427
              ],
              [
                105.720937,
                20.764111
              ],
              [
                105.721113,
                20.764384
              ],
              [
                105.721871,
                20.765182
              ],
              [
                105.722225,
                20.765545
              ],
              [
                105.722379,
                20.765704
              ],
              [
                105.722465,
                20.76581
              ],
              [
                105.723035,
                20.766509
              ],
              [
                105.723597,
                20.767289
              ],
              [
                105.724264,
                20.768113
              ],
              [
                105.72476,
                20.768915
              ],
              [
                105.724962,
                20.769277
              ],
              [
                105.725415,
                20.770503
              ],
              [
                105.725601,
                20.771093
              ],
              [
                105.726151,
                20.772601
              ],
              [
                105.726345,
                20.773557
              ],
              [
                105.726402,
                20.774624
              ],
              [
                105.726317,
                20.775173
              ],
              [
                105.726064,
                20.776077
              ],
              [
                105.726748,
                20.776504
              ],
              [
                105.727512,
                20.776788
              ],
              [
                105.727873,
                20.776925
              ],
              [
                105.727913,
                20.776734
              ],
              [
                105.7282,
                20.776787
              ],
              [
                105.728647,
                20.776823
              ],
              [
                105.729274,
                20.776883
              ],
              [
                105.729546,
                20.776908
              ],
              [
                105.730673,
                20.777033
              ],
              [
                105.731848,
                20.777272
              ],
              [
                105.732695,
                20.777451
              ],
              [
                105.733987,
                20.777746
              ],
              [
                105.734572,
                20.777888
              ],
              [
                105.734582,
                20.77789
              ],
              [
                105.7346,
                20.777895
              ],
              [
                105.734622,
                20.777901
              ],
              [
                105.734642,
                20.777907
              ],
              [
                105.734683,
                20.777917
              ],
              [
                105.734721,
                20.777928
              ],
              [
                105.734753,
                20.777936
              ],
              [
                105.734786,
                20.777945
              ],
              [
                105.734821,
                20.777955
              ],
              [
                105.734855,
                20.777964
              ],
              [
                105.734872,
                20.777968
              ],
              [
                105.734922,
                20.777982
              ],
              [
                105.73495,
                20.777989
              ],
              [
                105.734968,
                20.777994
              ],
              [
                105.735003,
                20.778004
              ],
              [
                105.735028,
                20.77801
              ],
              [
                105.73505,
                20.778016
              ],
              [
                105.735069,
                20.778021
              ],
              [
                105.735082,
                20.778025
              ],
              [
                105.735129,
                20.778037
              ],
              [
                105.735155,
                20.778044
              ],
              [
                105.735176,
                20.77805
              ],
              [
                105.735198,
                20.778056
              ],
              [
                105.735199,
                20.778056
              ],
              [
                105.73522,
                20.778024
              ],
              [
                105.73522,
                20.778024
              ]
            ]
          ]
        ]
      },
      "properties": {
        "code": "10354",
        "name": "Vân Đình",
        "nameEn": "Van Dinh",
        "fullName": "Xã Vân Đình",
        "fullNameEn": "Van Dinh Commune",
        "codeName": "van_dinh",
        "postalCode": "13806",
        "postalCodePrefix": "",
        "gisServerId": "diaphanhanhchinhcapxa_2025.3213",
        "areaKm2": 41.6
      }
    }
  ]
}