{
  "type": "FeatureCollection",
  "bbox": [
    105.705244,
    20.737005,
    105.806607,
    20.809641
  ],
  "features": [
    {
      "type": "Feature",
      "id": "10369",
      "bbox": [
        105.705244,
        20.737005,
        105.806607,
        20.809641
      ],
      "geometry": {
        "type": "MultiPolygon",
        "coordinates": [
          [
            [
              [
                105.722656,
                20.807658
              ],
              [
                105.723592,
                20.80756
              ],
              [
                105.723966,
                20.80757
              ],
              [
                105.725022,
                20.807595
              ],
              [
                105.725486,
                20.807491
              ],
              [
                105.7255,
                20.807488
              ],
              [
                105.725928,
                20.807423
              ],
              [
                105.726508,
                20.807485
              ],
              [
                105.726813,
                20.807517
              ],
              [
                105.726942,
                20.807531
              ],
              [
                105.727808,
                20.807668
              ],
              [
                105.728087,
                20.807748
              ],
              [
                105.729082,
                20.808032
              ],
              [
                105.730463,
                20.808483
              ],
              [
                105.730708,
                20.808569
              ],
              [
                105.731355,
                20.808796
              ],
              [
                105.732163,
                20.809111
              ],
              [
                105.732166,
                20.809112
              ],
              [
                105.732204,
                20.80912
              ],
              [
                105.732558,
                20.809196
              ],
              [
                105.73402,
                20.809219
              ],
              [
                105.734058,
                20.809219
              ],
              [
                105.734695,
                20.809181
              ],
              [
                105.734844,
                20.809145
              ],
              [
                105.735811,
                20.808912
              ],
              [
                105.735869,
                20.808889
              ],
              [
                105.735862,
                20.808833
              ],
              [
                105.735857,
                20.808793
              ],
              [
                105.73585,
                20.808732
              ],
              [
                105.735706,
                20.807489
              ],
              [
                105.735782,
                20.806921
              ],
              [
                105.73579,
                20.806868
              ],
              [
                105.735885,
                20.806835
              ],
              [
                105.735911,
                20.806774
              ],
              [
                105.735921,
                20.806711
              ],
              [
                105.735937,
                20.806674
              ],
              [
                105.735988,
                20.806609
              ],
              [
                105.736026,
                20.806475
              ],
              [
                105.736046,
                20.806322
              ],
              [
                105.736081,
                20.806144
              ],
              [
                105.736095,
                20.806002
              ],
              [
                105.736045,
                20.805937
              ],
              [
                105.735994,
                20.805822
              ],
              [
                105.735997,
                20.805753
              ],
              [
                105.736586,
                20.804579
              ],
              [
                105.737078,
                20.80338
              ],
              [
                105.737734,
                20.801865
              ],
              [
                105.738003,
                20.801279
              ],
              [
                105.738268,
                20.800704
              ],
              [
                105.738246,
                20.800659
              ],
              [
                105.738238,
                20.800601
              ],
              [
                105.738239,
                20.800497
              ],
              [
                105.738264,
                20.800018
              ],
              [
                105.738277,
                20.799714
              ],
              [
                105.738313,
                20.799187
              ],
              [
                105.738325,
                20.798909
              ],
              [
                105.738339,
                20.798679
              ],
              [
                105.738338,
                20.798662
              ],
              [
                105.738343,
                20.79858
              ],
              [
                105.738355,
                20.798171
              ],
              [
                105.738361,
                20.798086
              ],
              [
                105.738373,
                20.797986
              ],
              [
                105.738391,
                20.79794
              ],
              [
                105.738418,
                20.797894
              ],
              [
                105.738479,
                20.797812
              ],
              [
                105.738538,
                20.79774
              ],
              [
                105.738591,
                20.797681
              ],
              [
                105.738655,
                20.797595
              ],
              [
                105.73876,
                20.797474
              ],
              [
                105.73897,
                20.797261
              ],
              [
                105.739147,
                20.797067
              ],
              [
                105.739193,
                20.797016
              ],
              [
                105.739202,
                20.796988
              ],
              [
                105.739199,
                20.796968
              ],
              [
                105.739181,
                20.796927
              ],
              [
                105.739047,
                20.796562
              ],
              [
                105.738921,
                20.79622
              ],
              [
                105.738861,
                20.796051
              ],
              [
                105.738807,
                20.795812
              ],
              [
                105.738734,
                20.79548
              ],
              [
                105.738619,
                20.794893
              ],
              [
                105.738541,
                20.794458
              ],
              [
                105.738485,
                20.794075
              ],
              [
                105.738382,
                20.793477
              ],
              [
                105.738322,
                20.793253
              ],
              [
                105.738371,
                20.793234
              ],
              [
                105.739223,
                20.792895
              ],
              [
                105.739585,
                20.79276
              ],
              [
                105.740242,
                20.792514
              ],
              [
                105.740696,
                20.792345
              ],
              [
                105.741227,
                20.79213
              ],
              [
                105.741495,
                20.792026
              ],
              [
                105.741373,
                20.791405
              ],
              [
                105.741408,
                20.791381
              ],
              [
                105.743422,
                20.790152
              ],
              [
                105.74536,
                20.788936
              ],
              [
                105.746094,
                20.790064
              ],
              [
                105.746258,
                20.790326
              ],
              [
                105.74636,
                20.790435
              ],
              [
                105.746814,
                20.790775
              ],
              [
                105.747383,
                20.79121
              ],
              [
                105.748355,
                20.791913
              ],
              [
                105.748421,
                20.791946
              ],
              [
                105.748517,
                20.791846
              ],
              [
                105.748749,
                20.791544
              ],
              [
                105.748815,
                20.791474
              ],
              [
                105.748858,
                20.79145
              ],
              [
                105.748888,
                20.79144
              ],
              [
                105.748927,
                20.791445
              ],
              [
                105.749052,
                20.791512
              ],
              [
                105.749729,
                20.79186
              ],
              [
                105.751011,
                20.792545
              ],
              [
                105.751187,
                20.792639
              ],
              [
                105.751263,
                20.792673
              ],
              [
                105.751301,
                20.79268
              ],
              [
                105.751332,
                20.792675
              ],
              [
                105.751365,
                20.792651
              ],
              [
                105.751397,
                20.792612
              ],
              [
                105.751493,
                20.792478
              ],
              [
                105.7517,
                20.792181
              ],
              [
                105.75188,
                20.791936
              ],
              [
                105.752543,
                20.79103
              ],
              [
                105.752872,
                20.790579
              ],
              [
                105.752988,
                20.790426
              ],
              [
                105.753031,
                20.790392
              ],
              [
                105.753071,
                20.790387
              ],
              [
                105.753125,
                20.790406
              ],
              [
                105.754258,
                20.791316
              ],
              [
                105.754411,
                20.791435
              ],
              [
                105.754446,
                20.791444
              ],
              [
                105.754479,
                20.791442
              ],
              [
                105.754607,
                20.791252
              ],
              [
                105.755938,
                20.789321
              ],
              [
                105.756129,
                20.789048
              ],
              [
                105.756661,
                20.788242
              ],
              [
                105.756991,
                20.787746
              ],
              [
                105.757193,
                20.787444
              ],
              [
                105.757231,
                20.787403
              ],
              [
                105.757272,
                20.787393
              ],
              [
                105.757323,
                20.787395
              ],
              [
                105.757356,
                20.787419
              ],
              [
                105.757487,
                20.787564
              ],
              [
                105.757674,
                20.78781
              ],
              [
                105.757987,
                20.78821
              ],
              [
                105.758635,
                20.789088
              ],
              [
                105.759085,
                20.78965
              ],
              [
                105.759305,
                20.789925
              ],
              [
                105.759549,
                20.790258
              ],
              [
                105.759637,
                20.790207
              ],
              [
                105.761147,
                20.789343
              ],
              [
                105.761364,
                20.789216
              ],
              [
                105.763408,
                20.788077
              ],
              [
                105.763616,
                20.787967
              ],
              [
                105.763567,
                20.787897
              ],
              [
                105.763264,
                20.787282
              ],
              [
                105.763222,
                20.787215
              ],
              [
                105.76412,
                20.786805
              ],
              [
                105.764456,
                20.786648
              ],
              [
                105.763927,
                20.785866
              ],
              [
                105.763616,
                20.785423
              ],
              [
                105.763688,
                20.785363
              ],
              [
                105.764971,
                20.784313
              ],
              [
                105.76474,
                20.783995
              ],
              [
                105.764671,
                20.7839
              ],
              [
                105.764644,
                20.783863
              ],
              [
                105.76458,
                20.783775
              ],
              [
                105.764541,
                20.783721
              ],
              [
                105.764496,
                20.78366
              ],
              [
                105.764488,
                20.783648
              ],
              [
                105.765188,
                20.783111
              ],
              [
                105.765906,
                20.782555
              ],
              [
                105.765924,
                20.782504
              ],
              [
                105.766218,
                20.782849
              ],
              [
                105.766448,
                20.783103
              ],
              [
                105.766513,
                20.783179
              ],
              [
                105.766809,
                20.782991
              ],
              [
                105.767287,
                20.784384
              ],
              [
                105.767889,
                20.786158
              ],
              [
                105.768064,
                20.786647
              ],
              [
                105.768067,
                20.786655
              ],
              [
                105.76804,
                20.786772
              ],
              [
                105.768254,
                20.787341
              ],
              [
                105.768519,
                20.788146
              ],
              [
                105.768722,
                20.788141
              ],
              [
                105.771358,
                20.788081
              ],
              [
                105.77583,
                20.78798
              ],
              [
                105.776173,
                20.787946
              ],
              [
                105.776782,
                20.790053
              ],
              [
                105.776797,
                20.790442
              ],
              [
                105.776783,
                20.790534
              ],
              [
                105.776843,
                20.790535
              ],
              [
                105.776897,
                20.790534
              ],
              [
                105.776954,
                20.790534
              ],
              [
                105.777024,
                20.790536
              ],
              [
                105.777095,
                20.79054
              ],
              [
                105.777159,
                20.790543
              ],
              [
                105.777219,
                20.790545
              ],
              [
                105.777267,
                20.790547
              ],
              [
                105.7773,
                20.790547
              ],
              [
                105.777333,
                20.790543
              ],
              [
                105.777387,
                20.790537
              ],
              [
                105.777464,
                20.790528
              ],
              [
                105.777551,
                20.790514
              ],
              [
                105.777658,
                20.790497
              ],
              [
                105.777771,
                20.790479
              ],
              [
                105.777878,
                20.79046
              ],
              [
                105.777981,
                20.790438
              ],
              [
                105.778068,
                20.790419
              ],
              [
                105.778134,
                20.790403
              ],
              [
                105.778189,
                20.790389
              ],
              [
                105.778243,
                20.790375
              ],
              [
                105.778292,
                20.790358
              ],
              [
                105.778338,
                20.790338
              ],
              [
                105.778386,
                20.79031
              ],
              [
                105.778441,
                20.790271
              ],
              [
                105.7785,
                20.790225
              ],
              [
                105.778559,
                20.790179
              ],
              [
                105.77861,
                20.790138
              ],
              [
                105.778659,
                20.790096
              ],
              [
                105.778715,
                20.790048
              ],
              [
                105.778765,
                20.790004
              ],
              [
                105.778819,
                20.789955
              ],
              [
                105.778891,
                20.789891
              ],
              [
                105.778974,
                20.789818
              ],
              [
                105.779081,
                20.789725
              ],
              [
                105.780069,
                20.788859
              ],
              [
                105.780372,
                20.788955
              ],
              [
                105.780625,
                20.789259
              ],
              [
                105.780904,
                20.789392
              ],
              [
                105.781059,
                20.789535
              ],
              [
                105.781223,
                20.789525
              ],
              [
                105.781271,
                20.789678
              ],
              [
                105.781502,
                20.78967
              ],
              [
                105.781559,
                20.789766
              ],
              [
                105.781818,
                20.790204
              ],
              [
                105.782041,
                20.790669
              ],
              [
                105.782372,
                20.791353
              ],
              [
                105.783715,
                20.791606
              ],
              [
                105.784476,
                20.791765
              ],
              [
                105.784507,
                20.791741
              ],
              [
                105.784597,
                20.791367
              ],
              [
                105.784664,
                20.79112
              ],
              [
                105.784751,
                20.790954
              ],
              [
                105.784902,
                20.79076
              ],
              [
                105.785115,
                20.790508
              ],
              [
                105.785205,
                20.790368
              ],
              [
                105.785277,
                20.790192
              ],
              [
                105.785348,
                20.789973
              ],
              [
                105.785475,
                20.789456
              ],
              [
                105.785528,
                20.789313
              ],
              [
                105.785642,
                20.789255
              ],
              [
                105.785677,
                20.789118
              ],
              [
                105.785699,
                20.789064
              ],
              [
                105.786539,
                20.789272
              ],
              [
                105.786822,
                20.789333
              ],
              [
                105.787007,
                20.789404
              ],
              [
                105.787135,
                20.789444
              ],
              [
                105.787214,
                20.789458
              ],
              [
                105.787513,
                20.789402
              ],
              [
                105.787983,
                20.789263
              ],
              [
                105.78811,
                20.789234
              ],
              [
                105.788163,
                20.789229
              ],
              [
                105.788334,
                20.789309
              ],
              [
                105.788978,
                20.787873
              ],
              [
                105.789403,
                20.786942
              ],
              [
                105.789724,
                20.786227
              ],
              [
                105.789747,
                20.786238
              ],
              [
                105.789945,
                20.786329
              ],
              [
                105.790098,
                20.786103
              ],
              [
                105.790603,
                20.786442
              ],
              [
                105.790673,
                20.786462
              ],
              [
                105.790894,
                20.786258
              ],
              [
                105.790912,
                20.786246
              ],
              [
                105.791737,
                20.785693
              ],
              [
                105.79484,
                20.783815
              ],
              [
                105.796009,
                20.78317
              ],
              [
                105.796756,
                20.782991
              ],
              [
                105.797786,
                20.782707
              ],
              [
                105.80045,
                20.782041
              ],
              [
                105.800872,
                20.781919
              ],
              [
                105.801462,
                20.781755
              ],
              [
                105.802406,
                20.781493
              ],
              [
                105.803335,
                20.781239
              ],
              [
                105.804294,
                20.780976
              ],
              [
                105.805432,
                20.780664
              ],
              [
                105.806137,
                20.780472
              ],
              [
                105.806607,
                20.780329
              ],
              [
                105.806055,
                20.779998
              ],
              [
                105.80583,
                20.779872
              ],
              [
                105.80524,
                20.779687
              ],
              [
                105.804807,
                20.779602
              ],
              [
                105.804443,
                20.779551
              ],
              [
                105.803858,
                20.779563
              ],
              [
                105.803503,
                20.779593
              ],
              [
                105.802891,
                20.779613
              ],
              [
                105.8027,
                20.779606
              ],
              [
                105.802707,
                20.77956
              ],
              [
                105.802714,
                20.779499
              ],
              [
                105.802743,
                20.779318
              ],
              [
                105.80287,
                20.778522
              ],
              [
                105.802903,
                20.77851
              ],
              [
                105.802964,
                20.778498
              ],
              [
                105.803241,
                20.778539
              ],
              [
                105.803556,
                20.778603
              ],
              [
                105.804113,
                20.778694
              ],
              [
                105.804446,
                20.778765
              ],
              [
                105.804511,
                20.778779
              ],
              [
                105.805365,
                20.775721
              ],
              [
                105.803385,
                20.775315
              ],
              [
                105.803457,
                20.774508
              ],
              [
                105.803483,
                20.774135
              ],
              [
                105.803576,
                20.772443
              ],
              [
                105.803627,
                20.771352
              ],
              [
                105.801545,
                20.770932
              ],
              [
                105.801511,
                20.770998
              ],
              [
                105.800378,
                20.770758
              ],
              [
                105.800348,
                20.770896
              ],
              [
                105.800303,
                20.771104
              ],
              [
                105.800257,
                20.771165
              ],
              [
                105.799919,
                20.771379
              ],
              [
                105.799665,
                20.7715
              ],
              [
                105.799588,
                20.771333
              ],
              [
                105.799583,
                20.771306
              ],
              [
                105.799517,
                20.770961
              ],
              [
                105.798987,
                20.769026
              ],
              [
                105.798462,
                20.767153
              ],
              [
                105.79839,
                20.766896
              ],
              [
                105.798167,
                20.766109
              ],
              [
                105.798142,
                20.766018
              ],
              [
                105.798009,
                20.766
              ],
              [
                105.797496,
                20.76593
              ],
              [
                105.797255,
                20.766003
              ],
              [
                105.797137,
                20.765569
              ],
              [
                105.796883,
                20.764631
              ],
              [
                105.79675,
                20.764142
              ],
              [
                105.796471,
                20.763128
              ],
              [
                105.796271,
                20.7624
              ],
              [
                105.796079,
                20.761701
              ],
              [
                105.795671,
                20.761811
              ],
              [
                105.793915,
                20.762226
              ],
              [
                105.792103,
                20.762674
              ],
              [
                105.792071,
                20.762577
              ],
              [
                105.791934,
                20.762086
              ],
              [
                105.791799,
                20.761603
              ],
              [
                105.791805,
                20.761523
              ],
              [
                105.792171,
                20.761583
              ],
              [
                105.792209,
                20.759962
              ],
              [
                105.792117,
                20.759927
              ],
              [
                105.792266,
                20.758701
              ],
              [
                105.792271,
                20.75866
              ],
              [
                105.792633,
                20.758692
              ],
              [
                105.79376,
                20.758948
              ],
              [
                105.793772,
                20.75857
              ],
              [
                105.793801,
                20.758272
              ],
              [
                105.793857,
                20.758266
              ],
              [
                105.793961,
                20.75762
              ],
              [
                105.793975,
                20.757376
              ],
              [
                105.793952,
                20.756917
              ],
              [
                105.793938,
                20.756262
              ],
              [
                105.79381,
                20.756214
              ],
              [
                105.793809,
                20.75599
              ],
              [
                105.793793,
                20.755004
              ],
              [
                105.793787,
                20.753916
              ],
              [
                105.793769,
                20.7534
              ],
              [
                105.793643,
                20.751369
              ],
              [
                105.793635,
                20.751014
              ],
              [
                105.793601,
                20.750525
              ],
              [
                105.793601,
                20.750525
              ],
              [
                105.793588,
                20.750337
              ],
              [
                105.793525,
                20.749481
              ],
              [
                105.793535,
                20.749402
              ],
              [
                105.793178,
                20.749339
              ],
              [
                105.79263,
                20.74923
              ],
              [
                105.792049,
                20.749106
              ],
              [
                105.791503,
                20.748987
              ],
              [
                105.791223,
                20.748925
              ],
              [
                105.790604,
                20.748801
              ],
              [
                105.790082,
                20.748685
              ],
              [
                105.789799,
                20.748621
              ],
              [
                105.789325,
                20.748514
              ],
              [
                105.78907,
                20.748448
              ],
              [
                105.789065,
                20.748403
              ],
              [
                105.78903,
                20.748019
              ],
              [
                105.788992,
                20.747611
              ],
              [
                105.788966,
                20.747336
              ],
              [
                105.788912,
                20.746746
              ],
              [
                105.788805,
                20.745137
              ],
              [
                105.788698,
                20.744111
              ],
              [
                105.788657,
                20.743606
              ],
              [
                105.78864,
                20.743371
              ],
              [
                105.788591,
                20.742803
              ],
              [
                105.788569,
                20.74257
              ],
              [
                105.788535,
                20.742206
              ],
              [
                105.788488,
                20.741698
              ],
              [
                105.788457,
                20.741322
              ],
              [
                105.788432,
                20.74096
              ],
              [
                105.788427,
                20.740816
              ],
              [
                105.788435,
                20.740771
              ],
              [
                105.788455,
                20.740749
              ],
              [
                105.788522,
                20.740707
              ],
              [
                105.788897,
                20.740505
              ],
              [
                105.7894,
                20.740229
              ],
              [
                105.789366,
                20.740186
              ],
              [
                105.789304,
                20.740103
              ],
              [
                105.789068,
                20.739836
              ],
              [
                105.788605,
                20.739207
              ],
              [
                105.788071,
                20.738368
              ],
              [
                105.788052,
                20.738337
              ],
              [
                105.787378,
                20.738453
              ],
              [
                105.787391,
                20.738481
              ],
              [
                105.787668,
                20.739118
              ],
              [
                105.787848,
                20.739533
              ],
              [
                105.787785,
                20.739552
              ],
              [
                105.787672,
                20.739539
              ],
              [
                105.787337,
                20.7395
              ],
              [
                105.787062,
                20.739468
              ],
              [
                105.786776,
                20.739434
              ],
              [
                105.786508,
                20.7394
              ],
              [
                105.786162,
                20.739356
              ],
              [
                105.78574,
                20.739309
              ],
              [
                105.785111,
                20.739239
              ],
              [
                105.785115,
                20.739216
              ],
              [
                105.785116,
                20.739208
              ],
              [
                105.785087,
                20.739181
              ],
              [
                105.78402,
                20.739063
              ],
              [
                105.783442,
                20.738993
              ],
              [
                105.782639,
                20.738888
              ],
              [
                105.782363,
                20.738854
              ],
              [
                105.781922,
                20.738801
              ],
              [
                105.781687,
                20.738761
              ],
              [
                105.781546,
                20.738737
              ],
              [
                105.781391,
                20.738703
              ],
              [
                105.781363,
                20.738681
              ],
              [
                105.781333,
                20.738663
              ],
              [
                105.781278,
                20.738627
              ],
              [
                105.781246,
                20.738619
              ],
              [
                105.781214,
                20.738621
              ],
              [
                105.7812,
                20.738622
              ],
              [
                105.781172,
                20.738628
              ],
              [
                105.781009,
                20.738667
              ],
              [
                105.780943,
                20.738683
              ],
              [
                105.780475,
                20.737005
              ],
              [
                105.78027,
                20.737074
              ],
              [
                105.779937,
                20.737162
              ],
              [
                105.779604,
                20.737251
              ],
              [
                105.779447,
                20.737299
              ],
              [
                105.77935,
                20.737344
              ],
              [
                105.779186,
                20.737463
              ],
              [
                105.77916,
                20.73749
              ],
              [
                105.779115,
                20.737485
              ],
              [
                105.77885,
                20.737473
              ],
              [
                105.777826,
                20.737498
              ],
              [
                105.776427,
                20.7376
              ],
              [
                105.77643,
                20.737847
              ],
              [
                105.775837,
                20.737853
              ],
              [
                105.775834,
                20.737761
              ],
              [
                105.775541,
                20.737764
              ],
              [
                105.775532,
                20.737694
              ],
              [
                105.774778,
                20.737701
              ],
              [
                105.774572,
                20.737695
              ],
              [
                105.774563,
                20.737512
              ],
              [
                105.774217,
                20.737516
              ],
              [
                105.773992,
                20.737518
              ],
              [
                105.773382,
                20.737492
              ],
              [
                105.772929,
                20.73753
              ],
              [
                105.772654,
                20.737535
              ],
              [
                105.772049,
                20.737581
              ],
              [
                105.771537,
                20.737604
              ],
              [
                105.771543,
                20.737445
              ],
              [
                105.771438,
                20.737443
              ],
              [
                105.771411,
                20.737238
              ],
              [
                105.770918,
                20.737221
              ],
              [
                105.770879,
                20.737527
              ],
              [
                105.770758,
                20.738189
              ],
              [
                105.770737,
                20.738301
              ],
              [
                105.770742,
                20.738618
              ],
              [
                105.77075,
                20.739108
              ],
              [
                105.770747,
                20.739507
              ],
              [
                105.770749,
                20.739599
              ],
              [
                105.770635,
                20.740173
              ],
              [
                105.770567,
                20.740409
              ],
              [
                105.770248,
                20.740345
              ],
              [
                105.770211,
                20.740334
              ],
              [
                105.768857,
                20.740112
              ],
              [
                105.768476,
                20.741468
              ],
              [
                105.768472,
                20.741502
              ],
              [
                105.767172,
                20.741308
              ],
              [
                105.766568,
                20.741225
              ],
              [
                105.765969,
                20.741143
              ],
              [
                105.765867,
                20.741129
              ],
              [
                105.765354,
                20.741052
              ],
              [
                105.765139,
                20.74102
              ],
              [
                105.764997,
                20.740999
              ],
              [
                105.764588,
                20.740937
              ],
              [
                105.764225,
                20.740885
              ],
              [
                105.76412,
                20.740867
              ],
              [
                105.764113,
                20.740902
              ],
              [
                105.764007,
                20.741508
              ],
              [
                105.763997,
                20.741564
              ],
              [
                105.76393,
                20.741923
              ],
              [
                105.76381,
                20.74257
              ],
              [
                105.763791,
                20.742692
              ],
              [
                105.763731,
                20.74307
              ],
              [
                105.763644,
                20.74362
              ],
              [
                105.763645,
                20.74362
              ],
              [
                105.763637,
                20.743665
              ],
              [
                105.764349,
                20.743773
              ],
              [
                105.764893,
                20.74386
              ],
              [
                105.766167,
                20.744057
              ],
              [
                105.767555,
                20.74428
              ],
              [
                105.767547,
                20.744329
              ],
              [
                105.767505,
                20.744527
              ],
              [
                105.7674,
                20.74486
              ],
              [
                105.767043,
                20.746019
              ],
              [
                105.766641,
                20.745969
              ],
              [
                105.766334,
                20.746714
              ],
              [
                105.766255,
                20.746862
              ],
              [
                105.765848,
                20.746768
              ],
              [
                105.765318,
                20.746672
              ],
              [
                105.764745,
                20.74657
              ],
              [
                105.764097,
                20.746478
              ],
              [
                105.762807,
                20.746295
              ],
              [
                105.761803,
                20.746165
              ],
              [
                105.761224,
                20.746093
              ],
              [
                105.760373,
                20.745974
              ],
              [
                105.75933,
                20.745826
              ],
              [
                105.758215,
                20.745643
              ],
              [
                105.756453,
                20.745292
              ],
              [
                105.756323,
                20.745245
              ],
              [
                105.756322,
                20.745245
              ],
              [
                105.756225,
                20.745348
              ],
              [
                105.75605,
                20.745503
              ],
              [
                105.75589,
                20.745664
              ],
              [
                105.755734,
                20.745824
              ],
              [
                105.755417,
                20.746136
              ],
              [
                105.755265,
                20.746292
              ],
              [
                105.755212,
                20.746347
              ],
              [
                105.755145,
                20.746419
              ],
              [
                105.755016,
                20.74655
              ],
              [
                105.754514,
                20.747051
              ],
              [
                105.753991,
                20.747565
              ],
              [
                105.753953,
                20.747603
              ],
              [
                105.753475,
                20.748083
              ],
              [
                105.752528,
                20.749014
              ],
              [
                105.751879,
                20.74964
              ],
              [
                105.751698,
                20.749838
              ],
              [
                105.751619,
                20.749906
              ],
              [
                105.751474,
                20.750061
              ],
              [
                105.751349,
                20.750167
              ],
              [
                105.751164,
                20.750283
              ],
              [
                105.750814,
                20.750448
              ],
              [
                105.750603,
                20.750526
              ],
              [
                105.750336,
                20.750655
              ],
              [
                105.749263,
                20.751039
              ],
              [
                105.746572,
                20.752123
              ],
              [
                105.746706,
                20.752408
              ],
              [
                105.746896,
                20.752814
              ],
              [
                105.747101,
                20.753276
              ],
              [
                105.747262,
                20.753634
              ],
              [
                105.74756,
                20.754295
              ],
              [
                105.747872,
                20.754996
              ],
              [
                105.748241,
                20.755816
              ],
              [
                105.748447,
                20.756287
              ],
              [
                105.748649,
                20.756767
              ],
              [
                105.748661,
                20.756801
              ],
              [
                105.748655,
                20.756825
              ],
              [
                105.748619,
                20.756846
              ],
              [
                105.748465,
                20.756898
              ],
              [
                105.747634,
                20.757155
              ],
              [
                105.746729,
                20.757435
              ],
              [
                105.746459,
                20.757508
              ],
              [
                105.745727,
                20.757659
              ],
              [
                105.745393,
                20.75773
              ],
              [
                105.745365,
                20.757743
              ],
              [
                105.745354,
                20.757776
              ],
              [
                105.745359,
                20.757847
              ],
              [
                105.745371,
                20.757929
              ],
              [
                105.745671,
                20.758704
              ],
              [
                105.745769,
                20.758984
              ],
              [
                105.745714,
                20.759013
              ],
              [
                105.745598,
                20.759065
              ],
              [
                105.745424,
                20.759143
              ],
              [
                105.745264,
                20.759215
              ],
              [
                105.745127,
                20.759268
              ],
              [
                105.745001,
                20.759318
              ],
              [
                105.744866,
                20.75937
              ],
              [
                105.744714,
                20.759429
              ],
              [
                105.744613,
                20.759467
              ],
              [
                105.744554,
                20.759491
              ],
              [
                105.744625,
                20.759629
              ],
              [
                105.744473,
                20.759702
              ],
              [
                105.744748,
                20.760183
              ],
              [
                105.744846,
                20.760355
              ],
              [
                105.745091,
                20.760785
              ],
              [
                105.745104,
                20.760808
              ],
              [
                105.744861,
                20.760995
              ],
              [
                105.743823,
                20.761566
              ],
              [
                105.743471,
                20.761755
              ],
              [
                105.743578,
                20.761877
              ],
              [
                105.743621,
                20.761913
              ],
              [
                105.743948,
                20.762192
              ],
              [
                105.744743,
                20.762878
              ],
              [
                105.744796,
                20.76292
              ],
              [
                105.744467,
                20.763268
              ],
              [
                105.744261,
                20.763466
              ],
              [
                105.744109,
                20.763628
              ],
              [
                105.743995,
                20.763742
              ],
              [
                105.743956,
                20.76378
              ],
              [
                105.743939,
                20.763781
              ],
              [
                105.743907,
                20.763768
              ],
              [
                105.743797,
                20.763677
              ],
              [
                105.743745,
                20.763629
              ],
              [
                105.743726,
                20.763623
              ],
              [
                105.743673,
                20.763649
              ],
              [
                105.743414,
                20.763819
              ],
              [
                105.743189,
                20.763974
              ],
              [
                105.74307,
                20.764037
              ],
              [
                105.742957,
                20.764085
              ],
              [
                105.742743,
                20.764163
              ],
              [
                105.742438,
                20.764278
              ],
              [
                105.742251,
                20.764345
              ],
              [
                105.741753,
                20.764525
              ],
              [
                105.741135,
                20.764753
              ],
              [
                105.740872,
                20.764843
              ],
              [
                105.740399,
                20.765021
              ],
              [
                105.740215,
                20.765091
              ],
              [
                105.74016,
                20.765121
              ],
              [
                105.739976,
                20.765241
              ],
              [
                105.739775,
                20.765382
              ],
              [
                105.73938,
                20.765639
              ],
              [
                105.739098,
                20.765829
              ],
              [
                105.737743,
                20.7667
              ],
              [
                105.737693,
                20.766735
              ],
              [
                105.737447,
                20.766892
              ],
              [
                105.7373,
                20.766987
              ],
              [
                105.737242,
                20.767032
              ],
              [
                105.73723,
                20.767052
              ],
              [
                105.737236,
                20.767076
              ],
              [
                105.737287,
                20.767169
              ],
              [
                105.73741,
                20.767365
              ],
              [
                105.737528,
                20.767558
              ],
              [
                105.737871,
                20.768076
              ],
              [
                105.73788,
                20.768099
              ],
              [
                105.737872,
                20.768127
              ],
              [
                105.737766,
                20.768261
              ],
              [
                105.737557,
                20.768547
              ],
              [
                105.737163,
                20.76906
              ],
              [
                105.736918,
                20.769385
              ],
              [
                105.736724,
                20.769629
              ],
              [
                105.736302,
                20.770164
              ],
              [
                105.736137,
                20.770365
              ],
              [
                105.736084,
                20.770446
              ],
              [
                105.736062,
                20.770497
              ],
              [
                105.736059,
                20.770539
              ],
              [
                105.736091,
                20.770592
              ],
              [
                105.736222,
                20.77069
              ],
              [
                105.73661,
                20.770961
              ],
              [
                105.737114,
                20.771314
              ],
              [
                105.738089,
                20.771964
              ],
              [
                105.738588,
                20.772295
              ],
              [
                105.738576,
                20.772334
              ],
              [
                105.738507,
                20.772448
              ],
              [
                105.738463,
                20.772524
              ],
              [
                105.738231,
                20.772899
              ],
              [
                105.737604,
                20.774054
              ],
              [
                105.737122,
                20.774837
              ],
              [
                105.736509,
                20.775883
              ],
              [
                105.736128,
                20.776479
              ],
              [
                105.73522,
                20.778024
              ],
              [
                105.735199,
                20.778056
              ],
              [
                105.735198,
                20.778056
              ],
              [
                105.735176,
                20.77805
              ],
              [
                105.735155,
                20.778044
              ],
              [
                105.735129,
                20.778037
              ],
              [
                105.735082,
                20.778025
              ],
              [
                105.735069,
                20.778021
              ],
              [
                105.73505,
                20.778016
              ],
              [
                105.735028,
                20.77801
              ],
              [
                105.735003,
                20.778004
              ],
              [
                105.734968,
                20.777994
              ],
              [
                105.73495,
                20.777989
              ],
              [
                105.734922,
                20.777982
              ],
              [
                105.734872,
                20.777968
              ],
              [
                105.734855,
                20.777964
              ],
              [
                105.734821,
                20.777955
              ],
              [
                105.734786,
                20.777945
              ],
              [
                105.734753,
                20.777936
              ],
              [
                105.734721,
                20.777928
              ],
              [
                105.734683,
                20.777917
              ],
              [
                105.734642,
                20.777907
              ],
              [
                105.734622,
                20.777901
              ],
              [
                105.7346,
                20.777895
              ],
              [
                105.734582,
                20.77789
              ],
              [
                105.734572,
                20.777888
              ],
              [
                105.733987,
                20.777746
              ],
              [
                105.732695,
                20.777451
              ],
              [
                105.731848,
                20.777272
              ],
              [
                105.730673,
                20.777033
              ],
              [
                105.729546,
                20.776908
              ],
              [
                105.729274,
                20.776883
              ],
              [
                105.728647,
                20.776823
              ],
              [
                105.7282,
                20.776787
              ],
              [
                105.727913,
                20.776734
              ],
              [
                105.727873,
                20.776925
              ],
              [
                105.727512,
                20.776788
              ],
              [
                105.726748,
                20.776504
              ],
              [
                105.726064,
                20.776077
              ],
              [
                105.726033,
                20.776186
              ],
              [
                105.725876,
                20.776552
              ],
              [
                105.725667,
                20.777037
              ],
              [
                105.725281,
                20.777695
              ],
              [
                105.725016,
                20.778013
              ],
              [
                105.724428,
                20.778454
              ],
              [
                105.723592,
                20.778996
              ],
              [
                105.722322,
                20.779695
              ],
              [
                105.721312,
                20.780304
              ],
              [
                105.720549,
                20.78084
              ],
              [
                105.719841,
                20.781307
              ],
              [
                105.719431,
                20.781516
              ],
              [
                105.718828,
                20.781734
              ],
              [
                105.717955,
                20.782303
              ],
              [
                105.717354,
                20.782709
              ],
              [
                105.71735,
                20.782713
              ],
              [
                105.716408,
                20.783808
              ],
              [
                105.715862,
                20.784534
              ],
              [
                105.715522,
                20.785125
              ],
              [
                105.715316,
                20.785553
              ],
              [
                105.714931,
                20.786433
              ],
              [
                105.714585,
                20.787222
              ],
              [
                105.714282,
                20.787766
              ],
              [
                105.714067,
                20.788103
              ],
              [
                105.713527,
                20.788761
              ],
              [
                105.712635,
                20.789715
              ],
              [
                105.711718,
                20.790731
              ],
              [
                105.711163,
                20.791317
              ],
              [
                105.711025,
                20.791468
              ],
              [
                105.710911,
                20.791527
              ],
              [
                105.710776,
                20.791598
              ],
              [
                105.710568,
                20.791767
              ],
              [
                105.710516,
                20.791821
              ],
              [
                105.710191,
                20.792157
              ],
              [
                105.709676,
                20.792779
              ],
              [
                105.709254,
                20.793259
              ],
              [
                105.70894,
                20.793609
              ],
              [
                105.70875,
                20.793911
              ],
              [
                105.708516,
                20.794278
              ],
              [
                105.708251,
                20.794616
              ],
              [
                105.707912,
                20.795032
              ],
              [
                105.707596,
                20.79551
              ],
              [
                105.707498,
                20.795659
              ],
              [
                105.707398,
                20.795812
              ],
              [
                105.707344,
                20.795894
              ],
              [
                105.707108,
                20.796209
              ],
              [
                105.706898,
                20.796527
              ],
              [
                105.706618,
                20.796894
              ],
              [
                105.706196,
                20.797346
              ],
              [
                105.705545,
                20.798243
              ],
              [
                105.705425,
                20.798468
              ],
              [
                105.705404,
                20.798509
              ],
              [
                105.705334,
                20.79864
              ],
              [
                105.705244,
                20.798969
              ],
              [
                105.705271,
                20.799231
              ],
              [
                105.705364,
                20.80002
              ],
              [
                105.705541,
                20.800552
              ],
              [
                105.70612,
                20.801926
              ],
              [
                105.706619,
                20.803191
              ],
              [
                105.707152,
                20.804682
              ],
              [
                105.707253,
                20.805046
              ],
              [
                105.707656,
                20.806198
              ],
              [
                105.707821,
                20.80678
              ],
              [
                105.708122,
                20.807486
              ],
              [
                105.708599,
                20.808488
              ],
              [
                105.708889,
                20.809079
              ],
              [
                105.709099,
                20.809641
              ],
              [
                105.709479,
                20.809485
              ],
              [
                105.710103,
                20.809279
              ],
              [
                105.710589,
                20.809128
              ],
              [
                105.712071,
                20.808783
              ],
              [
                105.713064,
                20.808591
              ],
              [
                105.714772,
                20.808332
              ],
              [
                105.715683,
                20.808293
              ],
              [
                105.716527,
                20.808224
              ],
              [
                105.717083,
                20.808179
              ],
              [
                105.718181,
                20.808112
              ],
              [
                105.720051,
                20.807926
              ],
              [
                105.720549,
                20.807851
              ],
              [
                105.721049,
                20.807777
              ],
              [
                105.722656,
                20.807658
              ],
              [
                105.722656,
                20.807658
              ]
            ]
          ]
        ]
      },
      "properties": {
        "code": "10369",
        "name": "Ứng Thiên",
        "nameEn": "Ung Thien",
        "fullName": "Xã Ứng Thiên",
        "fullNameEn": "Ung Thien Commune",
        "codeName": "ung_thien",
        "postalCode": "13835",
        "postalCodePrefix": "",
        "gisServerId": "diaphanhanhchinhcapxa_2025.3214",
        "areaKm2": 38.4
      }
    }
  ]
}