{
  "type": "FeatureCollection",
  "bbox": [
    105.79048,
    20.643107,
    105.90564,
    20.741741
  ],
  "features": [
    {
      "type": "Feature",
      "id": "10402",
      "bbox": [
        105.79048,
        20.643107,
        105.90564,
        20.741741
      ],
      "geometry": {
        "type": "MultiPolygon",
        "coordinates": [
          [
            [
              [
                105.844888,
                20.741103
              ],
              [
                105.844918,
                20.741087
              ],
              [
                105.844943,
                20.741088
              ],
              [
                105.845592,
                20.741183
              ],
              [
                105.845632,
                20.74097
              ],
              [
                105.845661,
                20.740735
              ],
              [
                105.845687,
                20.740521
              ],
              [
                105.845757,
                20.739953
              ],
              [
                105.845771,
                20.73984
              ],
              [
                105.845808,
                20.739541
              ],
              [
                105.845815,
                20.739441
              ],
              [
                105.845818,
                20.739396
              ],
              [
                105.845838,
                20.739101
              ],
              [
                105.845842,
                20.739041
              ],
              [
                105.845858,
                20.738793
              ],
              [
                105.845896,
                20.738237
              ],
              [
                105.845911,
                20.738012
              ],
              [
                105.845918,
                20.737914
              ],
              [
                105.845922,
                20.737862
              ],
              [
                105.845944,
                20.73763
              ],
              [
                105.845974,
                20.73735
              ],
              [
                105.845988,
                20.737223
              ],
              [
                105.845991,
                20.737196
              ],
              [
                105.845991,
                20.737196
              ],
              [
                105.845997,
                20.737139
              ],
              [
                105.846019,
                20.737049
              ],
              [
                105.847118,
                20.737402
              ],
              [
                105.848053,
                20.737637
              ],
              [
                105.848473,
                20.737707
              ],
              [
                105.848881,
                20.73773
              ],
              [
                105.850523,
                20.737682
              ],
              [
                105.850531,
                20.737568
              ],
              [
                105.850267,
                20.73598
              ],
              [
                105.850259,
                20.735939
              ],
              [
                105.849833,
                20.733748
              ],
              [
                105.849795,
                20.733551
              ],
              [
                105.849658,
                20.732827
              ],
              [
                105.849718,
                20.732798
              ],
              [
                105.851587,
                20.732557
              ],
              [
                105.851975,
                20.732507
              ],
              [
                105.852725,
                20.732372
              ],
              [
                105.852826,
                20.732372
              ],
              [
                105.85294,
                20.732317
              ],
              [
                105.852835,
                20.731601
              ],
              [
                105.853978,
                20.731504
              ],
              [
                105.854372,
                20.731574
              ],
              [
                105.854429,
                20.731496
              ],
              [
                105.85457,
                20.731173
              ],
              [
                105.854918,
                20.730382
              ],
              [
                105.855333,
                20.729469
              ],
              [
                105.855637,
                20.728739
              ],
              [
                105.856121,
                20.727663
              ],
              [
                105.856182,
                20.727524
              ],
              [
                105.856228,
                20.727425
              ],
              [
                105.856409,
                20.727048
              ],
              [
                105.856573,
                20.726664
              ],
              [
                105.856743,
                20.72631
              ],
              [
                105.856927,
                20.725949
              ],
              [
                105.857015,
                20.725779
              ],
              [
                105.857311,
                20.725192
              ],
              [
                105.857348,
                20.725093
              ],
              [
                105.857329,
                20.724992
              ],
              [
                105.857188,
                20.724807
              ],
              [
                105.856725,
                20.724217
              ],
              [
                105.856616,
                20.724085
              ],
              [
                105.856431,
                20.723861
              ],
              [
                105.856266,
                20.723625
              ],
              [
                105.856248,
                20.723601
              ],
              [
                105.855845,
                20.723074
              ],
              [
                105.855843,
                20.723071
              ],
              [
                105.855732,
                20.722926
              ],
              [
                105.855221,
                20.722256
              ],
              [
                105.855153,
                20.722167
              ],
              [
                105.855129,
                20.722135
              ],
              [
                105.855127,
                20.722136
              ],
              [
                105.854879,
                20.721819
              ],
              [
                105.855227,
                20.721343
              ],
              [
                105.855269,
                20.721287
              ],
              [
                105.855514,
                20.720952
              ],
              [
                105.855606,
                20.720924
              ],
              [
                105.856195,
                20.72061
              ],
              [
                105.856648,
                20.720392
              ],
              [
                105.85739,
                20.719986
              ],
              [
                105.858918,
                20.719188
              ],
              [
                105.85912,
                20.719146
              ],
              [
                105.858895,
                20.718715
              ],
              [
                105.858526,
                20.718087
              ],
              [
                105.858039,
                20.717226
              ],
              [
                105.858066,
                20.717195
              ],
              [
                105.858478,
                20.716755
              ],
              [
                105.858828,
                20.7164
              ],
              [
                105.859421,
                20.717353
              ],
              [
                105.859833,
                20.718023
              ],
              [
                105.859907,
                20.718189
              ],
              [
                105.85997,
                20.718351
              ],
              [
                105.860033,
                20.718459
              ],
              [
                105.860049,
                20.718488
              ],
              [
                105.860096,
                20.718507
              ],
              [
                105.860195,
                20.718507
              ],
              [
                105.8602,
                20.718526
              ],
              [
                105.860195,
                20.717999
              ],
              [
                105.860188,
                20.717794
              ],
              [
                105.860156,
                20.71692
              ],
              [
                105.860053,
                20.715017
              ],
              [
                105.860109,
                20.714976
              ],
              [
                105.860301,
                20.714927
              ],
              [
                105.860775,
                20.714822
              ],
              [
                105.861726,
                20.71461
              ],
              [
                105.862185,
                20.714499
              ],
              [
                105.863104,
                20.714297
              ],
              [
                105.863727,
                20.714159
              ],
              [
                105.863754,
                20.714139
              ],
              [
                105.863812,
                20.714117
              ],
              [
                105.863804,
                20.714082
              ],
              [
                105.863812,
                20.714036
              ],
              [
                105.863821,
                20.714025
              ],
              [
                105.863858,
                20.713985
              ],
              [
                105.86447,
                20.713297
              ],
              [
                105.865413,
                20.712249
              ],
              [
                105.866502,
                20.710962
              ],
              [
                105.867477,
                20.709879
              ],
              [
                105.867547,
                20.709849
              ],
              [
                105.867672,
                20.709832
              ],
              [
                105.867705,
                20.709815
              ],
              [
                105.868086,
                20.709617
              ],
              [
                105.868472,
                20.709442
              ],
              [
                105.86929,
                20.709241
              ],
              [
                105.869913,
                20.709238
              ],
              [
                105.870351,
                20.709247
              ],
              [
                105.870868,
                20.709324
              ],
              [
                105.871005,
                20.70935
              ],
              [
                105.871672,
                20.709523
              ],
              [
                105.872588,
                20.709748
              ],
              [
                105.873534,
                20.71003
              ],
              [
                105.872741,
                20.708179
              ],
              [
                105.87221,
                20.707116
              ],
              [
                105.872183,
                20.707061
              ],
              [
                105.872641,
                20.706816
              ],
              [
                105.872465,
                20.706531
              ],
              [
                105.872355,
                20.706353
              ],
              [
                105.872053,
                20.705869
              ],
              [
                105.874218,
                20.704784
              ],
              [
                105.874455,
                20.70467
              ],
              [
                105.87459,
                20.704956
              ],
              [
                105.87469,
                20.704923
              ],
              [
                105.874832,
                20.704987
              ],
              [
                105.875482,
                20.704706
              ],
              [
                105.87526,
                20.704284
              ],
              [
                105.87741,
                20.703219
              ],
              [
                105.876933,
                20.702467
              ],
              [
                105.877187,
                20.702328
              ],
              [
                105.878067,
                20.701819
              ],
              [
                105.878272,
                20.701702
              ],
              [
                105.879087,
                20.70125
              ],
              [
                105.87974,
                20.700888
              ],
              [
                105.879966,
                20.700763
              ],
              [
                105.879997,
                20.700745
              ],
              [
                105.880377,
                20.700528
              ],
              [
                105.881012,
                20.700165
              ],
              [
                105.881212,
                20.700051
              ],
              [
                105.882117,
                20.699533
              ],
              [
                105.882888,
                20.699093
              ],
              [
                105.883132,
                20.698954
              ],
              [
                105.883172,
                20.698931
              ],
              [
                105.883672,
                20.698645
              ],
              [
                105.884467,
                20.698191
              ],
              [
                105.885179,
                20.697782
              ],
              [
                105.885582,
                20.69755
              ],
              [
                105.88586,
                20.69739
              ],
              [
                105.886383,
                20.697094
              ],
              [
                105.887452,
                20.696482
              ],
              [
                105.887485,
                20.696463
              ],
              [
                105.88748,
                20.696428
              ],
              [
                105.887374,
                20.696216
              ],
              [
                105.887258,
                20.695995
              ],
              [
                105.88725,
                20.695974
              ],
              [
                105.887219,
                20.695919
              ],
              [
                105.887197,
                20.69588
              ],
              [
                105.887571,
                20.695752
              ],
              [
                105.887675,
                20.695719
              ],
              [
                105.887724,
                20.695663
              ],
              [
                105.887795,
                20.695415
              ],
              [
                105.888056,
                20.694481
              ],
              [
                105.888176,
                20.694077
              ],
              [
                105.888222,
                20.693888
              ],
              [
                105.88834,
                20.693485
              ],
              [
                105.888409,
                20.69332
              ],
              [
                105.888443,
                20.693292
              ],
              [
                105.888517,
                20.693276
              ],
              [
                105.888883,
                20.693227
              ],
              [
                105.88904,
                20.693172
              ],
              [
                105.889085,
                20.693077
              ],
              [
                105.889124,
                20.692722
              ],
              [
                105.88912,
                20.692668
              ],
              [
                105.889106,
                20.692463
              ],
              [
                105.889122,
                20.692358
              ],
              [
                105.889123,
                20.692347
              ],
              [
                105.889184,
                20.692247
              ],
              [
                105.889227,
                20.692175
              ],
              [
                105.889249,
                20.692141
              ],
              [
                105.889595,
                20.692347
              ],
              [
                105.889824,
                20.692515
              ],
              [
                105.889967,
                20.692626
              ],
              [
                105.890039,
                20.692687
              ],
              [
                105.890065,
                20.692707
              ],
              [
                105.890198,
                20.692813
              ],
              [
                105.890245,
                20.692851
              ],
              [
                105.890388,
                20.692956
              ],
              [
                105.890389,
                20.692957
              ],
              [
                105.890548,
                20.693062
              ],
              [
                105.890724,
                20.693147
              ],
              [
                105.890732,
                20.693151
              ],
              [
                105.890851,
                20.693205
              ],
              [
                105.890921,
                20.693236
              ],
              [
                105.891203,
                20.693362
              ],
              [
                105.891426,
                20.693459
              ],
              [
                105.891708,
                20.692903
              ],
              [
                105.891832,
                20.692767
              ],
              [
                105.891952,
                20.692558
              ],
              [
                105.892047,
                20.692393
              ],
              [
                105.892062,
                20.692368
              ],
              [
                105.891433,
                20.692551
              ],
              [
                105.89112,
                20.692386
              ],
              [
                105.890905,
                20.692235
              ],
              [
                105.890839,
                20.692111
              ],
              [
                105.890813,
                20.691967
              ],
              [
                105.890791,
                20.691838
              ],
              [
                105.890699,
                20.69171
              ],
              [
                105.890577,
                20.691648
              ],
              [
                105.890414,
                20.69163
              ],
              [
                105.890054,
                20.691599
              ],
              [
                105.889657,
                20.691505
              ],
              [
                105.889351,
                20.691358
              ],
              [
                105.889069,
                20.691201
              ],
              [
                105.888814,
                20.691071
              ],
              [
                105.888395,
                20.690965
              ],
              [
                105.887816,
                20.690873
              ],
              [
                105.887442,
                20.690869
              ],
              [
                105.887137,
                20.690811
              ],
              [
                105.886889,
                20.6908
              ],
              [
                105.886712,
                20.690914
              ],
              [
                105.886187,
                20.691371
              ],
              [
                105.886122,
                20.691422
              ],
              [
                105.886081,
                20.691351
              ],
              [
                105.885939,
                20.691143
              ],
              [
                105.885437,
                20.690433
              ],
              [
                105.885427,
                20.690362
              ],
              [
                105.885426,
                20.690257
              ],
              [
                105.885251,
                20.689973
              ],
              [
                105.885221,
                20.689995
              ],
              [
                105.88476,
                20.689337
              ],
              [
                105.884521,
                20.688739
              ],
              [
                105.884417,
                20.688443
              ],
              [
                105.884308,
                20.688449
              ],
              [
                105.884254,
                20.687654
              ],
              [
                105.884244,
                20.687519
              ],
              [
                105.884135,
                20.68574
              ],
              [
                105.884046,
                20.685736
              ],
              [
                105.884033,
                20.685733
              ],
              [
                105.884004,
                20.685728
              ],
              [
                105.883997,
                20.685727
              ],
              [
                105.883976,
                20.685723
              ],
              [
                105.883946,
                20.685717
              ],
              [
                105.88391,
                20.68571
              ],
              [
                105.883827,
                20.685695
              ],
              [
                105.883724,
                20.685676
              ],
              [
                105.883651,
                20.685664
              ],
              [
                105.883484,
                20.685635
              ],
              [
                105.883403,
                20.685622
              ],
              [
                105.883317,
                20.685607
              ],
              [
                105.883249,
                20.685596
              ],
              [
                105.883162,
                20.685583
              ],
              [
                105.883069,
                20.685568
              ],
              [
                105.88297,
                20.68555
              ],
              [
                105.882881,
                20.685533
              ],
              [
                105.882739,
                20.685507
              ],
              [
                105.88265,
                20.685495
              ],
              [
                105.882562,
                20.685479
              ],
              [
                105.882543,
                20.685475
              ],
              [
                105.882434,
                20.685461
              ],
              [
                105.88237,
                20.685423
              ],
              [
                105.882376,
                20.685376
              ],
              [
                105.882376,
                20.685374
              ],
              [
                105.882449,
                20.684838
              ],
              [
                105.882471,
                20.684672
              ],
              [
                105.882532,
                20.684219
              ],
              [
                105.882559,
                20.684023
              ],
              [
                105.882597,
                20.683741
              ],
              [
                105.882614,
                20.683617
              ],
              [
                105.882645,
                20.683396
              ],
              [
                105.882675,
                20.683179
              ],
              [
                105.882694,
                20.683046
              ],
              [
                105.882698,
                20.683014
              ],
              [
                105.882735,
                20.682753
              ],
              [
                105.882758,
                20.682586
              ],
              [
                105.882781,
                20.682427
              ],
              [
                105.882805,
                20.682263
              ],
              [
                105.882805,
                20.682232
              ],
              [
                105.882805,
                20.682205
              ],
              [
                105.882804,
                20.682115
              ],
              [
                105.882807,
                20.682095
              ],
              [
                105.882864,
                20.681708
              ],
              [
                105.88291,
                20.681402
              ],
              [
                105.882913,
                20.681372
              ],
              [
                105.882938,
                20.681165
              ],
              [
                105.882982,
                20.680801
              ],
              [
                105.88301,
                20.6806
              ],
              [
                105.883017,
                20.680552
              ],
              [
                105.883073,
                20.680146
              ],
              [
                105.883101,
                20.679945
              ],
              [
                105.883119,
                20.679798
              ],
              [
                105.883139,
                20.679638
              ],
              [
                105.883179,
                20.679379
              ],
              [
                105.883191,
                20.679301
              ],
              [
                105.883243,
                20.67896
              ],
              [
                105.883269,
                20.678765
              ],
              [
                105.883282,
                20.678654
              ],
              [
                105.883304,
                20.678467
              ],
              [
                105.883304,
                20.678467
              ],
              [
                105.883333,
                20.678203
              ],
              [
                105.883339,
                20.67815
              ],
              [
                105.883343,
                20.67811
              ],
              [
                105.883348,
                20.678072
              ],
              [
                105.883363,
                20.677938
              ],
              [
                105.883433,
                20.677945
              ],
              [
                105.884864,
                20.678745
              ],
              [
                105.885394,
                20.679048
              ],
              [
                105.885478,
                20.679066
              ],
              [
                105.885486,
                20.679067
              ],
              [
                105.88553,
                20.679067
              ],
              [
                105.885624,
                20.678591
              ],
              [
                105.885678,
                20.678295
              ],
              [
                105.885746,
                20.677883
              ],
              [
                105.886176,
                20.675726
              ],
              [
                105.886225,
                20.675715
              ],
              [
                105.887071,
                20.675962
              ],
              [
                105.888475,
                20.676378
              ],
              [
                105.889298,
                20.676849
              ],
              [
                105.889449,
                20.676927
              ],
              [
                105.891278,
                20.677955
              ],
              [
                105.892876,
                20.678866
              ],
              [
                105.892902,
                20.67888
              ],
              [
                105.893294,
                20.679097
              ],
              [
                105.893383,
                20.679132
              ],
              [
                105.893485,
                20.679161
              ],
              [
                105.893544,
                20.679234
              ],
              [
                105.893596,
                20.679446
              ],
              [
                105.893827,
                20.679744
              ],
              [
                105.894063,
                20.679999
              ],
              [
                105.894305,
                20.680111
              ],
              [
                105.894373,
                20.680164
              ],
              [
                105.894413,
                20.680184
              ],
              [
                105.894532,
                20.68021
              ],
              [
                105.894592,
                20.679948
              ],
              [
                105.894617,
                20.679799
              ],
              [
                105.894634,
                20.67966
              ],
              [
                105.89464,
                20.679373
              ],
              [
                105.894657,
                20.679095
              ],
              [
                105.894712,
                20.678396
              ],
              [
                105.894731,
                20.678183
              ],
              [
                105.894752,
                20.677987
              ],
              [
                105.894781,
                20.67776
              ],
              [
                105.894858,
                20.677153
              ],
              [
                105.894888,
                20.676949
              ],
              [
                105.895015,
                20.676025
              ],
              [
                105.895029,
                20.675918
              ],
              [
                105.895132,
                20.675261
              ],
              [
                105.895642,
                20.675069
              ],
              [
                105.895934,
                20.674955
              ],
              [
                105.896188,
                20.674857
              ],
              [
                105.896647,
                20.67465
              ],
              [
                105.896759,
                20.674604
              ],
              [
                105.897005,
                20.674435
              ],
              [
                105.897269,
                20.674307
              ],
              [
                105.897998,
                20.673952
              ],
              [
                105.899606,
                20.673199
              ],
              [
                105.900195,
                20.672946
              ],
              [
                105.900732,
                20.672714
              ],
              [
                105.90151,
                20.672358
              ],
              [
                105.902223,
                20.671911
              ],
              [
                105.903397,
                20.671212
              ],
              [
                105.90412,
                20.670755
              ],
              [
                105.904565,
                20.670345
              ],
              [
                105.904801,
                20.66992
              ],
              [
                105.904974,
                20.669532
              ],
              [
                105.90521,
                20.669026
              ],
              [
                105.905493,
                20.66842
              ],
              [
                105.905498,
                20.668409
              ],
              [
                105.905451,
                20.668253
              ],
              [
                105.905466,
                20.667603
              ],
              [
                105.905481,
                20.667016
              ],
              [
                105.905532,
                20.666496
              ],
              [
                105.905561,
                20.666153
              ],
              [
                105.905627,
                20.665223
              ],
              [
                105.90564,
                20.664663
              ],
              [
                105.904803,
                20.664625
              ],
              [
                105.903898,
                20.664575
              ],
              [
                105.903238,
                20.664538
              ],
              [
                105.903216,
                20.664536
              ],
              [
                105.902442,
                20.665195
              ],
              [
                105.901877,
                20.665677
              ],
              [
                105.901483,
                20.666031
              ],
              [
                105.900954,
                20.666506
              ],
              [
                105.900493,
                20.666886
              ],
              [
                105.900289,
                20.667054
              ],
              [
                105.899976,
                20.667278
              ],
              [
                105.899659,
                20.667465
              ],
              [
                105.898952,
                20.66815
              ],
              [
                105.898931,
                20.668166
              ],
              [
                105.898642,
                20.66839
              ],
              [
                105.898304,
                20.668526
              ],
              [
                105.89796,
                20.668664
              ],
              [
                105.897781,
                20.668735
              ],
              [
                105.897683,
                20.668747
              ],
              [
                105.89735,
                20.668785
              ],
              [
                105.897019,
                20.668823
              ],
              [
                105.896458,
                20.668822
              ],
              [
                105.896117,
                20.668822
              ],
              [
                105.896016,
                20.668363
              ],
              [
                105.895981,
                20.668105
              ],
              [
                105.895928,
                20.667702
              ],
              [
                105.895894,
                20.667023
              ],
              [
                105.895884,
                20.666959
              ],
              [
                105.895839,
                20.66607
              ],
              [
                105.895899,
                20.665189
              ],
              [
                105.89591,
                20.665073
              ],
              [
                105.895937,
                20.664625
              ],
              [
                105.895937,
                20.664625
              ],
              [
                105.895937,
                20.664625
              ],
              [
                105.89594,
                20.664545
              ],
              [
                105.896131,
                20.660376
              ],
              [
                105.896164,
                20.658421
              ],
              [
                105.896164,
                20.658324
              ],
              [
                105.89618,
                20.657314
              ],
              [
                105.896205,
                20.655789
              ],
              [
                105.896213,
                20.6557
              ],
              [
                105.896214,
                20.6556
              ],
              [
                105.896221,
                20.655388
              ],
              [
                105.896221,
                20.655256
              ],
              [
                105.896245,
                20.653877
              ],
              [
                105.896302,
                20.653379
              ],
              [
                105.896304,
                20.653301
              ],
              [
                105.896446,
                20.65206
              ],
              [
                105.896478,
                20.651774
              ],
              [
                105.896473,
                20.651766
              ],
              [
                105.896458,
                20.651745
              ],
              [
                105.896382,
                20.651697
              ],
              [
                105.896373,
                20.651693
              ],
              [
                105.896371,
                20.651692
              ],
              [
                105.896353,
                20.651682
              ],
              [
                105.89635,
                20.651681
              ],
              [
                105.896349,
                20.65168
              ],
              [
                105.896064,
                20.651617
              ],
              [
                105.895886,
                20.651588
              ],
              [
                105.895772,
                20.65157
              ],
              [
                105.895753,
                20.651563
              ],
              [
                105.895589,
                20.651505
              ],
              [
                105.895462,
                20.651385
              ],
              [
                105.895116,
                20.651006
              ],
              [
                105.894666,
                20.650591
              ],
              [
                105.894016,
                20.650049
              ],
              [
                105.893211,
                20.649467
              ],
              [
                105.892634,
                20.649048
              ],
              [
                105.892381,
                20.648813
              ],
              [
                105.892005,
                20.648515
              ],
              [
                105.891409,
                20.648232
              ],
              [
                105.890584,
                20.647839
              ],
              [
                105.889639,
                20.64737
              ],
              [
                105.888727,
                20.646942
              ],
              [
                105.888403,
                20.646798
              ],
              [
                105.887227,
                20.646225
              ],
              [
                105.887006,
                20.646115
              ],
              [
                105.886618,
                20.645912
              ],
              [
                105.885294,
                20.645247
              ],
              [
                105.884938,
                20.645045
              ],
              [
                105.88365,
                20.644468
              ],
              [
                105.882392,
                20.643975
              ],
              [
                105.880626,
                20.643407
              ],
              [
                105.879738,
                20.64322
              ],
              [
                105.879413,
                20.643192
              ],
              [
                105.878999,
                20.643165
              ],
              [
                105.878591,
                20.643138
              ],
              [
                105.878304,
                20.643117
              ],
              [
                105.878104,
                20.643112
              ],
              [
                105.878019,
                20.64311
              ],
              [
                105.877905,
                20.643107
              ],
              [
                105.877329,
                20.643148
              ],
              [
                105.877207,
                20.643144
              ],
              [
                105.876873,
                20.643131
              ],
              [
                105.876871,
                20.643131
              ],
              [
                105.875913,
                20.643173
              ],
              [
                105.874973,
                20.643323
              ],
              [
                105.87449,
                20.643393
              ],
              [
                105.874235,
                20.64343
              ],
              [
                105.873266,
                20.643613
              ],
              [
                105.872889,
                20.643684
              ],
              [
                105.872553,
                20.643782
              ],
              [
                105.871807,
                20.644001
              ],
              [
                105.870849,
                20.644364
              ],
              [
                105.86986,
                20.644691
              ],
              [
                105.868912,
                20.645016
              ],
              [
                105.868902,
                20.645019
              ],
              [
                105.868259,
                20.645212
              ],
              [
                105.867929,
                20.645311
              ],
              [
                105.867378,
                20.64541
              ],
              [
                105.867161,
                20.64543
              ],
              [
                105.866626,
                20.645479
              ],
              [
                105.866267,
                20.645501
              ],
              [
                105.865936,
                20.64552
              ],
              [
                105.865806,
                20.645509
              ],
              [
                105.864676,
                20.645442
              ],
              [
                105.863951,
                20.645364
              ],
              [
                105.863702,
                20.645337
              ],
              [
                105.86343,
                20.645307
              ],
              [
                105.863281,
                20.645298
              ],
              [
                105.863217,
                20.645287
              ],
              [
                105.8632,
                20.645284
              ],
              [
                105.863083,
                20.645264
              ],
              [
                105.862277,
                20.645053
              ],
              [
                105.861549,
                20.644862
              ],
              [
                105.860406,
                20.644732
              ],
              [
                105.860038,
                20.644709
              ],
              [
                105.859773,
                20.644692
              ],
              [
                105.859258,
                20.64466
              ],
              [
                105.858986,
                20.64469
              ],
              [
                105.858608,
                20.644731
              ],
              [
                105.857843,
                20.644864
              ],
              [
                105.857498,
                20.644936
              ],
              [
                105.856984,
                20.645081
              ],
              [
                105.856938,
                20.645093
              ],
              [
                105.856856,
                20.645126
              ],
              [
                105.856674,
                20.645199
              ],
              [
                105.856613,
                20.645223
              ],
              [
                105.856528,
                20.645266
              ],
              [
                105.856351,
                20.645354
              ],
              [
                105.855612,
                20.645747
              ],
              [
                105.855551,
                20.645779
              ],
              [
                105.85552,
                20.645801
              ],
              [
                105.855409,
                20.645879
              ],
              [
                105.855105,
                20.646092
              ],
              [
                105.854843,
                20.646321
              ],
              [
                105.854706,
                20.64644
              ],
              [
                105.854568,
                20.646541
              ],
              [
                105.853948,
                20.647107
              ],
              [
                105.853697,
                20.647321
              ],
              [
                105.853619,
                20.647388
              ],
              [
                105.852822,
                20.648146
              ],
              [
                105.852192,
                20.648938
              ],
              [
                105.8517,
                20.649544
              ],
              [
                105.850944,
                20.650539
              ],
              [
                105.849474,
                20.652761
              ],
              [
                105.849368,
                20.652926
              ],
              [
                105.849349,
                20.652959
              ],
              [
                105.849317,
                20.653013
              ],
              [
                105.849192,
                20.653218
              ],
              [
                105.849185,
                20.653228
              ],
              [
                105.849089,
                20.653142
              ],
              [
                105.848987,
                20.653051
              ],
              [
                105.848488,
                20.652606
              ],
              [
                105.848345,
                20.652473
              ],
              [
                105.847766,
                20.652922
              ],
              [
                105.847151,
                20.653379
              ],
              [
                105.846701,
                20.653716
              ],
              [
                105.846544,
                20.653843
              ],
              [
                105.845976,
                20.654248
              ],
              [
                105.845138,
                20.654727
              ],
              [
                105.844911,
                20.654874
              ],
              [
                105.844648,
                20.655045
              ],
              [
                105.844587,
                20.655085
              ],
              [
                105.844487,
                20.655156
              ],
              [
                105.843845,
                20.655626
              ],
              [
                105.843464,
                20.655905
              ],
              [
                105.843332,
                20.656
              ],
              [
                105.843215,
                20.656083
              ],
              [
                105.843081,
                20.656182
              ],
              [
                105.842982,
                20.656004
              ],
              [
                105.842977,
                20.656006
              ],
              [
                105.840225,
                20.657177
              ],
              [
                105.840222,
                20.657179
              ],
              [
                105.840289,
                20.657376
              ],
              [
                105.840349,
                20.657579
              ],
              [
                105.840504,
                20.658102
              ],
              [
                105.840629,
                20.658464
              ],
              [
                105.840384,
                20.65853
              ],
              [
                105.840375,
                20.658533
              ],
              [
                105.840499,
                20.659018
              ],
              [
                105.839454,
                20.659367
              ],
              [
                105.839589,
                20.65972
              ],
              [
                105.83951,
                20.659759
              ],
              [
                105.837882,
                20.660356
              ],
              [
                105.837807,
                20.660384
              ],
              [
                105.837633,
                20.660447
              ],
              [
                105.837231,
                20.66059
              ],
              [
                105.836751,
                20.66076
              ],
              [
                105.836327,
                20.66091
              ],
              [
                105.835665,
                20.661126
              ],
              [
                105.83525,
                20.661261
              ],
              [
                105.83383,
                20.661724
              ],
              [
                105.833826,
                20.661726
              ],
              [
                105.833804,
                20.661687
              ],
              [
                105.833794,
                20.661658
              ],
              [
                105.833771,
                20.661607
              ],
              [
                105.833692,
                20.66143
              ],
              [
                105.83369,
                20.661425
              ],
              [
                105.83367,
                20.661381
              ],
              [
                105.833578,
                20.661182
              ],
              [
                105.833467,
                20.660936
              ],
              [
                105.833359,
                20.660684
              ],
              [
                105.83331,
                20.660559
              ],
              [
                105.83202,
                20.661139
              ],
              [
                105.831941,
                20.661139
              ],
              [
                105.831648,
                20.66122
              ],
              [
                105.831379,
                20.661387
              ],
              [
                105.831172,
                20.661514
              ],
              [
                105.831305,
                20.662241
              ],
              [
                105.830472,
                20.662481
              ],
              [
                105.829105,
                20.662843
              ],
              [
                105.828754,
                20.66294
              ],
              [
                105.828755,
                20.66297
              ],
              [
                105.828755,
                20.662995
              ],
              [
                105.828783,
                20.663135
              ],
              [
                105.828825,
                20.663352
              ],
              [
                105.828825,
                20.66339
              ],
              [
                105.828843,
                20.66343
              ],
              [
                105.828942,
                20.663643
              ],
              [
                105.826867,
                20.664717
              ],
              [
                105.826978,
                20.664883
              ],
              [
                105.826295,
                20.665246
              ],
              [
                105.826359,
                20.665376
              ],
              [
                105.825742,
                20.665698
              ],
              [
                105.825224,
                20.66601
              ],
              [
                105.825465,
                20.666405
              ],
              [
                105.825473,
                20.666397
              ],
              [
                105.825513,
                20.666375
              ],
              [
                105.825525,
                20.666395
              ],
              [
                105.825553,
                20.666637
              ],
              [
                105.825556,
                20.666754
              ],
              [
                105.825557,
                20.666798
              ],
              [
                105.825565,
                20.666917
              ],
              [
                105.825571,
                20.667022
              ],
              [
                105.825644,
                20.667151
              ],
              [
                105.825606,
                20.667198
              ],
              [
                105.825475,
                20.667726
              ],
              [
                105.825278,
                20.668551
              ],
              [
                105.825129,
                20.669158
              ],
              [
                105.825091,
                20.669237
              ],
              [
                105.825192,
                20.669247
              ],
              [
                105.825101,
                20.6696
              ],
              [
                105.825061,
                20.669746
              ],
              [
                105.825009,
                20.669937
              ],
              [
                105.824915,
                20.670246
              ],
              [
                105.824821,
                20.670624
              ],
              [
                105.824733,
                20.671001
              ],
              [
                105.824636,
                20.671372
              ],
              [
                105.82454,
                20.671739
              ],
              [
                105.82445,
                20.672012
              ],
              [
                105.824416,
                20.672079
              ],
              [
                105.824411,
                20.672141
              ],
              [
                105.824333,
                20.672126
              ],
              [
                105.824324,
                20.672217
              ],
              [
                105.823979,
                20.673638
              ],
              [
                105.823541,
                20.675313
              ],
              [
                105.822659,
                20.678945
              ],
              [
                105.822644,
                20.679024
              ],
              [
                105.822628,
                20.679065
              ],
              [
                105.822514,
                20.679321
              ],
              [
                105.822278,
                20.679299
              ],
              [
                105.81982,
                20.678946
              ],
              [
                105.819766,
                20.67914
              ],
              [
                105.819642,
                20.679589
              ],
              [
                105.818432,
                20.679339
              ],
              [
                105.818195,
                20.679299
              ],
              [
                105.817745,
                20.679238
              ],
              [
                105.817086,
                20.679009
              ],
              [
                105.817025,
                20.678965
              ],
              [
                105.816928,
                20.678907
              ],
              [
                105.816904,
                20.678893
              ],
              [
                105.816889,
                20.678893
              ],
              [
                105.816875,
                20.678893
              ],
              [
                105.816848,
                20.678892
              ],
              [
                105.816827,
                20.678877
              ],
              [
                105.8168,
                20.678849
              ],
              [
                105.816783,
                20.678823
              ],
              [
                105.816785,
                20.678799
              ],
              [
                105.816563,
                20.678715
              ],
              [
                105.815918,
                20.678469
              ],
              [
                105.815233,
                20.67822
              ],
              [
                105.814747,
                20.678051
              ],
              [
                105.814936,
                20.677514
              ],
              [
                105.814962,
                20.677456
              ],
              [
                105.814446,
                20.677077
              ],
              [
                105.813965,
                20.676735
              ],
              [
                105.813299,
                20.676269
              ],
              [
                105.812722,
                20.675863
              ],
              [
                105.81106,
                20.674697
              ],
              [
                105.810307,
                20.67415
              ],
              [
                105.809714,
                20.673719
              ],
              [
                105.809585,
                20.673626
              ],
              [
                105.808364,
                20.672756
              ],
              [
                105.807432,
                20.672093
              ],
              [
                105.80727,
                20.671977
              ],
              [
                105.806713,
                20.671567
              ],
              [
                105.806019,
                20.671091
              ],
              [
                105.805445,
                20.670688
              ],
              [
                105.805376,
                20.67064
              ],
              [
                105.80473,
                20.671317
              ],
              [
                105.804666,
                20.671392
              ],
              [
                105.8046,
                20.671464
              ],
              [
                105.803257,
                20.672924
              ],
              [
                105.802721,
                20.67348
              ],
              [
                105.80257,
                20.673637
              ],
              [
                105.800972,
                20.675328
              ],
              [
                105.800466,
                20.675841
              ],
              [
                105.800106,
                20.67622
              ],
              [
                105.799484,
                20.676916
              ],
              [
                105.799207,
                20.676718
              ],
              [
                105.798931,
                20.67652
              ],
              [
                105.798895,
                20.676494
              ],
              [
                105.798641,
                20.676312
              ],
              [
                105.798191,
                20.675982
              ],
              [
                105.797837,
                20.675722
              ],
              [
                105.797509,
                20.675481
              ],
              [
                105.797386,
                20.675399
              ],
              [
                105.797321,
                20.675356
              ],
              [
                105.797254,
                20.675435
              ],
              [
                105.796906,
                20.675751
              ],
              [
                105.797004,
                20.675823
              ],
              [
                105.797647,
                20.676363
              ],
              [
                105.798228,
                20.676812
              ],
              [
                105.798431,
                20.677033
              ],
              [
                105.800047,
                20.678291
              ],
              [
                105.800115,
                20.678345
              ],
              [
                105.799364,
                20.679217
              ],
              [
                105.79934,
                20.679247
              ],
              [
                105.799015,
                20.679648
              ],
              [
                105.798891,
                20.679801
              ],
              [
                105.798347,
                20.680422
              ],
              [
                105.797953,
                20.680893
              ],
              [
                105.797165,
                20.681842
              ],
              [
                105.797097,
                20.681786
              ],
              [
                105.796839,
                20.681574
              ],
              [
                105.796464,
                20.681265
              ],
              [
                105.796432,
                20.68131
              ],
              [
                105.795881,
                20.681947
              ],
              [
                105.795392,
                20.682642
              ],
              [
                105.794466,
                20.68393
              ],
              [
                105.794176,
                20.684296
              ],
              [
                105.794169,
                20.684305
              ],
              [
                105.795217,
                20.685076
              ],
              [
                105.795564,
                20.685333
              ],
              [
                105.795308,
                20.685626
              ],
              [
                105.794844,
                20.686123
              ],
              [
                105.794281,
                20.68673
              ],
              [
                105.793661,
                20.687337
              ],
              [
                105.793319,
                20.687706
              ],
              [
                105.792614,
                20.688471
              ],
              [
                105.792186,
                20.688925
              ],
              [
                105.791993,
                20.689129
              ],
              [
                105.791816,
                20.689318
              ],
              [
                105.791573,
                20.689576
              ],
              [
                105.791564,
                20.689585
              ],
              [
                105.791472,
                20.68967
              ],
              [
                105.79109,
                20.690123
              ],
              [
                105.79251,
                20.690974
              ],
              [
                105.793127,
                20.691372
              ],
              [
                105.793177,
                20.691491
              ],
              [
                105.792749,
                20.691653
              ],
              [
                105.792289,
                20.691621
              ],
              [
                105.792199,
                20.691884
              ],
              [
                105.791999,
                20.692177
              ],
              [
                105.791685,
                20.692639
              ],
              [
                105.790861,
                20.693795
              ],
              [
                105.790684,
                20.694041
              ],
              [
                105.79048,
                20.69507
              ],
              [
                105.791267,
                20.695481
              ],
              [
                105.792136,
                20.695855
              ],
              [
                105.792537,
                20.696033
              ],
              [
                105.792938,
                20.69621
              ],
              [
                105.793247,
                20.69635
              ],
              [
                105.793389,
                20.696405
              ],
              [
                105.793296,
                20.696714
              ],
              [
                105.793257,
                20.69684
              ],
              [
                105.793455,
                20.696917
              ],
              [
                105.794632,
                20.697369
              ],
              [
                105.794781,
                20.697127
              ],
              [
                105.794864,
                20.697012
              ],
              [
                105.795847,
                20.695787
              ],
              [
                105.796384,
                20.69509
              ],
              [
                105.796667,
                20.694721
              ],
              [
                105.796702,
                20.694747
              ],
              [
                105.797161,
                20.695068
              ],
              [
                105.797477,
                20.695277
              ],
              [
                105.797948,
                20.695528
              ],
              [
                105.798856,
                20.694533
              ],
              [
                105.799238,
                20.69481
              ],
              [
                105.799659,
                20.695088
              ],
              [
                105.800061,
                20.695384
              ],
              [
                105.800472,
                20.695627
              ],
              [
                105.800531,
                20.695649
              ],
              [
                105.800883,
                20.694859
              ],
              [
                105.800946,
                20.694895
              ],
              [
                105.801037,
                20.694947
              ],
              [
                105.801506,
                20.695209
              ],
              [
                105.801801,
                20.695373
              ],
              [
                105.802208,
                20.6956
              ],
              [
                105.802469,
                20.695746
              ],
              [
                105.802566,
                20.6958
              ],
              [
                105.802829,
                20.695947
              ],
              [
                105.802985,
                20.696034
              ],
              [
                105.802999,
                20.696045
              ],
              [
                105.802955,
                20.69612
              ],
              [
                105.801753,
                20.697943
              ],
              [
                105.801702,
                20.698016
              ],
              [
                105.802425,
                20.698415
              ],
              [
                105.803489,
                20.698995
              ],
              [
                105.803677,
                20.699097
              ],
              [
                105.805514,
                20.700098
              ],
              [
                105.806995,
                20.700898
              ],
              [
                105.806759,
                20.701209
              ],
              [
                105.806111,
                20.702114
              ],
              [
                105.805806,
                20.702541
              ],
              [
                105.805247,
                20.703323
              ],
              [
                105.805111,
                20.703514
              ],
              [
                105.805056,
                20.70359
              ],
              [
                105.804659,
                20.704139
              ],
              [
                105.804699,
                20.704166
              ],
              [
                105.806528,
                20.70515
              ],
              [
                105.807005,
                20.705407
              ],
              [
                105.807943,
                20.705892
              ],
              [
                105.808254,
                20.706101
              ],
              [
                105.809141,
                20.706594
              ],
              [
                105.809611,
                20.706824
              ],
              [
                105.810178,
                20.707102
              ],
              [
                105.81103,
                20.707538
              ],
              [
                105.811143,
                20.707619
              ],
              [
                105.811155,
                20.707643
              ],
              [
                105.811201,
                20.707735
              ],
              [
                105.81176,
                20.708833
              ],
              [
                105.812237,
                20.709791
              ],
              [
                105.813069,
                20.711476
              ],
              [
                105.813547,
                20.712513
              ],
              [
                105.813403,
                20.712614
              ],
              [
                105.813545,
                20.713038
              ],
              [
                105.813964,
                20.714183
              ],
              [
                105.81453,
                20.715614
              ],
              [
                105.814594,
                20.715899
              ],
              [
                105.81476,
                20.716011
              ],
              [
                105.815144,
                20.716244
              ],
              [
                105.815309,
                20.716332
              ],
              [
                105.81535,
                20.716422
              ],
              [
                105.815323,
                20.716448
              ],
              [
                105.815318,
                20.716452
              ],
              [
                105.81503,
                20.71666
              ],
              [
                105.814975,
                20.7167
              ],
              [
                105.815226,
                20.717256
              ],
              [
                105.815453,
                20.717838
              ],
              [
                105.815746,
                20.718553
              ],
              [
                105.816019,
                20.719226
              ],
              [
                105.816166,
                20.719716
              ],
              [
                105.816231,
                20.719871
              ],
              [
                105.816261,
                20.719945
              ],
              [
                105.816406,
                20.720522
              ],
              [
                105.816422,
                20.720585
              ],
              [
                105.816471,
                20.720795
              ],
              [
                105.816531,
                20.721029
              ],
              [
                105.816557,
                20.721124
              ],
              [
                105.816701,
                20.721701
              ],
              [
                105.816941,
                20.722654
              ],
              [
                105.817014,
                20.722947
              ],
              [
                105.817251,
                20.723743
              ],
              [
                105.817346,
                20.724063
              ],
              [
                105.817346,
                20.724063
              ],
              [
                105.81781,
                20.725621
              ],
              [
                105.818009,
                20.72642
              ],
              [
                105.818314,
                20.727643
              ],
              [
                105.818454,
                20.727699
              ],
              [
                105.818951,
                20.7279
              ],
              [
                105.819187,
                20.727986
              ],
              [
                105.819181,
                20.727994
              ],
              [
                105.81916,
                20.728021
              ],
              [
                105.819138,
                20.728048
              ],
              [
                105.818985,
                20.728291
              ],
              [
                105.818915,
                20.728387
              ],
              [
                105.818671,
                20.728723
              ],
              [
                105.818669,
                20.728729
              ],
              [
                105.818637,
                20.728849
              ],
              [
                105.818992,
                20.729037
              ],
              [
                105.819856,
                20.729495
              ],
              [
                105.820145,
                20.729648
              ],
              [
                105.819828,
                20.730137
              ],
              [
                105.819289,
                20.730991
              ],
              [
                105.818957,
                20.731555
              ],
              [
                105.818958,
                20.731555
              ],
              [
                105.818994,
                20.731581
              ],
              [
                105.819001,
                20.731586
              ],
              [
                105.819038,
                20.731614
              ],
              [
                105.819088,
                20.731651
              ],
              [
                105.819118,
                20.731673
              ],
              [
                105.819182,
                20.73172
              ],
              [
                105.819196,
                20.73173
              ],
              [
                105.819359,
                20.73185
              ],
              [
                105.819384,
                20.731869
              ],
              [
                105.819396,
                20.731877
              ],
              [
                105.819686,
                20.732099
              ],
              [
                105.819691,
                20.732102
              ],
              [
                105.819728,
                20.732132
              ],
              [
                105.819748,
                20.732148
              ],
              [
                105.819765,
                20.732165
              ],
              [
                105.819773,
                20.732173
              ],
              [
                105.819773,
                20.732176
              ],
              [
                105.819775,
                20.732186
              ],
              [
                105.819776,
                20.732199
              ],
              [
                105.819778,
                20.732212
              ],
              [
                105.819778,
                20.732239
              ],
              [
                105.819803,
                20.732242
              ],
              [
                105.819887,
                20.732262
              ],
              [
                105.819898,
                20.732265
              ],
              [
                105.819973,
                20.732296
              ],
              [
                105.820031,
                20.73232
              ],
              [
                105.820174,
                20.732398
              ],
              [
                105.820355,
                20.732496
              ],
              [
                105.820315,
                20.732633
              ],
              [
                105.820212,
                20.732872
              ],
              [
                105.820174,
                20.733063
              ],
              [
                105.820126,
                20.733336
              ],
              [
                105.820066,
                20.733613
              ],
              [
                105.819814,
                20.734049
              ],
              [
                105.819457,
                20.73471
              ],
              [
                105.819485,
                20.734786
              ],
              [
                105.819733,
                20.735097
              ],
              [
                105.818416,
                20.736396
              ],
              [
                105.818339,
                20.736317
              ],
              [
                105.818251,
                20.736391
              ],
              [
                105.817416,
                20.736954
              ],
              [
                105.816425,
                20.737623
              ],
              [
                105.815609,
                20.738174
              ],
              [
                105.815799,
                20.738349
              ],
              [
                105.815616,
                20.738477
              ],
              [
                105.815266,
                20.738709
              ],
              [
                105.815602,
                20.739189
              ],
              [
                105.816034,
                20.739776
              ],
              [
                105.816072,
                20.739823
              ],
              [
                105.816615,
                20.74058
              ],
              [
                105.816786,
                20.740886
              ],
              [
                105.816844,
                20.74099
              ],
              [
                105.818429,
                20.740203
              ],
              [
                105.820289,
                20.73926
              ],
              [
                105.820475,
                20.739165
              ],
              [
                105.82049,
                20.739192
              ],
              [
                105.820548,
                20.739287
              ],
              [
                105.820903,
                20.739863
              ],
              [
                105.820976,
                20.739984
              ],
              [
                105.82103,
                20.740072
              ],
              [
                105.821403,
                20.740685
              ],
              [
                105.821654,
                20.741121
              ],
              [
                105.821887,
                20.741485
              ],
              [
                105.821952,
                20.741586
              ],
              [
                105.822012,
                20.741705
              ],
              [
                105.822561,
                20.741264
              ],
              [
                105.823538,
                20.740481
              ],
              [
                105.824925,
                20.739402
              ],
              [
                105.825221,
                20.739172
              ],
              [
                105.825524,
                20.738913
              ],
              [
                105.825285,
                20.738311
              ],
              [
                105.825173,
                20.738195
              ],
              [
                105.825196,
                20.738142
              ],
              [
                105.825119,
                20.738118
              ],
              [
                105.825106,
                20.738113
              ],
              [
                105.825023,
                20.738059
              ],
              [
                105.824964,
                20.738008
              ],
              [
                105.824844,
                20.737886
              ],
              [
                105.824832,
                20.737871
              ],
              [
                105.824802,
                20.737833
              ],
              [
                105.824842,
                20.737807
              ],
              [
                105.824959,
                20.73773
              ],
              [
                105.825258,
                20.737533
              ],
              [
                105.825581,
                20.737361
              ],
              [
                105.825706,
                20.737301
              ],
              [
                105.825853,
                20.737266
              ],
              [
                105.826075,
                20.737217
              ],
              [
                105.826222,
                20.737144
              ],
              [
                105.826285,
                20.73712
              ],
              [
                105.826336,
                20.737127
              ],
              [
                105.826436,
                20.73718
              ],
              [
                105.826587,
                20.737294
              ],
              [
                105.826826,
                20.737397
              ],
              [
                105.827165,
                20.737572
              ],
              [
                105.827849,
                20.737838
              ],
              [
                105.828247,
                20.737989
              ],
              [
                105.82847,
                20.738074
              ],
              [
                105.829953,
                20.738669
              ],
              [
                105.830255,
                20.7388
              ],
              [
                105.830275,
                20.738809
              ],
              [
                105.830279,
                20.738817
              ],
              [
                105.830293,
                20.738852
              ],
              [
                105.830304,
                20.7389
              ],
              [
                105.830957,
                20.739017
              ],
              [
                105.831929,
                20.739214
              ],
              [
                105.831918,
                20.739269
              ],
              [
                105.83188,
                20.739466
              ],
              [
                105.831871,
                20.7395
              ],
              [
                105.831892,
                20.739507
              ],
              [
                105.832798,
                20.739735
              ],
              [
                105.833286,
                20.739833
              ],
              [
                105.833598,
                20.739905
              ],
              [
                105.83362,
                20.73991
              ],
              [
                105.834091,
                20.740139
              ],
              [
                105.834685,
                20.740234
              ],
              [
                105.834759,
                20.740241
              ],
              [
                105.835522,
                20.740423
              ],
              [
                105.835906,
                20.740541
              ],
              [
                105.836519,
                20.740573
              ],
              [
                105.836694,
                20.740646
              ],
              [
                105.836727,
                20.740659
              ],
              [
                105.836758,
                20.740167
              ],
              [
                105.836757,
                20.739491
              ],
              [
                105.836835,
                20.739501
              ],
              [
                105.836912,
                20.739508
              ],
              [
                105.837197,
                20.739541
              ],
              [
                105.837139,
                20.739881
              ],
              [
                105.837129,
                20.739937
              ],
              [
                105.839733,
                20.740321
              ],
              [
                105.841487,
                20.74059
              ],
              [
                105.841716,
                20.740631
              ],
              [
                105.842703,
                20.740789
              ],
              [
                105.842805,
                20.740814
              ],
              [
                105.842782,
                20.741203
              ],
              [
                105.843985,
                20.741741
              ],
              [
                105.844453,
                20.74135
              ],
              [
                105.844681,
                20.741218
              ],
              [
                105.844888,
                20.741103
              ],
              [
                105.844888,
                20.741103
              ]
            ]
          ]
        ]
      },
      "properties": {
        "code": "10402",
        "name": "Ứng Hoà",
        "nameEn": "Ung Hoa",
        "fullName": "Xã Ứng Hoà",
        "fullNameEn": "Ung Hoa Commune",
        "codeName": "ung_hoa",
        "postalCode": "13837",
        "postalCodePrefix": "",
        "gisServerId": "diaphanhanhchinhcapxa_2025.3211",
        "areaKm2": 67.8
      }
    }
  ]
}