{
  "type": "FeatureCollection",
  "bbox": [
    105.74258,
    20.611816,
    105.834024,
    20.722555
  ],
  "features": [
    {
      "type": "Feature",
      "id": "10417",
      "bbox": [
        105.74258,
        20.611816,
        105.834024,
        20.722555
      ],
      "geometry": {
        "type": "MultiPolygon",
        "coordinates": [
          [
            [
              [
                105.774363,
                20.720586
              ],
              [
                105.775012,
                20.719695
              ],
              [
                105.775239,
                20.719421
              ],
              [
                105.775391,
                20.718969
              ],
              [
                105.775661,
                20.71825
              ],
              [
                105.775759,
                20.717956
              ],
              [
                105.776031,
                20.717482
              ],
              [
                105.776045,
                20.717388
              ],
              [
                105.776079,
                20.717285
              ],
              [
                105.776109,
                20.717208
              ],
              [
                105.775652,
                20.717045
              ],
              [
                105.775259,
                20.716893
              ],
              [
                105.77525,
                20.716813
              ],
              [
                105.775236,
                20.71624
              ],
              [
                105.775145,
                20.713695
              ],
              [
                105.775127,
                20.712109
              ],
              [
                105.775074,
                20.710295
              ],
              [
                105.775018,
                20.707978
              ],
              [
                105.775005,
                20.706537
              ],
              [
                105.775321,
                20.706558
              ],
              [
                105.775873,
                20.706588
              ],
              [
                105.776142,
                20.706599
              ],
              [
                105.776719,
                20.706635
              ],
              [
                105.77701,
                20.706647
              ],
              [
                105.777174,
                20.706658
              ],
              [
                105.777324,
                20.706678
              ],
              [
                105.777362,
                20.706693
              ],
              [
                105.777402,
                20.706616
              ],
              [
                105.7775,
                20.706393
              ],
              [
                105.777779,
                20.705804
              ],
              [
                105.77791,
                20.705514
              ],
              [
                105.778053,
                20.705219
              ],
              [
                105.778294,
                20.704714
              ],
              [
                105.778581,
                20.704106
              ],
              [
                105.778719,
                20.70383
              ],
              [
                105.778915,
                20.703425
              ],
              [
                105.779131,
                20.702985
              ],
              [
                105.779359,
                20.702543
              ],
              [
                105.779467,
                20.702314
              ],
              [
                105.779533,
                20.702176
              ],
              [
                105.779711,
                20.701798
              ],
              [
                105.779773,
                20.701667
              ],
              [
                105.779903,
                20.701398
              ],
              [
                105.780204,
                20.700731
              ],
              [
                105.780305,
                20.700546
              ],
              [
                105.78035,
                20.700474
              ],
              [
                105.780396,
                20.700448
              ],
              [
                105.780449,
                20.700431
              ],
              [
                105.780497,
                20.700411
              ],
              [
                105.780735,
                20.700169
              ],
              [
                105.781265,
                20.699641
              ],
              [
                105.78174,
                20.699168
              ],
              [
                105.781819,
                20.699096
              ],
              [
                105.781872,
                20.699096
              ],
              [
                105.781989,
                20.699131
              ],
              [
                105.782641,
                20.699389
              ],
              [
                105.784031,
                20.699931
              ],
              [
                105.784369,
                20.700057
              ],
              [
                105.784624,
                20.700153
              ],
              [
                105.78487,
                20.700245
              ],
              [
                105.785259,
                20.700398
              ],
              [
                105.785347,
                20.700432
              ],
              [
                105.785689,
                20.700566
              ],
              [
                105.785827,
                20.700621
              ],
              [
                105.786193,
                20.700765
              ],
              [
                105.786288,
                20.700802
              ],
              [
                105.78668,
                20.700956
              ],
              [
                105.787005,
                20.701085
              ],
              [
                105.78736,
                20.701225
              ],
              [
                105.78741,
                20.701245
              ],
              [
                105.787515,
                20.701284
              ],
              [
                105.787608,
                20.701318
              ],
              [
                105.787793,
                20.701388
              ],
              [
                105.788211,
                20.701543
              ],
              [
                105.788297,
                20.701575
              ],
              [
                105.788383,
                20.701607
              ],
              [
                105.78874,
                20.701741
              ],
              [
                105.788943,
                20.701816
              ],
              [
                105.788947,
                20.701818
              ],
              [
                105.789011,
                20.701842
              ],
              [
                105.789214,
                20.701924
              ],
              [
                105.789314,
                20.701964
              ],
              [
                105.789621,
                20.702089
              ],
              [
                105.790202,
                20.702323
              ],
              [
                105.790696,
                20.702523
              ],
              [
                105.79074,
                20.702541
              ],
              [
                105.790806,
                20.702568
              ],
              [
                105.790841,
                20.702541
              ],
              [
                105.791608,
                20.701319
              ],
              [
                105.79193,
                20.700814
              ],
              [
                105.791929,
                20.700813
              ],
              [
                105.791958,
                20.700774
              ],
              [
                105.792057,
                20.700595
              ],
              [
                105.792136,
                20.700394
              ],
              [
                105.792342,
                20.699755
              ],
              [
                105.792634,
                20.698814
              ],
              [
                105.792834,
                20.698198
              ],
              [
                105.793257,
                20.69684
              ],
              [
                105.793296,
                20.696714
              ],
              [
                105.793389,
                20.696405
              ],
              [
                105.793247,
                20.69635
              ],
              [
                105.792938,
                20.69621
              ],
              [
                105.792537,
                20.696033
              ],
              [
                105.792136,
                20.695855
              ],
              [
                105.791267,
                20.695481
              ],
              [
                105.79048,
                20.69507
              ],
              [
                105.790684,
                20.694041
              ],
              [
                105.790861,
                20.693795
              ],
              [
                105.791685,
                20.692639
              ],
              [
                105.791999,
                20.692177
              ],
              [
                105.792199,
                20.691884
              ],
              [
                105.792289,
                20.691621
              ],
              [
                105.792749,
                20.691653
              ],
              [
                105.793177,
                20.691491
              ],
              [
                105.793127,
                20.691372
              ],
              [
                105.79251,
                20.690974
              ],
              [
                105.79109,
                20.690123
              ],
              [
                105.791472,
                20.68967
              ],
              [
                105.791564,
                20.689585
              ],
              [
                105.791573,
                20.689576
              ],
              [
                105.791816,
                20.689318
              ],
              [
                105.791993,
                20.689129
              ],
              [
                105.792186,
                20.688925
              ],
              [
                105.792614,
                20.688471
              ],
              [
                105.793319,
                20.687706
              ],
              [
                105.793661,
                20.687337
              ],
              [
                105.794281,
                20.68673
              ],
              [
                105.794844,
                20.686123
              ],
              [
                105.795308,
                20.685626
              ],
              [
                105.795564,
                20.685333
              ],
              [
                105.795217,
                20.685076
              ],
              [
                105.794169,
                20.684305
              ],
              [
                105.794176,
                20.684296
              ],
              [
                105.794466,
                20.68393
              ],
              [
                105.795392,
                20.682642
              ],
              [
                105.795881,
                20.681947
              ],
              [
                105.796432,
                20.68131
              ],
              [
                105.796464,
                20.681265
              ],
              [
                105.796839,
                20.681574
              ],
              [
                105.797097,
                20.681786
              ],
              [
                105.797165,
                20.681842
              ],
              [
                105.797953,
                20.680893
              ],
              [
                105.798347,
                20.680422
              ],
              [
                105.798891,
                20.679801
              ],
              [
                105.799015,
                20.679648
              ],
              [
                105.79934,
                20.679247
              ],
              [
                105.799364,
                20.679217
              ],
              [
                105.800115,
                20.678345
              ],
              [
                105.800047,
                20.678291
              ],
              [
                105.798431,
                20.677033
              ],
              [
                105.798228,
                20.676812
              ],
              [
                105.797647,
                20.676363
              ],
              [
                105.797004,
                20.675823
              ],
              [
                105.796906,
                20.675751
              ],
              [
                105.797254,
                20.675435
              ],
              [
                105.797321,
                20.675356
              ],
              [
                105.797386,
                20.675399
              ],
              [
                105.797509,
                20.675481
              ],
              [
                105.797837,
                20.675722
              ],
              [
                105.798191,
                20.675982
              ],
              [
                105.798641,
                20.676312
              ],
              [
                105.798895,
                20.676494
              ],
              [
                105.798931,
                20.67652
              ],
              [
                105.799207,
                20.676718
              ],
              [
                105.799484,
                20.676916
              ],
              [
                105.800106,
                20.67622
              ],
              [
                105.800466,
                20.675841
              ],
              [
                105.800972,
                20.675328
              ],
              [
                105.80257,
                20.673637
              ],
              [
                105.802721,
                20.67348
              ],
              [
                105.803257,
                20.672924
              ],
              [
                105.8046,
                20.671464
              ],
              [
                105.804666,
                20.671392
              ],
              [
                105.80473,
                20.671317
              ],
              [
                105.805376,
                20.67064
              ],
              [
                105.805445,
                20.670688
              ],
              [
                105.806019,
                20.671091
              ],
              [
                105.806713,
                20.671567
              ],
              [
                105.80727,
                20.671977
              ],
              [
                105.807432,
                20.672093
              ],
              [
                105.808364,
                20.672756
              ],
              [
                105.809585,
                20.673626
              ],
              [
                105.809714,
                20.673719
              ],
              [
                105.810307,
                20.67415
              ],
              [
                105.81106,
                20.674697
              ],
              [
                105.812722,
                20.675863
              ],
              [
                105.813299,
                20.676269
              ],
              [
                105.813965,
                20.676735
              ],
              [
                105.814446,
                20.677077
              ],
              [
                105.814962,
                20.677456
              ],
              [
                105.814936,
                20.677514
              ],
              [
                105.814747,
                20.678051
              ],
              [
                105.815233,
                20.67822
              ],
              [
                105.815918,
                20.678469
              ],
              [
                105.816563,
                20.678715
              ],
              [
                105.816785,
                20.678799
              ],
              [
                105.816783,
                20.678823
              ],
              [
                105.8168,
                20.678849
              ],
              [
                105.816827,
                20.678877
              ],
              [
                105.816848,
                20.678892
              ],
              [
                105.816875,
                20.678893
              ],
              [
                105.816889,
                20.678893
              ],
              [
                105.816904,
                20.678893
              ],
              [
                105.816928,
                20.678907
              ],
              [
                105.817025,
                20.678965
              ],
              [
                105.817086,
                20.679009
              ],
              [
                105.817745,
                20.679238
              ],
              [
                105.818195,
                20.679299
              ],
              [
                105.818432,
                20.679339
              ],
              [
                105.819642,
                20.679589
              ],
              [
                105.819766,
                20.67914
              ],
              [
                105.81982,
                20.678946
              ],
              [
                105.822278,
                20.679299
              ],
              [
                105.822514,
                20.679321
              ],
              [
                105.822628,
                20.679065
              ],
              [
                105.822644,
                20.679024
              ],
              [
                105.822659,
                20.678945
              ],
              [
                105.823541,
                20.675313
              ],
              [
                105.823979,
                20.673638
              ],
              [
                105.824324,
                20.672217
              ],
              [
                105.824333,
                20.672126
              ],
              [
                105.824411,
                20.672141
              ],
              [
                105.824416,
                20.672079
              ],
              [
                105.82445,
                20.672012
              ],
              [
                105.82454,
                20.671739
              ],
              [
                105.824636,
                20.671372
              ],
              [
                105.824733,
                20.671001
              ],
              [
                105.824821,
                20.670624
              ],
              [
                105.824915,
                20.670246
              ],
              [
                105.825009,
                20.669937
              ],
              [
                105.825061,
                20.669746
              ],
              [
                105.825101,
                20.6696
              ],
              [
                105.825192,
                20.669247
              ],
              [
                105.825091,
                20.669237
              ],
              [
                105.825129,
                20.669158
              ],
              [
                105.825278,
                20.668551
              ],
              [
                105.825475,
                20.667726
              ],
              [
                105.825606,
                20.667198
              ],
              [
                105.825644,
                20.667151
              ],
              [
                105.825571,
                20.667022
              ],
              [
                105.825565,
                20.666917
              ],
              [
                105.825557,
                20.666798
              ],
              [
                105.825556,
                20.666754
              ],
              [
                105.825553,
                20.666637
              ],
              [
                105.825525,
                20.666395
              ],
              [
                105.825513,
                20.666375
              ],
              [
                105.825473,
                20.666397
              ],
              [
                105.825465,
                20.666405
              ],
              [
                105.825224,
                20.66601
              ],
              [
                105.825742,
                20.665698
              ],
              [
                105.826359,
                20.665376
              ],
              [
                105.826295,
                20.665246
              ],
              [
                105.826978,
                20.664883
              ],
              [
                105.826867,
                20.664717
              ],
              [
                105.828942,
                20.663643
              ],
              [
                105.828843,
                20.66343
              ],
              [
                105.828776,
                20.663444
              ],
              [
                105.828745,
                20.663451
              ],
              [
                105.828721,
                20.663456
              ],
              [
                105.828656,
                20.663469
              ],
              [
                105.82785,
                20.663708
              ],
              [
                105.826183,
                20.664206
              ],
              [
                105.826129,
                20.664222
              ],
              [
                105.826123,
                20.664224
              ],
              [
                105.8261,
                20.663863
              ],
              [
                105.825648,
                20.663976
              ],
              [
                105.825112,
                20.664093
              ],
              [
                105.824308,
                20.664274
              ],
              [
                105.823928,
                20.664357
              ],
              [
                105.823561,
                20.664437
              ],
              [
                105.82337,
                20.664453
              ],
              [
                105.823045,
                20.664468
              ],
              [
                105.823039,
                20.664468
              ],
              [
                105.823039,
                20.664467
              ],
              [
                105.823038,
                20.664452
              ],
              [
                105.823,
                20.662059
              ],
              [
                105.822382,
                20.662155
              ],
              [
                105.822002,
                20.662052
              ],
              [
                105.821895,
                20.662173
              ],
              [
                105.821697,
                20.66215
              ],
              [
                105.821694,
                20.662149
              ],
              [
                105.82169,
                20.662148
              ],
              [
                105.819862,
                20.661306
              ],
              [
                105.819787,
                20.661184
              ],
              [
                105.81979,
                20.661178
              ],
              [
                105.819834,
                20.661101
              ],
              [
                105.819791,
                20.661059
              ],
              [
                105.819839,
                20.661008
              ],
              [
                105.819717,
                20.660914
              ],
              [
                105.819712,
                20.66091
              ],
              [
                105.819663,
                20.66095
              ],
              [
                105.819531,
                20.660807
              ],
              [
                105.819852,
                20.660526
              ],
              [
                105.820088,
                20.660277
              ],
              [
                105.820762,
                20.659585
              ],
              [
                105.820902,
                20.659432
              ],
              [
                105.821677,
                20.658646
              ],
              [
                105.822427,
                20.657855
              ],
              [
                105.822506,
                20.657779
              ],
              [
                105.822441,
                20.657721
              ],
              [
                105.822675,
                20.657418
              ],
              [
                105.822715,
                20.65735
              ],
              [
                105.825257,
                20.653952
              ],
              [
                105.825258,
                20.65395
              ],
              [
                105.825285,
                20.6539
              ],
              [
                105.825442,
                20.653743
              ],
              [
                105.825723,
                20.65346
              ],
              [
                105.825935,
                20.65326
              ],
              [
                105.826204,
                20.65303
              ],
              [
                105.826403,
                20.652855
              ],
              [
                105.826423,
                20.652841
              ],
              [
                105.826547,
                20.652752
              ],
              [
                105.826691,
                20.652652
              ],
              [
                105.827069,
                20.652396
              ],
              [
                105.827156,
                20.652342
              ],
              [
                105.827315,
                20.652243
              ],
              [
                105.827447,
                20.652161
              ],
              [
                105.827683,
                20.652014
              ],
              [
                105.827825,
                20.651941
              ],
              [
                105.829135,
                20.651383
              ],
              [
                105.82919,
                20.65136
              ],
              [
                105.829293,
                20.651316
              ],
              [
                105.830839,
                20.650787
              ],
              [
                105.831015,
                20.650717
              ],
              [
                105.832156,
                20.65026
              ],
              [
                105.832815,
                20.649961
              ],
              [
                105.833124,
                20.649783
              ],
              [
                105.833475,
                20.649498
              ],
              [
                105.833566,
                20.649397
              ],
              [
                105.833686,
                20.649227
              ],
              [
                105.833759,
                20.649067
              ],
              [
                105.833861,
                20.648809
              ],
              [
                105.833898,
                20.648703
              ],
              [
                105.833959,
                20.648529
              ],
              [
                105.834024,
                20.648154
              ],
              [
                105.834009,
                20.648051
              ],
              [
                105.833957,
                20.647908
              ],
              [
                105.833843,
                20.647516
              ],
              [
                105.833676,
                20.64713
              ],
              [
                105.833453,
                20.646727
              ],
              [
                105.833308,
                20.64646
              ],
              [
                105.833152,
                20.646224
              ],
              [
                105.832929,
                20.645886
              ],
              [
                105.832926,
                20.645882
              ],
              [
                105.832708,
                20.645597
              ],
              [
                105.832558,
                20.64542
              ],
              [
                105.832399,
                20.64525
              ],
              [
                105.832261,
                20.645111
              ],
              [
                105.8321,
                20.64497
              ],
              [
                105.83188,
                20.644761
              ],
              [
                105.831752,
                20.644645
              ],
              [
                105.831633,
                20.644537
              ],
              [
                105.831471,
                20.644411
              ],
              [
                105.831288,
                20.644284
              ],
              [
                105.831052,
                20.644147
              ],
              [
                105.830967,
                20.644088
              ],
              [
                105.830904,
                20.644052
              ],
              [
                105.83081,
                20.643998
              ],
              [
                105.83037,
                20.643744
              ],
              [
                105.830043,
                20.643556
              ],
              [
                105.829425,
                20.643179
              ],
              [
                105.829082,
                20.642979
              ],
              [
                105.828479,
                20.642636
              ],
              [
                105.827984,
                20.642346
              ],
              [
                105.827696,
                20.642175
              ],
              [
                105.827472,
                20.642047
              ],
              [
                105.827088,
                20.641831
              ],
              [
                105.826827,
                20.641685
              ],
              [
                105.826723,
                20.641628
              ],
              [
                105.826602,
                20.641535
              ],
              [
                105.82656,
                20.641489
              ],
              [
                105.826503,
                20.641419
              ],
              [
                105.826455,
                20.641399
              ],
              [
                105.826404,
                20.641371
              ],
              [
                105.826207,
                20.64126
              ],
              [
                105.824742,
                20.640691
              ],
              [
                105.824042,
                20.64027
              ],
              [
                105.82403,
                20.640265
              ],
              [
                105.821339,
                20.638793
              ],
              [
                105.820971,
                20.638605
              ],
              [
                105.818837,
                20.637486
              ],
              [
                105.818463,
                20.637145
              ],
              [
                105.818219,
                20.636922
              ],
              [
                105.817764,
                20.636572
              ],
              [
                105.816347,
                20.635482
              ],
              [
                105.814889,
                20.634329
              ],
              [
                105.814767,
                20.634232
              ],
              [
                105.81469,
                20.634172
              ],
              [
                105.814496,
                20.634018
              ],
              [
                105.814025,
                20.633662
              ],
              [
                105.813694,
                20.633411
              ],
              [
                105.81363,
                20.633416
              ],
              [
                105.813494,
                20.633424
              ],
              [
                105.813341,
                20.633434
              ],
              [
                105.813261,
                20.63308
              ],
              [
                105.813242,
                20.632994
              ],
              [
                105.813179,
                20.632846
              ],
              [
                105.813129,
                20.632727
              ],
              [
                105.813032,
                20.632523
              ],
              [
                105.81299,
                20.632436
              ],
              [
                105.812591,
                20.631765
              ],
              [
                105.81238,
                20.631411
              ],
              [
                105.812195,
                20.631085
              ],
              [
                105.811995,
                20.630732
              ],
              [
                105.81185,
                20.630485
              ],
              [
                105.811831,
                20.630453
              ],
              [
                105.811794,
                20.63038
              ],
              [
                105.811639,
                20.630077
              ],
              [
                105.811536,
                20.629847
              ],
              [
                105.811396,
                20.629538
              ],
              [
                105.811365,
                20.62947
              ],
              [
                105.811333,
                20.629357
              ],
              [
                105.811227,
                20.628983
              ],
              [
                105.81121,
                20.62892
              ],
              [
                105.811093,
                20.628359
              ],
              [
                105.811104,
                20.628037
              ],
              [
                105.811104,
                20.628036
              ],
              [
                105.811112,
                20.628038
              ],
              [
                105.811243,
                20.628059
              ],
              [
                105.811661,
                20.628126
              ],
              [
                105.811866,
                20.62722
              ],
              [
                105.811947,
                20.62686
              ],
              [
                105.811986,
                20.62669
              ],
              [
                105.812037,
                20.626464
              ],
              [
                105.812083,
                20.626259
              ],
              [
                105.812114,
                20.626123
              ],
              [
                105.812182,
                20.625868
              ],
              [
                105.812326,
                20.625842
              ],
              [
                105.813063,
                20.625914
              ],
              [
                105.813116,
                20.625919
              ],
              [
                105.813134,
                20.62592
              ],
              [
                105.8132,
                20.625919
              ],
              [
                105.813189,
                20.625825
              ],
              [
                105.813149,
                20.625489
              ],
              [
                105.813119,
                20.625231
              ],
              [
                105.813117,
                20.625215
              ],
              [
                105.813417,
                20.625169
              ],
              [
                105.813913,
                20.625092
              ],
              [
                105.814561,
                20.624939
              ],
              [
                105.814625,
                20.624735
              ],
              [
                105.814634,
                20.624705
              ],
              [
                105.814542,
                20.624555
              ],
              [
                105.814336,
                20.624413
              ],
              [
                105.81414,
                20.624204
              ],
              [
                105.81413,
                20.624194
              ],
              [
                105.813948,
                20.624141
              ],
              [
                105.813577,
                20.624026
              ],
              [
                105.813574,
                20.624024
              ],
              [
                105.813567,
                20.624022
              ],
              [
                105.813535,
                20.624013
              ],
              [
                105.813528,
                20.624011
              ],
              [
                105.813399,
                20.62389
              ],
              [
                105.813364,
                20.623746
              ],
              [
                105.813375,
                20.623132
              ],
              [
                105.813456,
                20.622832
              ],
              [
                105.813467,
                20.622754
              ],
              [
                105.813399,
                20.622736
              ],
              [
                105.813313,
                20.622662
              ],
              [
                105.813343,
                20.622522
              ],
              [
                105.813361,
                20.622436
              ],
              [
                105.813361,
                20.622436
              ],
              [
                105.81332,
                20.622414
              ],
              [
                105.813315,
                20.622258
              ],
              [
                105.813312,
                20.622177
              ],
              [
                105.813323,
                20.622131
              ],
              [
                105.813495,
                20.621958
              ],
              [
                105.813629,
                20.621752
              ],
              [
                105.813671,
                20.621633
              ],
              [
                105.813625,
                20.621278
              ],
              [
                105.813546,
                20.621016
              ],
              [
                105.813838,
                20.620799
              ],
              [
                105.813872,
                20.620691
              ],
              [
                105.814076,
                20.620647
              ],
              [
                105.814118,
                20.620513
              ],
              [
                105.81464,
                20.620113
              ],
              [
                105.814855,
                20.619803
              ],
              [
                105.814943,
                20.619582
              ],
              [
                105.814941,
                20.619336
              ],
              [
                105.814892,
                20.618773
              ],
              [
                105.814805,
                20.618675
              ],
              [
                105.81464,
                20.618571
              ],
              [
                105.814635,
                20.61857
              ],
              [
                105.814525,
                20.618548
              ],
              [
                105.814451,
                20.618597
              ],
              [
                105.814061,
                20.618872
              ],
              [
                105.813905,
                20.618965
              ],
              [
                105.813758,
                20.618928
              ],
              [
                105.813758,
                20.618927
              ],
              [
                105.813549,
                20.618751
              ],
              [
                105.813545,
                20.61875
              ],
              [
                105.813352,
                20.618716
              ],
              [
                105.813218,
                20.618693
              ],
              [
                105.812821,
                20.618622
              ],
              [
                105.811965,
                20.618901
              ],
              [
                105.811292,
                20.618896
              ],
              [
                105.81054,
                20.618818
              ],
              [
                105.809407,
                20.618425
              ],
              [
                105.807989,
                20.617952
              ],
              [
                105.807184,
                20.61754
              ],
              [
                105.806282,
                20.61691
              ],
              [
                105.805086,
                20.615932
              ],
              [
                105.804513,
                20.615292
              ],
              [
                105.804155,
                20.614667
              ],
              [
                105.803988,
                20.613977
              ],
              [
                105.803951,
                20.613481
              ],
              [
                105.803811,
                20.613148
              ],
              [
                105.803438,
                20.612841
              ],
              [
                105.80284,
                20.612388
              ],
              [
                105.801819,
                20.612002
              ],
              [
                105.801093,
                20.611916
              ],
              [
                105.8001,
                20.611848
              ],
              [
                105.7989,
                20.611821
              ],
              [
                105.798166,
                20.611816
              ],
              [
                105.79739,
                20.611933
              ],
              [
                105.796778,
                20.612091
              ],
              [
                105.796123,
                20.612419
              ],
              [
                105.795426,
                20.612862
              ],
              [
                105.79473,
                20.613442
              ],
              [
                105.793879,
                20.614227
              ],
              [
                105.7932,
                20.614807
              ],
              [
                105.792004,
                20.615488
              ],
              [
                105.790436,
                20.616186
              ],
              [
                105.788859,
                20.616763
              ],
              [
                105.788014,
                20.616995
              ],
              [
                105.786729,
                20.617366
              ],
              [
                105.785721,
                20.617639
              ],
              [
                105.784661,
                20.6181
              ],
              [
                105.783732,
                20.61873
              ],
              [
                105.78289,
                20.619515
              ],
              [
                105.78234,
                20.620038
              ],
              [
                105.781886,
                20.620764
              ],
              [
                105.781104,
                20.621515
              ],
              [
                105.780468,
                20.62212
              ],
              [
                105.779788,
                20.622587
              ],
              [
                105.7791,
                20.622932
              ],
              [
                105.77828,
                20.623163
              ],
              [
                105.777634,
                20.623377
              ],
              [
                105.777273,
                20.623672
              ],
              [
                105.77707,
                20.624007
              ],
              [
                105.777071,
                20.624013
              ],
              [
                105.777074,
                20.624048
              ],
              [
                105.777073,
                20.624066
              ],
              [
                105.777035,
                20.624565
              ],
              [
                105.777089,
                20.624892
              ],
              [
                105.777089,
                20.624894
              ],
              [
                105.777334,
                20.625289
              ],
              [
                105.777901,
                20.625798
              ],
              [
                105.778804,
                20.626303
              ],
              [
                105.779642,
                20.626674
              ],
              [
                105.781043,
                20.626992
              ],
              [
                105.7826,
                20.627211
              ],
              [
                105.784158,
                20.627342
              ],
              [
                105.786884,
                20.627418
              ],
              [
                105.789934,
                20.627385
              ],
              [
                105.791898,
                20.627415
              ],
              [
                105.792786,
                20.627411
              ],
              [
                105.79356,
                20.627535
              ],
              [
                105.794428,
                20.627787
              ],
              [
                105.795988,
                20.62841
              ],
              [
                105.797485,
                20.629121
              ],
              [
                105.798837,
                20.630166
              ],
              [
                105.798926,
                20.630234
              ],
              [
                105.799016,
                20.630305
              ],
              [
                105.799061,
                20.630341
              ],
              [
                105.799269,
                20.630513
              ],
              [
                105.799395,
                20.630617
              ],
              [
                105.799419,
                20.630636
              ],
              [
                105.799428,
                20.630644
              ],
              [
                105.799472,
                20.63068
              ],
              [
                105.799511,
                20.630712
              ],
              [
                105.799528,
                20.630726
              ],
              [
                105.79958,
                20.63077
              ],
              [
                105.799607,
                20.630792
              ],
              [
                105.799651,
                20.630828
              ],
              [
                105.799678,
                20.63085
              ],
              [
                105.799721,
                20.630886
              ],
              [
                105.799754,
                20.630912
              ],
              [
                105.799789,
                20.630942
              ],
              [
                105.799822,
                20.630969
              ],
              [
                105.799827,
                20.630973
              ],
              [
                105.799845,
                20.630988
              ],
              [
                105.799893,
                20.631027
              ],
              [
                105.799933,
                20.63106
              ],
              [
                105.79995,
                20.631074
              ],
              [
                105.799999,
                20.631115
              ],
              [
                105.800027,
                20.631138
              ],
              [
                105.800066,
                20.63117
              ],
              [
                105.800096,
                20.631195
              ],
              [
                105.800141,
                20.631232
              ],
              [
                105.800157,
                20.631245
              ],
              [
                105.800169,
                20.631255
              ],
              [
                105.80017,
                20.631256
              ],
              [
                105.800181,
                20.631265
              ],
              [
                105.80019,
                20.631273
              ],
              [
                105.800202,
                20.631282
              ],
              [
                105.800212,
                20.631291
              ],
              [
                105.800223,
                20.6313
              ],
              [
                105.800232,
                20.631307
              ],
              [
                105.800242,
                20.631316
              ],
              [
                105.800245,
                20.631317
              ],
              [
                105.800252,
                20.631323
              ],
              [
                105.800265,
                20.631334
              ],
              [
                105.80027,
                20.631338
              ],
              [
                105.800283,
                20.631349
              ],
              [
                105.800299,
                20.631362
              ],
              [
                105.800301,
                20.631364
              ],
              [
                105.800308,
                20.631369
              ],
              [
                105.800319,
                20.631379
              ],
              [
                105.800328,
                20.631386
              ],
              [
                105.800336,
                20.631392
              ],
              [
                105.800351,
                20.631405
              ],
              [
                105.800351,
                20.631405
              ],
              [
                105.800352,
                20.631406
              ],
              [
                105.800352,
                20.631406
              ],
              [
                105.800353,
                20.631407
              ],
              [
                105.800354,
                20.631407
              ],
              [
                105.800354,
                20.631407
              ],
              [
                105.800354,
                20.631408
              ],
              [
                105.800355,
                20.631409
              ],
              [
                105.800464,
                20.631498
              ],
              [
                105.801671,
                20.632496
              ],
              [
                105.801872,
                20.63269
              ],
              [
                105.802353,
                20.633153
              ],
              [
                105.802409,
                20.633235
              ],
              [
                105.802953,
                20.634035
              ],
              [
                105.803302,
                20.63487
              ],
              [
                105.803601,
                20.63601
              ],
              [
                105.803659,
                20.637171
              ],
              [
                105.80355,
                20.638195
              ],
              [
                105.803057,
                20.6399
              ],
              [
                105.802551,
                20.641014
              ],
              [
                105.802064,
                20.641764
              ],
              [
                105.801742,
                20.64209
              ],
              [
                105.801201,
                20.642486
              ],
              [
                105.800274,
                20.642983
              ],
              [
                105.798658,
                20.6436
              ],
              [
                105.796749,
                20.644209
              ],
              [
                105.794778,
                20.64512
              ],
              [
                105.79406,
                20.645452
              ],
              [
                105.794015,
                20.645481
              ],
              [
                105.792561,
                20.646423
              ],
              [
                105.790803,
                20.647995
              ],
              [
                105.789277,
                20.649734
              ],
              [
                105.788717,
                20.650691
              ],
              [
                105.787493,
                20.65234
              ],
              [
                105.785638,
                20.655192
              ],
              [
                105.784446,
                20.657107
              ],
              [
                105.783844,
                20.657946
              ],
              [
                105.783262,
                20.658539
              ],
              [
                105.781629,
                20.659993
              ],
              [
                105.78007,
                20.66132
              ],
              [
                105.779445,
                20.661853
              ],
              [
                105.777873,
                20.66309
              ],
              [
                105.777072,
                20.663807
              ],
              [
                105.776469,
                20.664346
              ],
              [
                105.775684,
                20.665214
              ],
              [
                105.774225,
                20.666826
              ],
              [
                105.77279,
                20.66822
              ],
              [
                105.771282,
                20.669604
              ],
              [
                105.769054,
                20.671198
              ],
              [
                105.767409,
                20.672248
              ],
              [
                105.764992,
                20.673745
              ],
              [
                105.763134,
                20.674909
              ],
              [
                105.761958,
                20.675646
              ],
              [
                105.761575,
                20.675886
              ],
              [
                105.758805,
                20.677639
              ],
              [
                105.757132,
                20.678742
              ],
              [
                105.756049,
                20.679554
              ],
              [
                105.755955,
                20.679624
              ],
              [
                105.755954,
                20.679624
              ],
              [
                105.754969,
                20.680354
              ],
              [
                105.754478,
                20.680717
              ],
              [
                105.754404,
                20.680772
              ],
              [
                105.753488,
                20.681523
              ],
              [
                105.75276,
                20.682107
              ],
              [
                105.751724,
                20.682647
              ],
              [
                105.751072,
                20.683175
              ],
              [
                105.749687,
                20.684293
              ],
              [
                105.748378,
                20.685332
              ],
              [
                105.747671,
                20.685878
              ],
              [
                105.746699,
                20.686514
              ],
              [
                105.746501,
                20.68666
              ],
              [
                105.746198,
                20.68691
              ],
              [
                105.745891,
                20.687164
              ],
              [
                105.745574,
                20.687388
              ],
              [
                105.74504,
                20.68791
              ],
              [
                105.744281,
                20.688592
              ],
              [
                105.744018,
                20.688865
              ],
              [
                105.743771,
                20.689175
              ],
              [
                105.74346,
                20.689591
              ],
              [
                105.743118,
                20.690203
              ],
              [
                105.742832,
                20.690845
              ],
              [
                105.742692,
                20.691584
              ],
              [
                105.742614,
                20.692221
              ],
              [
                105.742611,
                20.692242
              ],
              [
                105.742584,
                20.692467
              ],
              [
                105.74258,
                20.693326
              ],
              [
                105.742647,
                20.693861
              ],
              [
                105.742777,
                20.694298
              ],
              [
                105.742947,
                20.694523
              ],
              [
                105.743607,
                20.695154
              ],
              [
                105.744131,
                20.695558
              ],
              [
                105.744646,
                20.695918
              ],
              [
                105.745434,
                20.696397
              ],
              [
                105.745973,
                20.696643
              ],
              [
                105.746551,
                20.696814
              ],
              [
                105.747217,
                20.696962
              ],
              [
                105.748196,
                20.697124
              ],
              [
                105.748879,
                20.697219
              ],
              [
                105.750459,
                20.69734
              ],
              [
                105.751879,
                20.69745
              ],
              [
                105.751879,
                20.69745
              ],
              [
                105.752375,
                20.697527
              ],
              [
                105.753002,
                20.697556
              ],
              [
                105.753316,
                20.697565
              ],
              [
                105.753994,
                20.69761
              ],
              [
                105.754829,
                20.697753
              ],
              [
                105.755314,
                20.697878
              ],
              [
                105.756448,
                20.698315
              ],
              [
                105.757239,
                20.698712
              ],
              [
                105.758264,
                20.699286
              ],
              [
                105.758877,
                20.699747
              ],
              [
                105.759679,
                20.700517
              ],
              [
                105.760437,
                20.701335
              ],
              [
                105.760936,
                20.702007
              ],
              [
                105.761179,
                20.702459
              ],
              [
                105.761702,
                20.703489
              ],
              [
                105.762123,
                20.704271
              ],
              [
                105.762431,
                20.705006
              ],
              [
                105.762557,
                20.705307
              ],
              [
                105.762628,
                20.705501
              ],
              [
                105.762895,
                20.706232
              ],
              [
                105.762962,
                20.706537
              ],
              [
                105.763064,
                20.707
              ],
              [
                105.763155,
                20.707378
              ],
              [
                105.763219,
                20.708257
              ],
              [
                105.763159,
                20.709305
              ],
              [
                105.763135,
                20.709822
              ],
              [
                105.763111,
                20.710338
              ],
              [
                105.762957,
                20.711349
              ],
              [
                105.76275,
                20.712656
              ],
              [
                105.762599,
                20.71372
              ],
              [
                105.762369,
                20.714816
              ],
              [
                105.762192,
                20.715323
              ],
              [
                105.762124,
                20.715676
              ],
              [
                105.76207,
                20.715992
              ],
              [
                105.762038,
                20.71636
              ],
              [
                105.762057,
                20.716782
              ],
              [
                105.762152,
                20.717308
              ],
              [
                105.762277,
                20.717723
              ],
              [
                105.762643,
                20.718569
              ],
              [
                105.763165,
                20.719462
              ],
              [
                105.763647,
                20.720023
              ],
              [
                105.764064,
                20.720406
              ],
              [
                105.764466,
                20.720725
              ],
              [
                105.765286,
                20.721174
              ],
              [
                105.766283,
                20.721712
              ],
              [
                105.766962,
                20.721999
              ],
              [
                105.767543,
                20.722175
              ],
              [
                105.768137,
                20.722283
              ],
              [
                105.768669,
                20.722317
              ],
              [
                105.76946,
                20.722382
              ],
              [
                105.769673,
                20.72222
              ],
              [
                105.769734,
                20.722173
              ],
              [
                105.769739,
                20.72217
              ],
              [
                105.769977,
                20.721989
              ],
              [
                105.770276,
                20.721826
              ],
              [
                105.770706,
                20.721594
              ],
              [
                105.770772,
                20.721558
              ],
              [
                105.770805,
                20.72154
              ],
              [
                105.770714,
                20.721384
              ],
              [
                105.770745,
                20.721363
              ],
              [
                105.770856,
                20.721284
              ],
              [
                105.770954,
                20.721229
              ],
              [
                105.771039,
                20.721181
              ],
              [
                105.771522,
                20.720903
              ],
              [
                105.771533,
                20.720541
              ],
              [
                105.771707,
                20.720475
              ],
              [
                105.771987,
                20.720455
              ],
              [
                105.772375,
                20.720403
              ],
              [
                105.772606,
                20.720286
              ],
              [
                105.772841,
                20.720709
              ],
              [
                105.773182,
                20.721245
              ],
              [
                105.773106,
                20.721671
              ],
              [
                105.773027,
                20.7223
              ],
              [
                105.773238,
                20.722349
              ],
              [
                105.77327,
                20.722555
              ],
              [
                105.7739,
                20.722481
              ],
              [
                105.773964,
                20.722203
              ],
              [
                105.774052,
                20.721486
              ],
              [
                105.774158,
                20.721256
              ],
              [
                105.774213,
                20.721223
              ],
              [
                105.774279,
                20.721184
              ],
              [
                105.774307,
                20.720691
              ],
              [
                105.774363,
                20.720586
              ],
              [
                105.774363,
                20.720586
              ]
            ]
          ]
        ]
      },
      "properties": {
        "code": "10417",
        "name": "Hoà Xá",
        "nameEn": "Hoa Xa",
        "fullName": "Xã Hoà Xá",
        "fullNameEn": "Hoa Xa Commune",
        "codeName": "hoa_xa",
        "postalCode": "13836",
        "postalCodePrefix": "",
        "gisServerId": "diaphanhanhchinhcapxa_2025.3208",
        "areaKm2": 40.42
      }
    }
  ]
}